{
"type": "FeatureCollection",
"name": "52113",
"crs": { "type": "name", "properties": { "name": "urn:ogc:def:crs:OGC:1.3:CRS84" } },
"features": [
{ "type": "Feature", "properties": { "emd_cd": "52113102", "emd_nm": "진북동" }, "geometry": { "type": "MultiPolygon", "coordinates": [ [ [ [ 127.12274669195746, 35.834717848779214 ], [ 127.132890072177119, 35.8336094149414 ], [ 127.135557863334029, 35.831951336477189 ], [ 127.140656281549937, 35.833845596019827 ], [ 127.147133708301169, 35.832433021253614 ], [ 127.146058055822749, 35.82889893224241 ], [ 127.142561721689191, 35.82918460270777 ], [ 127.143066089631489, 35.828280521734456 ], [ 127.131777828759027, 35.823976629567774 ], [ 127.135571230851298, 35.820549603442913 ], [ 127.135201806446801, 35.818562280831323 ], [ 127.132999654623504, 35.817526411415244 ], [ 127.127166163131463, 35.820924091049186 ], [ 127.126563326506584, 35.825501385632109 ], [ 127.128765641195272, 35.828438321307956 ], [ 127.126826323283865, 35.832264338658391 ], [ 127.12274669195746, 35.834717848779214 ] ] ] ] } },
{ "type": "Feature", "properties": { "emd_cd": "52113103", "emd_nm": "인후동1가" }, "geometry": { "type": "MultiPolygon", "coordinates": [ [ [ [ 127.146498199906205, 35.830570748137276 ], [ 127.15055811638868, 35.836440969767203 ], [ 127.152808618595884, 35.843662800416411 ], [ 127.154248711468796, 35.842334508801201 ], [ 127.161295520020957, 35.843539814401844 ], [ 127.164327550610494, 35.839187074572543 ], [ 127.1635907044775, 35.837609980324238 ], [ 127.165433152355902, 35.835297492658789 ], [ 127.167231795555324, 35.835510965205373 ], [ 127.170782490249877, 35.826392374742582 ], [ 127.168251126959234, 35.822482952506135 ], [ 127.170083231421899, 35.818260114095352 ], [ 127.16291634438177, 35.823892216856351 ], [ 127.161709012708826, 35.823342535807207 ], [ 127.156729647610902, 35.829413502412116 ], [ 127.155635568573501, 35.828332209003079 ], [ 127.146498199906205, 35.830570748137276 ] ] ] ] } },
{ "type": "Feature", "properties": { "emd_cd": "52113104", "emd_nm": "인후동2가" }, "geometry": { "type": "MultiPolygon", "coordinates": [ [ [ [ 127.152808618595884, 35.843662800416411 ], [ 127.15055811638868, 35.836440969767203 ], [ 127.147157012195649, 35.832454920471662 ], [ 127.145415320866277, 35.832166924036457 ], [ 127.142483141346702, 35.83286029959995 ], [ 127.142114784727056, 35.834631448040298 ], [ 127.145033477446688, 35.835659867154561 ], [ 127.143511253815362, 35.839419335430499 ], [ 127.145175740637811, 35.841205528617834 ], [ 127.142427839385107, 35.851179844776254 ], [ 127.151886007156236, 35.849164097957193 ], [ 127.152808618595884, 35.843662800416411 ] ] ] ] } },
{ "type": "Feature", "properties": { "emd_cd": "52113105", "emd_nm": "덕진동1가" }, "geometry": { "type": "MultiPolygon", "coordinates": [ [ [ [ 127.127305570443639, 35.834418515583089 ], [ 127.12274669195746, 35.834717848779214 ], [ 127.118224416674991, 35.838403454196808 ], [ 127.114916515338024, 35.838582114089732 ], [ 127.118508803712132, 35.841016445968101 ], [ 127.121287068941044, 35.845596189703237 ], [ 127.120447224031395, 35.849409853039376 ], [ 127.122469627766407, 35.852060292354757 ], [ 127.128665578189214, 35.853234169364349 ], [ 127.133208788467229, 35.857070441843703 ], [ 127.140971938858442, 35.858115310813709 ], [ 127.143968936868973, 35.861354466198563 ], [ 127.150766561510821, 35.850634755908153 ], [ 127.142427839385107, 35.851179844776254 ], [ 127.138335146952102, 35.84844794070051 ], [ 127.135578885789286, 35.850728353121376 ], [ 127.133860787860471, 35.847827323951549 ], [ 127.129705466510359, 35.848581462863109 ], [ 127.128481390967266, 35.846001934143644 ], [ 127.130315532121386, 35.844154581201991 ], [ 127.127161480412937, 35.843624930968829 ], [ 127.129717767616043, 35.841294894024287 ], [ 127.127688376479938, 35.840815260860317 ], [ 127.129016144093455, 35.839649739895634 ], [ 127.126318030524757, 35.83769884037163 ], [ 127.128085414887494, 35.836040589875694 ], [ 127.127305570443639, 35.834418515583089 ] ] ] ] } },
{ "type": "Feature", "properties": { "emd_cd": "52113106", "emd_nm": "덕진동2가" }, "geometry": { "type": "MultiPolygon", "coordinates": [ [ [ [ 127.104410980546191, 35.843293228958721 ], [ 127.105963389478916, 35.846915881014098 ], [ 127.114971602314554, 35.853730819623152 ], [ 127.1217057939608, 35.850542624836045 ], [ 127.120338756560443, 35.848909496320239 ], [ 127.121287068941044, 35.845596189703237 ], [ 127.114355142513247, 35.837841840930672 ], [ 127.108334159771303, 35.839846438929449 ], [ 127.104410980546191, 35.843293228958721 ] ] ] ] } },
{ "type": "Feature", "properties": { "emd_cd": "52113107", "emd_nm": "금암동" }, "geometry": { "type": "MultiPolygon", "coordinates": [ [ [ [ 127.127305570443639, 35.834418515583089 ], [ 127.128085414887494, 35.836040589875694 ], [ 127.126318030524757, 35.83769884037163 ], [ 127.129016144093455, 35.839649739895634 ], [ 127.127688376479938, 35.840815260860317 ], [ 127.129717767616043, 35.841294894024287 ], [ 127.127161480412937, 35.843624930968829 ], [ 127.130315532121386, 35.844154581201991 ], [ 127.128481390967266, 35.846001934143644 ], [ 127.129705466510359, 35.848581462863109 ], [ 127.133860787860471, 35.847827323951549 ], [ 127.135578885789286, 35.850728353121376 ], [ 127.138335146952102, 35.84844794070051 ], [ 127.142427839385107, 35.851179844776254 ], [ 127.145175740637811, 35.841205528617834 ], [ 127.143511253815362, 35.839419335430499 ], [ 127.145123504363113, 35.836409078188048 ], [ 127.142170455527747, 35.833910417403693 ], [ 127.14455477778246, 35.832417255986392 ], [ 127.140656281549937, 35.833845596019827 ], [ 127.135557863334029, 35.831951336477189 ], [ 127.127305570443639, 35.834418515583089 ] ] ] ] } },
{ "type": "Feature", "properties": { "emd_cd": "52113108", "emd_nm": "팔복동1가" }, "geometry": { "type": "MultiPolygon", "coordinates": [ [ [ [ 127.092653802736976, 35.860017601099266 ], [ 127.101104216216243, 35.862432959126025 ], [ 127.104571656105193, 35.859025730323381 ], [ 127.107276504158037, 35.860251374837681 ], [ 127.116067127576983, 35.858510887099449 ], [ 127.116443890445765, 35.85632692775922 ], [ 127.112346043235661, 35.850906727362471 ], [ 127.092653802736976, 35.860017601099266 ] ] ] ] } },
{ "type": "Feature", "properties": { "emd_cd": "52113109", "emd_nm": "팔복동2가" }, "geometry": { "type": "MultiPolygon", "coordinates": [ [ [ [ 127.081709338206494, 35.864860551585238 ], [ 127.105104347753368, 35.85349774988007 ], [ 127.112346043235661, 35.850906727362471 ], [ 127.104327834160458, 35.844762266898741 ], [ 127.096748407511512, 35.848059531027715 ], [ 127.090438414897747, 35.852801104217122 ], [ 127.091327197815886, 35.85383282415728 ], [ 127.080743638787155, 35.8582014179525 ], [ 127.08156600614933, 35.859309570740741 ], [ 127.079710314416616, 35.862420560390554 ], [ 127.081709338206494, 35.864860551585238 ] ] ] ] } },
{ "type": "Feature", "properties": { "emd_cd": "52113110", "emd_nm": "팔복동3가" }, "geometry": { "type": "MultiPolygon", "coordinates": [ [ [ [ 127.080581788090171, 35.851880819671877 ], [ 127.084288798701522, 35.852976737813776 ], [ 127.083602905664122, 35.856962352922451 ], [ 127.091327197815886, 35.85383282415728 ], [ 127.090438414897747, 35.852801104217122 ], [ 127.096748407511512, 35.848059531027715 ], [ 127.104898674767639, 35.844618541148364 ], [ 127.103616163247779, 35.839972273836381 ], [ 127.101693583860538, 35.838523823931645 ], [ 127.099032940601774, 35.839498319723383 ], [ 127.090106233621867, 35.838212975642968 ], [ 127.090660466127161, 35.842858625014252 ], [ 127.087953818102974, 35.847127566407707 ], [ 127.080581788090171, 35.851880819671877 ] ] ] ] } },
{ "type": "Feature", "properties": { "emd_cd": "52113111", "emd_nm": "산정동" }, "geometry": { "type": "MultiPolygon", "coordinates": [ [ [ [ 127.168403794669175, 35.853638104052628 ], [ 127.175333521617219, 35.85351230431435 ], [ 127.181396253886433, 35.848145869036522 ], [ 127.176731649529088, 35.843979228856867 ], [ 127.179199617698572, 35.840994133471519 ], [ 127.177898534309236, 35.836067930232154 ], [ 127.17997360555384, 35.832223777682565 ], [ 127.175898824019441, 35.830616086985195 ], [ 127.174208690653586, 35.833633566699973 ], [ 127.166413619680341, 35.839086966583288 ], [ 127.168352820636713, 35.846222822637941 ], [ 127.16644535499448, 35.847608388039681 ], [ 127.168403794669175, 35.853638104052628 ] ] ] ] } },
{ "type": "Feature", "properties": { "emd_cd": "52113112", "emd_nm": "금상동" }, "geometry": { "type": "MultiPolygon", "coordinates": [ [ [ [ 127.194087516115232, 35.860902649984396 ], [ 127.200083986439793, 35.857490822831345 ], [ 127.198155144160765, 35.856014615603897 ], [ 127.198396326065094, 35.853563528995245 ], [ 127.201021240259806, 35.85267864291248 ], [ 127.201257848972972, 35.849824716803482 ], [ 127.204946355758523, 35.844956442521799 ], [ 127.207793549946103, 35.8440515461999 ], [ 127.210123330847438, 35.840865814975039 ], [ 127.209936815622257, 35.832887458108253 ], [ 127.207952355921549, 35.828732924141853 ], [ 127.201164874314259, 35.828957791156391 ], [ 127.190153551420707, 35.824047380092473 ], [ 127.18860613545381, 35.827049717503179 ], [ 127.182505676651516, 35.828375916496512 ], [ 127.182076572650359, 35.830727369921 ], [ 127.178220609575789, 35.834449665907449 ], [ 127.1795301199937, 35.839118232022109 ], [ 127.176731649529088, 35.843979228856867 ], [ 127.181396253886433, 35.848145869036522 ], [ 127.175333521617219, 35.85351230431435 ], [ 127.185490565524887, 35.854415956074213 ], [ 127.189357049307944, 35.858863605933564 ], [ 127.194087516115232, 35.860902649984396 ] ] ] ] } },
{ "type": "Feature", "properties": { "emd_cd": "52113113", "emd_nm": "우아동1가" }, "geometry": { "type": "MultiPolygon", "coordinates": [ [ [ [ 127.175494262846428, 35.830606642495745 ], [ 127.17997360555384, 35.832223777682565 ], [ 127.182505676651516, 35.828375916496512 ], [ 127.18860613545381, 35.827049717503179 ], [ 127.190153551420707, 35.824047380092473 ], [ 127.201164874314259, 35.828957791156391 ], [ 127.206510737987941, 35.828899978656224 ], [ 127.213822883630002, 35.822227389564894 ], [ 127.219185955537057, 35.819761395098759 ], [ 127.226987610287239, 35.822188568100451 ], [ 127.234289374026929, 35.821205656848562 ], [ 127.230956274986724, 35.819759490527993 ], [ 127.228058917454533, 35.808488673196855 ], [ 127.217011553244021, 35.801651192343542 ], [ 127.213597781368421, 35.80488501127622 ], [ 127.207316527113477, 35.805765289691522 ], [ 127.204748535017231, 35.808626358288606 ], [ 127.198063129895615, 35.810880600588874 ], [ 127.191294628541471, 35.809751364200935 ], [ 127.187403053750771, 35.805486532278621 ], [ 127.180187663239622, 35.805109475038257 ], [ 127.169547912741095, 35.815403140002353 ], [ 127.170358138338372, 35.81954306859803 ], [ 127.1683081176092, 35.822684006122437 ], [ 127.170775578807508, 35.825430837876716 ], [ 127.170248712891734, 35.827526721023887 ], [ 127.175714105893817, 35.829423628881244 ], [ 127.175494262846428, 35.830606642495745 ] ] ] ] } },
{ "type": "Feature", "properties": { "emd_cd": "52113114", "emd_nm": "우아동2가" }, "geometry": { "type": "MultiPolygon", "coordinates": [ [ [ [ 127.166413619680341, 35.839086966583288 ], [ 127.174208690653586, 35.833633566699973 ], [ 127.175714105893817, 35.829423628881244 ], [ 127.170248712891734, 35.827526721023887 ], [ 127.167231795555324, 35.835510965205373 ], [ 127.165433152355902, 35.835297492658789 ], [ 127.164416650526206, 35.837773981520385 ], [ 127.166413619680341, 35.839086966583288 ] ] ] ] } },
{ "type": "Feature", "properties": { "emd_cd": "52113115", "emd_nm": "우아동3가" }, "geometry": { "type": "MultiPolygon", "coordinates": [ [ [ [ 127.149609539150262, 35.849119646413342 ], [ 127.152659436008022, 35.85486889028779 ], [ 127.159622186186098, 35.858371263077942 ], [ 127.161526805143453, 35.856676764774775 ], [ 127.164760544674024, 35.857480184348368 ], [ 127.167950004901599, 35.856189726383569 ], [ 127.168412229070171, 35.852280261971998 ], [ 127.16644535499448, 35.847608388039681 ], [ 127.168352820636713, 35.846222822637941 ], [ 127.166545460900721, 35.839228471207079 ], [ 127.1635907044775, 35.837609980324238 ], [ 127.164327550610494, 35.839187074572543 ], [ 127.159867628372709, 35.843947312642179 ], [ 127.154248711468796, 35.842334508801201 ], [ 127.151947085843162, 35.849091380773366 ], [ 127.149609539150262, 35.849119646413342 ] ] ] ] } },
{ "type": "Feature", "properties": { "emd_cd": "52113116", "emd_nm": "호성동1가" }, "geometry": { "type": "MultiPolygon", "coordinates": [ [ [ [ 127.167950004901599, 35.856189726383569 ], [ 127.164760544674024, 35.857480184348368 ], [ 127.161526805143453, 35.856676764774775 ], [ 127.159622186186098, 35.858371263077942 ], [ 127.152659436008022, 35.85486889028779 ], [ 127.150766561510821, 35.850634755908153 ], [ 127.143693472126628, 35.863836504058341 ], [ 127.150539486698349, 35.867821242985478 ], [ 127.151225503227295, 35.872471947664785 ], [ 127.1533772690333, 35.874203576553832 ], [ 127.15756125301732, 35.873913139963577 ], [ 127.167950004901599, 35.856189726383569 ] ] ] ] } },
{ "type": "Feature", "properties": { "emd_cd": "52113117", "emd_nm": "호성동2가" }, "geometry": { "type": "MultiPolygon", "coordinates": [ [ [ [ 127.137088332879998, 35.879708951331864 ], [ 127.143542786072658, 35.881142626553057 ], [ 127.140793375254873, 35.886047319069384 ], [ 127.145010274770144, 35.887632616715351 ], [ 127.146248171982307, 35.889648627969535 ], [ 127.149906508000086, 35.88690995155725 ], [ 127.151299444200291, 35.879126625346288 ], [ 127.157566743887514, 35.87391239380748 ], [ 127.1533772690333, 35.874203576553832 ], [ 127.151225503227295, 35.872471947664785 ], [ 127.150539486698349, 35.867821242985478 ], [ 127.143693472126628, 35.863836504058341 ], [ 127.141075208764917, 35.867667279808792 ], [ 127.142347976321233, 35.871575113266488 ], [ 127.140077381182337, 35.873036178093614 ], [ 127.137088332879998, 35.879708951331864 ] ] ] ] } },
{ "type": "Feature", "properties": { "emd_cd": "52113118", "emd_nm": "호성동3가" }, "geometry": { "type": "MultiPolygon", "coordinates": [ [ [ [ 127.137088332879998, 35.879708951331864 ], [ 127.133787542518405, 35.884849340109682 ], [ 127.134191226872076, 35.893250189576968 ], [ 127.128843082575614, 35.895919063246602 ], [ 127.128106385657034, 35.898102949245491 ], [ 127.130721749497482, 35.898692828989468 ], [ 127.129932674112965, 35.901967085934821 ], [ 127.131236657643115, 35.9023822199092 ], [ 127.136978319103918, 35.901962983576823 ], [ 127.139807875496871, 35.898337999423873 ], [ 127.145745216886226, 35.895065388682859 ], [ 127.146544514497265, 35.888657181866918 ], [ 127.140793375254873, 35.886047319069384 ], [ 127.143542786072658, 35.881142626553057 ], [ 127.137088332879998, 35.879708951331864 ] ] ] ] } },
{ "type": "Feature", "properties": { "emd_cd": "52113119", "emd_nm": "전미동1가" }, "geometry": { "type": "MultiPolygon", "coordinates": [ [ [ [ 127.135173311530679, 35.881675812167728 ], [ 127.125715253339706, 35.88221622387573 ], [ 127.125478777029727, 35.880977265459443 ], [ 127.123070554504991, 35.882458012557628 ], [ 127.122205881872674, 35.881887612692424 ], [ 127.124124065093952, 35.880381094840416 ], [ 127.118769673729346, 35.878974984533258 ], [ 127.117037658560207, 35.881801274004943 ], [ 127.118075904922307, 35.882883882418199 ], [ 127.116370694777132, 35.889637026341241 ], [ 127.114399115830864, 35.889079593323828 ], [ 127.113618843946838, 35.890374862049732 ], [ 127.114918102448371, 35.892492059902857 ], [ 127.111984382573311, 35.894488723870325 ], [ 127.107893357159085, 35.894602036878084 ], [ 127.108373304093661, 35.897803429248064 ], [ 127.120020996163163, 35.902971691664717 ], [ 127.122651157143963, 35.90157579158717 ], [ 127.130465608571697, 35.901687832674448 ], [ 127.130721749497482, 35.898692828989468 ], [ 127.128106385657034, 35.898102949245491 ], [ 127.128843082575614, 35.895919063246602 ], [ 127.134191226872076, 35.893250189576968 ], [ 127.133291306094634, 35.889635383248944 ], [ 127.135173311530679, 35.881675812167728 ] ] ] ] } },
{ "type": "Feature", "properties": { "emd_cd": "52113120", "emd_nm": "전미동2가" }, "geometry": { "type": "MultiPolygon", "coordinates": [ [ [ [ 127.118769673729346, 35.878974984533258 ], [ 127.113087179041926, 35.87710358217403 ], [ 127.110697982476921, 35.878829329581563 ], [ 127.106815910171193, 35.878359922326197 ], [ 127.104156209780669, 35.876293487802336 ], [ 127.093840032680276, 35.879282418546175 ], [ 127.09112573134189, 35.883364583823941 ], [ 127.092265211445593, 35.884165223010051 ], [ 127.091305112604132, 35.88805731168862 ], [ 127.086505295272545, 35.89292511681321 ], [ 127.108373304093661, 35.897803429248064 ], [ 127.107893357159085, 35.894602036878084 ], [ 127.111984382573311, 35.894488723870325 ], [ 127.114918102448371, 35.892492059902857 ], [ 127.113618843946838, 35.890374862049732 ], [ 127.114399115830864, 35.889079593323828 ], [ 127.116271825856103, 35.889822281423122 ], [ 127.116370694777132, 35.889637026341241 ], [ 127.118075904922307, 35.882883882418199 ], [ 127.117037658560207, 35.881801274004943 ], [ 127.118769673729346, 35.878974984533258 ] ] ] ] } },
{ "type": "Feature", "properties": { "emd_cd": "52113121", "emd_nm": "송천동1가" }, "geometry": { "type": "MultiPolygon", "coordinates": [ [ [ [ 127.107804023893834, 35.861007678291593 ], [ 127.114887358425889, 35.862499417158595 ], [ 127.114550099433643, 35.867258232155677 ], [ 127.121329935556489, 35.866554166069562 ], [ 127.120741858870147, 35.864568384012635 ], [ 127.122418128001428, 35.863320084421893 ], [ 127.12902432199779, 35.865201573228816 ], [ 127.135664004124166, 35.865003248944852 ], [ 127.134244417207427, 35.866238363307104 ], [ 127.137022616796017, 35.867557660611581 ], [ 127.143968936868973, 35.861354466198563 ], [ 127.140971938858442, 35.858115310813709 ], [ 127.133208788467229, 35.857070441843703 ], [ 127.128665578189214, 35.853234169364349 ], [ 127.122469627766407, 35.852060292354757 ], [ 127.1217057939608, 35.850542624836045 ], [ 127.114976148128235, 35.853727913306372 ], [ 127.116067127576983, 35.858510887099449 ], [ 127.111514502726777, 35.858483833724492 ], [ 127.107804023893834, 35.861007678291593 ] ] ] ] } },
{ "type": "Feature", "properties": { "emd_cd": "52113122", "emd_nm": "송천동2가" }, "geometry": { "type": "MultiPolygon", "coordinates": [ [ [ [ 127.114887358425889, 35.862499417158595 ], [ 127.107506859810485, 35.8617180794283 ], [ 127.10781006832859, 35.866709552309622 ], [ 127.101585263912668, 35.871839175282219 ], [ 127.100938147289071, 35.877348346114566 ], [ 127.104156209780669, 35.876293487802336 ], [ 127.110697982476921, 35.878829329581563 ], [ 127.113087179041926, 35.87710358217403 ], [ 127.124124065093952, 35.880381094840416 ], [ 127.122205881872674, 35.881887612692424 ], [ 127.123070554504991, 35.882458012557628 ], [ 127.125478777029727, 35.880977265459443 ], [ 127.125715253339706, 35.88221622387573 ], [ 127.13522410924152, 35.881682235565265 ], [ 127.138251740786899, 35.878517312644156 ], [ 127.140077381182337, 35.873036178093614 ], [ 127.142347976321233, 35.871575113266488 ], [ 127.141075208764917, 35.867667279808792 ], [ 127.143564696833963, 35.862801420462809 ], [ 127.137022616796017, 35.867557660611581 ], [ 127.134244417207427, 35.866238363307104 ], [ 127.135664004124166, 35.865003248944852 ], [ 127.12902432199779, 35.865201573228816 ], [ 127.122418128001428, 35.863320084421893 ], [ 127.120741858870147, 35.864568384012635 ], [ 127.121329935556489, 35.866554166069562 ], [ 127.114550099433643, 35.867258232155677 ], [ 127.114887358425889, 35.862499417158595 ] ] ], [ [ [ 127.097865730789593, 35.871309166149544 ], [ 127.100240491756153, 35.872969054743393 ], [ 127.100632791000635, 35.873102665789254 ], [ 127.099662836510205, 35.872302326482043 ], [ 127.097865730789593, 35.871309166149544 ] ] ] ] } },
{ "type": "Feature", "properties": { "emd_cd": "52113123", "emd_nm": "반월동" }, "geometry": { "type": "MultiPolygon", "coordinates": [ [ [ [ 127.07652960611891, 35.871159896716208 ], [ 127.070166923914911, 35.87180745553637 ], [ 127.070241212506801, 35.870577436236495 ], [ 127.067485995309056, 35.870463874708967 ], [ 127.067687434830219, 35.868405306121801 ], [ 127.060749917428552, 35.867633009937478 ], [ 127.050499984157284, 35.869592959276851 ], [ 127.052162634916741, 35.87195952985266 ], [ 127.061272886021186, 35.874127434435508 ], [ 127.061078033046471, 35.877546841760413 ], [ 127.064457131085064, 35.878404563500936 ], [ 127.061927485287484, 35.885845012927248 ], [ 127.062016560335962, 35.88719722262482 ], [ 127.064391136933097, 35.887176625308591 ], [ 127.064399006605683, 35.889788021840197 ], [ 127.072952752687499, 35.889914240176424 ], [ 127.072962707702672, 35.891131832952702 ], [ 127.076398660568699, 35.891432195912408 ], [ 127.077208466620789, 35.885367854814398 ], [ 127.075406004484918, 35.87296792682627 ], [ 127.07652960611891, 35.871159896716208 ] ] ] ] } },
{ "type": "Feature", "properties": { "emd_cd": "52113124", "emd_nm": "화전동" }, "geometry": { "type": "MultiPolygon", "coordinates": [ [ [ [ 127.061501523589698, 35.900254211802114 ], [ 127.076943990442018, 35.897553622344105 ], [ 127.077134222225197, 35.890642884962531 ], [ 127.064397179153232, 35.889788022797688 ], [ 127.064389309540644, 35.887176626265919 ], [ 127.062014732942984, 35.887197223546025 ], [ 127.06214529317775, 35.885522140284486 ], [ 127.053789359613518, 35.888817605634515 ], [ 127.048129100479926, 35.885916731791418 ], [ 127.034198720330778, 35.887278628812389 ], [ 127.031502641202948, 35.886764713612116 ], [ 127.032549636237391, 35.88632074635796 ], [ 127.031772575927491, 35.882731141520097 ], [ 127.031406231783407, 35.886614779567296 ], [ 127.031831434714704, 35.894791688181833 ], [ 127.037122712065766, 35.891806612143746 ], [ 127.039570994555547, 35.897810656643465 ], [ 127.042571130158706, 35.898253213972836 ], [ 127.047766584736493, 35.892917629762145 ], [ 127.053684103383674, 35.892433037240096 ], [ 127.058254083880058, 35.894758217756454 ], [ 127.059617670689079, 35.899134867059367 ], [ 127.061501523589698, 35.900254211802114 ] ], [ [ 127.034072928208332, 35.887438651984148 ], [ 127.03403424859458, 35.887425963942199 ], [ 127.034090411647895, 35.887293375608301 ], [ 127.034072928208332, 35.887438651984148 ] ] ] ] } },
{ "type": "Feature", "properties": { "emd_cd": "52113125", "emd_nm": "용정동" }, "geometry": { "type": "MultiPolygon", "coordinates": [ [ [ [ 127.04010645991184, 35.877022827254471 ], [ 127.041832743946145, 35.876814864736808 ], [ 127.041898088728956, 35.88592057718423 ], [ 127.049439333680311, 35.8860850458003 ], [ 127.053789359613518, 35.888817605634515 ], [ 127.062556171202232, 35.885204865055897 ], [ 127.064455303894078, 35.878404564459096 ], [ 127.061076205875082, 35.877546842667137 ], [ 127.061271058928298, 35.874127435345144 ], [ 127.052160807873378, 35.871959530623691 ], [ 127.050551913760231, 35.869626933117303 ], [ 127.046642467319245, 35.868344603962882 ], [ 127.046811815599384, 35.874883664005189 ], [ 127.048027826038748, 35.875425713132323 ], [ 127.04010645991184, 35.877022827254471 ] ] ] ] } },
{ "type": "Feature", "properties": { "emd_cd": "52113126", "emd_nm": "성덕동" }, "geometry": { "type": "MultiPolygon", "coordinates": [ [ [ [ 127.029444338268561, 35.876111397568742 ], [ 127.032970139017266, 35.881083041160423 ], [ 127.032566085297603, 35.886355962747366 ], [ 127.040044152246693, 35.887694998844175 ], [ 127.041898088728956, 35.88592057718423 ], [ 127.041832743946145, 35.876814864736808 ], [ 127.04010645991184, 35.877022827254471 ], [ 127.048027826038748, 35.875425713132323 ], [ 127.046811815599384, 35.874883664005189 ], [ 127.04727771762289, 35.869439964813388 ], [ 127.045376745017478, 35.868297649644084 ], [ 127.039379425111363, 35.87020890364019 ], [ 127.035816114018161, 35.8695153300716 ], [ 127.029444338268561, 35.876111397568742 ] ] ] ] } },
{ "type": "Feature", "properties": { "emd_cd": "52113127", "emd_nm": "원동" }, "geometry": { "type": "MultiPolygon", "coordinates": [ [ [ [ 127.022992934920936, 35.867082204419106 ], [ 127.027860093459026, 35.876098534872938 ], [ 127.031956576727367, 35.874722857510214 ], [ 127.032384348843138, 35.872063484337048 ], [ 127.035816114018161, 35.8695153300716 ], [ 127.039379425111363, 35.87020890364019 ], [ 127.045508398273114, 35.868280207371839 ], [ 127.046658414362696, 35.867627790719524 ], [ 127.045641168344986, 35.862554467308172 ], [ 127.048963191646436, 35.858690222772488 ], [ 127.049521367879265, 35.852365275641247 ], [ 127.045117516388103, 35.853154711768077 ], [ 127.033920934785243, 35.850437050668141 ], [ 127.029542047960732, 35.854162028551372 ], [ 127.029484133242249, 35.856067292641427 ], [ 127.026922733169002, 35.856838097460475 ], [ 127.028288275842399, 35.861547538026628 ], [ 127.026386975163206, 35.864250394867419 ], [ 127.026937724778904, 35.867533786912759 ], [ 127.022992934920936, 35.867082204419106 ] ] ] ] } },
{ "type": "Feature", "properties": { "emd_cd": "52113129", "emd_nm": "고랑동" }, "geometry": { "type": "MultiPolygon", "coordinates": [ [ [ [ 127.076595542365752, 35.875567023456291 ], [ 127.076943990442018, 35.897553622344105 ], [ 127.078522657178283, 35.897773811876803 ], [ 127.081017939063813, 35.896848059446825 ], [ 127.083335575284295, 35.89215623322572 ], [ 127.088501412569101, 35.891584537958948 ], [ 127.091652572548412, 35.887341400219114 ], [ 127.092265211445593, 35.884165223010051 ], [ 127.09112573134189, 35.883364583823941 ], [ 127.093111711314251, 35.879757959850785 ], [ 127.099968750814895, 35.877749793735113 ], [ 127.101371654491643, 35.874608207476371 ], [ 127.09571297489164, 35.869807089789596 ], [ 127.090791076021162, 35.867992385735867 ], [ 127.084467341041019, 35.872080624691506 ], [ 127.082257253521561, 35.876254244440446 ], [ 127.076595542365752, 35.875567023456291 ] ] ] ] } },
{ "type": "Feature", "properties": { "emd_cd": "52113130", "emd_nm": "여의동" }, "geometry": { "type": "MultiPolygon", "coordinates": [ [ [ [ 127.064864140650599, 35.868202507412171 ], [ 127.067687434830219, 35.868405306121801 ], [ 127.067485995309056, 35.870463874708967 ], [ 127.070241212506801, 35.870577436236495 ], [ 127.070166923914911, 35.87180745553637 ], [ 127.076611903614079, 35.871105337850942 ], [ 127.081709338206494, 35.864860551585238 ], [ 127.079710314416616, 35.862420560390554 ], [ 127.08156600614933, 35.859309570740741 ], [ 127.080743638787155, 35.8582014179525 ], [ 127.083602883485142, 35.85696231688766 ], [ 127.084288798701522, 35.852976737813776 ], [ 127.079253459426752, 35.851252956998614 ], [ 127.076443356643111, 35.852453297460862 ], [ 127.073012040973794, 35.847160941330621 ], [ 127.071828147121295, 35.847605118752469 ], [ 127.071429066241748, 35.850882288756523 ], [ 127.068128908601864, 35.852871700378095 ], [ 127.067532078819568, 35.85672110422373 ], [ 127.065725131633414, 35.858019882878381 ], [ 127.065581918191953, 35.860936562598098 ], [ 127.066769770744742, 35.861012303634695 ], [ 127.064864140650599, 35.868202507412171 ] ] ] ] } },
{ "type": "Feature", "properties": { "emd_cd": "52113131", "emd_nm": "만성동" }, "geometry": { "type": "MultiPolygon", "coordinates": [ [ [ [ 127.065944106514408, 35.842487196860674 ], [ 127.06778955342061, 35.843839105753283 ], [ 127.067938880120266, 35.84774468377649 ], [ 127.073012040973794, 35.847160941330621 ], [ 127.076443356643111, 35.852453297460862 ], [ 127.083324021185263, 35.850815390805344 ], [ 127.087953818102974, 35.847127566407707 ], [ 127.09081358549021, 35.841331151804525 ], [ 127.086326750527078, 35.833284727670559 ], [ 127.071142749115282, 35.825237438591635 ], [ 127.072173942309533, 35.831806036366771 ], [ 127.067310896446273, 35.833731054098308 ], [ 127.06813183122901, 35.835504807196067 ], [ 127.065944106514408, 35.842487196860674 ] ] ] ] } },
{ "type": "Feature", "properties": { "emd_cd": "52113132", "emd_nm": "장동" }, "geometry": { "type": "MultiPolygon", "coordinates": [ [ [ [ 127.058603660491301, 35.838400751831408 ], [ 127.058603846276853, 35.839585870941612 ], [ 127.055763141297589, 35.83958802621035 ], [ 127.049521367879265, 35.852365275641247 ], [ 127.048963191646436, 35.858690222772488 ], [ 127.045641168344986, 35.862554467308172 ], [ 127.046658414362696, 35.867627790719524 ], [ 127.045456452365258, 35.868491704131564 ], [ 127.05394098773003, 35.869906112861429 ], [ 127.060564734955989, 35.86762249349448 ], [ 127.064864140650599, 35.868202507412171 ], [ 127.066769770744742, 35.861012303634695 ], [ 127.065581918191953, 35.860936562598098 ], [ 127.065725131633414, 35.858019882878381 ], [ 127.067532078819568, 35.85672110422373 ], [ 127.068128908601864, 35.852871700378095 ], [ 127.071429066241748, 35.850882288756523 ], [ 127.071828147121295, 35.847605118752469 ], [ 127.067052527736195, 35.846807987374021 ], [ 127.068299533275308, 35.845758226389449 ], [ 127.065946904396867, 35.841991723410054 ], [ 127.067351411709765, 35.838840303028931 ], [ 127.058603660491301, 35.838400751831408 ] ] ] ] } },
{ "type": "Feature", "properties": { "emd_cd": "52113133", "emd_nm": "팔복동4가" }, "geometry": { "type": "MultiPolygon", "coordinates": [ [ [ [ 127.09442994757282, 35.860931890333411 ], [ 127.094313973003466, 35.861063886718988 ], [ 127.094363941889881, 35.861123663945236 ], [ 127.09442994757282, 35.860931890333411 ] ] ], [ [ [ 127.094577252559588, 35.860893392099868 ], [ 127.094594745512154, 35.86140454856222 ], [ 127.094829311107674, 35.861002274585658 ], [ 127.094577252559588, 35.860893392099868 ] ] ], [ [ [ 127.106944589416386, 35.860029238583031 ], [ 127.104515107464479, 35.859045155679866 ], [ 127.10103528383253, 35.862441650228462 ], [ 127.094718504478934, 35.861557060939596 ], [ 127.096670335768323, 35.863923613528172 ], [ 127.092226977183472, 35.866317044171758 ], [ 127.091626813350828, 35.868794574466385 ], [ 127.095006592042552, 35.86939207685927 ], [ 127.099662836510205, 35.872302326482043 ], [ 127.100882522515221, 35.873473980198703 ], [ 127.10781006832859, 35.866709552309622 ], [ 127.106944589416386, 35.860029238583031 ] ] ], [ [ [ 127.097865730789593, 35.871309166149544 ], [ 127.098057257754931, 35.871600313278876 ], [ 127.098504977978038, 35.871724973408568 ], [ 127.097865730789593, 35.871309166149544 ] ] ] ] } },
{ "type": "Feature", "properties": { "emd_cd": "52113134", "emd_nm": "도도동" }, "geometry": { "type": "MultiPolygon", "coordinates": [ [ [ [ 127.016987388325177, 35.888929660894298 ], [ 127.026403355078202, 35.88736915590777 ], [ 127.029552663653647, 35.883084834165885 ], [ 127.032628936381855, 35.881919395926396 ], [ 127.024964003645721, 35.881807249768571 ], [ 127.025913643376938, 35.879723623528506 ], [ 127.020096956978023, 35.878655428573822 ], [ 127.020014327078513, 35.876011987090216 ], [ 127.00667344971734, 35.875380577708746 ], [ 127.003365044117814, 35.880174692428724 ], [ 126.999152987150381, 35.882004610611702 ], [ 126.999534532721185, 35.883396780127953 ], [ 126.997950033978597, 35.884203079387454 ], [ 126.99993369106825, 35.887591919050067 ], [ 126.999197366260617, 35.886146914646822 ], [ 127.001938428464086, 35.88553662094607 ], [ 127.0170664909501, 35.885780963024949 ], [ 127.016987388325177, 35.888929660894298 ] ] ] ] } },
{ "type": "Feature", "properties": { "emd_cd": "52113135", "emd_nm": "강흥동" }, "geometry": { "type": "MultiPolygon", "coordinates": [ [ [ [ 127.01953316730544, 35.88896780599849 ], [ 127.016987388325177, 35.888929660894298 ], [ 127.0170664909501, 35.885780963024949 ], [ 126.999197366260617, 35.886146914646822 ], [ 127.001522757814428, 35.889292126558125 ], [ 127.00069485564255, 35.893207038453809 ], [ 127.011256348251521, 35.895246002624077 ], [ 127.019860656962393, 35.89400425963295 ], [ 127.01953316730544, 35.88896780599849 ] ] ] ] } },
{ "type": "Feature", "properties": { "emd_cd": "52113136", "emd_nm": "도덕동" }, "geometry": { "type": "MultiPolygon", "coordinates": [ [ [ [ 127.031496729141878, 35.886623408922389 ], [ 127.033679182320867, 35.886722268695507 ], [ 127.032549636237391, 35.88632074635796 ], [ 127.03187036921581, 35.886366928790508 ], [ 127.031496729141878, 35.886623408922389 ] ] ], [ [ [ 127.034040658228676, 35.88752709987849 ], [ 127.034072928208332, 35.887438651984148 ], [ 127.034090411647895, 35.887293375608301 ], [ 127.034040658228676, 35.88752709987849 ] ] ], [ [ [ 127.026740381046508, 35.897817169848004 ], [ 127.031831434714704, 35.894791688181833 ], [ 127.031406231783407, 35.886614779567296 ], [ 127.03242733553742, 35.882225087442009 ], [ 127.029552663653647, 35.883084834165885 ], [ 127.026403355078202, 35.88736915590777 ], [ 127.01953316730544, 35.88896780599849 ], [ 127.019408493277965, 35.895599042498091 ], [ 127.022955347739142, 35.895008334895259 ], [ 127.026740381046508, 35.897817169848004 ] ] ] ] } },
{ "type": "Feature", "properties": { "emd_cd": "52113137", "emd_nm": "남정동" }, "geometry": { "type": "MultiPolygon", "coordinates": [ [ [ [ 127.006411455032747, 35.866006653315964 ], [ 127.007297780902775, 35.867803981011384 ], [ 127.008390533106919, 35.866455412949804 ], [ 127.008877914363921, 35.866259587743095 ], [ 127.007201430425113, 35.868748321892703 ], [ 127.007433856023326, 35.875409481327068 ], [ 127.020014327078513, 35.876011987090216 ], [ 127.020096956978023, 35.878655428573822 ], [ 127.025913643376938, 35.879723623528506 ], [ 127.024964003645721, 35.881807249768571 ], [ 127.032691707344696, 35.882063957423547 ], [ 127.023829036521207, 35.868808076049305 ], [ 127.02273105781093, 35.863745704762898 ], [ 127.019146425746911, 35.862657001105724 ], [ 127.015951716713928, 35.858564569960357 ], [ 127.012643055969747, 35.860077922167577 ], [ 127.015142252058382, 35.86089033759535 ], [ 127.013151042720992, 35.863397812204916 ], [ 127.006411455032747, 35.866006653315964 ] ] ] ] } },
{ "type": "Feature", "properties": { "emd_cd": "52113138", "emd_nm": "중동" }, "geometry": { "type": "MultiPolygon", "coordinates": [ [ [ [ 127.06733636616508, 35.838728835431965 ], [ 127.067950157082961, 35.83265956330186 ], [ 127.072173942309533, 35.831806036366771 ], [ 127.071167728700459, 35.824961847695775 ], [ 127.055985763273924, 35.824803492965643 ], [ 127.050624700393897, 35.827525437955103 ], [ 127.051903417100817, 35.83329833622912 ], [ 127.058599105147735, 35.832989184027241 ], [ 127.058603649422992, 35.838400751836687 ], [ 127.06733636616508, 35.838728835431965 ] ], [ [ 127.055539540540465, 35.825747136227626 ], [ 127.055517476454568, 35.825702092469434 ], [ 127.055660523374087, 35.825800499054282 ], [ 127.055539540540465, 35.825747136227626 ] ], [ [ 127.06103176063084, 35.837063998375321 ], [ 127.061031472859241, 35.837063998517969 ], [ 127.061031428445233, 35.837063809277019 ], [ 127.06103176063084, 35.837063998375321 ] ] ] ] } },
{ "type": "Feature", "properties": { "emd_cd": "52113139", "emd_nm": "여의동2가" }, "geometry": { "type": "MultiPolygon", "coordinates": [ [ [ [ 127.081709338206494, 35.864860551585238 ], [ 127.075406122814158, 35.872964186579786 ], [ 127.076587268505506, 35.875564946751737 ], [ 127.082257253521561, 35.876254244440446 ], [ 127.084467341041019, 35.872080624691506 ], [ 127.090791076021162, 35.867992385735867 ], [ 127.091603243017644, 35.868816889008365 ], [ 127.092226977183472, 35.866317044171758 ], [ 127.096670335768323, 35.863923613528172 ], [ 127.092651466657586, 35.860017575834782 ], [ 127.081709338206494, 35.864860551585238 ] ] ] ] } }
]
}
