{
"type": "FeatureCollection",
"name": "52111",
"crs": { "type": "name", "properties": { "name": "urn:ogc:def:crs:OGC:1.3:CRS84" } },
"features": [
{ "type": "Feature", "properties": { "emd_cd": "52111101", "emd_nm": "중앙동1가" }, "geometry": { "type": "MultiPolygon", "coordinates": [ [ [ [ 127.141089132509777, 35.817419844072269 ], [ 127.142587428664626, 35.81781767463265 ], [ 127.1433638067423, 35.815984942859998 ], [ 127.142361297570204, 35.815426740277985 ], [ 127.141089132509777, 35.817419844072269 ] ] ] ] } },
{ "type": "Feature", "properties": { "emd_cd": "52111102", "emd_nm": "중앙동2가" }, "geometry": { "type": "MultiPolygon", "coordinates": [ [ [ [ 127.142587428664626, 35.81781767463265 ], [ 127.144115595744168, 35.818240938505049 ], [ 127.144716120149454, 35.816478443203728 ], [ 127.1433638067423, 35.815984942859998 ], [ 127.142587428664626, 35.81781767463265 ] ] ] ] } },
{ "type": "Feature", "properties": { "emd_cd": "52111103", "emd_nm": "중앙동3가" }, "geometry": { "type": "MultiPolygon", "coordinates": [ [ [ [ 127.144716120149454, 35.816478443203728 ], [ 127.14404553301928, 35.818459864192839 ], [ 127.145544032821974, 35.818871834284671 ], [ 127.146301318300729, 35.816800175234754 ], [ 127.144716120149454, 35.816478443203728 ] ] ] ] } },
{ "type": "Feature", "properties": { "emd_cd": "52111104", "emd_nm": "중앙동4가" }, "geometry": { "type": "MultiPolygon", "coordinates": [ [ [ [ 127.146301318300729, 35.816800175234754 ], [ 127.146234648084302, 35.813532008434258 ], [ 127.142404900310581, 35.815417685630564 ], [ 127.146301318300729, 35.816800175234754 ] ] ] ] } },
{ "type": "Feature", "properties": { "emd_cd": "52111105", "emd_nm": "경원동1가" }, "geometry": { "type": "MultiPolygon", "coordinates": [ [ [ [ 127.146592285785474, 35.816024574162 ], [ 127.145544032821974, 35.818871834284671 ], [ 127.148326113118443, 35.819375720430159 ], [ 127.149113688802942, 35.816715307512055 ], [ 127.146592285785474, 35.816024574162 ] ] ] ] } },
{ "type": "Feature", "properties": { "emd_cd": "52111106", "emd_nm": "경원동2가" }, "geometry": { "type": "MultiPolygon", "coordinates": [ [ [ [ 127.15043916716661, 35.817194221063481 ], [ 127.149113688802942, 35.816715307512055 ], [ 127.148398579410284, 35.819176013105441 ], [ 127.15003574275805, 35.819063471018161 ], [ 127.15043916716661, 35.817194221063481 ] ] ] ] } },
{ "type": "Feature", "properties": { "emd_cd": "52111107", "emd_nm": "경원동3가" }, "geometry": { "type": "MultiPolygon", "coordinates": [ [ [ [ 127.152942504842514, 35.820797911521211 ], [ 127.146607310676345, 35.818966196262153 ], [ 127.145701289037774, 35.82168742448556 ], [ 127.149506182505149, 35.822691391666638 ], [ 127.152942504842514, 35.820797911521211 ] ] ] ] } },
{ "type": "Feature", "properties": { "emd_cd": "52111108", "emd_nm": "풍남동1가" }, "geometry": { "type": "MultiPolygon", "coordinates": [ [ [ [ 127.152043653941604, 35.81757328131453 ], [ 127.15043916716661, 35.817194221063481 ], [ 127.149973504123309, 35.819619017842797 ], [ 127.15167724452877, 35.819688045913715 ], [ 127.152043653941604, 35.81757328131453 ] ] ] ] } },
{ "type": "Feature", "properties": { "emd_cd": "52111109", "emd_nm": "풍남동2가" }, "geometry": { "type": "MultiPolygon", "coordinates": [ [ [ [ 127.153476294573295, 35.817927329458044 ], [ 127.152043653941604, 35.81757328131453 ], [ 127.151689410146616, 35.819801976251874 ], [ 127.153232171243289, 35.819859268768688 ], [ 127.153476294573295, 35.817927329458044 ] ] ] ] } },
{ "type": "Feature", "properties": { "emd_cd": "52111110", "emd_nm": "풍남동3가" }, "geometry": { "type": "MultiPolygon", "coordinates": [ [ [ [ 127.158088249766237, 35.816822086082972 ], [ 127.154831225615297, 35.814916446047413 ], [ 127.149026440072433, 35.814305928346627 ], [ 127.1490426666644, 35.816700650199692 ], [ 127.150419275968318, 35.817190622669699 ], [ 127.158088249766237, 35.816822086082972 ] ] ] ] } },
{ "type": "Feature", "properties": { "emd_cd": "52111111", "emd_nm": "전동" }, "geometry": { "type": "MultiPolygon", "coordinates": [ [ [ [ 127.146234648084302, 35.813532008434258 ], [ 127.146068687614189, 35.815619937960051 ], [ 127.1490426666644, 35.816700650199692 ], [ 127.150500379043038, 35.810691654367318 ], [ 127.146234648084302, 35.813532008434258 ] ] ] ] } },
{ "type": "Feature", "properties": { "emd_cd": "52111112", "emd_nm": "전동3가" }, "geometry": { "type": "MultiPolygon", "coordinates": [ [ [ [ 127.147290454104478, 35.811635843463769 ], [ 127.143179808254473, 35.812693515635445 ], [ 127.142255051843165, 35.813672635212853 ], [ 127.144187589953219, 35.814464289898702 ], [ 127.147290454104478, 35.811635843463769 ] ] ] ] } },
{ "type": "Feature", "properties": { "emd_cd": "52111113", "emd_nm": "다가동1가" }, "geometry": { "type": "MultiPolygon", "coordinates": [ [ [ [ 127.143433688611381, 35.814340593111233 ], [ 127.142223131576941, 35.813661190602851 ], [ 127.140392277468592, 35.81527930648442 ], [ 127.141943055791714, 35.815934428867337 ], [ 127.143433688611381, 35.814340593111233 ] ] ] ] } },
{ "type": "Feature", "properties": { "emd_cd": "52111114", "emd_nm": "다가동2가" }, "geometry": { "type": "MultiPolygon", "coordinates": [ [ [ [ 127.139727832916478, 35.816181660725888 ], [ 127.143215565304402, 35.813046008434 ], [ 127.143179808254473, 35.812693515635445 ], [ 127.139140262512868, 35.813684552296522 ], [ 127.139727832916478, 35.816181660725888 ] ] ] ] } },
{ "type": "Feature", "properties": { "emd_cd": "52111115", "emd_nm": "다가동3가" }, "geometry": { "type": "MultiPolygon", "coordinates": [ [ [ [ 127.140404854496396, 35.818852667005977 ], [ 127.141943055791714, 35.815934428867337 ], [ 127.140392277468592, 35.81527930648442 ], [ 127.138294516159291, 35.818056197780834 ], [ 127.140404854496396, 35.818852667005977 ] ] ] ] } },
{ "type": "Feature", "properties": { "emd_cd": "52111116", "emd_nm": "다가동4가" }, "geometry": { "type": "MultiPolygon", "coordinates": [ [ [ [ 127.140404854496396, 35.818852667005977 ], [ 127.138294516159291, 35.818056197780834 ], [ 127.136185961528071, 35.820733601034327 ], [ 127.13950339003452, 35.821406669946157 ], [ 127.140404854496396, 35.818852667005977 ] ] ] ] } },
{ "type": "Feature", "properties": { "emd_cd": "52111117", "emd_nm": "고사동" }, "geometry": { "type": "MultiPolygon", "coordinates": [ [ [ [ 127.146523716511595, 35.819182724337182 ], [ 127.141089132509777, 35.817419844072269 ], [ 127.139493750221007, 35.821418667692299 ], [ 127.145096708429932, 35.823069085329827 ], [ 127.146523716511595, 35.819182724337182 ] ] ] ] } },
{ "type": "Feature", "properties": { "emd_cd": "52111118", "emd_nm": "교동" }, "geometry": { "type": "MultiPolygon", "coordinates": [ [ [ [ 127.149875402095887, 35.814039391616539 ], [ 127.159291848161843, 35.81708552573145 ], [ 127.164135711044693, 35.81554630537341 ], [ 127.169492136404941, 35.816255335919827 ], [ 127.172373660003203, 35.812590323905823 ], [ 127.163283779433655, 35.807363428172657 ], [ 127.161242238703352, 35.811346706469877 ], [ 127.150500379043038, 35.810691654367318 ], [ 127.149875402095887, 35.814039391616539 ] ] ] ] } },
{ "type": "Feature", "properties": { "emd_cd": "52111119", "emd_nm": "태평동" }, "geometry": { "type": "MultiPolygon", "coordinates": [ [ [ [ 127.141239928353684, 35.827845740858194 ], [ 127.144181519170687, 35.822720498026158 ], [ 127.136394178330008, 35.82089793647684 ], [ 127.137154086036261, 35.819501011467246 ], [ 127.131777828759027, 35.823976629567774 ], [ 127.141239928353684, 35.827845740858194 ] ] ] ] } },
{ "type": "Feature", "properties": { "emd_cd": "52111120", "emd_nm": "중노송동" }, "geometry": { "type": "MultiPolygon", "coordinates": [ [ [ [ 127.148280739345097, 35.828952205634558 ], [ 127.152136580808417, 35.829735173753832 ], [ 127.155635568573501, 35.828332209003079 ], [ 127.156729647610902, 35.829413502412116 ], [ 127.169434525515058, 35.816484001546435 ], [ 127.159436936746673, 35.821403044580819 ], [ 127.15927188494048, 35.822771319167707 ], [ 127.157645653209073, 35.821836040324499 ], [ 127.15250627589397, 35.823174822931072 ], [ 127.152942504842514, 35.820797911521211 ], [ 127.151073608967778, 35.821350909118557 ], [ 127.149506182505149, 35.822691391666638 ], [ 127.148806201041324, 35.825994534017894 ], [ 127.149870244369197, 35.825525564767794 ], [ 127.150100029708156, 35.825786680295671 ], [ 127.148280739345097, 35.828952205634558 ] ] ] ] } },
{ "type": "Feature", "properties": { "emd_cd": "52111121", "emd_nm": "남노송동" }, "geometry": { "type": "MultiPolygon", "coordinates": [ [ [ [ 127.15250627589397, 35.823174822931072 ], [ 127.157645653209073, 35.821836040324499 ], [ 127.159174463028904, 35.822751186848805 ], [ 127.159436936746673, 35.821403044580819 ], [ 127.169492136404941, 35.816255335919827 ], [ 127.164135711044693, 35.81554630537341 ], [ 127.153536705046605, 35.81764512441972 ], [ 127.15250627589397, 35.823174822931072 ] ] ] ] } },
{ "type": "Feature", "properties": { "emd_cd": "52111122", "emd_nm": "동완산동" }, "geometry": { "type": "MultiPolygon", "coordinates": [ [ [ [ 127.141470114218777, 35.812755443359066 ], [ 127.148740354452173, 35.811045736541054 ], [ 127.149483435689802, 35.808660191994925 ], [ 127.142708116681291, 35.803231992628952 ], [ 127.139605951007979, 35.807756064138019 ], [ 127.141470114218777, 35.812755443359066 ] ] ] ] } },
{ "type": "Feature", "properties": { "emd_cd": "52111123", "emd_nm": "서완산동1가" }, "geometry": { "type": "MultiPolygon", "coordinates": [ [ [ [ 127.131256546604874, 35.807378431684455 ], [ 127.137581864241568, 35.809620953187377 ], [ 127.138287566928256, 35.81367690079756 ], [ 127.141752142346036, 35.812232440637068 ], [ 127.139605951007979, 35.807756064138019 ], [ 127.131256546604874, 35.807378431684455 ] ] ] ] } },
{ "type": "Feature", "properties": { "emd_cd": "52111124", "emd_nm": "서완산동2가" }, "geometry": { "type": "MultiPolygon", "coordinates": [ [ [ [ 127.129804933558034, 35.808655591766723 ], [ 127.135656511773689, 35.811906736986984 ], [ 127.138725648195162, 35.810905915673381 ], [ 127.131256546604874, 35.807378431684455 ], [ 127.129804933558034, 35.808655591766723 ] ] ] ] } },
{ "type": "Feature", "properties": { "emd_cd": "52111125", "emd_nm": "동서학동" }, "geometry": { "type": "MultiPolygon", "coordinates": [ [ [ [ 127.152005515566273, 35.810447143081525 ], [ 127.162049828734581, 35.810741564166719 ], [ 127.164837117892347, 35.805351662097216 ], [ 127.164802731669056, 35.80248197390263 ], [ 127.161807292686959, 35.800958069647869 ], [ 127.164681558876524, 35.795382072256658 ], [ 127.16189870166383, 35.791583681192968 ], [ 127.15549005420867, 35.794585706341778 ], [ 127.152569719789, 35.798995271762429 ], [ 127.153385744054461, 35.802543149508473 ], [ 127.151344998439399, 35.802701294734234 ], [ 127.152005515566273, 35.810447143081525 ] ] ] ] } },
{ "type": "Feature", "properties": { "emd_cd": "52111126", "emd_nm": "서서학동" }, "geometry": { "type": "MultiPolygon", "coordinates": [ [ [ [ 127.141223246952009, 35.802688025958659 ], [ 127.149474130039664, 35.808624054086053 ], [ 127.148740354452173, 35.811045736541054 ], [ 127.152344589079192, 35.810770881540627 ], [ 127.151344998439399, 35.802701294734234 ], [ 127.153385744054461, 35.802543149508473 ], [ 127.152569719789, 35.798995271762429 ], [ 127.15549005420867, 35.794585706341778 ], [ 127.162833026548199, 35.790948585150034 ], [ 127.162783705558567, 35.784436210231839 ], [ 127.157320421641799, 35.780482667634395 ], [ 127.15339950814456, 35.778838289161612 ], [ 127.152279591711007, 35.779741643828245 ], [ 127.152723521498302, 35.781158524784829 ], [ 127.14617008623695, 35.790882721209137 ], [ 127.146951936363521, 35.79315652652015 ], [ 127.145335149831055, 35.79419209761263 ], [ 127.146964290075275, 35.797966965497331 ], [ 127.144218289183982, 35.797469752792225 ], [ 127.144908661154162, 35.799935942617246 ], [ 127.141223246952009, 35.802688025958659 ] ] ] ] } },
{ "type": "Feature", "properties": { "emd_cd": "52111127", "emd_nm": "중화산동1가" }, "geometry": { "type": "MultiPolygon", "coordinates": [ [ [ [ 127.132223190306576, 35.810539052818456 ], [ 127.129174352123741, 35.811869113600622 ], [ 127.128694932585177, 35.814088827868972 ], [ 127.135201806446801, 35.818562280831323 ], [ 127.135571230851298, 35.820549603442913 ], [ 127.138907510908737, 35.816996578541946 ], [ 127.139037721705449, 35.813792162375165 ], [ 127.13716504514089, 35.811784428642596 ], [ 127.132223190306576, 35.810539052818456 ] ] ] ] } },
{ "type": "Feature", "properties": { "emd_cd": "52111128", "emd_nm": "중화산동2가" }, "geometry": { "type": "MultiPolygon", "coordinates": [ [ [ [ 127.11835668315571, 35.812742286743585 ], [ 127.118087258267195, 35.812773948155083 ], [ 127.118106205303221, 35.812784357298085 ], [ 127.11835668315571, 35.812742286743585 ] ] ], [ [ [ 127.118176345947248, 35.812822908017075 ], [ 127.118175521775512, 35.812872162425109 ], [ 127.11817603137365, 35.81284233938905 ], [ 127.118176345947248, 35.812822908017075 ] ] ], [ [ [ 127.11835249662613, 35.81284522319482 ], [ 127.112856649915187, 35.815946433204019 ], [ 127.113731600707069, 35.820522794138604 ], [ 127.112396084798561, 35.821961201009181 ], [ 127.111526627026905, 35.825545151124686 ], [ 127.112118560679889, 35.82373209637224 ], [ 127.112515592994171, 35.823165211056583 ], [ 127.113721817779023, 35.822817324153668 ], [ 127.112400800125627, 35.825763550377616 ], [ 127.126632448836176, 35.825685142327224 ], [ 127.127499631317704, 35.82039741847403 ], [ 127.132999654623504, 35.817526411415244 ], [ 127.128694932585177, 35.814088827868972 ], [ 127.129099662803782, 35.811957119401129 ], [ 127.132596264189502, 35.809362841250717 ], [ 127.128510285211703, 35.807992443790745 ], [ 127.122919465188431, 35.809258835681106 ], [ 127.122779610293492, 35.812021686087611 ], [ 127.118412886241956, 35.812511880204625 ], [ 127.11835668315571, 35.812742286743585 ], [ 127.11835249662613, 35.81284522319482 ] ] ] ] } },
{ "type": "Feature", "properties": { "emd_cd": "52111129", "emd_nm": "서신동" }, "geometry": { "type": "MultiPolygon", "coordinates": [ [ [ [ 127.126632448836176, 35.825685142327224 ], [ 127.112400800125627, 35.825763550377616 ], [ 127.113721817779023, 35.822817324153668 ], [ 127.112515592994171, 35.823165211056583 ], [ 127.111107499034333, 35.829821980761267 ], [ 127.105003442998893, 35.833399112533627 ], [ 127.105295394158759, 35.837882914230661 ], [ 127.103445560740354, 35.842365276880294 ], [ 127.104410980546191, 35.843293228958721 ], [ 127.113594860401633, 35.837854485250887 ], [ 127.118224416674991, 35.838403454196808 ], [ 127.126166116659761, 35.832866304970935 ], [ 127.128765641195272, 35.828438321307956 ], [ 127.126632448836176, 35.825685142327224 ] ] ] ] } },
{ "type": "Feature", "properties": { "emd_cd": "52111130", "emd_nm": "석구동" }, "geometry": { "type": "MultiPolygon", "coordinates": [ [ [ [ 127.11790330875462, 35.772654958129003 ], [ 127.122980117682218, 35.772301003534317 ], [ 127.123554983309617, 35.775317807946536 ], [ 127.131776183169393, 35.773440172971917 ], [ 127.137770084756966, 35.776160699828637 ], [ 127.143295258567832, 35.773057524382871 ], [ 127.148766408898993, 35.77320310796906 ], [ 127.148629973611307, 35.769495044271444 ], [ 127.150233210808949, 35.767519687259046 ], [ 127.146320648340094, 35.764230953491314 ], [ 127.146414272388782, 35.759516434213829 ], [ 127.13659902658722, 35.760991701807086 ], [ 127.130836193939928, 35.755763778916076 ], [ 127.12516807789406, 35.75486275417672 ], [ 127.123400666626978, 35.751897055748955 ], [ 127.123390149413638, 35.756106601280742 ], [ 127.121849667599562, 35.75784678080808 ], [ 127.120203238328656, 35.757022922754565 ], [ 127.117746843029551, 35.760240111578092 ], [ 127.119623145269784, 35.761183374809228 ], [ 127.116498942394301, 35.768168692577589 ], [ 127.11790330875462, 35.772654958129003 ] ] ] ] } },
{ "type": "Feature", "properties": { "emd_cd": "52111131", "emd_nm": "원당동" }, "geometry": { "type": "MultiPolygon", "coordinates": [ [ [ [ 127.112609694600948, 35.77877161617608 ], [ 127.117754437636265, 35.773260479469691 ], [ 127.116498942394301, 35.768168692577589 ], [ 127.119623145269784, 35.761183374809228 ], [ 127.117746843029551, 35.760240111578092 ], [ 127.123767453111554, 35.755382431196246 ], [ 127.12166434895687, 35.751258652932641 ], [ 127.120374745649457, 35.751145167508128 ], [ 127.121234095989522, 35.752653834041467 ], [ 127.118322000249066, 35.752845666229859 ], [ 127.115850213383325, 35.74924246918669 ], [ 127.102588222740721, 35.752498847627876 ], [ 127.101634045509215, 35.755765305484815 ], [ 127.103040275062966, 35.758214482778733 ], [ 127.101574750173924, 35.761663657319311 ], [ 127.103737357568548, 35.762761234862623 ], [ 127.104497444803812, 35.767335332817218 ], [ 127.1072309550878, 35.76969927813024 ], [ 127.106002802172398, 35.771417742488083 ], [ 127.110307272099021, 35.773597113066899 ], [ 127.108421551926995, 35.77607189273251 ], [ 127.112609694600948, 35.77877161617608 ] ] ] ] } },
{ "type": "Feature", "properties": { "emd_cd": "52111132", "emd_nm": "평화동1가" }, "geometry": { "type": "MultiPolygon", "coordinates": [ [ [ [ 127.130127649129861, 35.794827928258798 ], [ 127.132322109336044, 35.795093197635097 ], [ 127.132735529047849, 35.795509578781513 ], [ 127.131172104096763, 35.798387224740964 ], [ 127.14292303803029, 35.802322615329018 ], [ 127.144910326119856, 35.799932858331765 ], [ 127.144218289183982, 35.797469752792225 ], [ 127.146964290075275, 35.797966965497331 ], [ 127.145335149831055, 35.79419209761263 ], [ 127.146779545704675, 35.79369739064979 ], [ 127.14724122012295, 35.788280737617193 ], [ 127.130285752967637, 35.792827740964576 ], [ 127.130127649129861, 35.794827928258798 ] ] ] ] } },
{ "type": "Feature", "properties": { "emd_cd": "52111133", "emd_nm": "평화동2가" }, "geometry": { "type": "MultiPolygon", "coordinates": [ [ [ [ 127.116770048604124, 35.783883603516401 ], [ 127.114453090993109, 35.790202873693708 ], [ 127.130127649129861, 35.794827928258798 ], [ 127.130285752967637, 35.792827740964576 ], [ 127.147505514201029, 35.788174564085516 ], [ 127.152723521498302, 35.781158524784829 ], [ 127.15312239418266, 35.777065553547459 ], [ 127.149420189619732, 35.774427299354222 ], [ 127.131671705793764, 35.781709207831646 ], [ 127.120238664845829, 35.782504688794347 ], [ 127.120239292918811, 35.783863761011219 ], [ 127.116770048604124, 35.783883603516401 ] ] ] ] } },
{ "type": "Feature", "properties": { "emd_cd": "52111134", "emd_nm": "평화동3가" }, "geometry": { "type": "MultiPolygon", "coordinates": [ [ [ [ 127.148766408898993, 35.77320310796906 ], [ 127.143295258567832, 35.773057524382871 ], [ 127.137770084756966, 35.776160699828637 ], [ 127.131776183169393, 35.773440172971917 ], [ 127.123554983309617, 35.775317807946536 ], [ 127.122980117682218, 35.772301003534317 ], [ 127.11790330875462, 35.772654958129003 ], [ 127.113594138643762, 35.776573780084867 ], [ 127.109665628442272, 35.786573264689466 ], [ 127.114741879796568, 35.788139061324394 ], [ 127.116770048604124, 35.783883603516401 ], [ 127.131671705793764, 35.781709207831646 ], [ 127.149158859919808, 35.77463336038214 ], [ 127.148766408898993, 35.77320310796906 ] ] ] ] } },
{ "type": "Feature", "properties": { "emd_cd": "52111135", "emd_nm": "중인동" }, "geometry": { "type": "MultiPolygon", "coordinates": [ [ [ [ 127.10957483099503, 35.785865145644635 ], [ 127.112609694600948, 35.77877161617608 ], [ 127.108421551926995, 35.77607189273251 ], [ 127.110307272099021, 35.773597113066899 ], [ 127.106002802172398, 35.771417742488083 ], [ 127.1072309550878, 35.76969927813024 ], [ 127.104497444803812, 35.767335332817218 ], [ 127.103737357568548, 35.762761234862623 ], [ 127.101574750173924, 35.761663657319311 ], [ 127.103040275062966, 35.758214482778733 ], [ 127.101634045509215, 35.755765305484815 ], [ 127.102588222740721, 35.752498847627876 ], [ 127.099126836976026, 35.747016959614932 ], [ 127.095694674553997, 35.74476655062751 ], [ 127.095729464721998, 35.737488409359649 ], [ 127.091506311180012, 35.736441063989339 ], [ 127.085139220270079, 35.728574762484392 ], [ 127.083023784105833, 35.729417476878496 ], [ 127.078542350534704, 35.736333344410795 ], [ 127.070369491902525, 35.742232849512426 ], [ 127.069294999280174, 35.748589791605632 ], [ 127.070428481916593, 35.751140755355088 ], [ 127.079719918506939, 35.760863145485018 ], [ 127.079001130108409, 35.766695567582161 ], [ 127.076054186815199, 35.76929532950551 ], [ 127.101261433592072, 35.775581822037658 ], [ 127.10957483099503, 35.785865145644635 ] ] ] ] } },
{ "type": "Feature", "properties": { "emd_cd": "52111136", "emd_nm": "용복동" }, "geometry": { "type": "MultiPolygon", "coordinates": [ [ [ [ 127.050435834044819, 35.755628427341392 ], [ 127.053515351472683, 35.763752226401138 ], [ 127.064201320252721, 35.766882053257902 ], [ 127.064156396714893, 35.76961027052517 ], [ 127.074159175497243, 35.775253893988321 ], [ 127.070855905660892, 35.782625915368257 ], [ 127.064606465697537, 35.78637907891045 ], [ 127.06619039290716, 35.790155676740028 ], [ 127.063593439394083, 35.795694407916592 ], [ 127.0647843389945, 35.797282335469177 ], [ 127.07354507463053, 35.791993522079686 ], [ 127.077295428241868, 35.786681157846843 ], [ 127.08444976021562, 35.783575044881474 ], [ 127.088830834491333, 35.777267272650732 ], [ 127.093665497713772, 35.777722702486862 ], [ 127.097713027761586, 35.775071671219671 ], [ 127.076054186815199, 35.76929532950551 ], [ 127.079001130108409, 35.766695567582161 ], [ 127.079719918506939, 35.760863145485018 ], [ 127.071771223252938, 35.753510782457901 ], [ 127.069294999280174, 35.748589791605632 ], [ 127.066019625892977, 35.749654591392492 ], [ 127.063221465633362, 35.753116044235156 ], [ 127.058370708041323, 35.752133922077654 ], [ 127.050435834044819, 35.755628427341392 ] ] ] ] } },
{ "type": "Feature", "properties": { "emd_cd": "52111137", "emd_nm": "삼천동1가" }, "geometry": { "type": "MultiPolygon", "coordinates": [ [ [ [ 127.108390884798638, 35.798469684173334 ], [ 127.111011601869606, 35.801321769487913 ], [ 127.114212175197338, 35.801326795872356 ], [ 127.113992248094064, 35.798587359686117 ], [ 127.116928912145852, 35.798541495299652 ], [ 127.116819710038627, 35.802282719157439 ], [ 127.131944595404036, 35.802900028693202 ], [ 127.133339182916558, 35.800652394642391 ], [ 127.134835831976332, 35.802222310580547 ], [ 127.136812171672673, 35.800776135211933 ], [ 127.13039251033247, 35.797784364888066 ], [ 127.132735529047849, 35.795509578781513 ], [ 127.132322109336044, 35.795093197635097 ], [ 127.114453090993109, 35.790202873693708 ], [ 127.11444392063818, 35.788139368676724 ], [ 127.111117142216671, 35.788598521502855 ], [ 127.111427102183967, 35.79322145267485 ], [ 127.108834431327466, 35.795637716898121 ], [ 127.108390884798638, 35.798469684173334 ] ] ] ] } },
{ "type": "Feature", "properties": { "emd_cd": "52111138", "emd_nm": "삼천동2가" }, "geometry": { "type": "MultiPolygon", "coordinates": [ [ [ [ 127.095568791917344, 35.794336662013713 ], [ 127.108203785352259, 35.795984181242119 ], [ 127.111427102183967, 35.79322145267485 ], [ 127.111117142216671, 35.788598521502855 ], [ 127.112288146732169, 35.788565894899293 ], [ 127.102736993322964, 35.776748406622644 ], [ 127.09803046060776, 35.774542682785565 ], [ 127.093665497713772, 35.777722702486862 ], [ 127.088830834491333, 35.777267272650732 ], [ 127.088542450019375, 35.779205508159407 ], [ 127.084534459311783, 35.782168002038254 ], [ 127.08444976021562, 35.783575044881474 ], [ 127.089928510659306, 35.783644321559862 ], [ 127.092044528163157, 35.784590258934486 ], [ 127.09242893690201, 35.787259509002403 ], [ 127.096391327750396, 35.78777418378278 ], [ 127.095568791917344, 35.794336662013713 ] ] ] ] } },
{ "type": "Feature", "properties": { "emd_cd": "52111139", "emd_nm": "삼천동3가" }, "geometry": { "type": "MultiPolygon", "coordinates": [ [ [ [ 127.08422848966292, 35.809249266888727 ], [ 127.087264472410467, 35.806893399221636 ], [ 127.08621534937032, 35.801440943770906 ], [ 127.090626311835237, 35.800232718219114 ], [ 127.089571700332357, 35.796710316617528 ], [ 127.095568791917344, 35.794336662013713 ], [ 127.096391327750396, 35.78777418378278 ], [ 127.09242893690201, 35.787259509002403 ], [ 127.092044528163157, 35.784590258934486 ], [ 127.089928510659306, 35.783644321559862 ], [ 127.081965774122295, 35.784142995120824 ], [ 127.077295428241868, 35.786681157846843 ], [ 127.07354507463053, 35.791993522079686 ], [ 127.064366909702755, 35.797656973264964 ], [ 127.065221892916824, 35.802286824746382 ], [ 127.068041368084621, 35.804143211242682 ], [ 127.066375490679462, 35.804779805882198 ], [ 127.067456788917127, 35.806280612054906 ], [ 127.074106433707115, 35.806844975259182 ], [ 127.076805909563092, 35.805281048301303 ], [ 127.079253711036586, 35.808487341109917 ], [ 127.08422848966292, 35.809249266888727 ] ] ] ] } },
{ "type": "Feature", "properties": { "emd_cd": "52111140", "emd_nm": "효자동1가" }, "geometry": { "type": "MultiPolygon", "coordinates": [ [ [ [ 127.115208735139049, 35.814083535433554 ], [ 127.122779610293492, 35.812021686087611 ], [ 127.122919465188431, 35.809258835681106 ], [ 127.126227456778736, 35.80911359056509 ], [ 127.126341706372102, 35.80789799307238 ], [ 127.139842599401092, 35.807761911516593 ], [ 127.141864073883625, 35.803369170108141 ], [ 127.136812171672673, 35.800776135211933 ], [ 127.134835831976332, 35.802222310580547 ], [ 127.133339182916558, 35.800652394642391 ], [ 127.131944595404036, 35.802900028693202 ], [ 127.116819710038627, 35.802282719157439 ], [ 127.116928912145852, 35.798541495299652 ], [ 127.113992248094064, 35.798587359686117 ], [ 127.114212175197338, 35.801326795872356 ], [ 127.111011601869606, 35.801321769487913 ], [ 127.108457845495636, 35.807534818846634 ], [ 127.11106549234141, 35.811848485478833 ], [ 127.115208735139049, 35.814083535433554 ] ] ] ] } },
{ "type": "Feature", "properties": { "emd_cd": "52111141", "emd_nm": "효자동2가" }, "geometry": { "type": "MultiPolygon", "coordinates": [ [ [ [ 127.084039664223866, 35.810807317076836 ], [ 127.089109544624918, 35.812706468035913 ], [ 127.094146022311278, 35.809839202441673 ], [ 127.093615820154909, 35.811737186371005 ], [ 127.09893724839867, 35.811743804538736 ], [ 127.101623966998048, 35.819237785877831 ], [ 127.106179227425557, 35.819298704206055 ], [ 127.106136899712652, 35.815630453699143 ], [ 127.108853700428057, 35.815691325498612 ], [ 127.108941318316212, 35.813715416379232 ], [ 127.114003694320161, 35.812600283955256 ], [ 127.11106549234141, 35.811848485478833 ], [ 127.108457845495636, 35.807534818846634 ], [ 127.111423382356321, 35.802492342898859 ], [ 127.108430234696414, 35.798931543710225 ], [ 127.108834431327466, 35.795637716898121 ], [ 127.106132477431359, 35.796339133091614 ], [ 127.105116609935763, 35.794985422163641 ], [ 127.103299637086224, 35.796284984756213 ], [ 127.095568791917344, 35.794336662013713 ], [ 127.089571700332357, 35.796710316617528 ], [ 127.090626311835237, 35.800232718219114 ], [ 127.08621534937032, 35.801440943770906 ], [ 127.087264472410467, 35.806893399221636 ], [ 127.084039664223866, 35.810807317076836 ] ] ] ] } },
{ "type": "Feature", "properties": { "emd_cd": "52111142", "emd_nm": "효자동3가" }, "geometry": { "type": "MultiPolygon", "coordinates": [ [ [ [ 127.115208735139049, 35.814083535433554 ], [ 127.114003694320161, 35.812600283955256 ], [ 127.108941318316212, 35.813715416379232 ], [ 127.108853700428057, 35.815691325498612 ], [ 127.106136899712652, 35.815630453699143 ], [ 127.106179227425557, 35.819298704206055 ], [ 127.101623966998048, 35.819237785877831 ], [ 127.09893724839867, 35.811743804538736 ], [ 127.093615820154909, 35.811737186371005 ], [ 127.094146022311278, 35.809839202441673 ], [ 127.089109544624918, 35.812706468035913 ], [ 127.08338973139837, 35.81104008752073 ], [ 127.082967080871768, 35.816197260121342 ], [ 127.080338576988396, 35.819016958526881 ], [ 127.080282038781903, 35.821957167389883 ], [ 127.08459135702509, 35.828326759933006 ], [ 127.083671162405224, 35.832230918115521 ], [ 127.086326750527078, 35.833284727670559 ], [ 127.086957891178329, 35.836223931254032 ], [ 127.090106233621867, 35.838212975642968 ], [ 127.099032940601774, 35.839498319723383 ], [ 127.101693583860538, 35.838523823931645 ], [ 127.104472200571706, 35.840080684707893 ], [ 127.105280699709638, 35.832882005078133 ], [ 127.111467695540014, 35.82929678896415 ], [ 127.113731600707069, 35.820522794138604 ], [ 127.112496232937445, 35.816780139045463 ], [ 127.115208735139049, 35.814083535433554 ] ] ] ] } },
{ "type": "Feature", "properties": { "emd_cd": "52111143", "emd_nm": "대성동" }, "geometry": { "type": "MultiPolygon", "coordinates": [ [ [ [ 127.172041327155682, 35.811890160398548 ], [ 127.179196080188561, 35.806669071840055 ], [ 127.181191776508712, 35.803265351482629 ], [ 127.17851032890988, 35.799230520611268 ], [ 127.183488900351875, 35.798192661919998 ], [ 127.181715822989943, 35.796077730648491 ], [ 127.184207455187064, 35.791084392042272 ], [ 127.185392165750585, 35.779137356696353 ], [ 127.180891768418846, 35.775557906610267 ], [ 127.175110254724146, 35.776199663499504 ], [ 127.170702117093981, 35.78081827122066 ], [ 127.163737123203816, 35.781805665558217 ], [ 127.161850073815927, 35.783412979614191 ], [ 127.163570191404915, 35.786122264458129 ], [ 127.16189870166383, 35.791583681192968 ], [ 127.164681558876524, 35.795382072256658 ], [ 127.161807292686959, 35.800958069647869 ], [ 127.164802731669056, 35.80248197390263 ], [ 127.163679794372868, 35.807347546114698 ], [ 127.172041327155682, 35.811890160398548 ] ] ] ] } },
{ "type": "Feature", "properties": { "emd_cd": "52111144", "emd_nm": "색장동" }, "geometry": { "type": "MultiPolygon", "coordinates": [ [ [ [ 127.180187663239622, 35.805109475038257 ], [ 127.187403053750771, 35.805486532278621 ], [ 127.191294628541471, 35.809751364200935 ], [ 127.198063129895615, 35.810880600588874 ], [ 127.204748535017231, 35.808626358288606 ], [ 127.207316527113477, 35.805765289691522 ], [ 127.213597781368421, 35.80488501127622 ], [ 127.217020120864689, 35.801145112881919 ], [ 127.206176643968917, 35.788689776218753 ], [ 127.199656814206065, 35.787704601158985 ], [ 127.201825502315913, 35.785127536483245 ], [ 127.199471255670815, 35.781511746343597 ], [ 127.199633371386042, 35.776351769111415 ], [ 127.198815217736396, 35.774771376169625 ], [ 127.195233782929648, 35.774147894653048 ], [ 127.188114033614056, 35.778995964439034 ], [ 127.185392165750585, 35.779137356696353 ], [ 127.184207455187064, 35.791084392042272 ], [ 127.181715822989943, 35.796077730648491 ], [ 127.183488900351875, 35.798192661919998 ], [ 127.17851032890988, 35.799230520611268 ], [ 127.178820094970234, 35.80081584306518 ], [ 127.180705204455464, 35.800984169166433 ], [ 127.180187663239622, 35.805109475038257 ] ] ] ] } },
{ "type": "Feature", "properties": { "emd_cd": "52111145", "emd_nm": "상림동" }, "geometry": { "type": "MultiPolygon", "coordinates": [ [ [ [ 127.067456788917127, 35.806280612054906 ], [ 127.067366047873435, 35.814749765864214 ], [ 127.06922593266539, 35.815173313286913 ], [ 127.065461289942775, 35.822182218948974 ], [ 127.067649972834957, 35.824743092086941 ], [ 127.076458861833913, 35.826977363110608 ], [ 127.079462397610726, 35.830359360396365 ], [ 127.083303849286992, 35.83106107220587 ], [ 127.08459135702509, 35.828326759933006 ], [ 127.080282038781903, 35.821957167389883 ], [ 127.080338576988396, 35.819016958526881 ], [ 127.082967080871768, 35.816197260121342 ], [ 127.08422848966292, 35.809249266888727 ], [ 127.079253711036586, 35.808487341109917 ], [ 127.076805909563092, 35.805281048301303 ], [ 127.074106433707115, 35.806844975259182 ], [ 127.067456788917127, 35.806280612054906 ] ] ] ] } },
{ "type": "Feature", "properties": { "emd_cd": "52111147", "emd_nm": "서노송동" }, "geometry": { "type": "MultiPolygon", "coordinates": [ [ [ [ 127.141239928353684, 35.827845740858194 ], [ 127.142561721689191, 35.82918460270777 ], [ 127.146058055822749, 35.82889893224241 ], [ 127.146520384653513, 35.830567972545794 ], [ 127.149007837165925, 35.830121663824691 ], [ 127.14898318998749, 35.82606677768041 ], [ 127.150100029708156, 35.825786680295671 ], [ 127.148796986034171, 35.825481434878178 ], [ 127.150436965743296, 35.82292797438496 ], [ 127.145701289037774, 35.82168742448556 ], [ 127.141239928353684, 35.827845740858194 ] ] ] ] } }
]
}
