{
"type": "FeatureCollection",
"name": "52130",
"crs": { "type": "name", "properties": { "name": "urn:ogc:def:crs:OGC:1.3:CRS84" } },
"features": [
{ "type": "Feature", "properties": { "emd_cd": "52130101", "emd_nm": "해망동" }, "geometry": { "type": "MultiPolygon", "coordinates": [ [ [ [ 126.695897421362929, 35.989011818345453 ], [ 126.695837996089963, 35.988855989339534 ], [ 126.694513470070149, 35.988121056527866 ], [ 126.695897421362929, 35.989011818345453 ] ] ], [ [ [ 126.704969582684654, 35.993572771234447 ], [ 126.704951660958443, 35.991136896100372 ], [ 126.699934783875946, 35.984523186125401 ], [ 126.695967531324058, 35.983496144394302 ], [ 126.693480546028013, 35.986264192296545 ], [ 126.692977662668511, 35.985920029148453 ], [ 126.692407733748013, 35.985734081617274 ], [ 126.704969582684654, 35.993572771234447 ] ] ], [ [ [ 126.693914888408699, 35.989769856286898 ], [ 126.684205178927641, 35.986269450521007 ], [ 126.657147063849834, 35.987218014441815 ], [ 126.657964344399218, 35.990385636633796 ], [ 126.679798466086723, 35.991430117296531 ], [ 126.701124535038403, 35.995447001054224 ], [ 126.693914888408699, 35.989769856286898 ] ] ] ] } },
{ "type": "Feature", "properties": { "emd_cd": "52130102", "emd_nm": "신흥동" }, "geometry": { "type": "MultiPolygon", "coordinates": [ [ [ [ 126.703234790814733, 35.989269853285954 ], [ 126.705717490434353, 35.989171384386097 ], [ 126.706881511192066, 35.986516605472481 ], [ 126.701528676513519, 35.985721891175977 ], [ 126.703234790814733, 35.989269853285954 ] ] ] ] } },
{ "type": "Feature", "properties": { "emd_cd": "52130103", "emd_nm": "금동" }, "geometry": { "type": "MultiPolygon", "coordinates": [ [ [ [ 126.706003180933465, 35.994608836601749 ], [ 126.710510053012911, 35.993146267200359 ], [ 126.706881511192066, 35.986516605472481 ], [ 126.705717490434353, 35.989171384386097 ], [ 126.703234790814733, 35.989269853285954 ], [ 126.706003180933465, 35.994608836601749 ] ] ] ] } },
{ "type": "Feature", "properties": { "emd_cd": "52130104", "emd_nm": "월명동" }, "geometry": { "type": "MultiPolygon", "coordinates": [ [ [ [ 126.708343355793204, 35.987058758202117 ], [ 126.710280576331826, 35.986040493537011 ], [ 126.708676925741415, 35.983213139420819 ], [ 126.701672926126847, 35.982325359116658 ], [ 126.699934783875946, 35.984523186125379 ], [ 126.708343355793204, 35.987058758202117 ] ] ] ] } },
{ "type": "Feature", "properties": { "emd_cd": "52130105", "emd_nm": "신창동" }, "geometry": { "type": "MultiPolygon", "coordinates": [ [ [ [ 126.708195686121485, 35.988517391708882 ], [ 126.712982577431532, 35.986016288524496 ], [ 126.712919118379091, 35.985567866041784 ], [ 126.707867570894521, 35.98662771018536 ], [ 126.708195686121485, 35.988517391708882 ] ] ] ] } },
{ "type": "Feature", "properties": { "emd_cd": "52130106", "emd_nm": "오룡동" }, "geometry": { "type": "MultiPolygon", "coordinates": [ [ [ [ 126.710908700207767, 35.981074951719997 ], [ 126.711429131617976, 35.979275604351855 ], [ 126.706425727504367, 35.976475856812073 ], [ 126.706727186074346, 35.980439446436897 ], [ 126.710908700207767, 35.981074951719997 ] ] ] ] } },
{ "type": "Feature", "properties": { "emd_cd": "52130107", "emd_nm": "금광동" }, "geometry": { "type": "MultiPolygon", "coordinates": [ [ [ [ 126.707892519301424, 35.983574597318182 ], [ 126.709277490487352, 35.980529299377565 ], [ 126.705623423223585, 35.980106655911612 ], [ 126.703802662926861, 35.982101281067223 ], [ 126.707892519301424, 35.983574597318182 ] ] ] ] } },
{ "type": "Feature", "properties": { "emd_cd": "52130108", "emd_nm": "신풍동" }, "geometry": { "type": "MultiPolygon", "coordinates": [ [ [ [ 126.703432738435879, 35.98219464914574 ], [ 126.706727186074346, 35.980439446436897 ], [ 126.706444836762657, 35.97826213624068 ], [ 126.700417521878435, 35.979514850152484 ], [ 126.700596551711811, 35.981219969409111 ], [ 126.703432738435879, 35.98219464914574 ] ] ] ] } },
{ "type": "Feature", "properties": { "emd_cd": "52130109", "emd_nm": "송풍동" }, "geometry": { "type": "MultiPolygon", "coordinates": [ [ [ [ 126.699473141790918, 35.984604523365839 ], [ 126.703068961464325, 35.982318970471702 ], [ 126.700596551711811, 35.981219969409111 ], [ 126.700417521878435, 35.979514850152484 ], [ 126.704460251692595, 35.978610089038725 ], [ 126.700689986648428, 35.975645240714535 ], [ 126.696389553678387, 35.979323052887572 ], [ 126.695967531324058, 35.98349614439428 ], [ 126.699473141790918, 35.984604523365839 ] ] ] ] } },
{ "type": "Feature", "properties": { "emd_cd": "52130110", "emd_nm": "문화동" }, "geometry": { "type": "MultiPolygon", "coordinates": [ [ [ [ 126.704478756302848, 35.978613307157275 ], [ 126.709211051386561, 35.974883543427303 ], [ 126.709005195208576, 35.970485274371875 ], [ 126.710882253303808, 35.969945636288472 ], [ 126.705143627519561, 35.96982268143509 ], [ 126.697163070685392, 35.973701170254444 ], [ 126.697742300038939, 35.976959114534239 ], [ 126.700692589873938, 35.975645851061685 ], [ 126.704478756302848, 35.978613307157275 ] ] ] ] } },
{ "type": "Feature", "properties": { "emd_cd": "52130111", "emd_nm": "삼학동" }, "geometry": { "type": "MultiPolygon", "coordinates": [ [ [ [ 126.713880349570616, 35.979950944530962 ], [ 126.713962111458699, 35.978416467720095 ], [ 126.717286152565038, 35.976583241045958 ], [ 126.714559039248769, 35.97407350152907 ], [ 126.707835789021644, 35.974881700286062 ], [ 126.709852452127507, 35.978452594665939 ], [ 126.713880349570616, 35.979950944530962 ] ] ] ] } },
{ "type": "Feature", "properties": { "emd_cd": "52130112", "emd_nm": "선양동" }, "geometry": { "type": "MultiPolygon", "coordinates": [ [ [ [ 126.712028535625876, 35.982518305093606 ], [ 126.714215827071058, 35.981104949120571 ], [ 126.711429131617976, 35.979275604351855 ], [ 126.710546405145806, 35.980636906781996 ], [ 126.712028535625876, 35.982518305093606 ] ] ] ] } },
{ "type": "Feature", "properties": { "emd_cd": "52130113", "emd_nm": "둔율동" }, "geometry": { "type": "MultiPolygon", "coordinates": [ [ [ [ 126.714306542176132, 35.982600932350465 ], [ 126.7164994945188, 35.982106790631988 ], [ 126.717255225029533, 35.980942224151292 ], [ 126.713881988950874, 35.981158673717985 ], [ 126.714306542176132, 35.982600932350465 ] ] ] ] } },
{ "type": "Feature", "properties": { "emd_cd": "52130114", "emd_nm": "창성동" }, "geometry": { "type": "MultiPolygon", "coordinates": [ [ [ [ 126.711558060065087, 35.985239603088658 ], [ 126.714771708814311, 35.983426216414472 ], [ 126.714431089567981, 35.98280842235723 ], [ 126.710988928435938, 35.982925319283304 ], [ 126.711558060065087, 35.985239603088658 ] ] ] ] } },
{ "type": "Feature", "properties": { "emd_cd": "52130115", "emd_nm": "명산동" }, "geometry": { "type": "MultiPolygon", "coordinates": [ [ [ [ 126.710555134166341, 35.985890114030219 ], [ 126.711162632608563, 35.983151316663928 ], [ 126.709965579805598, 35.981597944330126 ], [ 126.708676925741415, 35.983213139420819 ], [ 126.710555134166341, 35.985890114030219 ] ] ] ] } },
{ "type": "Feature", "properties": { "emd_cd": "52130116", "emd_nm": "송창동" }, "geometry": { "type": "MultiPolygon", "coordinates": [ [ [ [ 126.711279895284306, 35.982796345816674 ], [ 126.711136590553537, 35.981239751911389 ], [ 126.709220523257116, 35.980552439338112 ], [ 126.709107854917647, 35.982002130571338 ], [ 126.711279895284306, 35.982796345816674 ] ] ], [ [ [ 126.711162632608563, 35.983151316663928 ], [ 126.711330259136076, 35.984220035918554 ], [ 126.711309557628397, 35.983362559041922 ], [ 126.711162632608563, 35.983151316663928 ] ] ] ] } },
{ "type": "Feature", "properties": { "emd_cd": "52130117", "emd_nm": "개복동" }, "geometry": { "type": "MultiPolygon", "coordinates": [ [ [ [ 126.713029990357654, 35.985937905712738 ], [ 126.715812069948782, 35.984061809284981 ], [ 126.715421611904063, 35.983516718530737 ], [ 126.712237184784172, 35.9841868162559 ], [ 126.713029990357654, 35.985937905712738 ] ] ] ] } },
{ "type": "Feature", "properties": { "emd_cd": "52130118", "emd_nm": "중앙로1가" }, "geometry": { "type": "MultiPolygon", "coordinates": [ [ [ [ 126.708637458969719, 35.989093362506644 ], [ 126.712849671913602, 35.987981813132102 ], [ 126.715808196212151, 35.985105870865141 ], [ 126.709504589845722, 35.987451910367099 ], [ 126.708637458969719, 35.989093362506644 ] ] ] ] } },
{ "type": "Feature", "properties": { "emd_cd": "52130119", "emd_nm": "영화동" }, "geometry": { "type": "MultiPolygon", "coordinates": [ [ [ [ 126.709937034054008, 35.990799816266701 ], [ 126.714071296955225, 35.988724516663034 ], [ 126.713844899470089, 35.988128579347958 ], [ 126.708583798583547, 35.98912017817608 ], [ 126.709937034054008, 35.990799816266701 ] ] ] ] } },
{ "type": "Feature", "properties": { "emd_cd": "52130120", "emd_nm": "장미동" }, "geometry": { "type": "MultiPolygon", "coordinates": [ [ [ [ 126.710617237275088, 35.993067507675633 ], [ 126.719142911516002, 35.988757393763066 ], [ 126.719323813868698, 35.988124131299202 ], [ 126.713590788551002, 35.986203041386226 ], [ 126.712849671913602, 35.987981813132102 ], [ 126.714071296955225, 35.988724516663034 ], [ 126.708986315325546, 35.991704738856278 ], [ 126.710617237275088, 35.993067507675633 ] ] ] ] } },
{ "type": "Feature", "properties": { "emd_cd": "52130121", "emd_nm": "중앙로2가" }, "geometry": { "type": "MultiPolygon", "coordinates": [ [ [ [ 126.715838190452715, 35.985103013283279 ], [ 126.718725488300663, 35.983091365493863 ], [ 126.717364571908348, 35.9809063529027 ], [ 126.714233277020099, 35.982654109612234 ], [ 126.715838190452715, 35.985103013283279 ] ] ] ] } },
{ "type": "Feature", "properties": { "emd_cd": "52130122", "emd_nm": "영동" }, "geometry": { "type": "MultiPolygon", "coordinates": [ [ [ [ 126.714264080577877, 35.986124346610225 ], [ 126.717113125652759, 35.985369740268204 ], [ 126.717348705174473, 35.984918522556015 ], [ 126.714264080577877, 35.986124346610225 ] ] ] ] } },
{ "type": "Feature", "properties": { "emd_cd": "52130123", "emd_nm": "신영동" }, "geometry": { "type": "MultiPolygon", "coordinates": [ [ [ [ 126.719213845716226, 35.988188661794304 ], [ 126.720064401839124, 35.987534323755725 ], [ 126.720812422907699, 35.982355816917448 ], [ 126.717966914081444, 35.985193813426037 ], [ 126.719213845716226, 35.988188661794304 ] ] ] ] } },
{ "type": "Feature", "properties": { "emd_cd": "52130124", "emd_nm": "죽성동" }, "geometry": { "type": "MultiPolygon", "coordinates": [ [ [ [ 126.718344998967822, 35.986903395071955 ], [ 126.717348705174473, 35.984918522556015 ], [ 126.714945691865282, 35.986339026042529 ], [ 126.718344998967822, 35.986903395071955 ] ] ] ] } },
{ "type": "Feature", "properties": { "emd_cd": "52130125", "emd_nm": "평화동" }, "geometry": { "type": "MultiPolygon", "coordinates": [ [ [ [ 126.716916082330187, 35.984491397530853 ], [ 126.719278863466656, 35.984260829113353 ], [ 126.719749101412319, 35.982381876040954 ], [ 126.716916082330187, 35.984491397530853 ] ] ] ] } },
{ "type": "Feature", "properties": { "emd_cd": "52130126", "emd_nm": "중앙로3가" }, "geometry": { "type": "MultiPolygon", "coordinates": [ [ [ [ 126.719166306463123, 35.98216761853989 ], [ 126.719524391088612, 35.979995205527104 ], [ 126.718057560649427, 35.979789388548014 ], [ 126.717223254925187, 35.98102344811187 ], [ 126.719166306463123, 35.98216761853989 ] ] ] ] } },
{ "type": "Feature", "properties": { "emd_cd": "52130127", "emd_nm": "대명동" }, "geometry": { "type": "MultiPolygon", "coordinates": [ [ [ [ 126.71914260471074, 35.982309397857748 ], [ 126.721405002949126, 35.980483226017647 ], [ 126.72366830614061, 35.981090164373946 ], [ 126.723674078692881, 35.975702612454171 ], [ 126.719963951764797, 35.97811281654247 ], [ 126.71914260471074, 35.982309397857748 ] ] ] ] } },
{ "type": "Feature", "properties": { "emd_cd": "52130128", "emd_nm": "장재동" }, "geometry": { "type": "MultiPolygon", "coordinates": [ [ [ [ 126.720194530154586, 35.980019876667107 ], [ 126.719963951764797, 35.97811281654247 ], [ 126.721834527575069, 35.976536680135808 ], [ 126.717286152565038, 35.976583241045958 ], [ 126.718057560649427, 35.979789388548014 ], [ 126.720194530154586, 35.980019876667107 ] ] ] ] } },
{ "type": "Feature", "properties": { "emd_cd": "52130129", "emd_nm": "미원동" }, "geometry": { "type": "MultiPolygon", "coordinates": [ [ [ [ 126.714304763591713, 35.981102368186669 ], [ 126.717357691398462, 35.980917268495674 ], [ 126.718333888431289, 35.9793381384928 ], [ 126.71718383624318, 35.97745845118331 ], [ 126.713962111458699, 35.978416467720095 ], [ 126.714304763591713, 35.981102368186669 ] ] ] ] } },
{ "type": "Feature", "properties": { "emd_cd": "52130130", "emd_nm": "중동" }, "geometry": { "type": "MultiPolygon", "coordinates": [ [ [ [ 126.721863307065021, 35.986502858122172 ], [ 126.727892789629806, 35.984168340743793 ], [ 126.727343271610494, 35.981856557041397 ], [ 126.722363600825929, 35.98253990566964 ], [ 126.721863307065021, 35.986502858122172 ] ] ] ] } },
{ "type": "Feature", "properties": { "emd_cd": "52130131", "emd_nm": "금암동" }, "geometry": { "type": "MultiPolygon", "coordinates": [ [ [ [ 126.719210194014252, 35.988743808366252 ], [ 126.72414606184455, 35.987403443042453 ], [ 126.728737604037363, 35.985110639926653 ], [ 126.727695195115018, 35.984244088794959 ], [ 126.721705880281661, 35.986564892077197 ], [ 126.722630757453246, 35.980965731714818 ], [ 126.721405002949126, 35.980483226017647 ], [ 126.719210194014252, 35.988743808366252 ] ] ] ] } },
{ "type": "Feature", "properties": { "emd_cd": "52130132", "emd_nm": "동흥남동" }, "geometry": { "type": "MultiPolygon", "coordinates": [ [ [ [ 126.719318143137741, 35.97753081015194 ], [ 126.723674078692881, 35.975702612454171 ], [ 126.724083957654784, 35.973043838015009 ], [ 126.716951476877213, 35.973032547286195 ], [ 126.717247154204472, 35.976574929489004 ], [ 126.719318143137741, 35.97753081015194 ] ] ] ] } },
{ "type": "Feature", "properties": { "emd_cd": "52130133", "emd_nm": "서흥남동" }, "geometry": { "type": "MultiPolygon", "coordinates": [ [ [ [ 126.717349277604285, 35.976378018756456 ], [ 126.716951451247851, 35.973030420326886 ], [ 126.709005195208576, 35.970485274371875 ], [ 126.709211051386561, 35.974883543427303 ], [ 126.714409745179879, 35.973967700828126 ], [ 126.717349277604285, 35.976378018756456 ] ] ] ] } },
{ "type": "Feature", "properties": { "emd_cd": "52130134", "emd_nm": "조촌동" }, "geometry": { "type": "MultiPolygon", "coordinates": [ [ [ [ 126.743490662503064, 35.982975643374616 ], [ 126.74962883053901, 35.979596209657785 ], [ 126.751637756778933, 35.973327291021555 ], [ 126.743946762369603, 35.968317836282623 ], [ 126.741442764363399, 35.964876192327083 ], [ 126.741877888263758, 35.960793731789792 ], [ 126.735798120810827, 35.958982986876642 ], [ 126.734579893559271, 35.973495065163867 ], [ 126.731118918977231, 35.972304266443501 ], [ 126.729128994128743, 35.973994256854162 ], [ 126.733863178174147, 35.975607309215619 ], [ 126.739213124266229, 35.982226138643149 ], [ 126.743490662503064, 35.982975643374616 ] ] ] ] } },
{ "type": "Feature", "properties": { "emd_cd": "52130135", "emd_nm": "경장동" }, "geometry": { "type": "MultiPolygon", "coordinates": [ [ [ [ 126.724017801531872, 35.976747714462959 ], [ 126.731118918977231, 35.972304266443501 ], [ 126.734579893559271, 35.973495065163867 ], [ 126.734311813130049, 35.967082485552709 ], [ 126.736172404089146, 35.963804063594395 ], [ 126.725735670372245, 35.973060640157875 ], [ 126.724083911089835, 35.973047641091064 ], [ 126.724017801531872, 35.976747714462959 ] ] ] ] } },
{ "type": "Feature", "properties": { "emd_cd": "52130136", "emd_nm": "경암동" }, "geometry": { "type": "MultiPolygon", "coordinates": [ [ [ [ 126.729386305724532, 35.985230371600984 ], [ 126.740335649007889, 35.985115000970062 ], [ 126.738968051006069, 35.980993552792398 ], [ 126.733863178174147, 35.975607309215619 ], [ 126.729128994128743, 35.973994256854162 ], [ 126.724017801531872, 35.976747714462959 ], [ 126.722356597751087, 35.98258263457123 ], [ 126.72778737426043, 35.981739275693045 ], [ 126.729386305724532, 35.985230371600984 ] ] ] ] } },
{ "type": "Feature", "properties": { "emd_cd": "52130137", "emd_nm": "구암동" }, "geometry": { "type": "MultiPolygon", "coordinates": [ [ [ [ 126.737531893430443, 35.985807578559346 ], [ 126.742801946267591, 35.988755648162218 ], [ 126.751692090927023, 35.985853166596684 ], [ 126.753268479369183, 35.987974996950719 ], [ 126.760811512626674, 35.985895298548293 ], [ 126.76341435157785, 35.980510040517956 ], [ 126.751637756778933, 35.973327291021555 ], [ 126.747395174716985, 35.982282512943939 ], [ 126.739213124266229, 35.982226138643149 ], [ 126.740335649007889, 35.985115000970062 ], [ 126.737531893430443, 35.985807578559346 ] ] ] ] } },
{ "type": "Feature", "properties": { "emd_cd": "52130138", "emd_nm": "내흥동" }, "geometry": { "type": "MultiPolygon", "coordinates": [ [ [ [ 126.769453058004316, 36.010363362174303 ], [ 126.769814285276581, 36.006497133325567 ], [ 126.768227166137407, 36.004316897979855 ], [ 126.770733836985386, 36.002106751064261 ], [ 126.769311023222457, 36.00077819588423 ], [ 126.770560788807686, 35.997363566482804 ], [ 126.76423702730861, 35.994574615187986 ], [ 126.766066582510931, 35.992893736985323 ], [ 126.764004963325164, 35.98744862649967 ], [ 126.760811512626674, 35.985895298548293 ], [ 126.752707665724358, 35.987982748690733 ], [ 126.751692090927023, 35.985853166596684 ], [ 126.744386918070944, 35.98776904825317 ], [ 126.743786590704104, 35.989111489197356 ], [ 126.751611101593795, 35.998425093143318 ], [ 126.756600250211861, 36.010144330388869 ], [ 126.764570651147636, 36.006463983748482 ], [ 126.769453058004316, 36.010363362174303 ] ] ] ] } },
{ "type": "Feature", "properties": { "emd_cd": "52130139", "emd_nm": "개정동" }, "geometry": { "type": "MultiPolygon", "coordinates": [ [ [ [ 126.762740885161293, 35.979728464300429 ], [ 126.767878863686931, 35.977820572534696 ], [ 126.768101527274979, 35.975353333150139 ], [ 126.766515589508316, 35.974260111910105 ], [ 126.769123565566176, 35.971299892543456 ], [ 126.76672109486428, 35.968682308737741 ], [ 126.766448540480212, 35.965096104647287 ], [ 126.76742468537563, 35.962667401963294 ], [ 126.769661944753395, 35.961910672261347 ], [ 126.768722422901021, 35.95506103534801 ], [ 126.758502796603992, 35.954736744444311 ], [ 126.759750188631202, 35.96335306024536 ], [ 126.752345713109278, 35.964510843669743 ], [ 126.749845234182004, 35.969317663195447 ], [ 126.751241494185379, 35.973130096645626 ], [ 126.762740885161293, 35.979728464300429 ] ] ] ] } },
{ "type": "Feature", "properties": { "emd_cd": "52130140", "emd_nm": "사정동" }, "geometry": { "type": "MultiPolygon", "coordinates": [ [ [ [ 126.749933082127569, 35.971729996678548 ], [ 126.752345713109278, 35.964510843669743 ], [ 126.759750188631202, 35.96335306024536 ], [ 126.758493035996878, 35.954670006488463 ], [ 126.73621929446773, 35.957687885308147 ], [ 126.735837246618843, 35.958971105128576 ], [ 126.741877888263758, 35.960793731789792 ], [ 126.741442764363399, 35.964876192327083 ], [ 126.743946762369603, 35.968317836282623 ], [ 126.749933082127569, 35.971729996678548 ] ] ] ] } },
{ "type": "Feature", "properties": { "emd_cd": "52130141", "emd_nm": "수송동" }, "geometry": { "type": "MultiPolygon", "coordinates": [ [ [ [ 126.716235745269586, 35.97303456131759 ], [ 126.724020540989983, 35.973043475121123 ], [ 126.723422771453741, 35.971041995221405 ], [ 126.725750090457964, 35.971591896127194 ], [ 126.722552118953601, 35.965578202456506 ], [ 126.722968107035015, 35.958777820190107 ], [ 126.725424169827861, 35.954679982585326 ], [ 126.713661214474683, 35.955441372712819 ], [ 126.713513062728865, 35.959566246546615 ], [ 126.709242438404132, 35.959589910137943 ], [ 126.709132414395427, 35.962012508508074 ], [ 126.70563490175455, 35.961394959764647 ], [ 126.7060578645996, 35.964419644353249 ], [ 126.710842799509209, 35.963857513811703 ], [ 126.710785766947055, 35.970450622286513 ], [ 126.716235745269586, 35.97303456131759 ] ] ] ] } },
{ "type": "Feature", "properties": { "emd_cd": "52130142", "emd_nm": "미장동" }, "geometry": { "type": "MultiPolygon", "coordinates": [ [ [ [ 126.72614533411803, 35.972681496643254 ], [ 126.736061986655187, 35.963619490888938 ], [ 126.735924822829674, 35.958645341761112 ], [ 126.731126780866333, 35.958652907719809 ], [ 126.725712684802929, 35.956004509139589 ], [ 126.723072613438958, 35.958570329003138 ], [ 126.722580936107988, 35.965986760670809 ], [ 126.725869627836715, 35.971336987814198 ], [ 126.723422771453741, 35.971041995221405 ], [ 126.724020540989983, 35.973043475121123 ], [ 126.72614533411803, 35.972681496643254 ] ] ] ] } },
{ "type": "Feature", "properties": { "emd_cd": "52130143", "emd_nm": "지곡동" }, "geometry": { "type": "MultiPolygon", "coordinates": [ [ [ [ 126.709125847589362, 35.961959500209112 ], [ 126.709242438404132, 35.959589910137943 ], [ 126.713513062728865, 35.959566246546615 ], [ 126.713621706023289, 35.955472748951443 ], [ 126.718443674504456, 35.955359710704094 ], [ 126.71846792745346, 35.953199742353327 ], [ 126.714495910181867, 35.953163040624474 ], [ 126.715219571836514, 35.950276844750931 ], [ 126.710423208147105, 35.94637126001733 ], [ 126.709331794521873, 35.942963924588952 ], [ 126.701544304468939, 35.942573124900655 ], [ 126.7020770557899, 35.947438683438321 ], [ 126.703770413702486, 35.94802278336558 ], [ 126.70498528997615, 35.960613603874201 ], [ 126.709125847589362, 35.961959500209112 ] ] ] ] } },
{ "type": "Feature", "properties": { "emd_cd": "52130144", "emd_nm": "나운동" }, "geometry": { "type": "MultiPolygon", "coordinates": [ [ [ [ 126.694903610392089, 35.976199344465705 ], [ 126.705143627519561, 35.96982268143509 ], [ 126.711060511588371, 35.969680142279181 ], [ 126.710842799509209, 35.963857513811703 ], [ 126.705960953637955, 35.964365692517212 ], [ 126.703560384659298, 35.949719506528368 ], [ 126.697416629660339, 35.950602412983791 ], [ 126.697493580037545, 35.952953396574742 ], [ 126.69033235475456, 35.950819201387901 ], [ 126.685047888869093, 35.956214788192071 ], [ 126.684713674735661, 35.961850790518334 ], [ 126.686419307436225, 35.962598983041133 ], [ 126.684727188111026, 35.9653709626661 ], [ 126.692229702668968, 35.968243421309666 ], [ 126.691279513966393, 35.973534646374098 ], [ 126.694903610392089, 35.976199344465705 ] ] ] ] } },
{ "type": "Feature", "properties": { "emd_cd": "52130145", "emd_nm": "미룡동" }, "geometry": { "type": "MultiPolygon", "coordinates": [ [ [ [ 126.683427124040108, 35.95982220914405 ], [ 126.69033235475456, 35.950819201387901 ], [ 126.697493580037545, 35.952953396574742 ], [ 126.697416629660339, 35.950602412983791 ], [ 126.703560384659298, 35.949719506528368 ], [ 126.70146039211248, 35.942369056456187 ], [ 126.697594560134718, 35.940559418801818 ], [ 126.696391439533585, 35.937909987526403 ], [ 126.691814113007865, 35.93770702690945 ], [ 126.689285085701016, 35.935675460804518 ], [ 126.687420718238187, 35.938473297393045 ], [ 126.684175310741949, 35.937664703604597 ], [ 126.685570020019853, 35.942086294793555 ], [ 126.67800984028527, 35.945052817137345 ], [ 126.675540125951471, 35.949097458851739 ], [ 126.672482232696552, 35.950020692081544 ], [ 126.675019909063394, 35.959530548101171 ], [ 126.683427124040108, 35.95982220914405 ] ] ] ] } },
{ "type": "Feature", "properties": { "emd_cd": "52130146", "emd_nm": "소룡동" }, "geometry": { "type": "MultiPolygon", "coordinates": [ [ [ [ 126.693464931898106, 35.986886475488582 ], [ 126.692407733748041, 35.985734081617274 ], [ 126.693480546028042, 35.986264192296545 ], [ 126.695967531324058, 35.98349614439428 ], [ 126.697899844371264, 35.976605637334856 ], [ 126.693640902833835, 35.975987613119578 ], [ 126.693796751589346, 35.974712388723866 ], [ 126.691443564501043, 35.973822435678379 ], [ 126.692229702668968, 35.968243421309666 ], [ 126.689026759690975, 35.966138949443916 ], [ 126.686049848586094, 35.966802595741008 ], [ 126.684052084164577, 35.969282726427437 ], [ 126.675087977821505, 35.969443551314079 ], [ 126.675383823500127, 35.973436143704724 ], [ 126.677479906395433, 35.974681152304548 ], [ 126.671556565236116, 35.978790639397737 ], [ 126.634950168352248, 35.968469397184471 ], [ 126.622187371021582, 35.965604684254359 ], [ 126.610582321508303, 35.9650170780805 ], [ 126.592975400963795, 35.954809937779416 ], [ 126.587780563508815, 35.95378041031816 ], [ 126.586265236649808, 35.955087797287582 ], [ 126.582879115285266, 35.953295139736156 ], [ 126.582197285373866, 35.955265888181252 ], [ 126.567731578399034, 35.955058934707104 ], [ 126.567175965739878, 35.960638397326115 ], [ 126.575095987637269, 35.961083340868555 ], [ 126.577969288242315, 35.963058816473158 ], [ 126.577868921018691, 35.96441606809239 ], [ 126.574745418311565, 35.963359671872183 ], [ 126.572904985682186, 35.964425571967361 ], [ 126.573669356288292, 35.965801675727512 ], [ 126.569677587317216, 35.965951493394485 ], [ 126.569935870302317, 35.975041807231214 ], [ 126.572989644405268, 35.976107451633553 ], [ 126.617234037688291, 35.977495369941764 ], [ 126.618299737548242, 35.970683478496944 ], [ 126.6246734385754, 35.971012725970532 ], [ 126.624785947722557, 35.977523810542458 ], [ 126.622116331248677, 35.977394122956944 ], [ 126.620919059551596, 35.978728560551566 ], [ 126.647255975359556, 35.979010247487771 ], [ 126.667628228857112, 35.983862543111307 ], [ 126.674401576279905, 35.982702393891458 ], [ 126.684136698337326, 35.983875434220238 ], [ 126.693464931898106, 35.986886475488582 ] ] ] ] } },
{ "type": "Feature", "properties": { "emd_cd": "52130147", "emd_nm": "오식도동" }, "geometry": { "type": "MultiPolygon", "coordinates": [ [ [ [ 126.563308818431338, 35.971986375138748 ], [ 126.570085887165163, 35.97324737983373 ], [ 126.569677587317216, 35.965951493394485 ], [ 126.573669356288292, 35.965801675727512 ], [ 126.572904985682186, 35.964425571967361 ], [ 126.574745418311565, 35.963359671872183 ], [ 126.578074678409422, 35.964165893034377 ], [ 126.575095987637269, 35.961083340868555 ], [ 126.567175965739878, 35.960638397326115 ], [ 126.567731578399034, 35.955058934707104 ], [ 126.582197285373866, 35.955265888181252 ], [ 126.582760114820957, 35.95218601701437 ], [ 126.58734099890485, 35.952940374710664 ], [ 126.58804103786423, 35.948352204582555 ], [ 126.593874998699022, 35.948563666754779 ], [ 126.587334181955143, 35.947828029069079 ], [ 126.58751963331342, 35.920975166494664 ], [ 126.572202079873321, 35.92014434179233 ], [ 126.569392258901814, 35.918439047155914 ], [ 126.564774050403557, 35.928012248942871 ], [ 126.564118198616995, 35.93620685104186 ], [ 126.539782111828089, 35.935077343580375 ], [ 126.541870747051206, 35.939112107037943 ], [ 126.540662206527983, 35.943106309834882 ], [ 126.542331523680673, 35.943274206001256 ], [ 126.540252980463563, 35.969276943489952 ], [ 126.547609713639119, 35.969667192888458 ], [ 126.547203443999663, 35.974748102160348 ], [ 126.563024509893125, 35.97558299293356 ], [ 126.563308818431338, 35.971986375138748 ] ] ], [ [ [ 126.515779156829026, 35.996881279064894 ], [ 126.491244657429974, 35.978623052166306 ], [ 126.491169608587271, 35.978689603525339 ], [ 126.515779156829026, 35.996881279064894 ] ] ] ] } },
{ "type": "Feature", "properties": { "emd_cd": "52130148", "emd_nm": "비응도동" }, "geometry": { "type": "MultiPolygon", "coordinates": [ [ [ [ 126.513115388193214, 35.974708487935374 ], [ 126.518194991129818, 35.972306929324418 ], [ 126.522659563400552, 35.972545264561916 ], [ 126.522996099488807, 35.968366197709514 ], [ 126.525759150835, 35.968512635785629 ], [ 126.52585681623674, 35.973615292327246 ], [ 126.537367032077796, 35.974226867505116 ], [ 126.53777580901189, 35.969146723953003 ], [ 126.540252980463563, 35.969276943489952 ], [ 126.542331523680673, 35.943274206001256 ], [ 126.540662206527983, 35.943106309834882 ], [ 126.541870747051206, 35.939112107037943 ], [ 126.539579885660515, 35.935577801772489 ], [ 126.540889262077272, 35.932337238447467 ], [ 126.534419381607663, 35.934101091858672 ], [ 126.51674976957203, 35.890436272824466 ], [ 126.514808833806271, 35.890973581004765 ], [ 126.532231531245543, 35.933294829631315 ], [ 126.531423500265831, 35.93361237980703 ], [ 126.529801764896803, 35.93332627831289 ], [ 126.529108148196414, 35.933443144275998 ], [ 126.531285384809522, 35.933712776522384 ], [ 126.532683876073747, 35.937390298031325 ], [ 126.529188689296262, 35.938383900783968 ], [ 126.526409254555915, 35.934129955492594 ], [ 126.527504741188977, 35.933393025370805 ], [ 126.526165687234325, 35.934184687334493 ], [ 126.525231830005907, 35.935351320759949 ], [ 126.525379084308483, 35.938090193934769 ], [ 126.528471883919153, 35.940023024366504 ], [ 126.52968609316234, 35.943170199794402 ], [ 126.531079019341604, 35.94303255122324 ], [ 126.531118563176179, 35.944813079094516 ], [ 126.525548116585242, 35.944425856709671 ], [ 126.522473608859542, 35.948481310582693 ], [ 126.521518928274688, 35.97241949374574 ], [ 126.518163870750485, 35.97219225871698 ], [ 126.513115388193214, 35.974708487935374 ] ] ] ] } },
{ "type": "Feature", "properties": { "emd_cd": "52130149", "emd_nm": "신관동" }, "geometry": { "type": "MultiPolygon", "coordinates": [ [ [ [ 126.669790214849314, 35.950522542103762 ], [ 126.674330246960508, 35.949889359502897 ], [ 126.677667756730287, 35.946922706743571 ], [ 126.676907466632372, 35.945728144452566 ], [ 126.684537192054833, 35.943143087829277 ], [ 126.685910193435248, 35.941327784245402 ], [ 126.684175310741949, 35.937664703604597 ], [ 126.687420718238187, 35.938473297393045 ], [ 126.689827277370441, 35.934152893045272 ], [ 126.680491466708887, 35.933824058512727 ], [ 126.678973558755558, 35.935794186659322 ], [ 126.680910493052423, 35.936709249619852 ], [ 126.674049386001258, 35.939047077915191 ], [ 126.661317881547774, 35.938529746336897 ], [ 126.654299827360987, 35.94080868016286 ], [ 126.655346060244497, 35.946698325242487 ], [ 126.663525084959517, 35.945300190397262 ], [ 126.665142260036291, 35.947957964551037 ], [ 126.668295656792239, 35.948184964252256 ], [ 126.669790214849314, 35.950522542103762 ] ] ] ] } },
{ "type": "Feature", "properties": { "emd_cd": "52130150", "emd_nm": "개사동" }, "geometry": { "type": "MultiPolygon", "coordinates": [ [ [ [ 126.634281170675933, 35.948921176575922 ], [ 126.655346060244497, 35.946698325242487 ], [ 126.654299827360987, 35.94080868016286 ], [ 126.661317881547774, 35.938529746336897 ], [ 126.67166610638175, 35.939583537627534 ], [ 126.678631943946286, 35.937711785561788 ], [ 126.68147621227719, 35.935907255691511 ], [ 126.67898352055299, 35.935829848163216 ], [ 126.680561354990061, 35.93427453745025 ], [ 126.680152207759832, 35.931813103391953 ], [ 126.676485049192294, 35.925654475423443 ], [ 126.66780175336325, 35.928538904605887 ], [ 126.663302972857466, 35.919554568447879 ], [ 126.655679932313546, 35.920968254613513 ], [ 126.647726883086577, 35.925793203479657 ], [ 126.648283049023249, 35.927596009501393 ], [ 126.646310878539907, 35.930269350105604 ], [ 126.647940211649484, 35.931718654376688 ], [ 126.634217334657578, 35.939390670176792 ], [ 126.634265748506152, 35.942815566890069 ], [ 126.632605486468819, 35.944416730559936 ], [ 126.624957105987292, 35.942435414776718 ], [ 126.621273190819267, 35.944247568999664 ], [ 126.623599336037785, 35.953065194933693 ], [ 126.634281170675933, 35.948921176575922 ] ] ], [ [ [ 126.670926375240171, 36.835994854090117 ], [ 126.669962020085975, 36.835558273265974 ], [ 126.670940652654153, 36.836147016835589 ], [ 126.670926375240171, 36.835994854090117 ] ] ] ] } },
{ "type": "Feature", "properties": { "emd_cd": "52130151", "emd_nm": "산북동" }, "geometry": { "type": "MultiPolygon", "coordinates": [ [ [ [ 126.671718598436357, 35.978677088677181 ], [ 126.677479906395433, 35.974681152304548 ], [ 126.675383823500127, 35.973436143704724 ], [ 126.675087977821505, 35.969443551314079 ], [ 126.684387459881293, 35.969197365482344 ], [ 126.686639889033984, 35.966469897445023 ], [ 126.684583565958008, 35.965061047590716 ], [ 126.686419307436225, 35.962598983041133 ], [ 126.684713674735661, 35.961850790518334 ], [ 126.684944890330115, 35.959701698494428 ], [ 126.675019909063394, 35.959530548101171 ], [ 126.674692431958846, 35.955068210740208 ], [ 126.672965004776074, 35.954597974253701 ], [ 126.673197908312375, 35.950643914614552 ], [ 126.668653324080054, 35.950362626309349 ], [ 126.668998682284922, 35.948683500540596 ], [ 126.665142260036291, 35.947957964551037 ], [ 126.663566403479052, 35.945313086163686 ], [ 126.634281170675933, 35.948921176575922 ], [ 126.620410806734597, 35.954804957734297 ], [ 126.622233477012202, 35.96565349618858 ], [ 126.652672150229449, 35.972523289654326 ], [ 126.671718598436357, 35.978677088677181 ] ] ] ] } },
{ "type": "Feature", "properties": { "emd_cd": "52130152", "emd_nm": "내초동" }, "geometry": { "type": "MultiPolygon", "coordinates": [ [ [ [ 126.622154494861491, 35.965612943734591 ], [ 126.620305539823704, 35.955233671165445 ], [ 126.623599336037785, 35.953065194933693 ], [ 126.621196081384468, 35.944741387908543 ], [ 126.622139905108739, 35.942955297583119 ], [ 126.616332715931222, 35.942488472400406 ], [ 126.593907456258549, 35.946842511998007 ], [ 126.592919040609175, 35.94903716662423 ], [ 126.587911683905617, 35.948438997869992 ], [ 126.58734099890485, 35.952940374710664 ], [ 126.582760114820957, 35.95218601701437 ], [ 126.582646675096285, 35.953539444646125 ], [ 126.585789710296027, 35.954982330066073 ], [ 126.587780563508815, 35.95378041031816 ], [ 126.592975400963795, 35.954809937779416 ], [ 126.610582321508303, 35.9650170780805 ], [ 126.622154494861491, 35.965612943734591 ] ] ] ] } },
{ "type": "Feature", "properties": { "emd_cd": "52130250", "emd_nm": "옥구읍" }, "geometry": { "type": "MultiPolygon", "coordinates": [ [ [ [ 126.699544765568149, 35.942119776578934 ], [ 126.709226220131455, 35.942969732920758 ], [ 126.710025385055303, 35.937069897381079 ], [ 126.714618146501351, 35.931294901361525 ], [ 126.716875623541227, 35.930685622641697 ], [ 126.716166726634981, 35.928832732048775 ], [ 126.71791634677507, 35.927800717885063 ], [ 126.729416139210755, 35.928626233968572 ], [ 126.72979126944503, 35.905995708716155 ], [ 126.726693407241157, 35.903613491428629 ], [ 126.723917795999171, 35.905292299383603 ], [ 126.723254722080156, 35.90190928106886 ], [ 126.719374623333223, 35.901854384350393 ], [ 126.716044730735533, 35.899281500504976 ], [ 126.716106342623505, 35.895292940683944 ], [ 126.713145568106839, 35.889841504804515 ], [ 126.716651696476816, 35.87399665424779 ], [ 126.676494266795416, 35.869862476670939 ], [ 126.674550931377539, 35.889154832843118 ], [ 126.667501667610239, 35.883590048530451 ], [ 126.6523663247456, 35.885328768524658 ], [ 126.658877597003368, 35.898703089971036 ], [ 126.66028720376417, 35.899084477738199 ], [ 126.650133007195052, 35.901872624948986 ], [ 126.650177545900178, 35.924293833303174 ], [ 126.655923707589295, 35.920879445775263 ], [ 126.663302972857466, 35.919554568447879 ], [ 126.66780175336325, 35.928538904605887 ], [ 126.676485049192294, 35.925654475423443 ], [ 126.680424635389741, 35.93380448528427 ], [ 126.689827277370441, 35.934152893045272 ], [ 126.689851578899763, 35.936748066012584 ], [ 126.696391439533585, 35.937909987526403 ], [ 126.699544765568149, 35.942119776578934 ] ] ] ] } },
{ "type": "Feature", "properties": { "emd_cd": "52130310", "emd_nm": "옥산면" }, "geometry": { "type": "MultiPolygon", "coordinates": [ [ [ [ 126.732657599694377, 35.958886177766807 ], [ 126.754468636357174, 35.954772391780537 ], [ 126.768708087732222, 35.954891963449363 ], [ 126.76905919474099, 35.948058930311426 ], [ 126.774028177324979, 35.940397893627868 ], [ 126.773087455722333, 35.936396797755279 ], [ 126.774188118750686, 35.933077248768974 ], [ 126.766856219163458, 35.931803191236042 ], [ 126.759286999834444, 35.93362111215945 ], [ 126.755710094074402, 35.931501862113784 ], [ 126.753962271334899, 35.932159057476447 ], [ 126.754275520893771, 35.933835170968926 ], [ 126.751899326026688, 35.930691235023744 ], [ 126.748163435723995, 35.932252669167831 ], [ 126.746149196484183, 35.930878200831195 ], [ 126.746907435866106, 35.930038309402796 ], [ 126.746682953006484, 35.929742164950639 ], [ 126.744133650830349, 35.930513241509523 ], [ 126.742733273655205, 35.927030426540966 ], [ 126.740335693426118, 35.925560241275768 ], [ 126.741175955626318, 35.920677058580686 ], [ 126.742653488099478, 35.920145152014086 ], [ 126.742350570593075, 35.916754396505176 ], [ 126.738781735773458, 35.913923660596694 ], [ 126.736196496611981, 35.915892012076824 ], [ 126.735397723845892, 35.915086070843941 ], [ 126.729511789891902, 35.91988099309004 ], [ 126.729416139210755, 35.928626233968572 ], [ 126.71791634677507, 35.927800717885063 ], [ 126.716166726634981, 35.928832732048775 ], [ 126.716875623541227, 35.930685622641697 ], [ 126.714618146501351, 35.931294901361525 ], [ 126.710025385055303, 35.937069897381079 ], [ 126.709248064430184, 35.94144328724898 ], [ 126.710423208147105, 35.94637126001733 ], [ 126.715219571836514, 35.950276844750931 ], [ 126.714495910181867, 35.953163040624474 ], [ 126.71846792745346, 35.953199742353327 ], [ 126.718446672062285, 35.955227867691001 ], [ 126.724699133883902, 35.954390730115911 ], [ 126.725668301680287, 35.956702906189328 ], [ 126.732657599694377, 35.958886177766807 ] ] ] ] } },
{ "type": "Feature", "properties": { "emd_cd": "52130320", "emd_nm": "회현면" }, "geometry": { "type": "MultiPolygon", "coordinates": [ [ [ [ 126.774038740523096, 35.939627475346654 ], [ 126.783776574165969, 35.93358972332156 ], [ 126.781657189226408, 35.929491529195062 ], [ 126.786581211083231, 35.925326816136469 ], [ 126.78870733626303, 35.920852264101256 ], [ 126.790367622863982, 35.919837579821682 ], [ 126.790967693467593, 35.921176763970195 ], [ 126.792785470941212, 35.917498704315385 ], [ 126.801984514009476, 35.916395766019996 ], [ 126.809838297860878, 35.901320431386971 ], [ 126.790358384118989, 35.895719913387772 ], [ 126.790399273641668, 35.877781567281474 ], [ 126.768258738951275, 35.875960492004985 ], [ 126.757174219697063, 35.879543438114098 ], [ 126.716651696476816, 35.87399665424779 ], [ 126.713145568106839, 35.889841504804515 ], [ 126.716106342623505, 35.895292940683944 ], [ 126.716044730735533, 35.899281500504976 ], [ 126.719374623333223, 35.901854384350393 ], [ 126.723254722080156, 35.90190928106886 ], [ 126.723917795999171, 35.905292299383603 ], [ 126.726693407241157, 35.903613491428629 ], [ 126.72979126944503, 35.905995708716155 ], [ 126.729546819829991, 35.919882117855352 ], [ 126.735397723845892, 35.915086070843941 ], [ 126.740756755670901, 35.914453241969404 ], [ 126.742653488099478, 35.920145152014086 ], [ 126.741175955626318, 35.920677058580686 ], [ 126.740335693426118, 35.925560241275768 ], [ 126.742733273655205, 35.927030426540966 ], [ 126.744133650830349, 35.930513241509523 ], [ 126.746682953006484, 35.929742164950639 ], [ 126.746149196484183, 35.930878200831195 ], [ 126.748163435723995, 35.932252669167831 ], [ 126.751899326026688, 35.930691235023744 ], [ 126.754275520893771, 35.933835170968926 ], [ 126.753962271334899, 35.932159057476447 ], [ 126.755710094074402, 35.931501862113784 ], [ 126.759717519557753, 35.93365707390732 ], [ 126.76360154445203, 35.932038814056369 ], [ 126.772342610333197, 35.93225093999596 ], [ 126.774408902032732, 35.93346239492567 ], [ 126.773106261389074, 35.935768852962774 ], [ 126.774038740523096, 35.939627475346654 ] ] ] ] } },
{ "type": "Feature", "properties": { "emd_cd": "52130330", "emd_nm": "임피면" }, "geometry": { "type": "MultiPolygon", "coordinates": [ [ [ [ 126.843273655725639, 36.00621643360212 ], [ 126.852125835874205, 35.998763851265103 ], [ 126.85821100796349, 35.997485716453724 ], [ 126.86094058217158, 35.994633315619474 ], [ 126.867329566911835, 35.992688560258784 ], [ 126.865983369333961, 35.990640701127617 ], [ 126.863863667939953, 35.990481925772876 ], [ 126.865660027639009, 35.986397892208366 ], [ 126.861429309963299, 35.980752478545838 ], [ 126.857337851231208, 35.97874280329053 ], [ 126.858984656612407, 35.977070653918425 ], [ 126.855786859381013, 35.975187127398044 ], [ 126.85639102790158, 35.973771908907381 ], [ 126.870377516431077, 35.974519711355853 ], [ 126.876903955723975, 35.973196347109152 ], [ 126.877628474021606, 35.975291773768525 ], [ 126.881659630500778, 35.977294993719411 ], [ 126.886042766220655, 35.97569665830526 ], [ 126.889195544374871, 35.977878130967341 ], [ 126.891556648825457, 35.976287409710544 ], [ 126.892169700469452, 35.978781151760465 ], [ 126.910463527344248, 35.983315412632422 ], [ 126.909505611053405, 35.981289798879402 ], [ 126.90231886351917, 35.978553348396346 ], [ 126.902980090297476, 35.972124556358786 ], [ 126.900498379792353, 35.971998349452434 ], [ 126.885083293526591, 35.960804272165916 ], [ 126.888347503558819, 35.959047618062876 ], [ 126.890780020173821, 35.959702198541706 ], [ 126.893675227680006, 35.955131100159647 ], [ 126.890286913221857, 35.952663738222093 ], [ 126.882356996090891, 35.955158840265881 ], [ 126.879039551848464, 35.950061105202742 ], [ 126.871452622650963, 35.951987050299557 ], [ 126.863002405376051, 35.948169632809332 ], [ 126.858762252324283, 35.952532435816778 ], [ 126.855142805801904, 35.951694617125924 ], [ 126.855821294353021, 35.950010855411506 ], [ 126.842297869001229, 35.953373753987123 ], [ 126.832055765087773, 35.951985264441397 ], [ 126.834472433567086, 35.957881454473949 ], [ 126.833412027133548, 35.966205376768606 ], [ 126.834892093775224, 35.972126266295341 ], [ 126.831927270502348, 35.976568063558624 ], [ 126.83444331847943, 35.978030692004523 ], [ 126.83231270496654, 35.981563239700385 ], [ 126.828469340747986, 35.982875906847376 ], [ 126.828035036492295, 35.985446566564441 ], [ 126.829050885489821, 35.985373832410936 ], [ 126.829500526787214, 35.985414032587244 ], [ 126.830046780688519, 35.990101254966333 ], [ 126.836265329889684, 35.993814357369367 ], [ 126.84038885762503, 35.998557381604563 ], [ 126.840557081762, 36.004791894032493 ], [ 126.843273655725639, 36.00621643360212 ] ] ] ] } },
{ "type": "Feature", "properties": { "emd_cd": "52130340", "emd_nm": "서수면" }, "geometry": { "type": "MultiPolygon", "coordinates": [ [ [ [ 126.87054443666716, 36.032936753141421 ], [ 126.8790694653363, 36.02996668572456 ], [ 126.884323510544235, 36.025849379144319 ], [ 126.890284811361354, 36.01771143301297 ], [ 126.896324089779995, 36.013787043263953 ], [ 126.90108679796289, 36.007891989280921 ], [ 126.914954513755063, 36.004289405731249 ], [ 126.915146103650343, 35.996720613796754 ], [ 126.913180244093823, 35.990895572585956 ], [ 126.908218402642717, 35.987074285344036 ], [ 126.907858899325603, 35.983597152216753 ], [ 126.892169700469452, 35.978781151760465 ], [ 126.891556648825457, 35.976287409710544 ], [ 126.889195544374871, 35.977878130967341 ], [ 126.886042766220655, 35.97569665830526 ], [ 126.881659630500778, 35.977294993719411 ], [ 126.877628474021606, 35.975291773768525 ], [ 126.876903955723975, 35.973196347109152 ], [ 126.870377516431077, 35.974519711355853 ], [ 126.855878439771033, 35.974058699615597 ], [ 126.858984656612407, 35.977070653918425 ], [ 126.857337851231208, 35.97874280329053 ], [ 126.861429309963299, 35.980752478545838 ], [ 126.865660027639009, 35.986397892208366 ], [ 126.863863667939953, 35.990481925772876 ], [ 126.865983369333961, 35.990640701127617 ], [ 126.867329566911835, 35.992688560258784 ], [ 126.84733485655164, 36.001548394837762 ], [ 126.84361318039997, 36.006301920499681 ], [ 126.846523230468421, 36.012826565008034 ], [ 126.840363688168154, 36.018488015532455 ], [ 126.843743276017335, 36.020412185574536 ], [ 126.853422304338892, 36.020442799729359 ], [ 126.861854384780585, 36.016479288275058 ], [ 126.866683461933462, 36.017429628328607 ], [ 126.868221632844566, 36.020298546019291 ], [ 126.866586676148785, 36.022486448624775 ], [ 126.87154426265262, 36.02773915761518 ], [ 126.869600511973829, 36.031012601235325 ], [ 126.87054443666716, 36.032936753141421 ] ] ] ] } },
{ "type": "Feature", "properties": { "emd_cd": "52130350", "emd_nm": "대야면" }, "geometry": { "type": "MultiPolygon", "coordinates": [ [ [ [ 126.831946386598943, 35.976546794501139 ], [ 126.834892093775224, 35.972126266295341 ], [ 126.833412027133548, 35.966205376768606 ], [ 126.834472433567086, 35.957881454473949 ], [ 126.832226689051183, 35.951867822459228 ], [ 126.842297869001229, 35.953373753987123 ], [ 126.855821294353021, 35.950010855411506 ], [ 126.855142805801904, 35.951694617125924 ], [ 126.858762252324283, 35.952532435816778 ], [ 126.863002405376051, 35.948169632809332 ], [ 126.871452622650963, 35.951987050299557 ], [ 126.879039551848464, 35.950061105202742 ], [ 126.882356996090891, 35.955158840265881 ], [ 126.890286913221857, 35.952663738222093 ], [ 126.883000374840336, 35.947996222996686 ], [ 126.880881460605778, 35.940940314922742 ], [ 126.88182692764029, 35.93946252174085 ], [ 126.878157976553098, 35.933883958351174 ], [ 126.865518237322945, 35.92261017576822 ], [ 126.861555290307095, 35.921260164551398 ], [ 126.859638089477741, 35.917491962263078 ], [ 126.855396116572535, 35.918786950702035 ], [ 126.847712287587754, 35.915743111328318 ], [ 126.845199490810018, 35.918827873339318 ], [ 126.83772708971901, 35.912124953595416 ], [ 126.829095437252462, 35.907207731599094 ], [ 126.809838297860878, 35.901320431386971 ], [ 126.801984514009476, 35.916395766019996 ], [ 126.792785470941212, 35.917498704315385 ], [ 126.790967693467593, 35.921176763970195 ], [ 126.790367622863982, 35.919837579821682 ], [ 126.78870733626303, 35.920852264101256 ], [ 126.786581211083231, 35.925326816136469 ], [ 126.782512867911578, 35.928163228377905 ], [ 126.78193553712677, 35.931634537856525 ], [ 126.785758646515674, 35.934624791936002 ], [ 126.804352253798953, 35.940331883198326 ], [ 126.802063195150737, 35.943209152023023 ], [ 126.804212790075169, 35.945653498272655 ], [ 126.806999748558809, 35.946047486694205 ], [ 126.808655949593728, 35.953314578916149 ], [ 126.806844969034415, 35.954169936485862 ], [ 126.807336085108105, 35.965998717217104 ], [ 126.804717270143257, 35.971291408963118 ], [ 126.816109356782803, 35.971853762071063 ], [ 126.821058601099139, 35.970092702320301 ], [ 126.823291281176665, 35.973515531743296 ], [ 126.831946386598943, 35.976546794501139 ] ] ] ] } },
{ "type": "Feature", "properties": { "emd_cd": "52130360", "emd_nm": "개정면" }, "geometry": { "type": "MultiPolygon", "coordinates": [ [ [ [ 126.765749302460279, 35.990265444034023 ], [ 126.770231305682273, 35.98817751526542 ], [ 126.7702052458813, 35.98593927614607 ], [ 126.775623441944859, 35.98103658875327 ], [ 126.784434696702078, 35.981390440077192 ], [ 126.785089848413264, 35.978939641598018 ], [ 126.786926434103052, 35.980226775569946 ], [ 126.791451330835073, 35.979143419241488 ], [ 126.798236896550165, 35.980579026793848 ], [ 126.806348185724147, 35.976085812228035 ], [ 126.804609773345462, 35.971174856810613 ], [ 126.807336085108105, 35.965998717217104 ], [ 126.806844969034415, 35.954169936485862 ], [ 126.808655949593728, 35.953314578916149 ], [ 126.806999748558809, 35.946047486694205 ], [ 126.804212790075169, 35.945653498272655 ], [ 126.802063195150737, 35.943209152023023 ], [ 126.804352253798953, 35.940331883198326 ], [ 126.783747884132382, 35.933613932560782 ], [ 126.772563347040531, 35.940901540150712 ], [ 126.76905919474099, 35.948058930311426 ], [ 126.768708087732222, 35.954891963449363 ], [ 126.766892168448635, 35.954830866673831 ], [ 126.768722422901021, 35.95506103534801 ], [ 126.769661944753395, 35.961910672261347 ], [ 126.76742468537563, 35.962667401963294 ], [ 126.766448540480212, 35.965096104647287 ], [ 126.76672109486428, 35.968682308737741 ], [ 126.769123565566176, 35.971299892543456 ], [ 126.766515589508316, 35.974260111910105 ], [ 126.768101527274979, 35.975353333150139 ], [ 126.767878863686931, 35.977820572534696 ], [ 126.762424649851354, 35.979910513710024 ], [ 126.763445884300495, 35.980883635074463 ], [ 126.760502267161513, 35.985409997881419 ], [ 126.765749302460279, 35.990265444034023 ] ] ] ] } },
{ "type": "Feature", "properties": { "emd_cd": "52130370", "emd_nm": "성산면" }, "geometry": { "type": "MultiPolygon", "coordinates": [ [ [ [ 126.788128269751013, 36.031009439169935 ], [ 126.788288103708325, 36.02479590072808 ], [ 126.786272900432991, 36.025456466319959 ], [ 126.787347921177258, 36.024109198113081 ], [ 126.784935660769705, 36.016570277575632 ], [ 126.787238236003873, 36.016565742378198 ], [ 126.793704848315784, 36.011971351349445 ], [ 126.796650753172358, 36.014523483307826 ], [ 126.797818938836102, 36.013719012293905 ], [ 126.798431762715893, 36.016105121346619 ], [ 126.801736259299503, 36.016027693698312 ], [ 126.806167505933544, 36.013310915553966 ], [ 126.806568802066138, 36.010559373820612 ], [ 126.812684485097137, 36.006638237225474 ], [ 126.814276314537096, 36.003858198570981 ], [ 126.816758476772762, 36.006859701730299 ], [ 126.818690962862433, 36.005997278217471 ], [ 126.823589950175489, 36.001824054787086 ], [ 126.824138600505009, 35.998873152907542 ], [ 126.821824991400916, 35.997768934834241 ], [ 126.825500909978587, 35.996937782943874 ], [ 126.832246357191607, 35.991454930245609 ], [ 126.830046780688519, 35.990101254966333 ], [ 126.828243255969838, 35.984074422305497 ], [ 126.83231270496654, 35.981563239700385 ], [ 126.834431844965692, 35.978019059183069 ], [ 126.823291281176665, 35.973515531743296 ], [ 126.820992044982489, 35.970089096462857 ], [ 126.817647407904801, 35.971730433182195 ], [ 126.805743167314262, 35.971794585086073 ], [ 126.806348185724147, 35.976085812228035 ], [ 126.798236896550165, 35.980579026793848 ], [ 126.791451330835073, 35.979143419241488 ], [ 126.786926434103052, 35.980226775569946 ], [ 126.785089848413264, 35.978939641598018 ], [ 126.784434696702078, 35.981390440077192 ], [ 126.775623441944859, 35.98103658875327 ], [ 126.7702052458813, 35.98593927614607 ], [ 126.770231305682273, 35.98817751526542 ], [ 126.764524438670534, 35.991225460303319 ], [ 126.766065908100913, 35.992915437191279 ], [ 126.764286220731108, 35.994634607928134 ], [ 126.770560788807686, 35.997363566482804 ], [ 126.769311023222457, 36.00077819588423 ], [ 126.770733836985386, 36.002106751064261 ], [ 126.768227166137407, 36.004316897979855 ], [ 126.770464067657727, 36.009947830478019 ], [ 126.768524018160861, 36.010086156695372 ], [ 126.764570651147636, 36.006463983748482 ], [ 126.749598495784554, 36.013029257295543 ], [ 126.741560092255597, 36.011944737017998 ], [ 126.748047228446154, 36.025751171251706 ], [ 126.761655072116667, 36.026024735327539 ], [ 126.769712522279761, 36.029640620619816 ], [ 126.788128269751013, 36.031009439169935 ] ] ] ] } },
{ "type": "Feature", "properties": { "emd_cd": "52130380", "emd_nm": "나포면" }, "geometry": { "type": "MultiPolygon", "coordinates": [ [ [ [ 126.865147398891395, 36.060381163796393 ], [ 126.865913434126696, 36.056184582444622 ], [ 126.864711301047137, 36.056092527667644 ], [ 126.867069306267908, 36.053648169479928 ], [ 126.868543619017444, 36.045862214541515 ], [ 126.874335459767309, 36.043072153097462 ], [ 126.869350577152659, 36.03236410520671 ], [ 126.87154426265262, 36.02773915761518 ], [ 126.866586676148785, 36.022486448624775 ], [ 126.868041010161676, 36.019795435296224 ], [ 126.866683461933462, 36.017429628328607 ], [ 126.86211931594498, 36.016476865637451 ], [ 126.855668427184028, 36.018292419328013 ], [ 126.853422304338892, 36.020442799729359 ], [ 126.843743276017335, 36.020412185574536 ], [ 126.840363688168154, 36.018488015532455 ], [ 126.846523230468421, 36.012826565008034 ], [ 126.84361318039997, 36.006301920499681 ], [ 126.840557081762, 36.004791894032493 ], [ 126.84038885762503, 35.998557381604563 ], [ 126.832721759834897, 35.991407915846956 ], [ 126.825500909978587, 35.996937782943874 ], [ 126.821824991400916, 35.997768934834241 ], [ 126.824138600505009, 35.998873152907542 ], [ 126.823348270605109, 36.002353779274436 ], [ 126.821256175652834, 36.002592453724183 ], [ 126.817000233982327, 36.006888191954324 ], [ 126.814276314537096, 36.003858198570981 ], [ 126.812684485097137, 36.006638237225474 ], [ 126.806568802066138, 36.010559373820612 ], [ 126.804640317115826, 36.014721042623727 ], [ 126.798921934715281, 36.016256382268324 ], [ 126.797818938836102, 36.013719012293905 ], [ 126.796650753172358, 36.014523483307826 ], [ 126.793704848315784, 36.011971351349445 ], [ 126.784717236001455, 36.016971558185062 ], [ 126.787347921177258, 36.024109198113081 ], [ 126.786272900432991, 36.025456466319959 ], [ 126.788288103708325, 36.02479590072808 ], [ 126.788132653537261, 36.031696222363337 ], [ 126.805821486872631, 36.034361346938098 ], [ 126.814153177040239, 36.041304539127523 ], [ 126.821097379090986, 36.04991904511364 ], [ 126.840540966833402, 36.052964601890785 ], [ 126.865147398891395, 36.060381163796393 ] ] ] ] } },
{ "type": "Feature", "properties": { "emd_cd": "52130390", "emd_nm": "옥도면" }, "geometry": { "type": "MultiPolygon", "coordinates": [ [ [ [ 126.36717497932014, 35.815955443644015 ], [ 126.369014831702955, 35.82074962671755 ], [ 126.373977587282255, 35.820131745387748 ], [ 126.375156868089306, 35.817873355269555 ], [ 126.371694562894476, 35.819300419466551 ], [ 126.37028245543739, 35.815879368335949 ], [ 126.371959151756542, 35.815613453587446 ], [ 126.372055907096396, 35.812883154136692 ], [ 126.373520164313177, 35.812136267267093 ], [ 126.374050868642186, 35.814221205559669 ], [ 126.376849439573917, 35.813983170410211 ], [ 126.375257107760319, 35.812040612244971 ], [ 126.377036895410356, 35.811548366178762 ], [ 126.37576385433718, 35.810589921833106 ], [ 126.377126980525148, 35.80996245498654 ], [ 126.376437386521246, 35.808085447717296 ], [ 126.379573083838835, 35.809360325476902 ], [ 126.379468170976253, 35.805126308233838 ], [ 126.382779998020581, 35.803187271598453 ], [ 126.375621042518361, 35.804547449299761 ], [ 126.375931496795459, 35.800148308664866 ], [ 126.374192836766426, 35.799980308019542 ], [ 126.37161722971949, 35.807222112899723 ], [ 126.3680669589872, 35.809092323137861 ], [ 126.36717497932014, 35.815955443644015 ] ] ], [ [ [ 126.372722753321753, 35.826516256566563 ], [ 126.372983663676621, 35.825817657643057 ], [ 126.37247704002975, 35.826390600420076 ], [ 126.372722753321753, 35.826516256566563 ] ] ], [ [ [ 126.340413606892568, 35.854668977763225 ], [ 126.351982271390099, 35.852616982281333 ], [ 126.353305572375618, 35.849822188927163 ], [ 126.342392682052932, 35.850846427510618 ], [ 126.341661033931203, 35.849059659925288 ], [ 126.337967519626758, 35.852641777745745 ], [ 126.340413606892568, 35.854668977763225 ] ] ], [ [ [ 126.333042617900276, 35.855177456025118 ], [ 126.333061522582298, 35.853374821620108 ], [ 126.330655835861961, 35.852933971611563 ], [ 126.331076392516408, 35.854686606488642 ], [ 126.333042617900276, 35.855177456025118 ] ] ], [ [ [ 126.316164913626551, 35.85450668870957 ], [ 126.316513598154586, 35.853714775042064 ], [ 126.316096159423964, 35.854449681365345 ], [ 126.315510499103951, 35.854824603335565 ], [ 126.316164913626551, 35.85450668870957 ] ] ], [ [ [ 126.314534115013359, 35.858729871128055 ], [ 126.322711527979322, 35.857138756026103 ], [ 126.326479829325606, 35.859085324273991 ], [ 126.324992774789607, 35.857262652174583 ], [ 126.327012415078457, 35.853448385057916 ], [ 126.323806414328274, 35.852790186174381 ], [ 126.317241801569509, 35.854317168685476 ], [ 126.319542677999024, 35.856867235179109 ], [ 126.315401620613173, 35.857270096903193 ], [ 126.315412737936725, 35.856568229430039 ], [ 126.314976512288339, 35.85618422985371 ], [ 126.315377794937802, 35.857326810363659 ], [ 126.315562211282995, 35.85733446021073 ], [ 126.315917774758205, 35.85746754602858 ], [ 126.31610873477473, 35.857589616307017 ], [ 126.314534115013359, 35.858729871128055 ] ] ], [ [ [ 126.312689524297269, 35.857054733686809 ], [ 126.313370132795541, 35.856661993476138 ], [ 126.312787381228645, 35.855968836524504 ], [ 126.312689524297269, 35.857054733686809 ] ] ], [ [ [ 126.313782992942095, 35.857144838023025 ], [ 126.314213889733068, 35.857449683528692 ], [ 126.314257204674206, 35.857264233127673 ], [ 126.313782992942095, 35.857144838023025 ] ] ], [ [ [ 126.166535258030464, 35.864850120255241 ], [ 126.168572539753967, 35.8651367079473 ], [ 126.16878522386277, 35.863430707820847 ], [ 126.166535258030464, 35.864850120255241 ] ] ], [ [ [ 126.071363377445422, 35.887856617602246 ], [ 126.076132752030063, 35.889110085182217 ], [ 126.078480270529397, 35.888230184751592 ], [ 126.072706524417626, 35.88698864054853 ], [ 126.071363377445422, 35.887856617602246 ] ] ], [ [ [ 126.066127614700491, 35.888326709037727 ], [ 126.067477139427311, 35.889027976391482 ], [ 126.067712034027721, 35.888521765627601 ], [ 126.066127614700491, 35.888326709037727 ] ] ], [ [ [ 126.239948444178737, 35.98313498176924 ], [ 126.240785972981712, 35.982504890715227 ], [ 126.239637675195041, 35.982179804264845 ], [ 126.239948444178737, 35.98313498176924 ] ] ], [ [ [ 126.233524663646989, 35.985124146818364 ], [ 126.232503267175559, 35.984462889060403 ], [ 126.232823720167573, 35.985638328514376 ], [ 126.233524663646989, 35.985124146818364 ] ] ], [ [ [ 126.221718820622741, 35.987681265169506 ], [ 126.22274291318098, 35.99232495717002 ], [ 126.225258751066477, 35.990264375556769 ], [ 126.230534418205551, 35.990238254571715 ], [ 126.230502753872031, 35.988529107777694 ], [ 126.225310377225043, 35.989130509305092 ], [ 126.221718820622741, 35.987681265169506 ] ] ], [ [ [ 126.234931441041326, 35.990722509477656 ], [ 126.235207914600466, 35.9935712404477 ], [ 126.238044461715205, 35.993452467366964 ], [ 126.237182501893855, 35.991588454226658 ], [ 126.238926075699993, 35.990122502756286 ], [ 126.234931441041326, 35.990722509477656 ] ] ], [ [ [ 126.22283489299069, 35.99372269744341 ], [ 126.22223025285102, 35.992779907974317 ], [ 126.22243800317824, 35.993854841627019 ], [ 126.22283489299069, 35.99372269744341 ] ] ], [ [ [ 126.237730799680619, 35.994434053368593 ], [ 126.240786876167718, 35.994334700105647 ], [ 126.241315426169209, 35.992911769320571 ], [ 126.237730799680619, 35.994434053368593 ] ] ], [ [ [ 126.219496433304428, 35.997681484284236 ], [ 126.222970101694017, 35.996687079218859 ], [ 126.222042745022151, 35.993737578327213 ], [ 126.219496433304428, 35.997681484284236 ] ] ], [ [ [ 126.238165732572455, 35.998036397650552 ], [ 126.240135994973159, 35.996643951213379 ], [ 126.237730933424515, 35.997646933247722 ], [ 126.238165732572455, 35.998036397650552 ] ] ], [ [ [ 126.238968070612898, 35.998027116828908 ], [ 126.237781700941568, 35.998217889028716 ], [ 126.2380046902164, 35.998561161589315 ], [ 126.238968070612898, 35.998027116828908 ] ] ], [ [ [ 126.22029766730499, 36.001010353150384 ], [ 126.222603930585976, 35.999619646173777 ], [ 126.220209135123568, 35.999525615273761 ], [ 126.22029766730499, 36.001010353150384 ] ] ], [ [ [ 125.966918422907057, 36.127265466925508 ], [ 125.972756916980899, 36.128032436180632 ], [ 125.982021729156585, 36.125302201590117 ], [ 125.984864875509047, 36.122214857861351 ], [ 125.992657334210108, 36.122112495483393 ], [ 125.99391101489033, 36.118885516807161 ], [ 125.990766435780543, 36.113142153139393 ], [ 125.987721856748706, 36.112394631033091 ], [ 125.989939823071666, 36.113369011571429 ], [ 125.988483639216412, 36.120161387602309 ], [ 125.982987999379375, 36.121703184373452 ], [ 125.980659687452786, 36.120023961158047 ], [ 125.982577221641364, 36.116466398177877 ], [ 125.984901840897891, 36.117284732610464 ], [ 125.983406630422991, 36.115130486738835 ], [ 125.987471400832462, 36.113909274270192 ], [ 125.980872902268246, 36.11318510135326 ], [ 125.978375921455481, 36.110893261798523 ], [ 125.977315512178578, 36.114550631383494 ], [ 125.975412107355808, 36.1126946600765 ], [ 125.970500101642003, 36.117132245362725 ], [ 125.970098553570125, 36.121747490440427 ], [ 125.966918422907057, 36.127265466925508 ] ] ], [ [ [ 126.411821306527997, 35.798527614402829 ], [ 126.411852694101498, 35.801595093199246 ], [ 126.412950927401468, 35.802258777086514 ], [ 126.411821306527997, 35.798527614402829 ] ] ], [ [ [ 126.408365603694975, 35.800548814312712 ], [ 126.409767114754814, 35.801869415149319 ], [ 126.408957169502571, 35.80002732499166 ], [ 126.408365603694975, 35.800548814312712 ] ] ], [ [ [ 126.414781188463252, 35.798733291454809 ], [ 126.416679139370629, 35.799294836727164 ], [ 126.414986851358094, 35.801482246795103 ], [ 126.41830053505997, 35.80300364655281 ], [ 126.417342882139707, 35.805954603544834 ], [ 126.420191285624313, 35.806669484480864 ], [ 126.419853326403668, 35.808579438038414 ], [ 126.421082080442943, 35.806604419294644 ], [ 126.425572722445253, 35.805788371330777 ], [ 126.42681633144484, 35.804350287730685 ], [ 126.431677119626329, 35.802124810900033 ], [ 126.43301120946532, 35.802070553049013 ], [ 126.432502028605469, 35.808288756919886 ], [ 126.43404195060296, 35.80891183543627 ], [ 126.433107863071115, 35.805834411607741 ], [ 126.43767232133473, 35.805464861734308 ], [ 126.436860400500791, 35.803306990461898 ], [ 126.439335684239637, 35.801398119580213 ], [ 126.431387521852088, 35.799098739000684 ], [ 126.43043493454033, 35.797025530944985 ], [ 126.428163736168699, 35.798662070997587 ], [ 126.427781364156772, 35.7953599104871 ], [ 126.425752694073694, 35.793731120755616 ], [ 126.423484641399398, 35.796521829252221 ], [ 126.421444738858256, 35.794213718028494 ], [ 126.419551229356628, 35.794300507057947 ], [ 126.414929359702668, 35.79717114179293 ], [ 126.414781188463252, 35.798733291454809 ] ] ], [ [ [ 126.412387932238715, 35.804369171398648 ], [ 126.412112820697175, 35.803515104087474 ], [ 126.411919827657556, 35.80395746084568 ], [ 126.412387932238715, 35.804369171398648 ] ] ], [ [ [ 126.43663571953951, 35.807761923767622 ], [ 126.437039564469387, 35.810147994226782 ], [ 126.439482453512454, 35.80892066225023 ], [ 126.440148513003678, 35.805898013103189 ], [ 126.437807906397225, 35.805521122164997 ], [ 126.439366578450489, 35.807414955101471 ], [ 126.437443415033698, 35.809176953291988 ], [ 126.438205705816912, 35.806928808257851 ], [ 126.43663571953951, 35.807761923767622 ] ] ], [ [ [ 126.401090534543542, 35.806048566262966 ], [ 126.403326200586619, 35.81263672062429 ], [ 126.409485960331025, 35.81428744152182 ], [ 126.41678602058505, 35.812437500467396 ], [ 126.414768841517287, 35.806044352360892 ], [ 126.41264949064589, 35.807952320429003 ], [ 126.409025666537488, 35.805062631263219 ], [ 126.410689854586877, 35.807026901736045 ], [ 126.407407849355522, 35.807270557869934 ], [ 126.40718413706999, 35.80968127242194 ], [ 126.404382712373035, 35.806286278589013 ], [ 126.40233900605503, 35.80690377216736 ], [ 126.402432191906726, 35.804557043934949 ], [ 126.401090534543542, 35.806048566262966 ] ] ], [ [ [ 126.421012473003088, 35.809974781562964 ], [ 126.420832813784443, 35.80912033010658 ], [ 126.420306995952856, 35.809961315567449 ], [ 126.421012473003088, 35.809974781562964 ] ] ], [ [ [ 126.430322630460012, 35.808068542145158 ], [ 126.43117937387278, 35.811001898213874 ], [ 126.431362788874551, 35.811871736462038 ], [ 126.43153923499824, 35.810123262521763 ], [ 126.430322630460012, 35.808068542145158 ] ] ], [ [ [ 126.440021157645546, 35.810641190676037 ], [ 126.440905742969832, 35.810982112675703 ], [ 126.440991416579209, 35.809731461393433 ], [ 126.440021157645546, 35.810641190676037 ] ] ], [ [ [ 126.39504634264469, 35.809363051424171 ], [ 126.396832070361114, 35.810425180682095 ], [ 126.396778281288206, 35.814052779353069 ], [ 126.398685902568815, 35.811892894583806 ], [ 126.400114857495367, 35.813172241146312 ], [ 126.39991422116978, 35.811337078627204 ], [ 126.397969938719839, 35.811526526538238 ], [ 126.397900437451042, 35.807817438354164 ], [ 126.39504634264469, 35.809363051424171 ] ] ], [ [ [ 126.443933806480587, 35.813704165013377 ], [ 126.44511344511767, 35.814295067752511 ], [ 126.444380778472322, 35.812680632428126 ], [ 126.443933806480587, 35.813704165013377 ] ] ], [ [ [ 126.445390045825491, 35.816207025475144 ], [ 126.446675189853906, 35.815403575805512 ], [ 126.446831059262578, 35.814742080389827 ], [ 126.445398362736015, 35.815702945308296 ], [ 126.445390045825491, 35.816207025475144 ] ] ], [ [ [ 126.430928353519846, 35.818235088523721 ], [ 126.430615548681061, 35.817406309520713 ], [ 126.430049262505904, 35.817882015798091 ], [ 126.430928353519846, 35.818235088523721 ] ] ], [ [ [ 126.389604223069227, 35.821870271176394 ], [ 126.391845703911216, 35.8229228778738 ], [ 126.390648094342694, 35.821035580875204 ], [ 126.392539971347603, 35.82193916247229 ], [ 126.393168055100546, 35.819940664858343 ], [ 126.397152153170964, 35.818948316613735 ], [ 126.397619510658174, 35.815862235578109 ], [ 126.392327948510243, 35.815742243461116 ], [ 126.389289022119826, 35.818943129705993 ], [ 126.389604223069227, 35.821870271176394 ] ] ], [ [ [ 126.387841773504164, 35.819390569918667 ], [ 126.388544127571464, 35.819234372488907 ], [ 126.387721998203702, 35.818557015881851 ], [ 126.387841773504164, 35.819390569918667 ] ] ], [ [ [ 126.408325973631804, 35.821370172411015 ], [ 126.409645037447191, 35.82079003004349 ], [ 126.408046308681563, 35.821187237528257 ], [ 126.408325973631804, 35.821370172411015 ] ] ], [ [ [ 126.401204951429293, 35.828045877720442 ], [ 126.403698055912315, 35.832793458299534 ], [ 126.409139617972372, 35.832368057925713 ], [ 126.41091186232795, 35.829998448032242 ], [ 126.414705594579559, 35.829684858133852 ], [ 126.415730393588717, 35.826573040126263 ], [ 126.417840979816077, 35.827080249389169 ], [ 126.418375528042105, 35.827093928872408 ], [ 126.416650373897141, 35.826369396504639 ], [ 126.416381396211477, 35.823904902195004 ], [ 126.425623012723946, 35.818109790612773 ], [ 126.422905710026527, 35.81802441009436 ], [ 126.422370364821688, 35.819949603327863 ], [ 126.41927702462894, 35.820566476212235 ], [ 126.414625525531392, 35.819756202255263 ], [ 126.412783421526782, 35.820877250767239 ], [ 126.412089207188146, 35.824867780463656 ], [ 126.408061470717882, 35.824125026927405 ], [ 126.404237127660508, 35.827834545660977 ], [ 126.402354616204732, 35.827578959263207 ], [ 126.402122722742291, 35.825774732316432 ], [ 126.400447570699612, 35.826201990628128 ], [ 126.399553733286155, 35.828072354147352 ], [ 126.401204951429293, 35.828045877720442 ] ] ], [ [ [ 126.445246157827015, 35.850388525631097 ], [ 126.446133423952745, 35.849898300802145 ], [ 126.445352969087395, 35.849439008281806 ], [ 126.445246157827015, 35.850388525631097 ] ] ], [ [ [ 126.359126691968527, 35.848189977834132 ], [ 126.36539689353225, 35.848097021872114 ], [ 126.367727518631085, 35.85073143602407 ], [ 126.367448342452164, 35.852937748483562 ], [ 126.380281787943559, 35.853770597903889 ], [ 126.386643744881994, 35.856358718428758 ], [ 126.387494540935549, 35.854458006348629 ], [ 126.39210410120721, 35.85833435889716 ], [ 126.396117772262841, 35.858228888479893 ], [ 126.394898981934077, 35.855645756083952 ], [ 126.384802803280849, 35.852930007052926 ], [ 126.383840065477358, 35.850284863497343 ], [ 126.379767776470089, 35.84782082762684 ], [ 126.377573086696671, 35.849893934397308 ], [ 126.376065083843429, 35.847300835695123 ], [ 126.361708267636232, 35.846474157263849 ], [ 126.359126691968527, 35.848189977834132 ] ] ], [ [ [ 126.408333373373324, 35.860261743714887 ], [ 126.431142902229098, 35.855382055412399 ], [ 126.432711697442286, 35.854434415882722 ], [ 126.422736582748286, 35.853650605330166 ], [ 126.404684603577167, 35.859096019188932 ], [ 126.408333373373324, 35.860261743714887 ] ] ], [ [ [ 126.397341090491835, 35.857852904375484 ], [ 126.402152120738961, 35.859813791857945 ], [ 126.403558725607922, 35.858652269451937 ], [ 126.401681061132891, 35.856547273468124 ], [ 126.397341090491835, 35.857852904375484 ] ] ], [ [ [ 126.428758068206989, 36.084404786525077 ], [ 126.434860190565942, 36.085611353441756 ], [ 126.435871158681678, 36.087331870864872 ], [ 126.440103775176667, 36.082966039246536 ], [ 126.446396869478349, 36.081719842128479 ], [ 126.441827848835871, 36.081184351291753 ], [ 126.444671201090642, 36.078236919193579 ], [ 126.444511799409383, 36.078410642390303 ], [ 126.445831875148215, 36.08003366143847 ], [ 126.445966444577195, 36.080797197943255 ], [ 126.445204305729817, 36.076124262800633 ], [ 126.441554085049361, 36.078294701896233 ], [ 126.436032358936856, 36.07691372389408 ], [ 126.429880297157098, 36.081382027106045 ], [ 126.428758068206989, 36.084404786525077 ] ] ], [ [ [ 126.458262293851803, 35.676012962740487 ], [ 126.460135712672709, 35.676317022843499 ], [ 126.460608038669477, 35.67526445965742 ], [ 126.458603438969874, 35.674507579569251 ], [ 126.458262293851803, 35.676012962740487 ] ] ], [ [ [ 126.460037378952137, 35.726100446360952 ], [ 126.460943865879386, 35.727477116028268 ], [ 126.462304243228232, 35.728192560994991 ], [ 126.460037378952137, 35.726100446360952 ] ] ], [ [ [ 126.529849190090417, 35.730110694533501 ], [ 126.531225022216859, 35.72917307368504 ], [ 126.531335962604388, 35.728634968974035 ], [ 126.529849190090417, 35.730110694533501 ] ] ], [ [ [ 126.524218097631433, 35.731097128274236 ], [ 126.525579813039769, 35.731589705126609 ], [ 126.525794532497088, 35.731086579506766 ], [ 126.524218097631433, 35.731097128274236 ] ] ], [ [ [ 126.458686470826791, 35.736926789676851 ], [ 126.458397702549263, 35.737596200159516 ], [ 126.458710239277693, 35.736923219772244 ], [ 126.458686470826791, 35.736926789676851 ] ] ], [ [ [ 126.439317453463886, 35.7400747921752 ], [ 126.440283233545813, 35.743545202786493 ], [ 126.442793679319919, 35.743311609782381 ], [ 126.449396494622391, 35.747898423605548 ], [ 126.452403077432137, 35.746575723846576 ], [ 126.457420728077366, 35.738131484852154 ], [ 126.457816259226774, 35.737904074628148 ], [ 126.4592616667925, 35.737710202583898 ], [ 126.460915431941572, 35.737227856557681 ], [ 126.45784691794141, 35.737867514075532 ], [ 126.458281277834701, 35.736362632608596 ], [ 126.462314653209717, 35.735135598884249 ], [ 126.456432373636972, 35.734665123092128 ], [ 126.454206454465833, 35.728642036989839 ], [ 126.451414519202316, 35.729193718980298 ], [ 126.448532443420618, 35.733991056591734 ], [ 126.452350532308955, 35.735567845545596 ], [ 126.451009723534582, 35.738697073618226 ], [ 126.442153192989323, 35.74181389757571 ], [ 126.439317453463886, 35.7400747921752 ] ] ], [ [ [ 126.468835552313308, 35.738695954152263 ], [ 126.469813907426953, 35.7404088070138 ], [ 126.471097357966556, 35.739425182132848 ], [ 126.468835552313308, 35.738695954152263 ] ] ], [ [ [ 126.463340598410625, 35.739817846154153 ], [ 126.466095244596943, 35.740575029802095 ], [ 126.463670049502483, 35.739207259377068 ], [ 126.463340598410625, 35.739817846154153 ] ] ], [ [ [ 126.464027151476117, 35.750236032779931 ], [ 126.467829199824266, 35.751767322750034 ], [ 126.469519954389199, 35.747784197711503 ], [ 126.465097231696205, 35.748202958511158 ], [ 126.464027151476117, 35.750236032779931 ] ] ], [ [ [ 126.453296740316958, 35.807275341312604 ], [ 126.45440752157765, 35.806850381239478 ], [ 126.453117845400755, 35.806480683156678 ], [ 126.453296740316958, 35.807275341312604 ] ] ], [ [ [ 126.449649980875492, 35.80754644419136 ], [ 126.449501600048464, 35.806974410846976 ], [ 126.44941376071236, 35.807432235721613 ], [ 126.449649980875492, 35.80754644419136 ] ] ], [ [ [ 126.445854796159281, 35.812951688930944 ], [ 126.446354580453274, 35.813016003142856 ], [ 126.446014080368428, 35.812751808421105 ], [ 126.445854796159281, 35.812951688930944 ] ] ], [ [ [ 126.463415138078702, 35.816985972677578 ], [ 126.46271138838749, 35.816522880732116 ], [ 126.4627046448865, 35.817014974006959 ], [ 126.463415138078702, 35.816985972677578 ] ] ], [ [ [ 126.470958416302594, 35.841238233662366 ], [ 126.470882708755184, 35.840987021471925 ], [ 126.470774305425991, 35.841157904484731 ], [ 126.470958416302594, 35.841238233662366 ] ] ], [ [ [ 126.474198383016116, 35.842695610197389 ], [ 126.478656682599222, 35.843038713347305 ], [ 126.478590327806685, 35.844648966224518 ], [ 126.481629769021225, 35.846161858864605 ], [ 126.484752054907531, 35.842849029658602 ], [ 126.476205189035156, 35.841610419423446 ], [ 126.474198383016116, 35.842695610197389 ] ] ], [ [ [ 126.442610128948019, 35.829328906478295 ], [ 126.444144504686221, 35.830193983812812 ], [ 126.443220955836964, 35.831948854411401 ], [ 126.447708202102888, 35.829802896091856 ], [ 126.449885765879785, 35.832006066559089 ], [ 126.453890714260837, 35.831476145413504 ], [ 126.461563162367156, 35.824566522897506 ], [ 126.471994507899609, 35.823227326097047 ], [ 126.475830074087511, 35.825577348563634 ], [ 126.473757265921435, 35.823531730307657 ], [ 126.476367927459393, 35.822784136494924 ], [ 126.491017337196325, 35.838113821183455 ], [ 126.487855045523006, 35.840318734121404 ], [ 126.48921248484298, 35.841609335453541 ], [ 126.488146447501791, 35.841297617330042 ], [ 126.488265924710888, 35.842369494621614 ], [ 126.486931433442905, 35.842935102597437 ], [ 126.485960288465193, 35.843826430610555 ], [ 126.485689604772219, 35.844264731638333 ], [ 126.485453088250651, 35.845157619669408 ], [ 126.485595174824667, 35.845680191432599 ], [ 126.485998875628127, 35.843848541305995 ], [ 126.486952883321408, 35.842978183565627 ], [ 126.488804068927422, 35.842243247549156 ], [ 126.486597122935862, 35.843488203622073 ], [ 126.486137960989112, 35.846099893083604 ], [ 126.496842715542613, 35.845647916040946 ], [ 126.514808833806271, 35.890973581004779 ], [ 126.516749769572016, 35.890436272824466 ], [ 126.498907632206482, 35.84779530083339 ], [ 126.500474062847573, 35.847075892733407 ], [ 126.500910499603776, 35.843574771687571 ], [ 126.499115214620474, 35.836783281539681 ], [ 126.48062486760638, 35.819238367468195 ], [ 126.482315446731533, 35.817502982258354 ], [ 126.487458692641297, 35.816700832819237 ], [ 126.482242802749866, 35.815171214610842 ], [ 126.480683951535099, 35.813250915049743 ], [ 126.471423807024863, 35.811097407120911 ], [ 126.463331014600357, 35.812695193398568 ], [ 126.46245089089409, 35.813723543432637 ], [ 126.464948441003159, 35.816040491329261 ], [ 126.465276054380197, 35.819465457906183 ], [ 126.461658026439224, 35.819225847943827 ], [ 126.45738493527827, 35.814858279395196 ], [ 126.455466659158063, 35.816784648943617 ], [ 126.453353525117947, 35.816562051412696 ], [ 126.454628364571036, 35.814128004721141 ], [ 126.452693282532138, 35.811565110533557 ], [ 126.456882353588909, 35.81006176997289 ], [ 126.449943635760647, 35.807927719741521 ], [ 126.448529973831327, 35.81015619213499 ], [ 126.44980033032742, 35.812627287370567 ], [ 126.448483899408018, 35.813669384367891 ], [ 126.450405109812053, 35.815905446039991 ], [ 126.448457490137784, 35.817829215817646 ], [ 126.444581761683153, 35.818208681747421 ], [ 126.446862589535229, 35.819716575469293 ], [ 126.451919976386392, 35.816924114793252 ], [ 126.453536081744815, 35.818368431860883 ], [ 126.453012294170804, 35.82021169623242 ], [ 126.445075956983061, 35.823407976857638 ], [ 126.448358841238033, 35.825446773052846 ], [ 126.442684003369536, 35.827190815007228 ], [ 126.442610128948019, 35.829328906478295 ] ] ], [ [ [ 126.523600258269624, 36.034855025259667 ], [ 126.523599611818796, 36.033505366680998 ], [ 126.522630713490557, 36.034214874724192 ], [ 126.523600258269624, 36.034855025259667 ] ] ], [ [ [ 126.52366727753629, 36.038426021375912 ], [ 126.529251302301248, 36.041816636868212 ], [ 126.529021659675251, 36.03821233543789 ], [ 126.53168132779588, 36.036650520367452 ], [ 126.529658049401604, 36.035703504421541 ], [ 126.526889936498407, 36.037518077335228 ], [ 126.525787266261048, 36.036306579550597 ], [ 126.52366727753629, 36.038426021375912 ] ] ], [ [ [ 126.540891685839725, 36.036731201586669 ], [ 126.543684617404722, 36.038964088769546 ], [ 126.542698939252304, 36.039576561973739 ], [ 126.545094263942872, 36.04129975432965 ], [ 126.544282938453989, 36.04378601004322 ], [ 126.54850423598576, 36.043939844096116 ], [ 126.553173803592244, 36.046477461442237 ], [ 126.556341234977239, 36.043965164676109 ], [ 126.556011624700474, 36.040329845496281 ], [ 126.554263964125255, 36.04085939990707 ], [ 126.554542782775812, 36.038226346938565 ], [ 126.557351477579317, 36.038556127004838 ], [ 126.558139561807153, 36.03597803976367 ], [ 126.555510494091095, 36.036459434868881 ], [ 126.556215368345704, 36.037642580687852 ], [ 126.554989895527299, 36.036908140492358 ], [ 126.555382398693496, 36.031444288840326 ], [ 126.55071984978575, 36.03499176837348 ], [ 126.540891685839725, 36.036731201586669 ] ] ], [ [ [ 126.544799647276378, 36.04561089635245 ], [ 126.54403466614221, 36.046123004868207 ], [ 126.54526786416622, 36.045615616628666 ], [ 126.544799647276378, 36.04561089635245 ] ] ], [ [ [ 126.549598010399606, 36.045752550319463 ], [ 126.549990903219921, 36.046275850020358 ], [ 126.550139129682719, 36.045847980931782 ], [ 126.549598010399606, 36.045752550319463 ] ] ] ] } },
{ "type": "Feature", "properties": { "emd_cd": "52130400", "emd_nm": "옥서면" }, "geometry": { "type": "MultiPolygon", "coordinates": [ [ [ [ 126.629091415823666, 35.886385881625365 ], [ 126.628914685497406, 35.886512858920852 ], [ 126.629079785676268, 35.88651867914826 ], [ 126.629091415823666, 35.886385881625365 ] ] ], [ [ [ 126.629052980055889, 35.891226836493175 ], [ 126.628406853905716, 35.89120274213969 ], [ 126.629048749828243, 35.891522357338147 ], [ 126.629052980055889, 35.891226836493175 ] ] ], [ [ [ 126.632579167996212, 35.944363468098523 ], [ 126.636068293395155, 35.937796416726954 ], [ 126.647940211649484, 35.931718654376688 ], [ 126.646310878539907, 35.930269350105604 ], [ 126.648283049023249, 35.927596009501393 ], [ 126.647726883086577, 35.925793203479657 ], [ 126.650177545900178, 35.924293833303174 ], [ 126.650133007195052, 35.901872624948986 ], [ 126.66028720376417, 35.899084477738199 ], [ 126.658877597003368, 35.898703089971036 ], [ 126.6523663247456, 35.885328768524658 ], [ 126.65368525734479, 35.884720165849167 ], [ 126.640983832783917, 35.884351912996486 ], [ 126.633461845996607, 35.886642504448147 ], [ 126.630272716180372, 35.885893667172539 ], [ 126.629706924972623, 35.891888532379099 ], [ 126.628082069779367, 35.891439362395253 ], [ 126.628818072561089, 35.886462170988231 ], [ 126.624950224293727, 35.888037704453055 ], [ 126.62261955350759, 35.886410805934787 ], [ 126.62248993274028, 35.887621877807739 ], [ 126.617455201412369, 35.889233118342574 ], [ 126.618088870398978, 35.886336634348851 ], [ 126.612305421727697, 35.88644209244967 ], [ 126.614788785895072, 35.890233103555779 ], [ 126.610692512689795, 35.91441481803696 ], [ 126.611783904424883, 35.92938951799799 ], [ 126.613130854269613, 35.931533667251209 ], [ 126.612105829322857, 35.932996281207892 ], [ 126.614466922295989, 35.933287857114102 ], [ 126.616559238515521, 35.942732549007296 ], [ 126.625096880587051, 35.942442621319266 ], [ 126.632579167996212, 35.944363468098523 ] ] ] ] } }
]
}
