{
"type": "FeatureCollection",
"name": "52140",
"crs": { "type": "name", "properties": { "name": "urn:ogc:def:crs:OGC:1.3:CRS84" } },
"features": [
{ "type": "Feature", "properties": { "emd_cd": "52140101", "emd_nm": "창인동1가" }, "geometry": { "type": "MultiPolygon", "coordinates": [ [ [ [ 126.954852144182013, 35.941334879784655 ], [ 126.954799461825147, 35.93891354295063 ], [ 126.946793953477524, 35.940898472600324 ], [ 126.949438314597757, 35.944792176859728 ], [ 126.954852144182013, 35.941334879784655 ] ] ] ] } },
{ "type": "Feature", "properties": { "emd_cd": "52140102", "emd_nm": "창인동2가" }, "geometry": { "type": "MultiPolygon", "coordinates": [ [ [ [ 126.942972496152933, 35.940627021600477 ], [ 126.946802947151852, 35.94504290124879 ], [ 126.94904204164844, 35.944482727344223 ], [ 126.945695848051898, 35.935798021437975 ], [ 126.942701771260303, 35.936584157460302 ], [ 126.944001360745034, 35.939963280102425 ], [ 126.942972496152933, 35.940627021600477 ] ] ] ] } },
{ "type": "Feature", "properties": { "emd_cd": "52140103", "emd_nm": "중앙동1가" }, "geometry": { "type": "MultiPolygon", "coordinates": [ [ [ [ 126.946535384510568, 35.939009479813208 ], [ 126.946793953477524, 35.940898472600324 ], [ 126.94972067235733, 35.940297752718152 ], [ 126.949128238721315, 35.938761085648643 ], [ 126.946535384510568, 35.939009479813208 ] ] ] ] } },
{ "type": "Feature", "properties": { "emd_cd": "52140104", "emd_nm": "중앙동2가" }, "geometry": { "type": "MultiPolygon", "coordinates": [ [ [ [ 126.948275522825554, 35.936625860800611 ], [ 126.946281303178296, 35.937330322952548 ], [ 126.946422878962892, 35.939038087614669 ], [ 126.949176083958463, 35.938722966154799 ], [ 126.948275522825554, 35.936625860800611 ] ] ] ] } },
{ "type": "Feature", "properties": { "emd_cd": "52140105", "emd_nm": "중앙동3가" }, "geometry": { "type": "MultiPolygon", "coordinates": [ [ [ [ 126.948275522825554, 35.936625860800611 ], [ 126.94972067235733, 35.940297752718152 ], [ 126.952205672470512, 35.93958217972596 ], [ 126.95035645366977, 35.935615495405251 ], [ 126.948275522825554, 35.936625860800611 ] ] ] ] } },
{ "type": "Feature", "properties": { "emd_cd": "52140106", "emd_nm": "평화동" }, "geometry": { "type": "MultiPolygon", "coordinates": [ [ [ [ 126.936091323542414, 35.935134011027017 ], [ 126.945695848051898, 35.935798021437975 ], [ 126.946281303178296, 35.937330322952548 ], [ 126.949399827462912, 35.936081826130646 ], [ 126.944835541280995, 35.929702854698462 ], [ 126.943802736273312, 35.921409812899753 ], [ 126.939763001091691, 35.923563596341666 ], [ 126.942400855516198, 35.931586413707031 ], [ 126.939853024974624, 35.931352514835467 ], [ 126.936091323542414, 35.935134011027017 ] ] ] ] } },
{ "type": "Feature", "properties": { "emd_cd": "52140107", "emd_nm": "갈산동" }, "geometry": { "type": "MultiPolygon", "coordinates": [ [ [ [ 126.954799461825147, 35.93891354295063 ], [ 126.953764505920816, 35.933932394909299 ], [ 126.95035645366977, 35.935615495405251 ], [ 126.952205672470512, 35.93958217972596 ], [ 126.954799461825147, 35.93891354295063 ] ] ] ] } },
{ "type": "Feature", "properties": { "emd_cd": "52140108", "emd_nm": "주현동" }, "geometry": { "type": "MultiPolygon", "coordinates": [ [ [ [ 126.958795147377344, 35.932276362235363 ], [ 126.952945926847178, 35.932737503460622 ], [ 126.955251176352107, 35.939581633245361 ], [ 126.961131342145123, 35.93357871923952 ], [ 126.958795147377344, 35.932276362235363 ] ] ] ] } },
{ "type": "Feature", "properties": { "emd_cd": "52140109", "emd_nm": "인화동1가" }, "geometry": { "type": "MultiPolygon", "coordinates": [ [ [ [ 126.949399827462912, 35.936081826130646 ], [ 126.953764505920816, 35.933932394909299 ], [ 126.951180962433654, 35.926065487499756 ], [ 126.944981627334172, 35.927779590869058 ], [ 126.945132011843242, 35.930409564823613 ], [ 126.949399827462912, 35.936081826130646 ] ] ] ] } },
{ "type": "Feature", "properties": { "emd_cd": "52140110", "emd_nm": "인화동2가" }, "geometry": { "type": "MultiPolygon", "coordinates": [ [ [ [ 126.943442578445683, 35.925150484690974 ], [ 126.945037233741971, 35.927759618532782 ], [ 126.951180962433654, 35.926065487499756 ], [ 126.95311484748423, 35.932709579158335 ], [ 126.958003488589213, 35.931655485895504 ], [ 126.95604529891591, 35.927450827294884 ], [ 126.958426002748809, 35.925100435461147 ], [ 126.953882417084728, 35.924013557168252 ], [ 126.954454414303399, 35.921576326872675 ], [ 126.950559433294174, 35.917557544007629 ], [ 126.949693777009884, 35.913755841510124 ], [ 126.943924187973977, 35.914563683265442 ], [ 126.94637536055609, 35.922004144333009 ], [ 126.943442578445683, 35.925150484690974 ] ] ] ] } },
{ "type": "Feature", "properties": { "emd_cd": "52140111", "emd_nm": "동산동" }, "geometry": { "type": "MultiPolygon", "coordinates": [ [ [ [ 126.956691046772846, 35.92989457935014 ], [ 126.965413737413428, 35.935466101145074 ], [ 126.967447533047419, 35.934042288755649 ], [ 126.97236516978974, 35.934188283989165 ], [ 126.971406440350194, 35.92996990298537 ], [ 126.975050358589968, 35.92598625817589 ], [ 126.970411579921333, 35.92246186216326 ], [ 126.97066043592983, 35.920950926202522 ], [ 126.967946238191573, 35.921652679453736 ], [ 126.961481787238924, 35.916778733884854 ], [ 126.954345609732016, 35.921389349145002 ], [ 126.953882417084728, 35.924013557168252 ], [ 126.958426002748809, 35.925100435461133 ], [ 126.95604529891591, 35.927450827294891 ], [ 126.956691046772846, 35.92989457935014 ] ] ] ] } },
{ "type": "Feature", "properties": { "emd_cd": "52140112", "emd_nm": "마동" }, "geometry": { "type": "MultiPolygon", "coordinates": [ [ [ [ 126.973504738216079, 35.934953624305734 ], [ 126.965413737413428, 35.935466101145074 ], [ 126.96113275150104, 35.933574790316889 ], [ 126.955255123579931, 35.939578390312555 ], [ 126.962335518054999, 35.948090531051115 ], [ 126.969679491296745, 35.945935421462011 ], [ 126.969215285171302, 35.942835352155036 ], [ 126.973504738216079, 35.934953624305734 ] ] ] ] } },
{ "type": "Feature", "properties": { "emd_cd": "52140113", "emd_nm": "남중동" }, "geometry": { "type": "MultiPolygon", "coordinates": [ [ [ [ 126.94759961092808, 35.944856047626921 ], [ 126.949147526595482, 35.950676766423797 ], [ 126.953610847578886, 35.955112658244964 ], [ 126.957803165966155, 35.95683394646634 ], [ 126.96018064397947, 35.955973207848949 ], [ 126.960695556026693, 35.957214203015987 ], [ 126.966690868343747, 35.956607855698294 ], [ 126.962011469214872, 35.947416508126814 ], [ 126.955255123579931, 35.939578390312555 ], [ 126.952328112411678, 35.943322342954716 ], [ 126.94759961092808, 35.944856047626921 ] ] ] ] } },
{ "type": "Feature", "properties": { "emd_cd": "52140114", "emd_nm": "모현동1가" }, "geometry": { "type": "MultiPolygon", "coordinates": [ [ [ [ 126.932375587366408, 35.94591991973256 ], [ 126.935694057482337, 35.952905229299034 ], [ 126.93840299164134, 35.952008061929973 ], [ 126.943420895813105, 35.955435410484355 ], [ 126.953626653720292, 35.955076678257861 ], [ 126.949147526595482, 35.950676766423811 ], [ 126.94759961092808, 35.944856047626921 ], [ 126.942972496152933, 35.940627021600477 ], [ 126.933358663116962, 35.944733734296072 ], [ 126.932375587366408, 35.94591991973256 ] ] ] ] } },
{ "type": "Feature", "properties": { "emd_cd": "52140115", "emd_nm": "모현동2가" }, "geometry": { "type": "MultiPolygon", "coordinates": [ [ [ [ 126.954089369260188, 35.955260983949287 ], [ 126.943420895813105, 35.955435410484355 ], [ 126.940229905088117, 35.952709979126077 ], [ 126.935694057482337, 35.952905229299034 ], [ 126.934085422467135, 35.950955606283372 ], [ 126.932063341840347, 35.952087838071321 ], [ 126.93130500614879, 35.956013714952569 ], [ 126.932718478103041, 35.957491826553394 ], [ 126.928798875726756, 35.960091829793626 ], [ 126.933433886463746, 35.960311257017892 ], [ 126.938049758756904, 35.962635631899936 ], [ 126.938739968142741, 35.960117660300995 ], [ 126.941391674887512, 35.960298695693737 ], [ 126.947381046834906, 35.965044625955294 ], [ 126.952360228622709, 35.960056998599292 ], [ 126.952563024553982, 35.955773516598427 ], [ 126.954089369260188, 35.955260983949287 ] ] ] ] } },
{ "type": "Feature", "properties": { "emd_cd": "52140116", "emd_nm": "송학동" }, "geometry": { "type": "MultiPolygon", "coordinates": [ [ [ [ 126.921978092095145, 35.937061471174204 ], [ 126.92230347096276, 35.939341706915201 ], [ 126.927365545518029, 35.941351198448459 ], [ 126.92968270732193, 35.945360402752435 ], [ 126.932472787817389, 35.946914624245551 ], [ 126.933358663116962, 35.944733734296072 ], [ 126.944001360745034, 35.939963280102425 ], [ 126.943192372897059, 35.936446074709501 ], [ 126.941064787220895, 35.935354670415812 ], [ 126.921978092095145, 35.937061471174204 ] ] ] ] } },
{ "type": "Feature", "properties": { "emd_cd": "52140117", "emd_nm": "목천동" }, "geometry": { "type": "MultiPolygon", "coordinates": [ [ [ [ 126.91113146791362, 35.919826435153986 ], [ 126.920603858492527, 35.937009435315716 ], [ 126.936234355191004, 35.935337678319684 ], [ 126.939853024974624, 35.931352514835467 ], [ 126.942400855516198, 35.931586413707031 ], [ 126.939862112723418, 35.923035656309025 ], [ 126.942815229423744, 35.921351682366264 ], [ 126.94449660730487, 35.922670491199689 ], [ 126.945886473015946, 35.922504142901822 ], [ 126.94637536055609, 35.922004144333009 ], [ 126.943948357280235, 35.914524544958923 ], [ 126.949731571596772, 35.9137485397234 ], [ 126.947963263667248, 35.909875781849308 ], [ 126.934329245657779, 35.91453081826922 ], [ 126.926336393751839, 35.912407483854331 ], [ 126.91113146791362, 35.919826435153986 ] ] ] ] } },
{ "type": "Feature", "properties": { "emd_cd": "52140118", "emd_nm": "만석동" }, "geometry": { "type": "MultiPolygon", "coordinates": [ [ [ [ 126.928798875726756, 35.960091829793619 ], [ 126.922962177380114, 35.962313191679627 ], [ 126.921869838118042, 35.972714016903005 ], [ 126.916805735183942, 35.972242622253717 ], [ 126.90933218069884, 35.983645462843945 ], [ 126.921768782895128, 35.984667133394844 ], [ 126.922430967975188, 35.978561214374103 ], [ 126.924856716265637, 35.978731822311026 ], [ 126.92713919123365, 35.970014016324178 ], [ 126.937419701207062, 35.96597879018487 ], [ 126.938049758756904, 35.962635631899921 ], [ 126.933433886463746, 35.960311257017878 ], [ 126.928798875726756, 35.960091829793619 ] ] ] ] } },
{ "type": "Feature", "properties": { "emd_cd": "52140119", "emd_nm": "현영동" }, "geometry": { "type": "MultiPolygon", "coordinates": [ [ [ [ 126.938739968142769, 35.96011766030098 ], [ 126.937419701207062, 35.96597879018487 ], [ 126.92713919123365, 35.970014016324178 ], [ 126.924856716265637, 35.978731822311026 ], [ 126.922430967975188, 35.978561214374103 ], [ 126.921768782895128, 35.984667133394844 ], [ 126.931734709739629, 35.984315153963529 ], [ 126.932750330732276, 35.975080425255271 ], [ 126.935564135676728, 35.977193596848124 ], [ 126.942156544550286, 35.976302690463726 ], [ 126.943054953407753, 35.972153969899374 ], [ 126.945071562454061, 35.970890208810559 ], [ 126.94125605489144, 35.968714195996654 ], [ 126.946024770351173, 35.96453187254729 ], [ 126.941391674887541, 35.960298695693737 ], [ 126.938739968142769, 35.96011766030098 ] ] ] ] } },
{ "type": "Feature", "properties": { "emd_cd": "52140120", "emd_nm": "신용동" }, "geometry": { "type": "MultiPolygon", "coordinates": [ [ [ [ 126.945355704460312, 35.988767151445934 ], [ 126.950901900852841, 35.986336108136172 ], [ 126.956446056332013, 35.986899430873031 ], [ 126.959967092668762, 35.984521264500117 ], [ 126.965333260367998, 35.975342290035606 ], [ 126.964994220482907, 35.973023490060065 ], [ 126.958852747237614, 35.969973338087613 ], [ 126.953470810052721, 35.971228209710553 ], [ 126.950726727967023, 35.968318579616891 ], [ 126.952836464390941, 35.965823768880192 ], [ 126.945567939230571, 35.964709600075189 ], [ 126.94125605489144, 35.968714195996654 ], [ 126.945071562454061, 35.970890208810559 ], [ 126.943054953407753, 35.972153969899374 ], [ 126.941962234115707, 35.976555416623484 ], [ 126.935564135676728, 35.977193596848124 ], [ 126.932750330732276, 35.975080425255271 ], [ 126.931734709739629, 35.984315153963529 ], [ 126.945355704460312, 35.988767151445934 ] ] ] ] } },
{ "type": "Feature", "properties": { "emd_cd": "52140121", "emd_nm": "신동" }, "geometry": { "type": "MultiPolygon", "coordinates": [ [ [ [ 126.949199489887434, 35.964624330560774 ], [ 126.95283646439097, 35.965823768880192 ], [ 126.95078536788192, 35.967479872464565 ], [ 126.952076582802178, 35.970519275731149 ], [ 126.958852747237614, 35.96997333808762 ], [ 126.963689726466527, 35.971786100880081 ], [ 126.965333260367998, 35.975342290035606 ], [ 126.968413495871019, 35.974631926082687 ], [ 126.967382823764808, 35.968068650533219 ], [ 126.968596972994661, 35.963680273979449 ], [ 126.967084805913046, 35.960072871075035 ], [ 126.968248903046018, 35.958275480795265 ], [ 126.966690868343747, 35.956607855698302 ], [ 126.952563024553982, 35.955773516598427 ], [ 126.952969703058685, 35.958886633966294 ], [ 126.949199489887434, 35.964624330560774 ] ] ] ] } },
{ "type": "Feature", "properties": { "emd_cd": "52140122", "emd_nm": "영등동" }, "geometry": { "type": "MultiPolygon", "coordinates": [ [ [ [ 126.979260312717898, 35.947035154730727 ], [ 126.96615744106083, 35.945930309622256 ], [ 126.962284492861158, 35.948105438867451 ], [ 126.964651798966486, 35.954168958143057 ], [ 126.968220673633539, 35.958133285302999 ], [ 126.967084805913046, 35.960072871075027 ], [ 126.968596972994661, 35.963680273979449 ], [ 126.967382823764808, 35.968068650533191 ], [ 126.968413495871019, 35.974631926082665 ], [ 126.978560309456924, 35.965371319198411 ], [ 126.980405464617277, 35.965587772765922 ], [ 126.981652381887201, 35.958652363407381 ], [ 126.978447823034784, 35.958558333754603 ], [ 126.978990399087422, 35.951256274494845 ], [ 126.977866153174958, 35.950592046790774 ], [ 126.979260312717898, 35.947035154730727 ] ] ] ] } },
{ "type": "Feature", "properties": { "emd_cd": "52140123", "emd_nm": "어양동" }, "geometry": { "type": "MultiPolygon", "coordinates": [ [ [ [ 126.973364379252658, 35.970506762618811 ], [ 126.978219870174698, 35.972289275482623 ], [ 126.985634870058448, 35.970175588471932 ], [ 126.984131355497198, 35.968722432115769 ], [ 126.984424947397088, 35.962428507236005 ], [ 126.986112445328885, 35.962760929525452 ], [ 126.987562482117326, 35.961307056264815 ], [ 126.984736748886391, 35.958922121540731 ], [ 126.985297739633353, 35.955790860527266 ], [ 126.989702377223509, 35.956346352985392 ], [ 126.990526915533437, 35.954346591781892 ], [ 126.994192038317721, 35.952705631246403 ], [ 126.991087732523994, 35.949192145410933 ], [ 126.98815136947924, 35.9474616818814 ], [ 126.978860179012344, 35.946952707118676 ], [ 126.978447823034784, 35.958558333754603 ], [ 126.981652381887201, 35.958652363407381 ], [ 126.980405464617277, 35.965587772765922 ], [ 126.978560309456924, 35.965371319198411 ], [ 126.973364379252658, 35.970506762618811 ] ] ] ] } },
{ "type": "Feature", "properties": { "emd_cd": "52140124", "emd_nm": "신흥동" }, "geometry": { "type": "MultiPolygon", "coordinates": [ [ [ [ 126.969787703949436, 35.945836187953056 ], [ 126.98815136947924, 35.9474616818814 ], [ 126.994033612775894, 35.951030297888622 ], [ 126.997229906371246, 35.940301834780826 ], [ 127.001665540808119, 35.936145259912472 ], [ 126.997479798073115, 35.926538411002845 ], [ 126.982431658436155, 35.929640077422448 ], [ 126.983641939487157, 35.932406469242991 ], [ 126.980228028973301, 35.933371410048409 ], [ 126.980373689527966, 35.935732398696118 ], [ 126.976428409700461, 35.93962559780816 ], [ 126.970175400070488, 35.940543049989799 ], [ 126.969787703949436, 35.945836187953056 ] ] ] ] } },
{ "type": "Feature", "properties": { "emd_cd": "52140125", "emd_nm": "금강동" }, "geometry": { "type": "MultiPolygon", "coordinates": [ [ [ [ 126.969108265435935, 35.921165616864542 ], [ 126.97066043592983, 35.920950926202522 ], [ 126.970411579921333, 35.92246186216326 ], [ 126.975050358589968, 35.92598625817589 ], [ 126.971406440350194, 35.92996990298537 ], [ 126.973504738216079, 35.934953624305734 ], [ 126.970175400070488, 35.940543049989799 ], [ 126.976428409700446, 35.939625597808153 ], [ 126.980373689527937, 35.935732398696089 ], [ 126.980228028973301, 35.933371410048409 ], [ 126.983641939487157, 35.932406469243006 ], [ 126.982431658436127, 35.929640077422434 ], [ 126.997479798073115, 35.926538411002852 ], [ 126.993887869027475, 35.918266320478089 ], [ 126.987915993160911, 35.916966892032654 ], [ 126.984212424788808, 35.913614163132635 ], [ 126.981174523121609, 35.914554322223694 ], [ 126.97711130058093, 35.912253817005144 ], [ 126.970486940998327, 35.912783824930585 ], [ 126.968305073249681, 35.915836059591271 ], [ 126.970950338485835, 35.919597239083551 ], [ 126.969108265435935, 35.921165616864542 ] ] ] ] } },
{ "type": "Feature", "properties": { "emd_cd": "52140126", "emd_nm": "석탄동" }, "geometry": { "type": "MultiPolygon", "coordinates": [ [ [ [ 126.968270921140046, 35.921686151549267 ], [ 126.970950338485835, 35.919597239083544 ], [ 126.968305073249681, 35.915836059591264 ], [ 126.971197415623607, 35.912204805621322 ], [ 126.97711130058093, 35.91225381700513 ], [ 126.982450705989251, 35.914270874570938 ], [ 126.984008121806042, 35.913407452076697 ], [ 126.982214009404402, 35.909406100273735 ], [ 126.995463119912444, 35.903763925728406 ], [ 126.99053494835799, 35.896050652514951 ], [ 126.978649364140878, 35.899095257187561 ], [ 126.973111779536069, 35.896847837628791 ], [ 126.974052380399385, 35.901027885398626 ], [ 126.965280253439659, 35.900461015811139 ], [ 126.962679126878044, 35.901598924052102 ], [ 126.962029480121032, 35.908625137172677 ], [ 126.956682215695167, 35.908623262396837 ], [ 126.95602057262208, 35.916534772431099 ], [ 126.952005504732199, 35.913274751213606 ], [ 126.952231680551336, 35.908726821509696 ], [ 126.947670558030367, 35.910343845863139 ], [ 126.950559433294174, 35.917557544007629 ], [ 126.954033021361482, 35.921542580985495 ], [ 126.961481787238924, 35.916778733884854 ], [ 126.968270921140046, 35.921686151549267 ] ] ] ] } },
{ "type": "Feature", "properties": { "emd_cd": "52140127", "emd_nm": "팔봉동" }, "geometry": { "type": "MultiPolygon", "coordinates": [ [ [ [ 127.008422090565432, 35.973076558885808 ], [ 127.015653191115021, 35.97342417565644 ], [ 127.021290660069184, 35.968453325220189 ], [ 127.026571497690355, 35.96752741968313 ], [ 127.023959470997795, 35.963225830458725 ], [ 127.026746698631527, 35.959088190211425 ], [ 127.01853915174334, 35.956322462498285 ], [ 127.015714643943426, 35.952613439840647 ], [ 127.01347610034604, 35.954269703533505 ], [ 127.007028223264498, 35.948939551010746 ], [ 127.005670949044017, 35.949669516769184 ], [ 127.005833898716659, 35.947973656279508 ], [ 126.999268148326536, 35.953915468623499 ], [ 127.002386114919602, 35.956506173648393 ], [ 127.000548796645148, 35.95787064221215 ], [ 127.002273829313083, 35.965493744201225 ], [ 127.008347629262076, 35.964771670895111 ], [ 127.010047931438379, 35.968939699355211 ], [ 127.008422090565432, 35.973076558885808 ] ] ] ] } },
{ "type": "Feature", "properties": { "emd_cd": "52140128", "emd_nm": "덕기동" }, "geometry": { "type": "MultiPolygon", "coordinates": [ [ [ [ 127.023959470997795, 35.963225830458725 ], [ 127.033785562297069, 35.97556780966206 ], [ 127.032663607608384, 35.98513363303308 ], [ 127.045545985452705, 35.982851426470297 ], [ 127.053282164721494, 35.971030843692809 ], [ 127.052756632053459, 35.969049233049503 ], [ 127.049370023232541, 35.969645851553231 ], [ 127.048139120691147, 35.967856705537976 ], [ 127.044105930970474, 35.969439346434442 ], [ 127.042358845190932, 35.967020271662619 ], [ 127.042487088350612, 35.963735955178464 ], [ 127.039042404826503, 35.961569049429023 ], [ 127.030598610421706, 35.963712176785002 ], [ 127.026718606287773, 35.961447770029572 ], [ 127.026649485302897, 35.959413042352374 ], [ 127.023959470997795, 35.963225830458725 ] ] ] ] } },
{ "type": "Feature", "properties": { "emd_cd": "52140129", "emd_nm": "석왕동" }, "geometry": { "type": "MultiPolygon", "coordinates": [ [ [ [ 127.00158130242589, 35.977472877259757 ], [ 127.002597644762346, 35.979675975962294 ], [ 127.01880295188532, 35.979771764039384 ], [ 127.029086732163222, 35.986025168188704 ], [ 127.032663607608384, 35.98513363303308 ], [ 127.033811332513849, 35.97573819852181 ], [ 127.026314288389358, 35.967506231168521 ], [ 127.021290660069184, 35.968453325220189 ], [ 127.015653191115021, 35.97342417565644 ], [ 127.001957617381407, 35.973596409834229 ], [ 127.003518789009647, 35.975667351137062 ], [ 127.00158130242589, 35.977472877259757 ] ] ] ] } },
{ "type": "Feature", "properties": { "emd_cd": "52140130", "emd_nm": "은기동" }, "geometry": { "type": "MultiPolygon", "coordinates": [ [ [ [ 127.01880295188532, 35.979771764039384 ], [ 127.00109293381422, 35.979682046034171 ], [ 127.002055886929071, 35.981540616950795 ], [ 127.005872602665093, 35.985060688448485 ], [ 127.00575473239212, 35.990857581003695 ], [ 127.010279778656269, 35.992720507436466 ], [ 127.016488726932081, 35.993357275540347 ], [ 127.024461519370661, 35.990739807939121 ], [ 127.028756385261858, 35.986451822848196 ], [ 127.01880295188532, 35.979771764039384 ] ] ] ] } },
{ "type": "Feature", "properties": { "emd_cd": "52140131", "emd_nm": "정족동" }, "geometry": { "type": "MultiPolygon", "coordinates": [ [ [ [ 126.996687426944391, 35.992614715702082 ], [ 127.00575473239212, 35.990857581003695 ], [ 127.005872602665093, 35.985060688448485 ], [ 127.003098348486148, 35.982997292918519 ], [ 127.001972890966343, 35.979788462848632 ], [ 126.991548383474978, 35.979445721806421 ], [ 126.983592149169255, 35.977053348304452 ], [ 126.981887173881432, 35.980664287209805 ], [ 126.985260724227714, 35.980771441782352 ], [ 126.984470871733677, 35.98608747289915 ], [ 126.988126234183383, 35.988126254896208 ], [ 126.991245057412343, 35.987382668189895 ], [ 126.993027743125126, 35.990695410297626 ], [ 126.996687426944391, 35.992614715702082 ] ] ] ] } },
{ "type": "Feature", "properties": { "emd_cd": "52140132", "emd_nm": "임상동" }, "geometry": { "type": "MultiPolygon", "coordinates": [ [ [ [ 126.970799172405776, 35.991264384092901 ], [ 126.984930179975848, 35.986062122388802 ], [ 126.985260724227714, 35.980771441782352 ], [ 126.981887173881432, 35.980664287209805 ], [ 126.983592149169255, 35.977053348304452 ], [ 126.96945880680201, 35.974442319947748 ], [ 126.963798359722048, 35.97616643568383 ], [ 126.961079617583451, 35.983179937893908 ], [ 126.957620002010671, 35.986348222950092 ], [ 126.968748930470284, 35.98925012730453 ], [ 126.970799172405776, 35.991264384092901 ] ] ] ] } },
{ "type": "Feature", "properties": { "emd_cd": "52140133", "emd_nm": "월성동" }, "geometry": { "type": "MultiPolygon", "coordinates": [ [ [ [ 126.964144737964759, 36.002061275207609 ], [ 126.966008423365494, 36.002593492470204 ], [ 126.969186491986193, 35.998539181242705 ], [ 126.979535737317136, 35.993143441363657 ], [ 126.992722567145762, 35.993832773276068 ], [ 126.99725618239566, 35.992360941955468 ], [ 126.993027743125126, 35.990695410297633 ], [ 126.991245057412343, 35.987382668189881 ], [ 126.988126234183383, 35.988126254896223 ], [ 126.984470871733677, 35.98608747289915 ], [ 126.970799172405776, 35.991264384092922 ], [ 126.965049369804859, 35.988322525729671 ], [ 126.960805396719593, 35.995936059098881 ], [ 126.964237128252435, 35.999109198047286 ], [ 126.964144737964759, 36.002061275207609 ] ] ] ] } },
{ "type": "Feature", "properties": { "emd_cd": "52140134", "emd_nm": "부송동" }, "geometry": { "type": "MultiPolygon", "coordinates": [ [ [ [ 126.96945880680201, 35.974442319947748 ], [ 126.991548383474978, 35.979445721806421 ], [ 127.002137146931318, 35.979529105856543 ], [ 127.001940837379237, 35.976427673541863 ], [ 127.003518789009647, 35.975667351137062 ], [ 127.001957617381407, 35.973596409834229 ], [ 127.008227675774563, 35.973826611054697 ], [ 127.010039518420143, 35.968852442638884 ], [ 127.007728912439248, 35.964495945515736 ], [ 127.00242986756642, 35.965680235163141 ], [ 127.000548796645148, 35.95787064221215 ], [ 126.994192038317721, 35.952705631246403 ], [ 126.990526915533437, 35.954346591781892 ], [ 126.989702377223509, 35.956346352985392 ], [ 126.985297739633353, 35.955790860527266 ], [ 126.984736748886391, 35.958922121540731 ], [ 126.987562482117326, 35.961307056264815 ], [ 126.984424947397088, 35.962428507236005 ], [ 126.984131355497198, 35.968722432115769 ], [ 126.985634870058448, 35.970175588471932 ], [ 126.978219870174698, 35.972289275482623 ], [ 126.973364379252658, 35.970506762618811 ], [ 126.96945880680201, 35.974442319947748 ] ] ] ] } },
{ "type": "Feature", "properties": { "emd_cd": "52140135", "emd_nm": "용제동" }, "geometry": { "type": "MultiPolygon", "coordinates": [ [ [ [ 126.99274212634495, 35.951121839581724 ], [ 127.000548796645148, 35.95787064221215 ], [ 127.002386114919602, 35.956506173648393 ], [ 126.999268148326536, 35.953915468623499 ], [ 127.001899240999393, 35.951002426459148 ], [ 127.010443809231845, 35.946225363175365 ], [ 127.006909226577733, 35.943099187789386 ], [ 127.003908414302529, 35.944774666419342 ], [ 127.005620309322865, 35.939346688603798 ], [ 127.002488456016835, 35.938145425430051 ], [ 127.00182964197765, 35.936107353479805 ], [ 126.997877221291716, 35.939161205523419 ], [ 126.994033612775894, 35.951030297888622 ], [ 126.99274212634495, 35.951121839581724 ] ] ] ] } },
{ "type": "Feature", "properties": { "emd_cd": "52140136", "emd_nm": "석암동" }, "geometry": { "type": "MultiPolygon", "coordinates": [ [ [ [ 127.01354327244789, 35.954271138766892 ], [ 127.015714643943426, 35.952613439840647 ], [ 127.013210959555266, 35.946406561027864 ], [ 127.014967578212605, 35.945779341430715 ], [ 127.017207653719623, 35.939967743631684 ], [ 127.013307257518079, 35.930102966894829 ], [ 127.008873362030414, 35.928616522535236 ], [ 126.999431707055194, 35.930196541879894 ], [ 127.002488456016835, 35.938145425430051 ], [ 127.005620309322865, 35.939346688603798 ], [ 127.003908414302529, 35.944774666419342 ], [ 127.006909226577733, 35.943099187789386 ], [ 127.010077170191593, 35.945084028873339 ], [ 127.007028223264498, 35.948939551010746 ], [ 127.01354327244789, 35.954271138766892 ] ] ] ] } },
{ "type": "Feature", "properties": { "emd_cd": "52140250", "emd_nm": "함열읍" }, "geometry": { "type": "MultiPolygon", "coordinates": [ [ [ [ 126.951752209970493, 36.095254850815444 ], [ 126.95212193950627, 36.093899939435211 ], [ 126.957942701028315, 36.093857764974487 ], [ 126.957445128437044, 36.091668778937517 ], [ 126.960300075651631, 36.091474716906973 ], [ 126.960489209883477, 36.089582683220357 ], [ 126.963522181191365, 36.090387826066213 ], [ 126.967275334481002, 36.085365055434828 ], [ 126.970607124032981, 36.08373403985005 ], [ 126.982588986589604, 36.089255735027784 ], [ 126.983437530120852, 36.0862394111399 ], [ 126.98831846660282, 36.087133419951812 ], [ 126.988885488304007, 36.085125304320194 ], [ 126.988870152055881, 36.08173520220226 ], [ 126.981575298356006, 36.079355635638713 ], [ 126.981862823860837, 36.075663509626629 ], [ 126.985230739418284, 36.069482784411704 ], [ 126.982875292348226, 36.053004232238891 ], [ 126.977941854725316, 36.049091647852514 ], [ 126.972685490881389, 36.041086335985199 ], [ 126.974724619724554, 36.039569448427073 ], [ 126.974081919345281, 36.037058625570459 ], [ 126.971129470092492, 36.035725422105912 ], [ 126.963192434072369, 36.026789212333419 ], [ 126.953961156409306, 36.0300263765442 ], [ 126.943249284234412, 36.038701498296895 ], [ 126.945633124391392, 36.048773540992741 ], [ 126.943493785883391, 36.049593131643547 ], [ 126.944809749671705, 36.051999332662255 ], [ 126.949050255890796, 36.051812284707964 ], [ 126.950781615343189, 36.054968928381022 ], [ 126.949654914544041, 36.057791064666198 ], [ 126.950787995257642, 36.066414007509735 ], [ 126.947877925152355, 36.079265900555868 ], [ 126.952140855092864, 36.090816832577715 ], [ 126.951752209970493, 36.095254850815444 ] ] ] ] } },
{ "type": "Feature", "properties": { "emd_cd": "52140310", "emd_nm": "오산면" }, "geometry": { "type": "MultiPolygon", "coordinates": [ [ [ [ 126.933551333553837, 35.950082080753575 ], [ 126.928517555404568, 35.942375951638645 ], [ 126.922880809653023, 35.939877078229308 ], [ 126.920662374375709, 35.935482229469471 ], [ 126.918751043470053, 35.935621746195935 ], [ 126.919223212259965, 35.93417347596138 ], [ 126.911123821570328, 35.920207671687614 ], [ 126.926328649798137, 35.912407479009566 ], [ 126.931862417946363, 35.913930846047577 ], [ 126.931846340741515, 35.910783767306718 ], [ 126.909938070305699, 35.903152146515126 ], [ 126.892847216313498, 35.914148132612688 ], [ 126.890020560751609, 35.912184867534648 ], [ 126.885334760368096, 35.912101704377456 ], [ 126.885035323143754, 35.9137085690977 ], [ 126.873009977227937, 35.911525851497608 ], [ 126.860798515630961, 35.905655826246679 ], [ 126.852208079078736, 35.910952989176259 ], [ 126.851399672294718, 35.916909969045811 ], [ 126.855381793996699, 35.918791223176562 ], [ 126.859632820487207, 35.91749549791011 ], [ 126.861551847413907, 35.921245911956078 ], [ 126.865499950583043, 35.922606432948022 ], [ 126.878655063973042, 35.934486214739792 ], [ 126.881823356262885, 35.939464410777731 ], [ 126.880873713880419, 35.94094030714141 ], [ 126.882995389803753, 35.947994496718373 ], [ 126.893654801448321, 35.955120987995009 ], [ 126.890770542195966, 35.959702279924258 ], [ 126.888048838991992, 35.959108196500644 ], [ 126.885110987181449, 35.96087066581228 ], [ 126.900969390349843, 35.972143888124315 ], [ 126.902967537219467, 35.972126681974935 ], [ 126.902282512477953, 35.978371260789274 ], [ 126.90463461832833, 35.979942106750599 ], [ 126.910629811008889, 35.982028348001677 ], [ 126.916798419023735, 35.972241977855127 ], [ 126.921862177727107, 35.972713263799868 ], [ 126.922954503084796, 35.962312419898893 ], [ 126.925067553157646, 35.962527303647448 ], [ 126.932710729750127, 35.95749182211533 ], [ 126.9312972579405, 35.95601371042342 ], [ 126.933551333553837, 35.950082080753575 ] ] ] ] } },
{ "type": "Feature", "properties": { "emd_cd": "52140320", "emd_nm": "황등면" }, "geometry": { "type": "MultiPolygon", "coordinates": [ [ [ [ 126.950101573823389, 36.064292699659916 ], [ 126.950781615343189, 36.054968928381022 ], [ 126.949050255890796, 36.051812284707964 ], [ 126.944809749671705, 36.051999332662255 ], [ 126.943493785883391, 36.049593131643547 ], [ 126.945633124391392, 36.048773540992741 ], [ 126.943249284234412, 36.038701498296895 ], [ 126.953756022106745, 36.030151114498707 ], [ 126.962280650497419, 36.026823245504673 ], [ 126.961332936929622, 36.020543662959604 ], [ 126.964997603182397, 36.012997208525029 ], [ 126.966769785008239, 36.012305728064007 ], [ 126.963126729989952, 36.005832751370995 ], [ 126.964237128252435, 35.999109198047286 ], [ 126.960805396719593, 35.995936059098881 ], [ 126.965073026181159, 35.987953641693338 ], [ 126.953233208344813, 35.986208985131562 ], [ 126.944218596848472, 35.988752726369398 ], [ 126.931734709739629, 35.984315153963529 ], [ 126.907862034394682, 35.983609077931852 ], [ 126.908212692103049, 35.987045738976619 ], [ 126.912775285999956, 35.990181888301912 ], [ 126.914274464222387, 35.994060522737996 ], [ 126.914944315978715, 36.004283576452501 ], [ 126.918814348971111, 36.001721377411144 ], [ 126.920345878911561, 36.004403221297927 ], [ 126.919061360668692, 36.004949931137936 ], [ 126.922212605083132, 36.009803805898457 ], [ 126.922220889898512, 36.016488109885273 ], [ 126.917863494471717, 36.016696399075087 ], [ 126.921634078705182, 36.02373068038554 ], [ 126.918250540882013, 36.033922239798052 ], [ 126.916189564702336, 36.033756733481098 ], [ 126.915177963053566, 36.03865496165254 ], [ 126.918078462078853, 36.039456306950825 ], [ 126.917231662751476, 36.043343258343349 ], [ 126.920533756528258, 36.044708854117765 ], [ 126.920858922817231, 36.0522984812091 ], [ 126.926819516445605, 36.051230610028057 ], [ 126.926712524374921, 36.054641884042006 ], [ 126.932782676662683, 36.055237616029217 ], [ 126.933328980153874, 36.058679303891701 ], [ 126.942705509567304, 36.0594013838423 ], [ 126.94507883519114, 36.060355291717194 ], [ 126.945871358297069, 36.063135379145066 ], [ 126.950101573823389, 36.064292699659916 ] ] ] ] } },
{ "type": "Feature", "properties": { "emd_cd": "52140330", "emd_nm": "함라면" }, "geometry": { "type": "MultiPolygon", "coordinates": [ [ [ [ 126.915414062165041, 36.079890412655779 ], [ 126.917187936357521, 36.079341949767311 ], [ 126.92152237781805, 36.071463812691619 ], [ 126.927627503692463, 36.071089605345321 ], [ 126.93157020681187, 36.064641498339306 ], [ 126.928585261586349, 36.062736880619546 ], [ 126.930716765633477, 36.05947223294018 ], [ 126.933328980153874, 36.058679303891701 ], [ 126.932782676662683, 36.055237616029217 ], [ 126.926712524374921, 36.054641884042006 ], [ 126.926819516445605, 36.051230610028057 ], [ 126.921114477753122, 36.052738384731299 ], [ 126.920533756528258, 36.044708854117765 ], [ 126.917231662751476, 36.043343258343349 ], [ 126.918078462078853, 36.039456306950825 ], [ 126.915177963053566, 36.03865496165254 ], [ 126.916189564702336, 36.033756733481098 ], [ 126.918250540882013, 36.033922239798052 ], [ 126.921634078705182, 36.02373068038554 ], [ 126.917863494471717, 36.016696399075087 ], [ 126.922220889898512, 36.016488109885273 ], [ 126.922212605083132, 36.009803805898457 ], [ 126.919061360668692, 36.004949931137936 ], [ 126.920345878911561, 36.004403221297927 ], [ 126.918814348971111, 36.001721377411144 ], [ 126.913938324479844, 36.00556467925356 ], [ 126.901135302131891, 36.007831485494734 ], [ 126.896281786108617, 36.013800560600778 ], [ 126.890105550241302, 36.017729949099007 ], [ 126.884276745267329, 36.025858255567549 ], [ 126.87904088908472, 36.029978048008623 ], [ 126.870409375373043, 36.033115272858744 ], [ 126.873295185486285, 36.04042652196722 ], [ 126.879301162547804, 36.039976674155561 ], [ 126.886028376909209, 36.049025832100092 ], [ 126.888017958831028, 36.048760681672078 ], [ 126.891032593960347, 36.050991842579386 ], [ 126.891684212205277, 36.053638276334908 ], [ 126.893481137015726, 36.053640088448901 ], [ 126.895047778140594, 36.056175671507454 ], [ 126.894122076730255, 36.057753375555308 ], [ 126.89871888521894, 36.061767778798313 ], [ 126.89770764432393, 36.062965978038378 ], [ 126.898996508278643, 36.065259098942711 ], [ 126.90389048917632, 36.068362666155309 ], [ 126.90793210658174, 36.0741105569981 ], [ 126.913604512351938, 36.075061197911914 ], [ 126.915414062165041, 36.079890412655779 ] ] ] ] } },
{ "type": "Feature", "properties": { "emd_cd": "52140340", "emd_nm": "웅포면" }, "geometry": { "type": "MultiPolygon", "coordinates": [ [ [ [ 126.90793210658174, 36.0741105569981 ], [ 126.898182342880361, 36.064190385571848 ], [ 126.89871888521894, 36.061767778798313 ], [ 126.894122076730255, 36.057753375555308 ], [ 126.895047778140594, 36.056175671507454 ], [ 126.893481137015726, 36.053640088448901 ], [ 126.891684212205277, 36.053638276334908 ], [ 126.891032593960347, 36.050991842579386 ], [ 126.888017958831028, 36.048760681672078 ], [ 126.886028376909209, 36.049025832100092 ], [ 126.879301162547804, 36.039976674155561 ], [ 126.873295185486285, 36.04042652196722 ], [ 126.87419999336818, 36.043386598398818 ], [ 126.868525030360317, 36.045849432659544 ], [ 126.867045143921203, 36.053622755061276 ], [ 126.864708985297554, 36.056103114341525 ], [ 126.865935195177215, 36.056147819313637 ], [ 126.865050876949809, 36.060710440048965 ], [ 126.868036320793834, 36.062411756853159 ], [ 126.870817708817825, 36.067404507662005 ], [ 126.873587585768945, 36.08683482929402 ], [ 126.873811258571237, 36.11043827841852 ], [ 126.882205121649335, 36.131292659785544 ], [ 126.889696209086708, 36.139622273949037 ], [ 126.895247536641506, 36.142448649296476 ], [ 126.904148530335931, 36.141292115691449 ], [ 126.913660093865872, 36.13595213151487 ], [ 126.912926399948532, 36.130999927164268 ], [ 126.915142916245202, 36.129237854624328 ], [ 126.911599644830602, 36.122568020397608 ], [ 126.914268188121568, 36.120784129880441 ], [ 126.911229289033201, 36.115230114110126 ], [ 126.912622854731509, 36.112144565139673 ], [ 126.912181030730665, 36.102922072390541 ], [ 126.910381775672761, 36.102158004715648 ], [ 126.911973520346891, 36.100323976024299 ], [ 126.909106993193561, 36.097816629138194 ], [ 126.910676986964944, 36.092724489256021 ], [ 126.913992363049729, 36.091989284891277 ], [ 126.916835812345084, 36.088471122939382 ], [ 126.919000150314901, 36.080360213684443 ], [ 126.914696165051083, 36.079378743833274 ], [ 126.915272759397098, 36.077007322942166 ], [ 126.913604512351938, 36.075061197911914 ], [ 126.90793210658174, 36.0741105569981 ] ] ] ] } },
{ "type": "Feature", "properties": { "emd_cd": "52140350", "emd_nm": "성당면" }, "geometry": { "type": "MultiPolygon", "coordinates": [ [ [ [ 126.917187936357521, 36.079341949767311 ], [ 126.919261381476844, 36.082026153972237 ], [ 126.916835812345084, 36.088471122939382 ], [ 126.913992363049729, 36.091989284891277 ], [ 126.910676986964944, 36.092724489256021 ], [ 126.909106993193561, 36.097816629138194 ], [ 126.911973520346891, 36.100323976024299 ], [ 126.910381775672761, 36.102158004715648 ], [ 126.912181030730665, 36.102922072390541 ], [ 126.912622854731509, 36.112144565139673 ], [ 126.911229289033201, 36.115230114110126 ], [ 126.914268188121568, 36.120784129880441 ], [ 126.911599644830602, 36.122568020397608 ], [ 126.915142916245202, 36.129237854624328 ], [ 126.912926399948532, 36.130999927164268 ], [ 126.914036817429036, 36.132350021405465 ], [ 126.912497010324969, 36.134508963874474 ], [ 126.913660093865872, 36.13595213151487 ], [ 126.920356405368238, 36.136831951767256 ], [ 126.919875363115054, 36.132107516096127 ], [ 126.928592991939453, 36.128812914300028 ], [ 126.932278843906388, 36.124875017481408 ], [ 126.933419620064498, 36.126073205668789 ], [ 126.93452498008898, 36.124095252214531 ], [ 126.935934876463719, 36.124564443937516 ], [ 126.939577827000576, 36.120079892806601 ], [ 126.940911767682621, 36.109876272008812 ], [ 126.943701522639586, 36.107646845743332 ], [ 126.940878535315974, 36.104933102680228 ], [ 126.940946735507609, 36.100399680632528 ], [ 126.937008901462491, 36.096300723853368 ], [ 126.938801427895271, 36.095290775009509 ], [ 126.93805330205916, 36.093950187414123 ], [ 126.945601938889865, 36.093957999465786 ], [ 126.945601592032219, 36.090839169694654 ], [ 126.95207685533083, 36.091151778361848 ], [ 126.947928991701545, 36.080301537072103 ], [ 126.950568311607086, 36.064190898899177 ], [ 126.945871358297069, 36.063135379145066 ], [ 126.94507883519114, 36.060355291717194 ], [ 126.942705509567304, 36.0594013838423 ], [ 126.930716765633477, 36.05947223294018 ], [ 126.928585261586349, 36.062736880619546 ], [ 126.93157020681187, 36.064641498339306 ], [ 126.929535461361425, 36.068343811371491 ], [ 126.927627503692463, 36.071089605345321 ], [ 126.921338481337813, 36.071605343122101 ], [ 126.917187936357521, 36.079341949767311 ] ] ] ] } },
{ "type": "Feature", "properties": { "emd_cd": "52140360", "emd_nm": "용안면" }, "geometry": { "type": "MultiPolygon", "coordinates": [ [ [ [ 126.956626266710686, 36.156570510889814 ], [ 126.963028334036665, 36.15627789913534 ], [ 126.975880310997695, 36.149091516445615 ], [ 126.975904551083417, 36.145514051990645 ], [ 126.972069284782293, 36.143660383172239 ], [ 126.970692677157245, 36.145235534219559 ], [ 126.967266786317865, 36.142182157714565 ], [ 126.966578813023659, 36.13616159339383 ], [ 126.969538532262717, 36.131456494458426 ], [ 126.976474579843483, 36.127447856905682 ], [ 126.977866738642177, 36.114911723541837 ], [ 126.975651434653173, 36.113526250617348 ], [ 126.978314928109427, 36.111960590112382 ], [ 126.982248795694531, 36.105467671711793 ], [ 126.974610972477905, 36.103311063372068 ], [ 126.976432583529217, 36.096666097222858 ], [ 126.980390526004996, 36.097118907117121 ], [ 126.982588986589604, 36.089255735027784 ], [ 126.978633843400033, 36.088505416816076 ], [ 126.972192544530131, 36.08373187812029 ], [ 126.967275334481002, 36.085365055434828 ], [ 126.966295075877682, 36.088206364026867 ], [ 126.962767021857374, 36.090810001554949 ], [ 126.959679396867543, 36.089888221548222 ], [ 126.960300075651631, 36.091474716906973 ], [ 126.95732749412457, 36.091850068871153 ], [ 126.957893277784507, 36.09387640213091 ], [ 126.95212193950627, 36.093899939435211 ], [ 126.951492591446652, 36.095222290148733 ], [ 126.951789001462458, 36.090909079681708 ], [ 126.945601592032219, 36.090839169694654 ], [ 126.945601938889865, 36.093957999465786 ], [ 126.93805330205916, 36.093950187414123 ], [ 126.938801427895271, 36.095290775009509 ], [ 126.937008901462491, 36.096300723853368 ], [ 126.940946735507609, 36.100399680632528 ], [ 126.940878535315974, 36.104933102680228 ], [ 126.943701522639586, 36.107646845743332 ], [ 126.940911767682621, 36.109876272008812 ], [ 126.939279927125014, 36.120772407962797 ], [ 126.934129496583978, 36.125663367725522 ], [ 126.932278843906388, 36.124875017481408 ], [ 126.928815290493205, 36.12868327538596 ], [ 126.919666564183302, 36.132479734531508 ], [ 126.920356405368238, 36.136831951767256 ], [ 126.933049504320337, 36.142930244201025 ], [ 126.931355230586831, 36.142929264409524 ], [ 126.938861358336368, 36.150737157385436 ], [ 126.93968553439359, 36.149467607673394 ], [ 126.939684187909904, 36.151184428971277 ], [ 126.944457011748852, 36.153509605411848 ], [ 126.956626266710686, 36.156570510889814 ] ] ] ] } },
{ "type": "Feature", "properties": { "emd_cd": "52140370", "emd_nm": "낭산면" }, "geometry": { "type": "MultiPolygon", "coordinates": [ [ [ [ 127.045557498183157, 36.075404501058188 ], [ 127.050562790130442, 36.076934848024166 ], [ 127.055163198565054, 36.075144907901645 ], [ 127.057938319920723, 36.071096467754231 ], [ 127.056447459243714, 36.067480504699311 ], [ 127.057827805876116, 36.065860240744414 ], [ 127.062348061536355, 36.062814338537663 ], [ 127.067086097501218, 36.061861612466977 ], [ 127.06198015313997, 36.0528559493643 ], [ 127.063024209822146, 36.046851805892217 ], [ 127.060241498615497, 36.040195892175731 ], [ 127.05443414253196, 36.038962897092716 ], [ 127.048964793717204, 36.041487761259994 ], [ 127.046234934788686, 36.040608453429073 ], [ 127.046059244924464, 36.039135634492517 ], [ 127.04349283105546, 36.039542057078521 ], [ 127.038751905246372, 36.031283959088398 ], [ 127.033434150882826, 36.03570027741587 ], [ 127.021536177344501, 36.038029471886524 ], [ 127.021195959718028, 36.038440999210081 ], [ 127.02179471682426, 36.038885823385563 ], [ 127.021860375138274, 36.039192597127474 ], [ 127.018549881020618, 36.037773545900436 ], [ 127.019042413505986, 36.034110916677925 ], [ 127.015747036470287, 36.034089346551177 ], [ 127.012340322896733, 36.037343071127395 ], [ 127.011577467740807, 36.042042540132911 ], [ 127.007953449463457, 36.041698650600296 ], [ 127.004795727036324, 36.043841811745253 ], [ 126.998129157048794, 36.040877911189703 ], [ 126.991663269128381, 36.041883761625925 ], [ 126.980913754877818, 36.038239429176521 ], [ 126.974745841078786, 36.039258946249291 ], [ 126.972685490881389, 36.041086335985199 ], [ 126.977941854725316, 36.049091647852514 ], [ 126.982875292348226, 36.053004232238891 ], [ 126.985230739418284, 36.069482784411704 ], [ 126.981862823860837, 36.075663509626629 ], [ 126.981575298356006, 36.079355635638713 ], [ 126.985278787948772, 36.080022011100105 ], [ 126.98500036123103, 36.081021240859556 ], [ 126.988900013990332, 36.081895720786193 ], [ 126.990547731059976, 36.079205204363262 ], [ 126.994730467664397, 36.079719304458614 ], [ 127.001347638982878, 36.082832210405137 ], [ 127.007756820885248, 36.083179815322161 ], [ 127.017122620121739, 36.086599707911965 ], [ 127.01846096864486, 36.09403807362856 ], [ 127.03039754419062, 36.091093973028535 ], [ 127.029672292328613, 36.087720243683009 ], [ 127.03174961529426, 36.088059990279859 ], [ 127.033270268263465, 36.085359170279368 ], [ 127.036759957519209, 36.087172203196481 ], [ 127.038692189339343, 36.0829187502884 ], [ 127.03867117883388, 36.075861851260889 ], [ 127.045557498183157, 36.075404501058188 ] ] ] ] } },
{ "type": "Feature", "properties": { "emd_cd": "52140380", "emd_nm": "망성면" }, "geometry": { "type": "MultiPolygon", "coordinates": [ [ [ [ 127.039660844536542, 36.075126688335345 ], [ 127.03809560128164, 36.077039719613204 ], [ 127.039024401154094, 36.08068358784795 ], [ 127.036759957519209, 36.087172203196481 ], [ 127.033270268263465, 36.085359170279368 ], [ 127.03174961529426, 36.088059990279859 ], [ 127.029672292328613, 36.087720243683009 ], [ 127.029849536225385, 36.091406843277312 ], [ 127.013724650580457, 36.096308861857771 ], [ 127.018022220562685, 36.102541095471281 ], [ 127.020394977177276, 36.109747525821874 ], [ 127.018270013394101, 36.118191643213727 ], [ 127.014316087815317, 36.121039215581426 ], [ 127.009439499084181, 36.120670512943917 ], [ 127.004512291157411, 36.117652218979593 ], [ 127.004607866436871, 36.119231667646581 ], [ 127.002052895072012, 36.119306417628756 ], [ 126.999388585931442, 36.116452990538278 ], [ 126.993639704319236, 36.11765857169874 ], [ 126.992584578424754, 36.118958042537585 ], [ 126.994024727718795, 36.124281042851635 ], [ 126.988117075341762, 36.125748238623558 ], [ 126.991393278588504, 36.127754378594325 ], [ 126.987525488759985, 36.131978520376521 ], [ 126.984452969539618, 36.131373205705039 ], [ 126.983257228850448, 36.135750644846844 ], [ 126.98052762441877, 36.134513201806421 ], [ 126.978270793975625, 36.137889158006899 ], [ 126.9753406967301, 36.136599522533125 ], [ 126.969383367336803, 36.139564613041813 ], [ 126.96638455784742, 36.138775396764245 ], [ 126.968645315871242, 36.143711241035447 ], [ 126.975904551083417, 36.145514051990645 ], [ 126.975880310997695, 36.149091516445615 ], [ 126.998031503074401, 36.146845918949268 ], [ 127.005340388254041, 36.150616863384229 ], [ 127.00669834793824, 36.14998913160801 ], [ 127.005843064712622, 36.147241265256881 ], [ 127.011259928856603, 36.145836290093328 ], [ 127.015538286175783, 36.148800414942656 ], [ 127.020427207155478, 36.138113799940051 ], [ 127.02663825599015, 36.136402516780926 ], [ 127.034922600839991, 36.13925068209597 ], [ 127.039616084774494, 36.137954407646795 ], [ 127.042517600029029, 36.146480443821012 ], [ 127.044829561118803, 36.14608078267409 ], [ 127.044194395275071, 36.143447913303064 ], [ 127.044991609534421, 36.143324701799379 ], [ 127.045539035800729, 36.143023670095644 ], [ 127.043248046487093, 36.14277536173924 ], [ 127.045544853522685, 36.138645409734707 ], [ 127.044532601066223, 36.137587563039354 ], [ 127.045811978103913, 36.137734605778419 ], [ 127.04491199635973, 36.13465267259599 ], [ 127.050126826381288, 36.134166016642212 ], [ 127.050701606420802, 36.130905916040653 ], [ 127.05560992188164, 36.130070460444877 ], [ 127.056082586680375, 36.126773365349997 ], [ 127.060759268906793, 36.126048742443238 ], [ 127.060217486441616, 36.123728955941274 ], [ 127.063003102750798, 36.125227565282472 ], [ 127.061846026905187, 36.116598300870301 ], [ 127.057251333942062, 36.116038173206213 ], [ 127.056957718446625, 36.11312029911744 ], [ 127.058963668087813, 36.110779972901653 ], [ 127.057806048469857, 36.107050139937577 ], [ 127.06104744710052, 36.10547631863701 ], [ 127.06038608457412, 36.094144260112827 ], [ 127.063134649080965, 36.091565046358618 ], [ 127.057127486963225, 36.086842380936041 ], [ 127.054059812064693, 36.08172054049696 ], [ 127.051807316342533, 36.082678778395106 ], [ 127.048907937436013, 36.081470854780733 ], [ 127.050021752910538, 36.076179515970203 ], [ 127.039660844536542, 36.075126688335345 ] ] ] ] } },
{ "type": "Feature", "properties": { "emd_cd": "52140390", "emd_nm": "여산면" }, "geometry": { "type": "MultiPolygon", "coordinates": [ [ [ [ 127.048402891740494, 36.080700929097546 ], [ 127.051807316342533, 36.082678778395106 ], [ 127.054059812064693, 36.08172054049696 ], [ 127.058805586281565, 36.088380764694278 ], [ 127.06524748198423, 36.08982874358356 ], [ 127.070076971861155, 36.087570941211965 ], [ 127.071665139159094, 36.084730168726843 ], [ 127.076271291786171, 36.084471329333446 ], [ 127.077398829879129, 36.081898417990814 ], [ 127.082230268169411, 36.077767423354388 ], [ 127.087845109382215, 36.075563154307474 ], [ 127.090812952548461, 36.071392313165617 ], [ 127.092709599073288, 36.075992467225362 ], [ 127.09446073439986, 36.073223072519994 ], [ 127.102040723496486, 36.075754812618484 ], [ 127.106260544363053, 36.071956744758637 ], [ 127.109348191326418, 36.072595266143999 ], [ 127.112651113724738, 36.069248032203362 ], [ 127.118116145867049, 36.067119662187622 ], [ 127.122052502370266, 36.063024691661489 ], [ 127.131033967358803, 36.06574790189724 ], [ 127.131333747923577, 36.063181676928977 ], [ 127.13972175649225, 36.056974685304588 ], [ 127.135381119652379, 36.052892216317353 ], [ 127.128917747229465, 36.04208569588954 ], [ 127.114584915529505, 36.02827620495691 ], [ 127.10533676600987, 36.02475507484224 ], [ 127.100829030458314, 36.024729153753974 ], [ 127.097484264845306, 36.021954793232943 ], [ 127.09758984650658, 36.018456543722436 ], [ 127.091575508708303, 36.015675500192984 ], [ 127.090356490234157, 36.012314037604582 ], [ 127.087124900422012, 36.011075284079368 ], [ 127.083549869307674, 36.013737525582982 ], [ 127.084187793265301, 36.01790981312962 ], [ 127.073216154722488, 36.01807377244446 ], [ 127.066383947814032, 36.021960473381284 ], [ 127.065096730772424, 36.027744099651166 ], [ 127.068049783620694, 36.03168237303975 ], [ 127.068493005363592, 36.035870611179853 ], [ 127.065055396375016, 36.040546678759448 ], [ 127.060595103367262, 36.041418134969668 ], [ 127.063024209822146, 36.046851805892217 ], [ 127.06198015313997, 36.0528559493643 ], [ 127.067086097501218, 36.061861612466977 ], [ 127.062348061536355, 36.062814338537663 ], [ 127.057827805876116, 36.065860240744414 ], [ 127.056447459243714, 36.067480504699311 ], [ 127.057941534892208, 36.07039164258638 ], [ 127.0569233466192, 36.073165684352503 ], [ 127.050033767354833, 36.07728511381714 ], [ 127.048402891740494, 36.080700929097546 ] ] ] ] } },
{ "type": "Feature", "properties": { "emd_cd": "52140400", "emd_nm": "금마면" }, "geometry": { "type": "MultiPolygon", "coordinates": [ [ [ [ 127.032148693091287, 36.026454732938994 ], [ 127.039019978989288, 36.024577529806798 ], [ 127.040568242651943, 36.027738626687608 ], [ 127.038751905246372, 36.031283959088398 ], [ 127.040724908276985, 36.036720864122081 ], [ 127.04349283105546, 36.039542057078521 ], [ 127.046059244924464, 36.039135634492517 ], [ 127.046384680569432, 36.040721762071918 ], [ 127.049479700986879, 36.041504724457766 ], [ 127.05443414253196, 36.038962897092716 ], [ 127.060894148570313, 36.041168529088431 ], [ 127.064866272976204, 36.040651221444591 ], [ 127.068493005363592, 36.035870611179853 ], [ 127.068049783620694, 36.03168237303975 ], [ 127.065096730772424, 36.027744099651166 ], [ 127.066271147295097, 36.022180505175399 ], [ 127.069113315333468, 36.019511086485601 ], [ 127.066014549774295, 36.012718945132995 ], [ 127.066319043334275, 36.007803350395463 ], [ 127.067385492555488, 36.001702608396734 ], [ 127.071790509565403, 35.998077217546118 ], [ 127.072800216690666, 35.992901111511713 ], [ 127.069585570359024, 35.990058647736014 ], [ 127.069810350847945, 35.986326223095041 ], [ 127.066158652545639, 35.98460515049161 ], [ 127.061411897285936, 35.977273078430031 ], [ 127.058830791470896, 35.979412546280201 ], [ 127.057291572011295, 35.977259943448146 ], [ 127.053312629514068, 35.976640284770539 ], [ 127.053208935493217, 35.97113148882417 ], [ 127.045545985452705, 35.982851426470297 ], [ 127.028774546446058, 35.986026104833584 ], [ 127.025902330604879, 35.990053615676437 ], [ 127.016488726932081, 35.993357275540347 ], [ 127.00575473239212, 35.990857581003695 ], [ 126.997907536990411, 35.992461990779688 ], [ 126.999674209329854, 35.994954855515807 ], [ 126.998013060059094, 35.997982792755465 ], [ 126.999763766388966, 36.005618551471329 ], [ 127.007309320198402, 36.00866660373493 ], [ 127.004318993093634, 36.010748319359429 ], [ 127.008341672366271, 36.012641172149934 ], [ 127.007347860720898, 36.014428806008596 ], [ 127.014952875574011, 36.012793458807501 ], [ 127.017200653125229, 36.015725943979128 ], [ 127.019575994073648, 36.015988676487197 ], [ 127.023019608636886, 36.023827040040246 ], [ 127.026282638499779, 36.026171691103265 ], [ 127.027987160316414, 36.024225746268115 ], [ 127.032148693091287, 36.026454732938994 ] ] ] ] } },
{ "type": "Feature", "properties": { "emd_cd": "52140410", "emd_nm": "왕궁면" }, "geometry": { "type": "MultiPolygon", "coordinates": [ [ [ [ 127.053160181068307, 35.956494980623908 ], [ 127.051794872877053, 35.962022593075673 ], [ 127.053312629514068, 35.976640284770539 ], [ 127.057291572011295, 35.977259943448146 ], [ 127.058830791470896, 35.979412546280201 ], [ 127.061411897285936, 35.977273078430031 ], [ 127.066158652545639, 35.98460515049161 ], [ 127.069810350847945, 35.986326223095041 ], [ 127.069585570359024, 35.990058647736014 ], [ 127.072800216690666, 35.992901111511713 ], [ 127.071790509565403, 35.998077217546118 ], [ 127.067385492555488, 36.001702608396734 ], [ 127.066319043334275, 36.007803350395463 ], [ 127.066014549774295, 36.012718945132995 ], [ 127.069113315333468, 36.019511086485601 ], [ 127.084187793265301, 36.01790981312962 ], [ 127.083549869307674, 36.013737525582982 ], [ 127.087439313698496, 36.011043579327229 ], [ 127.090356490234157, 36.012314037604582 ], [ 127.091575508708303, 36.015675500192984 ], [ 127.09758984650658, 36.018456543722436 ], [ 127.097484264845306, 36.021954793232943 ], [ 127.100829030458314, 36.024729153753974 ], [ 127.109358625705397, 36.026089417298152 ], [ 127.116304112975996, 36.030485315357268 ], [ 127.118238287704543, 36.026158190946148 ], [ 127.115801150038138, 36.024097485706243 ], [ 127.121154409053233, 36.020387115944821 ], [ 127.122344225623976, 36.014149575677301 ], [ 127.125510874257756, 36.011677328415182 ], [ 127.125549121183553, 36.005355938273986 ], [ 127.122842285634945, 36.00519250347137 ], [ 127.120345804794525, 36.002341440925868 ], [ 127.107464381574786, 35.995389288864835 ], [ 127.109580205220482, 35.986098753185111 ], [ 127.104095482750438, 35.968539332224324 ], [ 127.106314780090386, 35.959414325589847 ], [ 127.094649267342433, 35.94039568167058 ], [ 127.091756623667948, 35.930364257208012 ], [ 127.080568249256245, 35.921438243890421 ], [ 127.077111642797306, 35.920642748369147 ], [ 127.076844252995571, 35.922158999359887 ], [ 127.066773961373841, 35.915685012384976 ], [ 127.057901735523458, 35.920368567761059 ], [ 127.053137372608489, 35.933365293924567 ], [ 127.053160181068307, 35.956494980623908 ] ] ] ] } },
{ "type": "Feature", "properties": { "emd_cd": "52140420", "emd_nm": "춘포면" }, "geometry": { "type": "MultiPolygon", "coordinates": [ [ [ [ 127.049370023232541, 35.969645851553231 ], [ 127.052756632053459, 35.969049233049503 ], [ 127.051794872877053, 35.962022593075673 ], [ 127.053540119794562, 35.952470660371141 ], [ 127.053137372608489, 35.933365293924567 ], [ 127.057607274309476, 35.920767486289016 ], [ 127.040764958772158, 35.92560210990883 ], [ 127.036541342801812, 35.918934814545423 ], [ 127.03122498292197, 35.91902579719477 ], [ 127.028706128727137, 35.917357028241582 ], [ 127.031776923622104, 35.910405780062362 ], [ 127.03461658527381, 35.910681214985473 ], [ 127.03639353345018, 35.909061685395493 ], [ 127.033652573401113, 35.908647519866804 ], [ 127.032506208961649, 35.906117216265436 ], [ 127.035105015632269, 35.904310598678627 ], [ 127.037217561784018, 35.904829446185907 ], [ 127.038312605203558, 35.897811049344213 ], [ 127.02011838910218, 35.897983326598052 ], [ 127.019540340032236, 35.894211486172168 ], [ 127.013386174759901, 35.895536397973345 ], [ 127.000709774928197, 35.893209336719721 ], [ 127.001564545341935, 35.889305491983684 ], [ 126.99767691662305, 35.884058961990796 ], [ 126.994489486935265, 35.883730108153927 ], [ 126.993170864527613, 35.888185959494635 ], [ 126.99673864226115, 35.889376020748173 ], [ 126.997099764952736, 35.890834085433312 ], [ 126.990419715818305, 35.892259272086783 ], [ 126.989745985236326, 35.894211158157773 ], [ 126.995463119912444, 35.903763925728406 ], [ 126.982214009404402, 35.909406100273735 ], [ 126.983623053683374, 35.913817595206538 ], [ 126.988157968597037, 35.917073355552105 ], [ 126.993887869027475, 35.918266320478082 ], [ 126.999431707055194, 35.930196541879894 ], [ 127.008873362030414, 35.928616522535236 ], [ 127.013307257518079, 35.930102966894829 ], [ 127.017207653719623, 35.939967743631684 ], [ 127.013167486380183, 35.947655704957604 ], [ 127.016814593104115, 35.955216430302336 ], [ 127.023183449631176, 35.958574463651061 ], [ 127.026679576916223, 35.958770609521366 ], [ 127.026718606287773, 35.961447770029572 ], [ 127.030598610421706, 35.963712176785002 ], [ 127.039042404826503, 35.961569049429023 ], [ 127.042487088350612, 35.963735955178464 ], [ 127.042358845190932, 35.967020271662619 ], [ 127.044105930970474, 35.969439346434442 ], [ 127.048139120691147, 35.967856705537976 ], [ 127.049370023232541, 35.969645851553231 ] ] ] ] } },
{ "type": "Feature", "properties": { "emd_cd": "52140430", "emd_nm": "삼기면" }, "geometry": { "type": "MultiPolygon", "coordinates": [ [ [ [ 126.996676449361686, 35.99259237380317 ], [ 126.992722567145762, 35.993832773276068 ], [ 126.979535737317136, 35.993143441363657 ], [ 126.969186491986193, 35.998539181242705 ], [ 126.966008423365494, 36.002593492470204 ], [ 126.963613661738222, 36.002592120922266 ], [ 126.963126729989952, 36.005832751370988 ], [ 126.966769785008239, 36.012305728064021 ], [ 126.964997603182397, 36.012997208525036 ], [ 126.961332936929622, 36.020543662959625 ], [ 126.961054794146349, 36.024499366887298 ], [ 126.961762674543067, 36.026803816005874 ], [ 126.974063550575053, 36.03704043471437 ], [ 126.974745841078786, 36.039258946249269 ], [ 126.980913754877818, 36.038239429176542 ], [ 126.991663269128381, 36.04188376162594 ], [ 126.998129157048794, 36.040877911189703 ], [ 127.004795727036324, 36.043841811745267 ], [ 127.007953449463457, 36.04169865060031 ], [ 127.011577467740807, 36.042042540132897 ], [ 127.012340322896705, 36.037343071127374 ], [ 127.015747036470287, 36.034089346551191 ], [ 127.019042413505986, 36.034110916677925 ], [ 127.018549881020618, 36.037773545900443 ], [ 127.021860375138274, 36.039192597127489 ], [ 127.021536177344501, 36.03802947188651 ], [ 127.033434150882826, 36.035700277415877 ], [ 127.040547412170284, 36.029569270272717 ], [ 127.039019978989259, 36.024577529806784 ], [ 127.033394705576697, 36.026435770382228 ], [ 127.027987160316414, 36.024225746268115 ], [ 127.026916777475577, 36.025957760909151 ], [ 127.024929525802918, 36.025642818972891 ], [ 127.019728069246028, 36.016180190823214 ], [ 127.017200653125215, 36.015725943979128 ], [ 127.014952875573982, 36.012793458807501 ], [ 127.007347860720898, 36.014428806008596 ], [ 127.008341672366271, 36.012641172149934 ], [ 127.004318993093605, 36.010748319359429 ], [ 127.007309320198388, 36.008666603734945 ], [ 126.999763766388966, 36.005618551471315 ], [ 126.998013060059094, 35.997982792755487 ], [ 126.999384829249223, 35.993438632970467 ], [ 126.996676449361686, 35.99259237380317 ] ] ] ] } },
{ "type": "Feature", "properties": { "emd_cd": "52140440", "emd_nm": "용동면" }, "geometry": { "type": "MultiPolygon", "coordinates": [ [ [ [ 126.990547731059976, 36.079205204363262 ], [ 126.98831846660282, 36.087133419951812 ], [ 126.983437530120852, 36.0862394111399 ], [ 126.980390526004996, 36.097118907117121 ], [ 126.976394924453416, 36.096713493152393 ], [ 126.974610972477905, 36.103311063372068 ], [ 126.982248795694531, 36.105467671711793 ], [ 126.978314928109427, 36.111960590112382 ], [ 126.975651434653173, 36.113526250617348 ], [ 126.977866738642177, 36.114911723541837 ], [ 126.976474579843483, 36.127447856905682 ], [ 126.967471859644661, 36.133784375601422 ], [ 126.96638455784742, 36.138775396764245 ], [ 126.968045392651433, 36.13968636064223 ], [ 126.9753406967301, 36.136599522533125 ], [ 126.978270793975625, 36.137889158006899 ], [ 126.98052762441877, 36.134513201806421 ], [ 126.983257228850448, 36.135750644846844 ], [ 126.984452969539618, 36.131373205705039 ], [ 126.987525488759985, 36.131978520376521 ], [ 126.991393278588504, 36.127754378594325 ], [ 126.988117075341762, 36.125748238623558 ], [ 126.994024727718795, 36.124281042851635 ], [ 126.992584578424754, 36.118958042537585 ], [ 126.993639704319236, 36.11765857169874 ], [ 126.999388585931442, 36.116452990538278 ], [ 127.002052895072012, 36.119306417628756 ], [ 127.004607866436871, 36.119231667646581 ], [ 127.004512291157411, 36.117652218979593 ], [ 127.009439499084181, 36.120670512943917 ], [ 127.014316087815317, 36.121039215581426 ], [ 127.018681868735499, 36.117741808973136 ], [ 127.020429387487923, 36.111100445250059 ], [ 127.019636775040468, 36.106423417254845 ], [ 127.013577228867732, 36.096671092389833 ], [ 127.016497358241494, 36.095080147598686 ], [ 127.017688928102146, 36.095942227947916 ], [ 127.018999140985215, 36.092951114618074 ], [ 127.017349430379667, 36.086754659932375 ], [ 126.990547731059976, 36.079205204363262 ] ] ] ] } }
]
}
