{
"type": "FeatureCollection",
"name": "52180",
"crs": { "type": "name", "properties": { "name": "urn:ogc:def:crs:OGC:1.3:CRS84" } },
"features": [
{ "type": "Feature", "properties": { "emd_cd": "52180101", "emd_nm": "수성동" }, "geometry": { "type": "MultiPolygon", "coordinates": [ [ [ [ 126.867870358117173, 35.586022173216172 ], [ 126.867158064493864, 35.580268764515957 ], [ 126.862359469734301, 35.574762467657031 ], [ 126.8617594487704, 35.56973188313156 ], [ 126.856335286736481, 35.568917288267961 ], [ 126.85754461402118, 35.566686625079676 ], [ 126.855485936492144, 35.565588251184423 ], [ 126.850287210640133, 35.567626561778702 ], [ 126.84870032538403, 35.576271585917411 ], [ 126.852893572601204, 35.582971636148002 ], [ 126.852005299449416, 35.583524687090218 ], [ 126.861784594529993, 35.589353911593214 ], [ 126.867870358117173, 35.586022173216172 ] ] ] ] } },
{ "type": "Feature", "properties": { "emd_cd": "52180102", "emd_nm": "장명동" }, "geometry": { "type": "MultiPolygon", "coordinates": [ [ [ [ 126.856335286736481, 35.568917288267961 ], [ 126.864420699521773, 35.569715225892324 ], [ 126.865253266464947, 35.567704016991968 ], [ 126.861897675800407, 35.563894319667362 ], [ 126.856598118621918, 35.565844099371247 ], [ 126.85754461402118, 35.566686625079676 ], [ 126.856335286736481, 35.568917288267961 ] ] ] ] } },
{ "type": "Feature", "properties": { "emd_cd": "52180103", "emd_nm": "상동" }, "geometry": { "type": "MultiPolygon", "coordinates": [ [ [ [ 126.8761121437376, 35.553717799517798 ], [ 126.872582435135044, 35.556000788518489 ], [ 126.86949312141931, 35.555010674773818 ], [ 126.859427014408723, 35.558533266008183 ], [ 126.857731197873022, 35.561238696356952 ], [ 126.866876366766391, 35.568295834344376 ], [ 126.87684958865556, 35.566512287957067 ], [ 126.877805845711109, 35.563383632778631 ], [ 126.884539014950846, 35.562089449933517 ], [ 126.884562137505242, 35.560620950160654 ], [ 126.880821848444342, 35.55480755372681 ], [ 126.876813259645871, 35.555378935458315 ], [ 126.8761121437376, 35.553717799517798 ] ], [ [ 126.879036844971523, 35.557146217205513 ], [ 126.879020997769743, 35.557159260864786 ], [ 126.878624822168064, 35.557047503124636 ], [ 126.879036844971523, 35.557146217205513 ] ] ] ] } },
{ "type": "Feature", "properties": { "emd_cd": "52180104", "emd_nm": "시기동" }, "geometry": { "type": "MultiPolygon", "coordinates": [ [ [ [ 126.844446036980642, 35.568472358865918 ], [ 126.861205275862872, 35.564031702481749 ], [ 126.857743735493244, 35.561259242753792 ], [ 126.857929571332122, 35.559433381172028 ], [ 126.86949312141931, 35.555010674773818 ], [ 126.866027251580689, 35.552387193673596 ], [ 126.864914467563182, 35.546774955067242 ], [ 126.835654697038592, 35.55548701581138 ], [ 126.83723081451501, 35.556731587521902 ], [ 126.835289359448396, 35.557305926855797 ], [ 126.836360232733, 35.557481428441548 ], [ 126.837413542288687, 35.556616578836667 ], [ 126.839977676881787, 35.559653657339275 ], [ 126.849055620322432, 35.564355276746348 ], [ 126.844446036980642, 35.568472358865918 ] ] ] ] } },
{ "type": "Feature", "properties": { "emd_cd": "52180105", "emd_nm": "연지동" }, "geometry": { "type": "MultiPolygon", "coordinates": [ [ [ [ 126.846763035438855, 35.581442620416908 ], [ 126.849709089196125, 35.578643028311546 ], [ 126.848732087479021, 35.575474957333363 ], [ 126.85044277903431, 35.571243063224067 ], [ 126.849059144500231, 35.569730180961265 ], [ 126.85101738573762, 35.567772546965521 ], [ 126.844307078994731, 35.568404337607888 ], [ 126.849055620322432, 35.564355276746348 ], [ 126.845567720333577, 35.561956047651314 ], [ 126.838964317957434, 35.570009954620531 ], [ 126.831525234743197, 35.575780696083896 ], [ 126.836282554494503, 35.574983608852335 ], [ 126.840670679613979, 35.579932397012016 ], [ 126.843501958034167, 35.57787334815923 ], [ 126.846763035438855, 35.581442620416908 ] ] ] ] } },
{ "type": "Feature", "properties": { "emd_cd": "52180106", "emd_nm": "농소동" }, "geometry": { "type": "MultiPolygon", "coordinates": [ [ [ [ 126.833342956172686, 35.581995412554512 ], [ 126.830671273873932, 35.582969421007988 ], [ 126.831721575902591, 35.582603809246457 ], [ 126.832685057887545, 35.584516859549424 ], [ 126.831530812378332, 35.584825011103383 ], [ 126.833001640280472, 35.591689928034924 ], [ 126.836262125927732, 35.591068811370555 ], [ 126.836389288727545, 35.59234582236887 ], [ 126.838846507812818, 35.590740002450474 ], [ 126.843535815915516, 35.592491428532234 ], [ 126.852005525002795, 35.603157075559515 ], [ 126.855347086391845, 35.603436461826753 ], [ 126.855247857459432, 35.601667674472779 ], [ 126.861040149316011, 35.599841830716215 ], [ 126.851003525918429, 35.594736508611554 ], [ 126.8520137143868, 35.599576903972313 ], [ 126.850701695317753, 35.594730155947076 ], [ 126.848813650446118, 35.594131965395569 ], [ 126.853343490018702, 35.585092851799999 ], [ 126.849091374635492, 35.578209620868833 ], [ 126.846763035438855, 35.581442620416908 ], [ 126.843501958034167, 35.57787334815923 ], [ 126.840670679613979, 35.579932397012016 ], [ 126.836282554494503, 35.574983608852335 ], [ 126.832832752553543, 35.575182128278676 ], [ 126.830734414346153, 35.576049848773977 ], [ 126.831819361871055, 35.578946107889621 ], [ 126.830852897602668, 35.580369223621354 ], [ 126.833342956172686, 35.581995412554512 ] ] ] ] } },
{ "type": "Feature", "properties": { "emd_cd": "52180107", "emd_nm": "하모동" }, "geometry": { "type": "MultiPolygon", "coordinates": [ [ [ [ 126.827664732526571, 35.57829623665495 ], [ 126.838656613127739, 35.569736403176385 ], [ 126.833310940035588, 35.568790461824157 ], [ 126.828311185836512, 35.564621824371173 ], [ 126.823393078685399, 35.567816906228728 ], [ 126.821373579898349, 35.567083338036483 ], [ 126.816696342620176, 35.56918908675555 ], [ 126.817533832190236, 35.571499826231538 ], [ 126.822559501477286, 35.572040050924848 ], [ 126.822852777413345, 35.573550264844329 ], [ 126.827319967070864, 35.575044983685785 ], [ 126.826194965459777, 35.576901327401053 ], [ 126.827664732526571, 35.57829623665495 ] ] ] ] } },
{ "type": "Feature", "properties": { "emd_cd": "52180108", "emd_nm": "상평동" }, "geometry": { "type": "MultiPolygon", "coordinates": [ [ [ [ 126.838830035505254, 35.570036586992273 ], [ 126.845193295963838, 35.562049513763021 ], [ 126.839977676881787, 35.559653657339275 ], [ 126.837413542288687, 35.556616578836667 ], [ 126.836360232733, 35.557481428441548 ], [ 126.835238215188568, 35.557268659997654 ], [ 126.83723081451501, 35.556731587521902 ], [ 126.835654697038592, 35.55548701581138 ], [ 126.838062417902719, 35.554707510636668 ], [ 126.831969863260227, 35.550776914147974 ], [ 126.829159660184914, 35.556109690432407 ], [ 126.823306082086646, 35.558443726645969 ], [ 126.821579226019665, 35.551759415770938 ], [ 126.813778319241536, 35.551678434693265 ], [ 126.813428785202944, 35.555495039217668 ], [ 126.809343721277685, 35.556550458843702 ], [ 126.808544521613328, 35.558827660044138 ], [ 126.811095885904678, 35.564594892390076 ], [ 126.807106096792708, 35.567875591452896 ], [ 126.807997608315802, 35.568693162338121 ], [ 126.80994906843857, 35.567467421223235 ], [ 126.810257075527943, 35.568627736642632 ], [ 126.813073454922431, 35.568288633749702 ], [ 126.811940079541188, 35.566246802647782 ], [ 126.813151134868619, 35.565907678383844 ], [ 126.815749615426952, 35.5674389740077 ], [ 126.816309378337962, 35.569679110974278 ], [ 126.821373579898349, 35.567083338036483 ], [ 126.823393078685399, 35.567816906228728 ], [ 126.828311185836512, 35.564621824371173 ], [ 126.833310940035588, 35.568790461824157 ], [ 126.835500830723774, 35.568188837404826 ], [ 126.838830035505254, 35.570036586992273 ] ] ] ] } },
{ "type": "Feature", "properties": { "emd_cd": "52180109", "emd_nm": "과교동" }, "geometry": { "type": "MultiPolygon", "coordinates": [ [ [ [ 126.845794302082197, 35.552638931460429 ], [ 126.845723620759571, 35.549357687159251 ], [ 126.842263184871612, 35.545191602252224 ], [ 126.844392419817581, 35.543713033958241 ], [ 126.843685572194062, 35.542376030919669 ], [ 126.845132682549433, 35.541094695408297 ], [ 126.843998145444075, 35.540096963199602 ], [ 126.840548727176525, 35.542677795537678 ], [ 126.841153797222859, 35.539851047234663 ], [ 126.837460660251097, 35.53822050480791 ], [ 126.835175361813313, 35.539449907277401 ], [ 126.836019104814952, 35.54364734672729 ], [ 126.828613946885241, 35.547343194655767 ], [ 126.834253926919914, 35.553173804250427 ], [ 126.83883937345891, 35.555409812362932 ], [ 126.845794302082197, 35.552638931460429 ] ] ] ] } },
{ "type": "Feature", "properties": { "emd_cd": "52180110", "emd_nm": "삼산동" }, "geometry": { "type": "MultiPolygon", "coordinates": [ [ [ [ 126.832376344615341, 35.550246982948735 ], [ 126.821280392566223, 35.541803593946646 ], [ 126.82082465329529, 35.539973012053125 ], [ 126.817372202874552, 35.540581033676638 ], [ 126.816631588582297, 35.539428288682871 ], [ 126.812701108688628, 35.539831155529029 ], [ 126.808224199676616, 35.544359788687586 ], [ 126.803260051419358, 35.544427540989325 ], [ 126.804310022072073, 35.552752171547361 ], [ 126.806070684544508, 35.554903990587199 ], [ 126.810445537976932, 35.556425550440693 ], [ 126.813428785202944, 35.555495039217668 ], [ 126.813778319241536, 35.551678434693265 ], [ 126.821579226019665, 35.551759415770938 ], [ 126.823306082086646, 35.558443726645969 ], [ 126.829159660184914, 35.556109690432407 ], [ 126.832376344615341, 35.550246982948735 ] ] ] ] } },
{ "type": "Feature", "properties": { "emd_cd": "52180111", "emd_nm": "진산동" }, "geometry": { "type": "MultiPolygon", "coordinates": [ [ [ [ 126.828613946885241, 35.547343194655767 ], [ 126.836019104814952, 35.54364734672729 ], [ 126.835175361813313, 35.539449907277401 ], [ 126.837460660251097, 35.53822050480791 ], [ 126.841153797222859, 35.539851047234663 ], [ 126.840548727176525, 35.542677795537678 ], [ 126.843998145444075, 35.540096963199602 ], [ 126.840381068912677, 35.536160859104342 ], [ 126.840624917268883, 35.533428822402598 ], [ 126.838185580593915, 35.529692047981634 ], [ 126.83446081367876, 35.527201422669641 ], [ 126.831199322806867, 35.522150838072193 ], [ 126.828930618480456, 35.521899622675924 ], [ 126.828264158747317, 35.529810891308237 ], [ 126.820283292033409, 35.536164315048644 ], [ 126.821280392566223, 35.541803593946646 ], [ 126.828613946885241, 35.547343194655767 ] ] ] ] } },
{ "type": "Feature", "properties": { "emd_cd": "52180112", "emd_nm": "금붕동" }, "geometry": { "type": "MultiPolygon", "coordinates": [ [ [ [ 126.900228116758143, 35.544221225082183 ], [ 126.903950742871103, 35.53874739283593 ], [ 126.899366757691794, 35.533021507251014 ], [ 126.892131712163902, 35.532574639875619 ], [ 126.884552399716497, 35.525469539419468 ], [ 126.878316299553248, 35.527179479549623 ], [ 126.878499257394822, 35.530243061304581 ], [ 126.882802938601927, 35.53363818828349 ], [ 126.879327197868776, 35.540728844850712 ], [ 126.880250069241583, 35.544886138405438 ], [ 126.878046459922587, 35.548444182858077 ], [ 126.879931814236301, 35.549580917975483 ], [ 126.87552458483691, 35.554350662071947 ], [ 126.880821848444342, 35.55480755372681 ], [ 126.884539014950846, 35.562089449933517 ], [ 126.902792079098404, 35.555991037698924 ], [ 126.902057745132097, 35.547419498730868 ], [ 126.900228116758143, 35.544221225082183 ] ] ], [ [ [ 126.878619494419496, 35.557062287929895 ], [ 126.879020997769743, 35.557159260864786 ], [ 126.879278724512645, 35.557333877549375 ], [ 126.878619494419496, 35.557062287929895 ] ] ] ] } },
{ "type": "Feature", "properties": { "emd_cd": "52180113", "emd_nm": "송산동" }, "geometry": { "type": "MultiPolygon", "coordinates": [ [ [ [ 126.880453123149536, 35.532925099843155 ], [ 126.875538224402419, 35.523458800152625 ], [ 126.876052623875353, 35.521276173359901 ], [ 126.881469263192457, 35.520185323560163 ], [ 126.882037680821966, 35.518818219555804 ], [ 126.879040679609517, 35.515336396616902 ], [ 126.875376907046643, 35.514730032419152 ], [ 126.874128873632358, 35.520807654899343 ], [ 126.877185695076747, 35.528182339389872 ], [ 126.874682350963639, 35.533174780957637 ], [ 126.868243853545792, 35.535575378378056 ], [ 126.866821506211863, 35.542753995027709 ], [ 126.867998664503901, 35.54375921164231 ], [ 126.864914467563182, 35.546774955067242 ], [ 126.866420865522855, 35.552917307730603 ], [ 126.872345771901323, 35.556052738314968 ], [ 126.879931814236301, 35.549580917975483 ], [ 126.878046459922587, 35.548444182858077 ], [ 126.880250069241583, 35.544886138405438 ], [ 126.879327197868776, 35.540728844850712 ], [ 126.882802938601927, 35.53363818828349 ], [ 126.880453123149536, 35.532925099843155 ] ] ] ] } },
{ "type": "Feature", "properties": { "emd_cd": "52180114", "emd_nm": "신월동" }, "geometry": { "type": "MultiPolygon", "coordinates": [ [ [ [ 126.853422671757954, 35.524429390337758 ], [ 126.8510935509658, 35.532381247189264 ], [ 126.847717622796353, 35.534792972434495 ], [ 126.854088699513014, 35.546924581206241 ], [ 126.856987873589432, 35.548602190242256 ], [ 126.865134455880323, 35.546709959161049 ], [ 126.867998664503901, 35.54375921164231 ], [ 126.866821506211863, 35.542753995027709 ], [ 126.868243853545792, 35.535575378378056 ], [ 126.874682350963639, 35.533174780957637 ], [ 126.877185695076747, 35.528182339389872 ], [ 126.874128873632358, 35.520807654899343 ], [ 126.875376907046643, 35.514730032419152 ], [ 126.863971847835344, 35.515464446572786 ], [ 126.85785806845432, 35.519186514978102 ], [ 126.853422671757954, 35.524429390337758 ] ] ] ] } },
{ "type": "Feature", "properties": { "emd_cd": "52180115", "emd_nm": "용산동" }, "geometry": { "type": "MultiPolygon", "coordinates": [ [ [ [ 126.853422671757954, 35.524429390337758 ], [ 126.85785806845432, 35.519186514978102 ], [ 126.863989750751728, 35.515457842417668 ], [ 126.871943859154882, 35.514316016124887 ], [ 126.878071429907948, 35.50678465172733 ], [ 126.880560426232535, 35.507183896999891 ], [ 126.881594112181332, 35.498873616736581 ], [ 126.87357859694653, 35.499827268128072 ], [ 126.865007142232926, 35.506130751858478 ], [ 126.839008971392531, 35.517064004168695 ], [ 126.838163920151587, 35.520190885014181 ], [ 126.839480243474142, 35.521676882279337 ], [ 126.847376918435415, 35.521409166467095 ], [ 126.853422671757954, 35.524429390337758 ] ], [ [ 126.846672893262792, 35.514053328957061 ], [ 126.846635842459847, 35.514070766637637 ], [ 126.846633789605491, 35.514054820007864 ], [ 126.846672893262792, 35.514053328957061 ] ] ] ] } },
{ "type": "Feature", "properties": { "emd_cd": "52180116", "emd_nm": "교암동" }, "geometry": { "type": "MultiPolygon", "coordinates": [ [ [ [ 126.855929355344472, 35.548599385404025 ], [ 126.847717622796353, 35.534792972434495 ], [ 126.8510935509658, 35.532381247189264 ], [ 126.853422671757954, 35.524429390337758 ], [ 126.847376918435415, 35.521409166467095 ], [ 126.839480243474142, 35.521676882279337 ], [ 126.83769981597159, 35.514124971187542 ], [ 126.834262998438007, 35.51467356542647 ], [ 126.833192790695307, 35.516614729507161 ], [ 126.830227916631742, 35.516427314896873 ], [ 126.828092767255797, 35.520908408216869 ], [ 126.831199322806867, 35.522150838072193 ], [ 126.83446081367876, 35.527201422669641 ], [ 126.838185580593915, 35.529692047981634 ], [ 126.840624917268883, 35.533428822402598 ], [ 126.840381068912677, 35.536160859104342 ], [ 126.845126678273473, 35.541074750962402 ], [ 126.842263184871612, 35.545191602252224 ], [ 126.845723620759571, 35.549357687159251 ], [ 126.845794302082197, 35.552638931460429 ], [ 126.855929355344472, 35.548599385404025 ] ] ] ] } },
{ "type": "Feature", "properties": { "emd_cd": "52180117", "emd_nm": "부전동" }, "geometry": { "type": "MultiPolygon", "coordinates": [ [ [ [ 126.900156450050275, 35.544394493144544 ], [ 126.907529434941566, 35.545844426453328 ], [ 126.910778109259454, 35.544965913906772 ], [ 126.915110139041957, 35.547456921873717 ], [ 126.917831626082389, 35.546796152837558 ], [ 126.925176578679668, 35.536920864559001 ], [ 126.929298180838572, 35.537527711315796 ], [ 126.937594628503675, 35.54204570552627 ], [ 126.942886961093066, 35.539164809207911 ], [ 126.949048493087133, 35.539975764461062 ], [ 126.951063611523054, 35.538811570432436 ], [ 126.950082091340093, 35.533248987564313 ], [ 126.951480814997183, 35.532682631580577 ], [ 126.94692381477131, 35.528900855734172 ], [ 126.939381479108519, 35.527851965602736 ], [ 126.935542295492255, 35.523803177488723 ], [ 126.931958854115422, 35.525358990108238 ], [ 126.930276975973044, 35.5207980202496 ], [ 126.926955472075591, 35.518701412002827 ], [ 126.925218369560795, 35.519048372896542 ], [ 126.924973509319429, 35.522023129095366 ], [ 126.919599734208816, 35.526871395271399 ], [ 126.904145092456631, 35.525085730336997 ], [ 126.900079938215953, 35.520436329432883 ], [ 126.891012209542851, 35.525134529799239 ], [ 126.88548662810544, 35.52460495096426 ], [ 126.884552399716497, 35.525469539419468 ], [ 126.892131712163902, 35.532574639875619 ], [ 126.897584932289433, 35.532096191972428 ], [ 126.900624674332136, 35.534078597680036 ], [ 126.903975178716621, 35.540014428549398 ], [ 126.900156450050275, 35.544394493144544 ] ] ] ] } },
{ "type": "Feature", "properties": { "emd_cd": "52180118", "emd_nm": "쌍암동" }, "geometry": { "type": "MultiPolygon", "coordinates": [ [ [ [ 126.925218369560795, 35.519048372896542 ], [ 126.914541097207405, 35.514221044776207 ], [ 126.909950202051306, 35.514837907431925 ], [ 126.909060450791713, 35.516380291691675 ], [ 126.900835204816417, 35.512961334837861 ], [ 126.901128496341158, 35.510337351306539 ], [ 126.906010117997624, 35.507991294451642 ], [ 126.902747363203503, 35.498183249388809 ], [ 126.893870742831609, 35.500175644107898 ], [ 126.889946860380078, 35.498733080296326 ], [ 126.881594112181332, 35.498873616736581 ], [ 126.880560426232535, 35.507183896999891 ], [ 126.878071429907948, 35.50678465172733 ], [ 126.871641218415959, 35.513355319384615 ], [ 126.879040679609517, 35.515336396616902 ], [ 126.882037680821966, 35.518818219555804 ], [ 126.881469263192457, 35.520185323560163 ], [ 126.876052623875353, 35.521276173359901 ], [ 126.875538224402419, 35.523458800152625 ], [ 126.877769593920902, 35.52800519446226 ], [ 126.886085152115328, 35.524246429349581 ], [ 126.891012209542851, 35.525134529799239 ], [ 126.900079938215953, 35.520436329432883 ], [ 126.904145092456631, 35.525085730336997 ], [ 126.919599734208816, 35.526871395271399 ], [ 126.924973509319429, 35.522023129095366 ], [ 126.925218369560795, 35.519048372896542 ] ] ] ] } },
{ "type": "Feature", "properties": { "emd_cd": "52180119", "emd_nm": "내장동" }, "geometry": { "type": "MultiPolygon", "coordinates": [ [ [ [ 126.880622699460019, 35.484889272792934 ], [ 126.881586757286357, 35.487462133675329 ], [ 126.879401034565674, 35.498245256532215 ], [ 126.893870742831609, 35.500175644107898 ], [ 126.902747363203503, 35.498183249388809 ], [ 126.906010117997624, 35.507991294451642 ], [ 126.901128496341158, 35.510337351306539 ], [ 126.900835204816417, 35.512961334837861 ], [ 126.909060450791713, 35.516380291691675 ], [ 126.909950202051306, 35.514837907431925 ], [ 126.914541097207405, 35.514221044776207 ], [ 126.925218369560795, 35.519048372896542 ], [ 126.928301017407861, 35.518883603953661 ], [ 126.929123690113173, 35.517351952752755 ], [ 126.928873693907562, 35.508461252829015 ], [ 126.933652380852237, 35.507166446462818 ], [ 126.933247286208385, 35.503215197975265 ], [ 126.934950104966646, 35.501429009589998 ], [ 126.933878468117868, 35.499189695067933 ], [ 126.935512658241578, 35.495796687346491 ], [ 126.941690254556818, 35.490893638338825 ], [ 126.935939810884392, 35.488130165467339 ], [ 126.935858084536605, 35.481959794726293 ], [ 126.927339451204048, 35.479104818636102 ], [ 126.922654462220748, 35.482888362654698 ], [ 126.91353718400859, 35.476804876497177 ], [ 126.897917726611709, 35.480764454455368 ], [ 126.893813899158488, 35.480855871119601 ], [ 126.888972169616665, 35.478430333029614 ], [ 126.880622699460019, 35.484889272792934 ] ] ] ] } },
{ "type": "Feature", "properties": { "emd_cd": "52180120", "emd_nm": "영파동" }, "geometry": { "type": "MultiPolygon", "coordinates": [ [ [ [ 126.841720699801172, 35.606874883500204 ], [ 126.842718865166091, 35.611197028426744 ], [ 126.844794277282816, 35.612558900353918 ], [ 126.846226485232435, 35.611531486071414 ], [ 126.850840959576942, 35.612473173138774 ], [ 126.853412802418475, 35.618219571860045 ], [ 126.858434061375988, 35.61846336797727 ], [ 126.858299692798965, 35.614940609583996 ], [ 126.862770196603776, 35.614963286335268 ], [ 126.862590674816772, 35.610427154132346 ], [ 126.858763854317559, 35.607622496978124 ], [ 126.860171167964012, 35.604545262080478 ], [ 126.858116576895952, 35.601508447096265 ], [ 126.855247857459432, 35.601667674472779 ], [ 126.855347086391845, 35.603436461826753 ], [ 126.852005525002795, 35.603157075559515 ], [ 126.846791067529395, 35.595473071947822 ], [ 126.84362556283844, 35.597880570323035 ], [ 126.845901024274426, 35.600275796841267 ], [ 126.844960344536304, 35.600875286797013 ], [ 126.846926596811244, 35.606559172920676 ], [ 126.841720699801172, 35.606874883500204 ] ] ] ] } },
{ "type": "Feature", "properties": { "emd_cd": "52180121", "emd_nm": "하북동" }, "geometry": { "type": "MultiPolygon", "coordinates": [ [ [ [ 126.848813650446118, 35.594131965395569 ], [ 126.850701695317753, 35.594730155947076 ], [ 126.8520137143868, 35.599576903972313 ], [ 126.851003449434742, 35.594736102936565 ], [ 126.861040149316011, 35.599841830716215 ], [ 126.866745603177876, 35.59996827688046 ], [ 126.868967407333727, 35.60376276045465 ], [ 126.869370301583345, 35.602435967723373 ], [ 126.873201731634524, 35.60464293181554 ], [ 126.87864223794854, 35.601303111630671 ], [ 126.875194530638481, 35.598867560500715 ], [ 126.877424609575968, 35.594218203015906 ], [ 126.875841278930409, 35.59172954813684 ], [ 126.867817949270631, 35.585995491039874 ], [ 126.861784594529993, 35.589353911593214 ], [ 126.85328485686405, 35.584536828418727 ], [ 126.848813650446118, 35.594131965395569 ] ] ] ] } },
{ "type": "Feature", "properties": { "emd_cd": "52180122", "emd_nm": "구룡동" }, "geometry": { "type": "MultiPolygon", "coordinates": [ [ [ [ 126.904249468904084, 35.558666622135227 ], [ 126.901197073242443, 35.556898244756873 ], [ 126.877805845711109, 35.563383632778631 ], [ 126.87684958865556, 35.566512287957067 ], [ 126.873148152236695, 35.567816136021193 ], [ 126.865253266464947, 35.567704016991968 ], [ 126.864420699521773, 35.569715225892324 ], [ 126.861959028681795, 35.570093189691121 ], [ 126.862359469734301, 35.574762467657031 ], [ 126.866844990105179, 35.57986631371795 ], [ 126.877043865263374, 35.580797063943258 ], [ 126.880497633722058, 35.579274820221656 ], [ 126.882033151866466, 35.580474508557025 ], [ 126.881908835836953, 35.583391978703673 ], [ 126.89072468343096, 35.584245141684413 ], [ 126.892881689297283, 35.583332501644456 ], [ 126.892865784760289, 35.579838301957885 ], [ 126.895889387921386, 35.578502516707857 ], [ 126.894902666173522, 35.576603800339974 ], [ 126.896405831953132, 35.572440360017687 ], [ 126.898104855248718, 35.571771258271319 ], [ 126.899125391054966, 35.567096278878445 ], [ 126.904249468904084, 35.558666622135227 ] ] ] ] } },
{ "type": "Feature", "properties": { "emd_cd": "52180123", "emd_nm": "흑암동" }, "geometry": { "type": "MultiPolygon", "coordinates": [ [ [ [ 126.824295579130094, 35.5957228760874 ], [ 126.824408565790989, 35.595526840871699 ], [ 126.824393321908232, 35.595519022344035 ], [ 126.824295579130094, 35.5957228760874 ] ] ], [ [ [ 126.810267821018726, 35.610188369580833 ], [ 126.816681725106832, 35.608721555713963 ], [ 126.821704694276022, 35.609497804485564 ], [ 126.825559081531907, 35.607179284135931 ], [ 126.823465937977673, 35.602706463858496 ], [ 126.826371558424796, 35.598448688876928 ], [ 126.826242844004867, 35.597754988556723 ], [ 126.824810745087433, 35.596634301811584 ], [ 126.823773198247537, 35.594980717203349 ], [ 126.824603475292122, 35.592239482328772 ], [ 126.818921107108977, 35.592073556229799 ], [ 126.814812617266298, 35.597697254519865 ], [ 126.798699873488189, 35.604563630998278 ], [ 126.798489612077674, 35.606632177606599 ], [ 126.800923077552241, 35.608894574318363 ], [ 126.810267821018726, 35.610188369580833 ] ] ] ] } },
{ "type": "Feature", "properties": { "emd_cd": "52180124", "emd_nm": "용계동" }, "geometry": { "type": "MultiPolygon", "coordinates": [ [ [ [ 126.802675110570092, 35.583459331669111 ], [ 126.800684159419362, 35.585980189916881 ], [ 126.8047796467892, 35.594761464512771 ], [ 126.802547974474365, 35.599449035737983 ], [ 126.798700348276796, 35.600564437372427 ], [ 126.799464934509629, 35.603513845419322 ], [ 126.814812617266298, 35.597697254519865 ], [ 126.818921107108977, 35.592073556229799 ], [ 126.824603475292122, 35.592239482328772 ], [ 126.823773198247537, 35.594980717203349 ], [ 126.824810745087433, 35.596634301811584 ], [ 126.825944859511381, 35.59743332729866 ], [ 126.827357162962997, 35.594760129609362 ], [ 126.833001640280472, 35.591689928034924 ], [ 126.831579961826151, 35.587073390529518 ], [ 126.826766066731508, 35.583793173512092 ], [ 126.813581621641717, 35.586408787014939 ], [ 126.811510336541701, 35.584644927827149 ], [ 126.802675110570092, 35.583459331669111 ] ], [ [ 126.824408565790989, 35.595526840871699 ], [ 126.824295579130094, 35.5957228760874 ], [ 126.824393321908232, 35.595519022344035 ], [ 126.824408565790989, 35.595526840871699 ] ] ] ] } },
{ "type": "Feature", "properties": { "emd_cd": "52180125", "emd_nm": "공평동" }, "geometry": { "type": "MultiPolygon", "coordinates": [ [ [ [ 126.817059317270704, 35.584972131136404 ], [ 126.818189494599878, 35.586139103767266 ], [ 126.821408926199879, 35.583850679885551 ], [ 126.826766066731508, 35.583793173512092 ], [ 126.831579961826151, 35.587073390529518 ], [ 126.832666599912159, 35.589548368144371 ], [ 126.831530812378332, 35.584825011103383 ], [ 126.832685057887545, 35.584516859549424 ], [ 126.831721575902591, 35.582603809246457 ], [ 126.830671273873932, 35.582969421007988 ], [ 126.830522527860253, 35.582734974105456 ], [ 126.833342956172686, 35.581995412554512 ], [ 126.830852897602668, 35.580369223621354 ], [ 126.831819361871055, 35.578946107889621 ], [ 126.830734414346153, 35.576049848773977 ], [ 126.827483020471348, 35.578254091623933 ], [ 126.826194965459777, 35.576901327401053 ], [ 126.827319967070864, 35.575044983685785 ], [ 126.822852777413345, 35.573550264844329 ], [ 126.822559501477286, 35.572040050924848 ], [ 126.817533832190236, 35.571499826231538 ], [ 126.816098493893818, 35.574909598645554 ], [ 126.818512172819624, 35.576579419455392 ], [ 126.81843298640446, 35.580589254619163 ], [ 126.81875566081203, 35.581478235162969 ], [ 126.817059317270704, 35.584972131136404 ] ], [ [ 126.818349503775678, 35.58342408812824 ], [ 126.818783920259548, 35.581549218471025 ], [ 126.818676674207936, 35.579599936311197 ], [ 126.81941425766864, 35.580477853867315 ], [ 126.818349503775678, 35.58342408812824 ] ] ] ] } },
{ "type": "Feature", "properties": { "emd_cd": "52180126", "emd_nm": "망제동" }, "geometry": { "type": "MultiPolygon", "coordinates": [ [ [ [ 126.846761838922077, 35.595483237015252 ], [ 126.838846507812818, 35.590740002450474 ], [ 126.836389288727545, 35.59234582236887 ], [ 126.836262125927732, 35.591068811370555 ], [ 126.832977407871567, 35.591695761552337 ], [ 126.827357162962997, 35.594760129609362 ], [ 126.823465937977673, 35.602706463858496 ], [ 126.825854890935545, 35.606729090733801 ], [ 126.821674887532595, 35.609501229971187 ], [ 126.823681529635252, 35.615979667060643 ], [ 126.830005235408422, 35.619266124532764 ], [ 126.835916471890783, 35.618124360945828 ], [ 126.837890336440324, 35.615210932905249 ], [ 126.840836209464968, 35.615552516655292 ], [ 126.844404636131529, 35.613534683105634 ], [ 126.841720699801172, 35.606874883500204 ], [ 126.846926596811244, 35.606559172920676 ], [ 126.844960344536304, 35.600875286797013 ], [ 126.845901024274426, 35.600275796841267 ], [ 126.84362556283844, 35.597880570323035 ], [ 126.846761838922077, 35.595483237015252 ] ] ] ] } },
{ "type": "Feature", "properties": { "emd_cd": "52180127", "emd_nm": "신정동" }, "geometry": { "type": "MultiPolygon", "coordinates": [ [ [ [ 126.827854974053793, 35.48628049747677 ], [ 126.823573632213623, 35.488229226869457 ], [ 126.824003641383939, 35.493455624069277 ], [ 126.827580883217024, 35.497502956175225 ], [ 126.83215462135017, 35.499380842037603 ], [ 126.829994128615269, 35.504122828608558 ], [ 126.83143148728648, 35.5102209631685 ], [ 126.827385881541176, 35.514632654383988 ], [ 126.833192790695307, 35.516614729507161 ], [ 126.834262998438007, 35.51467356542647 ], [ 126.83769981597159, 35.514124971187542 ], [ 126.839008971392531, 35.517064004168695 ], [ 126.840836127568352, 35.517158292939726 ], [ 126.852191201006136, 35.510466004837561 ], [ 126.865007142232926, 35.506130751858478 ], [ 126.87357859694653, 35.499827268128072 ], [ 126.879401034565674, 35.498245256532215 ], [ 126.881586757286357, 35.487462133675329 ], [ 126.880622699460019, 35.484889272792934 ], [ 126.877056561893539, 35.484190852137289 ], [ 126.873109622486439, 35.479671253180442 ], [ 126.866235306817998, 35.480691560341342 ], [ 126.859806220142616, 35.479673273782041 ], [ 126.861981843886866, 35.477177469662458 ], [ 126.86081338885549, 35.474228501157825 ], [ 126.864132795730043, 35.469178769431828 ], [ 126.865013764320651, 35.464091041431431 ], [ 126.869101294926608, 35.461475859248054 ], [ 126.86324154363416, 35.461206715019536 ], [ 126.851135544538494, 35.465736046874412 ], [ 126.842574594159473, 35.463900215679438 ], [ 126.840681916144902, 35.461085224707901 ], [ 126.837914066426691, 35.464527043390042 ], [ 126.841662315721834, 35.466964735819893 ], [ 126.840224243685512, 35.468951025320756 ], [ 126.843738898203654, 35.478580453075793 ], [ 126.831457421852619, 35.480371293554761 ], [ 126.827854974053793, 35.48628049747677 ] ] ], [ [ [ 126.846635842459847, 35.514070766637637 ], [ 126.846672893262792, 35.514053328957061 ], [ 126.846633789605491, 35.514054820007864 ], [ 126.846635842459847, 35.514070766637637 ] ] ] ] } },
{ "type": "Feature", "properties": { "emd_cd": "52180250", "emd_nm": "신태인읍" }, "geometry": { "type": "MultiPolygon", "coordinates": [ [ [ [ 126.826184247503107, 35.712638304680972 ], [ 126.826823172743715, 35.714535116990085 ], [ 126.829880395498492, 35.715428760353575 ], [ 126.827899311686892, 35.718975153502527 ], [ 126.842738986882594, 35.726680474274545 ], [ 126.84768234665043, 35.728141944092464 ], [ 126.852531198730247, 35.72621595824036 ], [ 126.866950293441604, 35.728008706230099 ], [ 126.871457226993698, 35.72224230562567 ], [ 126.873411104104036, 35.726526750839746 ], [ 126.876159230949767, 35.726352300849697 ], [ 126.877553487667498, 35.718355983098199 ], [ 126.882085852398987, 35.713162326860953 ], [ 126.887538021436569, 35.715288695971388 ], [ 126.889270311893952, 35.712360626661976 ], [ 126.888738267133604, 35.708828770279787 ], [ 126.890571150798323, 35.707367817645377 ], [ 126.8994186333546, 35.706318577299022 ], [ 126.902700601634137, 35.709179561555381 ], [ 126.907895400935246, 35.706227216642901 ], [ 126.915202416505068, 35.706157282788936 ], [ 126.921188844911455, 35.69851240610236 ], [ 126.91604758426557, 35.694524150389476 ], [ 126.917940302655396, 35.688934623716982 ], [ 126.914070317194771, 35.688293378306042 ], [ 126.907897241577729, 35.683014470813802 ], [ 126.903134786652544, 35.684142821807264 ], [ 126.898612475360338, 35.679991880240522 ], [ 126.892110165596364, 35.67872662752599 ], [ 126.887627418322097, 35.680001536574004 ], [ 126.888700364634857, 35.675605275696711 ], [ 126.887446522195347, 35.675535670238652 ], [ 126.887433537871715, 35.67742676020773 ], [ 126.88718987103988, 35.675521709552598 ], [ 126.884227406377278, 35.67578271057652 ], [ 126.87372084569941, 35.680249975586307 ], [ 126.873822403946235, 35.673341435104867 ], [ 126.863133624518795, 35.672654017135187 ], [ 126.861524607166203, 35.675117103112669 ], [ 126.862268510448985, 35.684992840212928 ], [ 126.858019061731056, 35.684880303803034 ], [ 126.853944457284925, 35.68769584593533 ], [ 126.852180316491825, 35.686411420191661 ], [ 126.847043807546001, 35.689901145252641 ], [ 126.848689184019676, 35.691981571462044 ], [ 126.846329405218327, 35.694231411939604 ], [ 126.841046455566385, 35.692945023938748 ], [ 126.844789837963347, 35.695728622272512 ], [ 126.839575264183082, 35.698349094280601 ], [ 126.839649979336656, 35.700065432780342 ], [ 126.836958558515917, 35.698983422415523 ], [ 126.833705151712451, 35.700630405198879 ], [ 126.834820897978375, 35.703782700496653 ], [ 126.829162531643021, 35.707990545931374 ], [ 126.826184247503107, 35.712638304680972 ] ] ] ] } },
{ "type": "Feature", "properties": { "emd_cd": "52180310", "emd_nm": "북면" }, "geometry": { "type": "MultiPolygon", "coordinates": [ [ [ [ 126.916416320528796, 35.639137176353451 ], [ 126.920729739486575, 35.639790617000536 ], [ 126.920187029377686, 35.636470902519882 ], [ 126.922379453087487, 35.633314222429746 ], [ 126.922244841365554, 35.631491163149398 ], [ 126.917431164618023, 35.627861408775331 ], [ 126.917781864353344, 35.622473092325798 ], [ 126.922846067410603, 35.618618976952831 ], [ 126.920095523344173, 35.616225726320508 ], [ 126.920751673330841, 35.613361719827836 ], [ 126.925670359748594, 35.614900379728574 ], [ 126.934619851824692, 35.612148038260216 ], [ 126.937114310152936, 35.613027996455358 ], [ 126.937439999248085, 35.615115737010299 ], [ 126.940549858240132, 35.613902172343778 ], [ 126.943258391159318, 35.615765242528468 ], [ 126.946794186395124, 35.609571286724744 ], [ 126.940125756216673, 35.60716778022379 ], [ 126.941068405229174, 35.603850843791669 ], [ 126.934775841512277, 35.589378468398571 ], [ 126.938306199339749, 35.581365448965016 ], [ 126.938234243420879, 35.57543942194097 ], [ 126.936064591103957, 35.573515530095428 ], [ 126.935573452691017, 35.569504052905103 ], [ 126.933055410043764, 35.568335792395551 ], [ 126.932860847574545, 35.566597088127715 ], [ 126.928474943939179, 35.56619882777089 ], [ 126.926827140466955, 35.563526638764564 ], [ 126.921646307063355, 35.561218776857395 ], [ 126.904249468904084, 35.558666622135227 ], [ 126.899125391054966, 35.567096278878445 ], [ 126.898104855248718, 35.571771258271319 ], [ 126.896405831953132, 35.572440360017687 ], [ 126.894902666173522, 35.576603800339974 ], [ 126.895889387921386, 35.578502516707857 ], [ 126.892441988952697, 35.580480900145744 ], [ 126.892881689297283, 35.583332501644456 ], [ 126.882226704690794, 35.583515454769604 ], [ 126.880497633722058, 35.579274820221656 ], [ 126.877043865263374, 35.580797063943258 ], [ 126.866844990105179, 35.57986631371795 ], [ 126.867817949270631, 35.585995491039874 ], [ 126.877277841978895, 35.593865648191382 ], [ 126.875194530638481, 35.598867560500715 ], [ 126.87864223794854, 35.601303111630671 ], [ 126.873201731634524, 35.60464293181554 ], [ 126.869370301583345, 35.602435967723373 ], [ 126.869283927330855, 35.603622507257626 ], [ 126.868967407333727, 35.60376276045465 ], [ 126.866745603177876, 35.59996827688046 ], [ 126.861316519113018, 35.599734322371674 ], [ 126.858116576895952, 35.601508447096265 ], [ 126.860171167964012, 35.604545262080478 ], [ 126.858666454195486, 35.606997024297129 ], [ 126.862590674816772, 35.610427154132346 ], [ 126.862729273983661, 35.614832958492471 ], [ 126.864951910516552, 35.6128933534197 ], [ 126.871970634703018, 35.61416082576865 ], [ 126.871544178360764, 35.615987541928028 ], [ 126.878879875938011, 35.617000321898146 ], [ 126.883300922198544, 35.621562101133762 ], [ 126.888687890963922, 35.619947168285542 ], [ 126.890005053223717, 35.617152311140288 ], [ 126.892445077516882, 35.617473147372671 ], [ 126.892121297891961, 35.619311916568535 ], [ 126.89307020086062, 35.617516026581825 ], [ 126.906781408015007, 35.628871601117112 ], [ 126.910162322117699, 35.633759551538738 ], [ 126.91454173439044, 35.636010426665109 ], [ 126.916416320528796, 35.639137176353451 ] ] ] ] } },
{ "type": "Feature", "properties": { "emd_cd": "52180320", "emd_nm": "입암면" }, "geometry": { "type": "MultiPolygon", "coordinates": [ [ [ [ 126.830227916631742, 35.516427314896873 ], [ 126.827385881541176, 35.514632654383988 ], [ 126.83143148728648, 35.5102209631685 ], [ 126.829994128615269, 35.504122828608558 ], [ 126.83215462135017, 35.499380842037603 ], [ 126.827580883217024, 35.497502956175225 ], [ 126.824003641383939, 35.493455624069277 ], [ 126.82317345206404, 35.49091226678393 ], [ 126.825018217053412, 35.48640661316702 ], [ 126.820998615372901, 35.485693335839031 ], [ 126.818956391468902, 35.486883122427528 ], [ 126.813879404369402, 35.484191436429057 ], [ 126.81283714444352, 35.476137963446071 ], [ 126.815324972379969, 35.473753672743172 ], [ 126.813972693651735, 35.46879902157621 ], [ 126.792347444837816, 35.4676341172283 ], [ 126.781895658880586, 35.470628236935433 ], [ 126.772637456652589, 35.468065404657104 ], [ 126.770297785040952, 35.482217068642548 ], [ 126.766771242218937, 35.485680252600524 ], [ 126.764345244130254, 35.492652797450432 ], [ 126.768418762213571, 35.4961421985535 ], [ 126.76727011245616, 35.501691717328136 ], [ 126.770615139960881, 35.507602425876556 ], [ 126.759894410467041, 35.511097424554009 ], [ 126.760690962807644, 35.516793654206985 ], [ 126.763646669957481, 35.518464087582572 ], [ 126.768587507836628, 35.51334567215973 ], [ 126.775588448775537, 35.516058785505734 ], [ 126.778169552664053, 35.519624357764854 ], [ 126.78333407172363, 35.520966032320977 ], [ 126.785585274494409, 35.523848654969186 ], [ 126.786913505966922, 35.526599359109163 ], [ 126.784746242298283, 35.528507964943152 ], [ 126.786822226350722, 35.531543773229501 ], [ 126.78540750044985, 35.532449249447026 ], [ 126.786244699175114, 35.533239470245675 ], [ 126.790299797318866, 35.531601789571333 ], [ 126.79964680254443, 35.534622567232269 ], [ 126.798786069911984, 35.538554829344633 ], [ 126.800772160611402, 35.543937665127579 ], [ 126.80639079021789, 35.544783302916677 ], [ 126.812701108688628, 35.539831155529029 ], [ 126.821245278534548, 35.539901717861703 ], [ 126.820587301022229, 35.535671041223686 ], [ 126.828264158747317, 35.529810891308237 ], [ 126.829258350404501, 35.526627507714487 ], [ 126.828092767255797, 35.520908408216869 ], [ 126.830227916631742, 35.516427314896873 ] ] ] ] } },
{ "type": "Feature", "properties": { "emd_cd": "52180330", "emd_nm": "소성면" }, "geometry": { "type": "MultiPolygon", "coordinates": [ [ [ [ 126.81731714481144, 35.584894707974655 ], [ 126.81875566081203, 35.581478235162969 ], [ 126.81843298640446, 35.580589254619163 ], [ 126.818512172819624, 35.576579419455392 ], [ 126.816098493893818, 35.574909598645554 ], [ 126.817474538325257, 35.570915771389096 ], [ 126.813801402620783, 35.56600399474226 ], [ 126.811940079541188, 35.566246802647782 ], [ 126.813073454922431, 35.568288633749702 ], [ 126.807102392576439, 35.567906662002059 ], [ 126.810668173907786, 35.566071532509703 ], [ 126.810901361493578, 35.562885059763317 ], [ 126.808544521613328, 35.558827660044138 ], [ 126.809343721277685, 35.556550458843702 ], [ 126.804310022072073, 35.552752171547361 ], [ 126.803260051419358, 35.544427540989325 ], [ 126.800772160611402, 35.543937665127579 ], [ 126.799596052233753, 35.541817785771123 ], [ 126.79964680254443, 35.534622567232269 ], [ 126.790299797318866, 35.531601789571333 ], [ 126.786244699175114, 35.533239470245675 ], [ 126.78540750044985, 35.532449249447026 ], [ 126.786822226350722, 35.531543773229501 ], [ 126.784746242298283, 35.528507964943152 ], [ 126.786838047640558, 35.5261317581529 ], [ 126.78333407172363, 35.520966032320977 ], [ 126.780125739879367, 35.520800902481696 ], [ 126.775588448775537, 35.516058785505734 ], [ 126.768587507836628, 35.51334567215973 ], [ 126.763646669957481, 35.518464087582572 ], [ 126.774067989118109, 35.523154929520672 ], [ 126.76870409359573, 35.525933709155701 ], [ 126.767086149027492, 35.530026427966689 ], [ 126.763601398775776, 35.530827708891486 ], [ 126.765176368765225, 35.533435062223418 ], [ 126.761135061201855, 35.532990373441308 ], [ 126.762998954069914, 35.53814311785834 ], [ 126.762178871815422, 35.544704448300429 ], [ 126.766242821729719, 35.549158487616019 ], [ 126.761975475224162, 35.555105019888877 ], [ 126.765906837250029, 35.556795782100373 ], [ 126.769369087017282, 35.560770036082225 ], [ 126.761389803885933, 35.571497860472732 ], [ 126.757091135311583, 35.573508022807033 ], [ 126.75675031527696, 35.572472200635936 ], [ 126.75443414757774, 35.574619665989296 ], [ 126.755644622051207, 35.572969256699849 ], [ 126.752634044256382, 35.571657022468607 ], [ 126.745043121489019, 35.569143914448617 ], [ 126.74296557724999, 35.570155375828691 ], [ 126.740852219123411, 35.572045102205166 ], [ 126.742458397047372, 35.577811187557288 ], [ 126.739748965908277, 35.582478559351486 ], [ 126.752966967939017, 35.58936211873344 ], [ 126.758985289313216, 35.589415780209599 ], [ 126.762411569555354, 35.592633052351587 ], [ 126.765222765134837, 35.590990609887328 ], [ 126.770772348194654, 35.591539075193474 ], [ 126.772020691620881, 35.588642819136332 ], [ 126.775252512260323, 35.587590383009633 ], [ 126.775226117585547, 35.585511990923436 ], [ 126.781839914145891, 35.585372895430758 ], [ 126.78302984393936, 35.581938544049486 ], [ 126.787722212325278, 35.580897647372517 ], [ 126.78592477273456, 35.579251730909746 ], [ 126.789288371114225, 35.579185513264868 ], [ 126.789596822436181, 35.57721480080739 ], [ 126.792831719215116, 35.576893165902327 ], [ 126.793769225345443, 35.574008196704376 ], [ 126.797478747296054, 35.576003514487653 ], [ 126.802675110570092, 35.583459331669111 ], [ 126.811510336541701, 35.584644927827149 ], [ 126.813581621641717, 35.586408787014939 ], [ 126.81731714481144, 35.584894707974655 ] ] ], [ [ [ 126.818349503775678, 35.58342408812824 ], [ 126.819422103886382, 35.580091771306407 ], [ 126.818676674207936, 35.579599936311197 ], [ 126.818783920259548, 35.581549218471025 ], [ 126.818349503775678, 35.58342408812824 ] ] ], [ [ [ 126.817321096715162, 35.584884204983794 ], [ 126.81731714481144, 35.584894707974655 ], [ 126.817338225242011, 35.584838716061455 ], [ 126.817321096715162, 35.584884204983794 ] ] ] ] } },
{ "type": "Feature", "properties": { "emd_cd": "52180340", "emd_nm": "고부면" }, "geometry": { "type": "MultiPolygon", "coordinates": [ [ [ [ 126.802675110570092, 35.583459331669111 ], [ 126.797478747296054, 35.576003514487653 ], [ 126.793386719234888, 35.574093448138548 ], [ 126.792831719215116, 35.576893165902327 ], [ 126.789596822436181, 35.57721480080739 ], [ 126.789288371114225, 35.579185513264868 ], [ 126.78592477273456, 35.579251730909746 ], [ 126.787722212325278, 35.580897647372517 ], [ 126.78302984393936, 35.581938544049486 ], [ 126.781839914145891, 35.585372895430758 ], [ 126.775226117585547, 35.585511990923436 ], [ 126.775252512260323, 35.587590383009633 ], [ 126.772020691620881, 35.588642819136332 ], [ 126.770772348194654, 35.591539075193474 ], [ 126.765222765134837, 35.590990609887328 ], [ 126.762411569555354, 35.592633052351587 ], [ 126.758985289313216, 35.589415780209599 ], [ 126.752966967939017, 35.58936211873344 ], [ 126.739748965908277, 35.582478559351486 ], [ 126.742458397047372, 35.577811187557288 ], [ 126.739713630198835, 35.568344987639563 ], [ 126.728024506714164, 35.570645570317787 ], [ 126.727885624019251, 35.572465588559865 ], [ 126.723957409618521, 35.572487164746299 ], [ 126.723995096983387, 35.574450708625569 ], [ 126.723221236438079, 35.572497274943778 ], [ 126.716565156954459, 35.574164976589316 ], [ 126.715580569081951, 35.579629407312055 ], [ 126.717792066671706, 35.583785599489715 ], [ 126.724251602683808, 35.583636412109065 ], [ 126.724415793279931, 35.591831736441499 ], [ 126.726383011744218, 35.594435008960581 ], [ 126.721571626455344, 35.594869347780616 ], [ 126.72235525174014, 35.601020811633205 ], [ 126.720526549620629, 35.603312602357263 ], [ 126.721779218623794, 35.605630057801591 ], [ 126.719959764242304, 35.610395340682949 ], [ 126.72099836976183, 35.615297197418393 ], [ 126.723187422822804, 35.617762961687383 ], [ 126.720254727553325, 35.630234918932274 ], [ 126.722844079790832, 35.632023224599536 ], [ 126.72447073967966, 35.640140371483078 ], [ 126.744266298838582, 35.633809213105444 ], [ 126.746244738703041, 35.635322865972661 ], [ 126.75092568320899, 35.634997919731084 ], [ 126.750678383751008, 35.63260466870134 ], [ 126.75301868966298, 35.629089818268589 ], [ 126.759959016230468, 35.630622578793542 ], [ 126.762461371360587, 35.628426144666037 ], [ 126.761607706836344, 35.625671186875572 ], [ 126.766280696170881, 35.623277148436777 ], [ 126.771969410409639, 35.626968826481971 ], [ 126.771373595710216, 35.632036441697551 ], [ 126.774304165575089, 35.634938322219227 ], [ 126.778488759395287, 35.634306077048635 ], [ 126.782043980566144, 35.636547879227152 ], [ 126.795750693222189, 35.63186666420949 ], [ 126.797246310835305, 35.628994958446526 ], [ 126.793793217920808, 35.623589835405411 ], [ 126.794768075560469, 35.619954799252838 ], [ 126.793396719178261, 35.615497088715891 ], [ 126.794366168904332, 35.609602962808957 ], [ 126.798489612077674, 35.606632177606599 ], [ 126.799659249356779, 35.602821154301573 ], [ 126.798700348276796, 35.600564437372427 ], [ 126.802547974474365, 35.599449035737983 ], [ 126.8047796467892, 35.594761464512771 ], [ 126.800684159419362, 35.585980189916881 ], [ 126.802675110570092, 35.583459331669111 ] ] ] ] } },
{ "type": "Feature", "properties": { "emd_cd": "52180350", "emd_nm": "영원면" }, "geometry": { "type": "MultiPolygon", "coordinates": [ [ [ [ 126.800803917974108, 35.643549112629344 ], [ 126.795542713933244, 35.637342915464444 ], [ 126.795750693222189, 35.63186666420949 ], [ 126.782043980566144, 35.636547879227152 ], [ 126.778488759395287, 35.634306077048635 ], [ 126.774304165575089, 35.634938322219227 ], [ 126.771373595710216, 35.632036441697551 ], [ 126.771969410409639, 35.626968826481971 ], [ 126.766280696170881, 35.623277148436777 ], [ 126.761607706836344, 35.625671186875572 ], [ 126.762461371360587, 35.628426144666037 ], [ 126.759959016230468, 35.630622578793542 ], [ 126.75301868966298, 35.629089818268589 ], [ 126.750678383751008, 35.63260466870134 ], [ 126.75092568320899, 35.634997919731084 ], [ 126.746244738703041, 35.635322865972661 ], [ 126.744266298838582, 35.633809213105444 ], [ 126.72447073967966, 35.640140371483078 ], [ 126.725303172872955, 35.644018734556894 ], [ 126.727221280014035, 35.645342749616177 ], [ 126.726830224117322, 35.648197142236029 ], [ 126.734231833424445, 35.651106610718628 ], [ 126.735329039620026, 35.649248524155162 ], [ 126.737885539718746, 35.650364140539729 ], [ 126.742212881906511, 35.658470873223948 ], [ 126.741224487794639, 35.659052317999631 ], [ 126.743602307056847, 35.66240504135407 ], [ 126.742473533101403, 35.662943474817752 ], [ 126.743999392997949, 35.666430202544447 ], [ 126.750185954149586, 35.663493187674263 ], [ 126.75155267665653, 35.667741759377435 ], [ 126.75534520179535, 35.666878306946593 ], [ 126.756002626171465, 35.665021128664321 ], [ 126.763217637778496, 35.661971703021912 ], [ 126.763506794192821, 35.663943013823967 ], [ 126.765278722131796, 35.664467673515631 ], [ 126.763868147792465, 35.665747648663803 ], [ 126.764987417116771, 35.673176511392981 ], [ 126.769682500303759, 35.681479640495105 ], [ 126.772979174411134, 35.683581176168687 ], [ 126.777284827575869, 35.682163464093989 ], [ 126.777207076688541, 35.679602521608139 ], [ 126.783455666075426, 35.675800705457483 ], [ 126.789226911411646, 35.675864172526182 ], [ 126.794367210345541, 35.664965192135519 ], [ 126.798160337531556, 35.663305149503564 ], [ 126.798483342646577, 35.664510196369847 ], [ 126.799204827001986, 35.657740305314064 ], [ 126.80323923606808, 35.65073352755995 ], [ 126.799566218762124, 35.645425671686802 ], [ 126.800803917974108, 35.643549112629344 ] ], [ [ 126.788116254811086, 35.667735943298986 ], [ 126.788111802790766, 35.667757079342337 ], [ 126.78810485976669, 35.667676664227848 ], [ 126.788116254811086, 35.667735943298986 ] ] ] ] } },
{ "type": "Feature", "properties": { "emd_cd": "52180360", "emd_nm": "덕천면" }, "geometry": { "type": "MultiPolygon", "coordinates": [ [ [ [ 126.793396719178261, 35.615497088715891 ], [ 126.794768075560469, 35.619954799252838 ], [ 126.793793217920808, 35.623589835405411 ], [ 126.797246310835305, 35.628994958446526 ], [ 126.795789316560956, 35.630859908670402 ], [ 126.795542713933244, 35.637342915464444 ], [ 126.799978541291495, 35.64178119053436 ], [ 126.804485309122668, 35.640665477530789 ], [ 126.808610843761926, 35.641710291951988 ], [ 126.823041169863131, 35.64171108671453 ], [ 126.818849718515949, 35.641088871115464 ], [ 126.823221451613151, 35.639805532910593 ], [ 126.824422960130832, 35.645904068469214 ], [ 126.832581463375902, 35.652426678472558 ], [ 126.837193955804381, 35.650172847241286 ], [ 126.845783933473299, 35.649243959150851 ], [ 126.84689460809814, 35.647513319121771 ], [ 126.848099954665614, 35.649657706199214 ], [ 126.853803157267407, 35.652265482865097 ], [ 126.853353900418483, 35.653916921776151 ], [ 126.857247603477944, 35.651946114682566 ], [ 126.856952242984278, 35.649655943061838 ], [ 126.86396745450601, 35.64323721549966 ], [ 126.864331616880079, 35.637557549619572 ], [ 126.859817561352216, 35.637739685468695 ], [ 126.859426404539704, 35.635861134342825 ], [ 126.856154338813965, 35.635397578746478 ], [ 126.853320842436034, 35.622178168680108 ], [ 126.855096819745697, 35.621934739132449 ], [ 126.854688198538881, 35.619989992413394 ], [ 126.850840959576942, 35.612473173138774 ], [ 126.843503485310663, 35.612278474971923 ], [ 126.844404636131529, 35.613534683105634 ], [ 126.841749574398378, 35.615314673894886 ], [ 126.837890336440324, 35.615210932905249 ], [ 126.835916471890783, 35.618124360945828 ], [ 126.829599048113238, 35.619280885756183 ], [ 126.823681529635252, 35.615979667060643 ], [ 126.820844811394537, 35.608993223172533 ], [ 126.809645750340579, 35.610310334351816 ], [ 126.800923077552241, 35.608894574318363 ], [ 126.798489612077674, 35.606632177606599 ], [ 126.794366168904332, 35.609602962808957 ], [ 126.793396719178261, 35.615497088715891 ] ] ] ] } },
{ "type": "Feature", "properties": { "emd_cd": "52180370", "emd_nm": "이평면" }, "geometry": { "type": "MultiPolygon", "coordinates": [ [ [ [ 126.78810485976669, 35.667676664227848 ], [ 126.788342136467989, 35.668053502186808 ], [ 126.788351343589767, 35.668046767924359 ], [ 126.78810485976669, 35.667676664227848 ] ] ], [ [ [ 126.789064710779869, 35.675823924029018 ], [ 126.798502893371051, 35.684698490993291 ], [ 126.805785387209298, 35.67578921999565 ], [ 126.80881963458026, 35.680755331453256 ], [ 126.814769968711317, 35.683688698555031 ], [ 126.818783620816077, 35.680692070573592 ], [ 126.827098396155918, 35.679994553867338 ], [ 126.828846661943089, 35.684899770509354 ], [ 126.834587337225102, 35.687033779132193 ], [ 126.837961771807244, 35.697074587955278 ], [ 126.840913193101628, 35.697658474623559 ], [ 126.844789837963347, 35.695728622272512 ], [ 126.841046455566385, 35.692945023938748 ], [ 126.846329405218327, 35.694231411939604 ], [ 126.848689184019676, 35.691981571462044 ], [ 126.847043807546001, 35.689901145252641 ], [ 126.852180316491825, 35.686411420191661 ], [ 126.853944457284925, 35.68769584593533 ], [ 126.858019061731056, 35.684880303803034 ], [ 126.862268510448985, 35.684992840212928 ], [ 126.862202705520005, 35.674277097878807 ], [ 126.859932292932911, 35.667179214828231 ], [ 126.864787493929498, 35.66561682552247 ], [ 126.863834516460315, 35.657923910251704 ], [ 126.865009608313144, 35.655930086671873 ], [ 126.863677064460745, 35.655902324506037 ], [ 126.863925712819551, 35.653040624252029 ], [ 126.862112330812877, 35.652993575266599 ], [ 126.862172127565444, 35.651078389768003 ], [ 126.860257220797109, 35.651032511318064 ], [ 126.859912627742091, 35.649607156837114 ], [ 126.856952242984278, 35.649655943061838 ], [ 126.857247603477944, 35.651946114682566 ], [ 126.853337152574582, 35.653914702061485 ], [ 126.853803157267407, 35.652265482865097 ], [ 126.848099954665614, 35.649657706199214 ], [ 126.84689460809814, 35.647513319121771 ], [ 126.845783933473299, 35.649243959150851 ], [ 126.837193955804381, 35.650172847241286 ], [ 126.83331815502747, 35.652755504198993 ], [ 126.824422960130832, 35.645904068469214 ], [ 126.823221451613151, 35.639805532910593 ], [ 126.818849718515949, 35.641088871115464 ], [ 126.823352036333333, 35.640972974471232 ], [ 126.822444421848772, 35.641749497250487 ], [ 126.80334410456156, 35.640794481077869 ], [ 126.799978541291495, 35.64178119053436 ], [ 126.800803917974108, 35.643549112629344 ], [ 126.799566218762124, 35.645425671686802 ], [ 126.80323923606808, 35.65073352755995 ], [ 126.799204827001986, 35.657740305314064 ], [ 126.798483342646577, 35.664510196369847 ], [ 126.798160337531556, 35.663305149503564 ], [ 126.794367210345541, 35.664965192135519 ], [ 126.789064710779869, 35.675823924029018 ] ] ] ] } },
{ "type": "Feature", "properties": { "emd_cd": "52180380", "emd_nm": "정우면" }, "geometry": { "type": "MultiPolygon", "coordinates": [ [ [ [ 126.862746126855626, 35.614833707933194 ], [ 126.858299692798965, 35.614940609583996 ], [ 126.858434061375988, 35.61846336797727 ], [ 126.852985237174138, 35.618315753615263 ], [ 126.855096819745697, 35.621934739132449 ], [ 126.853320842436034, 35.622178168680108 ], [ 126.856154338813965, 35.635397578746478 ], [ 126.859426404539704, 35.635861134342825 ], [ 126.859817561352216, 35.637739685468695 ], [ 126.864564921588425, 35.638175264882499 ], [ 126.86396745450601, 35.64323721549966 ], [ 126.858775403316841, 35.649320082452611 ], [ 126.862172127565444, 35.651078389768003 ], [ 126.862112330812877, 35.652993575266599 ], [ 126.863925712834998, 35.653040615239256 ], [ 126.863656997815298, 35.655877399217346 ], [ 126.865148656565893, 35.656960766196697 ], [ 126.863834516460315, 35.657923910251704 ], [ 126.864787493929498, 35.66561682552247 ], [ 126.859932292932911, 35.667179214828231 ], [ 126.861779794921517, 35.673805691361849 ], [ 126.86318859844485, 35.672647023275047 ], [ 126.873822403946235, 35.673341435104867 ], [ 126.87372084569941, 35.680249975586307 ], [ 126.886302689017356, 35.675510725077437 ], [ 126.886993827947606, 35.677472993077842 ], [ 126.887446522195347, 35.675535670238652 ], [ 126.888786335271917, 35.675612305004307 ], [ 126.887627418322097, 35.680001536574004 ], [ 126.893146445673509, 35.67907821439178 ], [ 126.893189183302326, 35.676853877150563 ], [ 126.900523403757319, 35.676009299136176 ], [ 126.899530891317397, 35.673288149760126 ], [ 126.906527595611664, 35.675482176692448 ], [ 126.909882368043341, 35.674562228062683 ], [ 126.909774337725864, 35.670064026627138 ], [ 126.914689096347644, 35.665886281180107 ], [ 126.911891918129996, 35.659023730138159 ], [ 126.916058767702424, 35.652677153633697 ], [ 126.922721036714307, 35.648268394005427 ], [ 126.922238787460543, 35.645437245201151 ], [ 126.914657957637445, 35.636121431265892 ], [ 126.910162322117699, 35.633759551538738 ], [ 126.906781408015007, 35.628871601117112 ], [ 126.89307020086062, 35.617516026581825 ], [ 126.892121297891961, 35.619311916568535 ], [ 126.892445077516882, 35.617473147372671 ], [ 126.890005053223717, 35.617152311140288 ], [ 126.888687890963922, 35.619947168285542 ], [ 126.883300922198544, 35.621562101133762 ], [ 126.878879875938011, 35.617000321898146 ], [ 126.871544178360764, 35.615987541928028 ], [ 126.871970634703018, 35.61416082576865 ], [ 126.864951910516552, 35.6128933534197 ], [ 126.862746126855626, 35.614833707933194 ] ] ] ] } },
{ "type": "Feature", "properties": { "emd_cd": "52180390", "emd_nm": "태인면" }, "geometry": { "type": "MultiPolygon", "coordinates": [ [ [ [ 126.916417760559938, 35.639143134842911 ], [ 126.918097746228227, 35.641569603883845 ], [ 126.922238787460543, 35.645437245201151 ], [ 126.92332994246955, 35.647425462213533 ], [ 126.916058767702424, 35.652677153633697 ], [ 126.911891918129996, 35.659023730138159 ], [ 126.914689096347644, 35.665886281180107 ], [ 126.909774337725864, 35.670064026627138 ], [ 126.910548186895468, 35.673599988951331 ], [ 126.907751784070143, 35.67540138975118 ], [ 126.902118130930376, 35.674499914958844 ], [ 126.900523403757319, 35.676009299136176 ], [ 126.893920506212353, 35.676555840586595 ], [ 126.893146445673509, 35.67907821439178 ], [ 126.898612475360338, 35.679991880240522 ], [ 126.903134786652544, 35.684142821807264 ], [ 126.907897241577729, 35.683014470813802 ], [ 126.911231858599336, 35.684790220250683 ], [ 126.914070317194771, 35.688293378306042 ], [ 126.917940302655396, 35.688934623716982 ], [ 126.916924379486275, 35.692823723395065 ], [ 126.920976106667268, 35.69396078900315 ], [ 126.923040219437667, 35.691943703417948 ], [ 126.927422194680361, 35.692307356794878 ], [ 126.93249947738704, 35.689633272186043 ], [ 126.935045772140299, 35.691005316409608 ], [ 126.940451695956298, 35.690096934514692 ], [ 126.944005364666339, 35.685490717499 ], [ 126.952504527093268, 35.690300141631049 ], [ 126.96211782630715, 35.689861212628273 ], [ 126.967305134105715, 35.685421024968889 ], [ 126.973178808727056, 35.688179809020468 ], [ 126.972713477244241, 35.680349517838131 ], [ 126.970910074807662, 35.677569808683167 ], [ 126.967649050078549, 35.676263492538929 ], [ 126.967993330932515, 35.670779228353609 ], [ 126.961278135882438, 35.6662424147179 ], [ 126.96005915870947, 35.663598273509095 ], [ 126.962465889957301, 35.662325155523114 ], [ 126.961246675745869, 35.657924801007667 ], [ 126.954974115510922, 35.652190675391495 ], [ 126.956352800569675, 35.650821605055732 ], [ 126.955198410969587, 35.64908981656604 ], [ 126.948404148473529, 35.644749394478872 ], [ 126.95116991082601, 35.641971821907411 ], [ 126.946093142814647, 35.638900722192673 ], [ 126.950472779960407, 35.634081442906918 ], [ 126.946366875965239, 35.6315954112086 ], [ 126.949460308170558, 35.629949077718976 ], [ 126.951905995110394, 35.625722798978558 ], [ 126.950312016574529, 35.624369539751733 ], [ 126.95150869390055, 35.62483295032186 ], [ 126.952026753029287, 35.612961400290814 ], [ 126.948205554358225, 35.600653790089744 ], [ 126.945201885760412, 35.599382655203989 ], [ 126.940043493811174, 35.60148675352994 ], [ 126.940125756216673, 35.60716778022379 ], [ 126.946794186395124, 35.609571286724744 ], [ 126.943258391159318, 35.615765242528468 ], [ 126.940549858240132, 35.613902172343778 ], [ 126.937439999248085, 35.615115737010299 ], [ 126.937114310152936, 35.613027996455358 ], [ 126.934619851824692, 35.612148038260216 ], [ 126.925670359748594, 35.614900379728574 ], [ 126.920751673330841, 35.613361719827836 ], [ 126.920095523344173, 35.616225726320508 ], [ 126.922846067410603, 35.618618976952831 ], [ 126.917781864353344, 35.622473092325798 ], [ 126.917431164618023, 35.627861408775331 ], [ 126.922244841365554, 35.631491163149398 ], [ 126.922379453087487, 35.633314222429746 ], [ 126.920187029377686, 35.636470902519882 ], [ 126.920729739486575, 35.639790617000536 ], [ 126.916417760559938, 35.639143134842911 ] ] ] ] } },
{ "type": "Feature", "properties": { "emd_cd": "52180400", "emd_nm": "감곡면" }, "geometry": { "type": "MultiPolygon", "coordinates": [ [ [ [ 126.99117604066673, 35.689879619269846 ], [ 126.986232229576146, 35.689053519235486 ], [ 126.98463150542436, 35.686610238578609 ], [ 126.972155075158298, 35.688306526828313 ], [ 126.967305134105715, 35.685421024968889 ], [ 126.96211782630715, 35.689861212628273 ], [ 126.952504527093268, 35.690300141631049 ], [ 126.944005364666339, 35.685490717499 ], [ 126.940451695956298, 35.690096934514692 ], [ 126.935045772140299, 35.691005316409608 ], [ 126.93249947738704, 35.689633272186043 ], [ 126.927422194680361, 35.692307356794878 ], [ 126.923040219437667, 35.691943703417948 ], [ 126.920976106667268, 35.69396078900315 ], [ 126.916924379486275, 35.692823723395065 ], [ 126.916458754001766, 35.69535434296435 ], [ 126.919900170234442, 35.696310360740362 ], [ 126.921188844911455, 35.69851240610236 ], [ 126.915837277651931, 35.705936005139861 ], [ 126.907895400935246, 35.706227216642901 ], [ 126.902700601634137, 35.709179561555381 ], [ 126.8994186333546, 35.706318577299022 ], [ 126.890571150798323, 35.707367817645377 ], [ 126.888738267133604, 35.708828770279787 ], [ 126.889270311893952, 35.712360626661976 ], [ 126.88771047825901, 35.713848602241249 ], [ 126.888120027805925, 35.714600314505134 ], [ 126.887538021436569, 35.715288695971388 ], [ 126.882085852398987, 35.713162326860953 ], [ 126.877553487667498, 35.718355983098199 ], [ 126.876159230949767, 35.726352300849697 ], [ 126.873411104104036, 35.726526750839746 ], [ 126.871457226993698, 35.72224230562567 ], [ 126.86740204411997, 35.727591652840175 ], [ 126.881798173856254, 35.741322518661775 ], [ 126.88224633313537, 35.748370959491766 ], [ 126.880726989134359, 35.748389362459747 ], [ 126.878444517369502, 35.751977157424776 ], [ 126.875017822693252, 35.75242615684509 ], [ 126.875050978914544, 35.754587954971399 ], [ 126.872709711399366, 35.756420580636068 ], [ 126.873134918453943, 35.758513786982618 ], [ 126.876311396379265, 35.758537213477197 ], [ 126.877735064516045, 35.756920926930924 ], [ 126.882716809078985, 35.758922173910342 ], [ 126.881400795895857, 35.757019679254746 ], [ 126.884168856456043, 35.757602048544193 ], [ 126.88347288826985, 35.752822685856977 ], [ 126.888073255618522, 35.752787003106988 ], [ 126.886406485524731, 35.754575827314021 ], [ 126.889694129773019, 35.754631244793067 ], [ 126.890308403409009, 35.753210772435317 ], [ 126.892921788255762, 35.754211912580047 ], [ 126.892899697512831, 35.752224965091415 ], [ 126.896612722940844, 35.753358506915006 ], [ 126.896494148694387, 35.75221629407627 ], [ 126.901101990397777, 35.751672896846713 ], [ 126.902027192511085, 35.750597554823891 ], [ 126.900262723446588, 35.750349236228402 ], [ 126.90309983412773, 35.749226116306225 ], [ 126.905229098318813, 35.750102209468189 ], [ 126.904739705458326, 35.748900971433109 ], [ 126.906345159247536, 35.74922500336676 ], [ 126.906067437789929, 35.748081501506981 ], [ 126.912030896885582, 35.744917439082123 ], [ 126.917478394699273, 35.745414879662817 ], [ 126.918191412154485, 35.742328187460764 ], [ 126.925328788611253, 35.736596378885253 ], [ 126.924623672254327, 35.735618929964801 ], [ 126.929208227721261, 35.731071521454204 ], [ 126.929057790246986, 35.728591699589764 ], [ 126.932450035902008, 35.722387843070436 ], [ 126.935559105883272, 35.719833476761863 ], [ 126.935865027418672, 35.722268649076085 ], [ 126.942741549625282, 35.722292577937537 ], [ 126.943637030757003, 35.720983854311804 ], [ 126.952787638231214, 35.724701213619426 ], [ 126.967532266693283, 35.721284756550382 ], [ 126.981257176991633, 35.714525088733282 ], [ 126.98105976752619, 35.712365114536304 ], [ 126.989665807837284, 35.70520996065909 ], [ 126.989757231771719, 35.702051802752862 ], [ 126.992201873721967, 35.701622613076275 ], [ 126.992666008859217, 35.693919527706555 ], [ 126.99117604066673, 35.689879619269846 ] ] ] ] } },
{ "type": "Feature", "properties": { "emd_cd": "52180410", "emd_nm": "옹동면" }, "geometry": { "type": "MultiPolygon", "coordinates": [ [ [ [ 126.946093142814647, 35.638900722192673 ], [ 126.95116991082601, 35.641971821907411 ], [ 126.948404148473529, 35.644749394478872 ], [ 126.955198410969587, 35.64908981656604 ], [ 126.956352800569675, 35.650821605055732 ], [ 126.954974115510922, 35.652190675391495 ], [ 126.961246675745869, 35.657924801007667 ], [ 126.962465889957301, 35.662325155523114 ], [ 126.96005915870947, 35.663598273509095 ], [ 126.961278135882438, 35.6662424147179 ], [ 126.967993330932515, 35.670779228353609 ], [ 126.967649050078549, 35.676263492538929 ], [ 126.970910074807662, 35.677569808683167 ], [ 126.972713477244241, 35.680349517838131 ], [ 126.973261075912092, 35.6882535615987 ], [ 126.98463150542436, 35.686610238578609 ], [ 126.986232229576146, 35.689053519235486 ], [ 126.991177424320071, 35.689858709818857 ], [ 126.994020558264069, 35.689256272641508 ], [ 126.995904881301755, 35.68660257950085 ], [ 127.002147444093097, 35.686160638907786 ], [ 127.004741033496359, 35.680001395978664 ], [ 127.010194947448625, 35.679605706662173 ], [ 127.010374869213777, 35.67760891596344 ], [ 127.0162955845895, 35.676253442740951 ], [ 127.021773060441021, 35.669423350966774 ], [ 127.030641114998247, 35.666156621987696 ], [ 127.027449508391825, 35.664867362809325 ], [ 127.027501280053471, 35.662236285390918 ], [ 127.024182373222757, 35.660418654533032 ], [ 127.023578262820749, 35.656946228300527 ], [ 127.01975226797596, 35.652498495660261 ], [ 127.008773987243586, 35.64741985689367 ], [ 127.007546489952219, 35.644084968539801 ], [ 127.009869722903744, 35.641324139789774 ], [ 127.009198360092199, 35.63642202066076 ], [ 127.013131197201233, 35.632313493822274 ], [ 127.014650102215697, 35.629348150522311 ], [ 127.01364650227427, 35.626485165820029 ], [ 127.015977546459425, 35.623342246019185 ], [ 127.014652830589597, 35.620023417112009 ], [ 127.009946575597652, 35.619893109469842 ], [ 127.007008757109688, 35.616778943437147 ], [ 127.000644836163872, 35.613973618704492 ], [ 126.997547057032094, 35.613706876671714 ], [ 126.995436177127587, 35.615740009617383 ], [ 126.991698118377073, 35.614990372999884 ], [ 126.991028176088491, 35.617976492417313 ], [ 126.989201075396963, 35.615663207233318 ], [ 126.983750246658417, 35.615992337332855 ], [ 126.98241906761038, 35.614266208211035 ], [ 126.978463700695627, 35.615476837748091 ], [ 126.977025774273343, 35.612065007172561 ], [ 126.974241696289695, 35.612977503740431 ], [ 126.974653661387919, 35.616413784356702 ], [ 126.962997583603197, 35.619033431961505 ], [ 126.960068139446079, 35.61842728455315 ], [ 126.95881390511758, 35.619870291440002 ], [ 126.951733736906959, 35.619705292755604 ], [ 126.95150869390055, 35.62483295032186 ], [ 126.950433852007876, 35.624107777322301 ], [ 126.950312016574529, 35.624369539751733 ], [ 126.951905995110394, 35.625722798978558 ], [ 126.949460308170558, 35.629949077718976 ], [ 126.946366875965239, 35.6315954112086 ], [ 126.950472779960407, 35.634081442906918 ], [ 126.946093142814647, 35.638900722192673 ] ] ] ] } },
{ "type": "Feature", "properties": { "emd_cd": "52180420", "emd_nm": "칠보면" }, "geometry": { "type": "MultiPolygon", "coordinates": [ [ [ [ 126.904249468904084, 35.558666622135227 ], [ 126.921646307063355, 35.561218776857395 ], [ 126.926827140466955, 35.563526638764564 ], [ 126.928474943939179, 35.56619882777089 ], [ 126.932860847574545, 35.566597088127715 ], [ 126.933055410043764, 35.568335792395551 ], [ 126.935573452691017, 35.569504052905103 ], [ 126.936064591103957, 35.573515530095428 ], [ 126.938234243420879, 35.57543942194097 ], [ 126.938306199339749, 35.581365448965016 ], [ 126.934775841512277, 35.589378468398571 ], [ 126.937270376030199, 35.593732418153294 ], [ 126.937456274851456, 35.597919885432844 ], [ 126.940043493811174, 35.60148675352994 ], [ 126.945201885760412, 35.599382655203989 ], [ 126.949193797114162, 35.601668090262443 ], [ 126.952026753029287, 35.612961400290814 ], [ 126.951733736906959, 35.619705292755604 ], [ 126.95881390511758, 35.619870291440002 ], [ 126.960068139446079, 35.61842728455315 ], [ 126.962997583603197, 35.619033431961505 ], [ 126.974653661387919, 35.616413784356702 ], [ 126.974241696289695, 35.612977503740431 ], [ 126.977025774273343, 35.612065007172561 ], [ 126.978463700695627, 35.615476837748091 ], [ 126.98241906761038, 35.614266208211035 ], [ 126.983750246658417, 35.615992337332855 ], [ 126.989201075396963, 35.615663207233318 ], [ 126.991028176088491, 35.617976492417313 ], [ 126.991698118377073, 35.614990372999884 ], [ 126.995436177127587, 35.615740009617383 ], [ 126.997547057032094, 35.613706876671714 ], [ 127.004814356987708, 35.615651534365114 ], [ 127.011160710487459, 35.610348806588028 ], [ 127.00818733504039, 35.602607457914353 ], [ 127.008707608146523, 35.59994981810501 ], [ 127.014283173671259, 35.596386371192963 ], [ 127.018117750925242, 35.59707634301347 ], [ 127.029680637211356, 35.592380168725754 ], [ 127.024866877865165, 35.587620399253566 ], [ 127.02389760743921, 35.583577269439182 ], [ 127.019066075245931, 35.580745306465474 ], [ 127.015394537088426, 35.581646798638374 ], [ 127.014243698261026, 35.579579463846812 ], [ 127.008248838009933, 35.581996726794046 ], [ 127.003068953237232, 35.587104403341364 ], [ 126.998574858354786, 35.58599761372129 ], [ 126.999163994036707, 35.580081897013876 ], [ 126.994117749313546, 35.577628948720083 ], [ 126.9891469148467, 35.572599804208451 ], [ 126.990953676438423, 35.570333900649658 ], [ 126.987967191256288, 35.563371772635264 ], [ 126.990839457223061, 35.561383697388088 ], [ 126.983473646686107, 35.559700090386599 ], [ 126.979073572151108, 35.55573126124176 ], [ 126.975052748162554, 35.55610382750303 ], [ 126.962700338229425, 35.549271557921088 ], [ 126.960921544204552, 35.544653390518661 ], [ 126.956862468052591, 35.543058096568046 ], [ 126.953080617230455, 35.538319134209459 ], [ 126.949048493087133, 35.539975764461062 ], [ 126.942421715694167, 35.539258227181698 ], [ 126.93862932477218, 35.542130159612405 ], [ 126.925176578679668, 35.536920864559001 ], [ 126.92160484659513, 35.540447040748752 ], [ 126.919926790978238, 35.545401452936076 ], [ 126.915110139041957, 35.547456921873717 ], [ 126.910778109259454, 35.544965913906772 ], [ 126.907529434941566, 35.545844426453328 ], [ 126.900156450050275, 35.544394493144544 ], [ 126.902752006608523, 35.551700743553234 ], [ 126.902792079098404, 35.555991037698924 ], [ 126.901197073242443, 35.556898244756873 ], [ 126.904249468904084, 35.558666622135227 ] ] ] ] } },
{ "type": "Feature", "properties": { "emd_cd": "52180430", "emd_nm": "산내면" }, "geometry": { "type": "MultiPolygon", "coordinates": [ [ [ [ 127.083108113206833, 35.584527519028974 ], [ 127.084395239351196, 35.578904209443643 ], [ 127.08885743110757, 35.575647791961771 ], [ 127.089203462518029, 35.571590889516074 ], [ 127.091919013010852, 35.569580046267063 ], [ 127.09231105433885, 35.567061071471265 ], [ 127.085172705864139, 35.556013757490149 ], [ 127.084330154341046, 35.549834890471026 ], [ 127.108719147467028, 35.541585191054082 ], [ 127.116660890553987, 35.536379087185146 ], [ 127.116263736270412, 35.532218752504477 ], [ 127.109568316681091, 35.534340411809488 ], [ 127.100221579516372, 35.530152886526878 ], [ 127.099830432346764, 35.527140156517575 ], [ 127.097235933242445, 35.526818200791325 ], [ 127.098993406946192, 35.524964713361513 ], [ 127.098489098665709, 35.521037834618532 ], [ 127.093926207510819, 35.518681563613583 ], [ 127.095558683256812, 35.514036170971018 ], [ 127.097318665902236, 35.51846331532608 ], [ 127.101495596739355, 35.520677427491641 ], [ 127.106067492624035, 35.51884054886817 ], [ 127.109647555493638, 35.519385011731352 ], [ 127.107945282334327, 35.514216804080156 ], [ 127.110136357923267, 35.509351935190175 ], [ 127.097242465503712, 35.507576220896432 ], [ 127.090639803970731, 35.504663137432601 ], [ 127.087786495526487, 35.507982562709763 ], [ 127.082931760823072, 35.506733688468856 ], [ 127.075998124080783, 35.510213257628685 ], [ 127.074471434998415, 35.513781297858174 ], [ 127.066791668247475, 35.516324702072644 ], [ 127.060374479780378, 35.510613722948918 ], [ 127.054278454637881, 35.50932745986163 ], [ 127.050605252506998, 35.512004444663866 ], [ 127.051808699987788, 35.517997571567527 ], [ 127.049994538188614, 35.52114465483433 ], [ 127.042603900825526, 35.522774663426155 ], [ 127.039082167738783, 35.528713744111649 ], [ 127.02677292371196, 35.532935078617889 ], [ 127.024242638395123, 35.535938645047089 ], [ 127.022046393878554, 35.536223778106041 ], [ 127.019055825865465, 35.542467582704028 ], [ 127.019161127858553, 35.546129408682823 ], [ 127.008171619432389, 35.541991110550676 ], [ 127.005103224593483, 35.542625692440232 ], [ 126.995926296551801, 35.540089155615128 ], [ 126.992820454698602, 35.536982381752857 ], [ 126.987905795757257, 35.540876471707563 ], [ 126.985928946075504, 35.545833518133364 ], [ 126.982143383949065, 35.548166724513301 ], [ 126.983214889562618, 35.549550524499587 ], [ 126.979073572151108, 35.55573126124176 ], [ 126.983473646686107, 35.559700090386599 ], [ 126.990839457223061, 35.561383697388088 ], [ 126.987967191256288, 35.563371772635264 ], [ 126.990953676438423, 35.570333900649658 ], [ 126.9891469148467, 35.572599804208451 ], [ 126.994117749313546, 35.577628948720083 ], [ 126.999163994036707, 35.580081897013876 ], [ 126.997911240710351, 35.58468409164098 ], [ 127.00047547577779, 35.586943016285666 ], [ 127.003068953237232, 35.587104403341364 ], [ 127.008248838009933, 35.581996726794046 ], [ 127.014243698261026, 35.579579463846812 ], [ 127.015394537088426, 35.581646798638374 ], [ 127.019066075245931, 35.580745306465474 ], [ 127.02389760743921, 35.583577269439182 ], [ 127.024866877865165, 35.587620399253566 ], [ 127.028745702600446, 35.591263335138379 ], [ 127.030770336571052, 35.590566262043033 ], [ 127.040881916578769, 35.595211506369303 ], [ 127.046039889062044, 35.586491716455747 ], [ 127.050832176500194, 35.586770753476983 ], [ 127.055754469353573, 35.584396539884175 ], [ 127.06144900509608, 35.585019515663944 ], [ 127.063880023490853, 35.584317194475183 ], [ 127.065077043588602, 35.581973808217498 ], [ 127.070708367826782, 35.581029892042274 ], [ 127.077121820097958, 35.582372645978708 ], [ 127.078022299783484, 35.585606573761794 ], [ 127.080284723854561, 35.586312357573256 ], [ 127.083108113206833, 35.584527519028974 ] ] ] ] } },
{ "type": "Feature", "properties": { "emd_cd": "52180440", "emd_nm": "산외면" }, "geometry": { "type": "MultiPolygon", "coordinates": [ [ [ [ 127.004811625169964, 35.616046721183373 ], [ 127.009946575597652, 35.619893109469842 ], [ 127.014652830589597, 35.620023417112009 ], [ 127.015977546459425, 35.623342246019185 ], [ 127.01364650227427, 35.626485165820029 ], [ 127.014650102215697, 35.629348150522311 ], [ 127.013131197201233, 35.632313493822274 ], [ 127.009198360092199, 35.63642202066076 ], [ 127.009869722903744, 35.641324139789774 ], [ 127.007546489952219, 35.644084968539801 ], [ 127.008773987243586, 35.64741985689367 ], [ 127.01975226797596, 35.652498495660261 ], [ 127.023578262820749, 35.656946228300527 ], [ 127.024182373222757, 35.660418654533032 ], [ 127.027501280053471, 35.662236285390918 ], [ 127.027449508391825, 35.664867362809325 ], [ 127.034722802937239, 35.668186665407838 ], [ 127.041586242604012, 35.666178265919598 ], [ 127.042759340202721, 35.667731924766649 ], [ 127.047373484443924, 35.667715085170649 ], [ 127.049017669993702, 35.670437278673148 ], [ 127.056029412766179, 35.668711368863192 ], [ 127.060649423663421, 35.670315434114869 ], [ 127.06421177688857, 35.677378739062071 ], [ 127.067995470381717, 35.676581980122954 ], [ 127.074186919170401, 35.671955760357854 ], [ 127.076404174100958, 35.672793309290064 ], [ 127.081976036324747, 35.668109136453033 ], [ 127.079286617268608, 35.660136981275834 ], [ 127.089563181650931, 35.653335121326847 ], [ 127.08745169016818, 35.64683519039167 ], [ 127.088889073489355, 35.639507541026063 ], [ 127.093590193193847, 35.633435974130634 ], [ 127.089875473023724, 35.627187340470776 ], [ 127.092968369739751, 35.621737670005842 ], [ 127.090808230234543, 35.618886599111413 ], [ 127.090420780931552, 35.614586664668138 ], [ 127.100488955678415, 35.603879388426016 ], [ 127.1016821953544, 35.599304323150946 ], [ 127.10482423341773, 35.595964497085383 ], [ 127.102572139439744, 35.590215392572489 ], [ 127.096488775356065, 35.587406345923512 ], [ 127.086336448765735, 35.586813907388603 ], [ 127.083108113206833, 35.584527519028974 ], [ 127.080284723854561, 35.586312357573256 ], [ 127.078022299783484, 35.585606573761794 ], [ 127.077121820097958, 35.582372645978708 ], [ 127.070708367826782, 35.581029892042274 ], [ 127.065701838543632, 35.581766387260771 ], [ 127.06317344467621, 35.584621734804898 ], [ 127.055754469353573, 35.584396539884175 ], [ 127.050832176500194, 35.586770753476983 ], [ 127.046039889062044, 35.586491716455747 ], [ 127.040881916578769, 35.595211506369303 ], [ 127.030770336571052, 35.590566262043033 ], [ 127.02823550678913, 35.593561214337399 ], [ 127.022523814343714, 35.595705766533172 ], [ 127.018117750925242, 35.59707634301347 ], [ 127.014283173671259, 35.596386371192963 ], [ 127.008707608146523, 35.59994981810501 ], [ 127.00818733504039, 35.602607457914353 ], [ 127.011160710487459, 35.610348806588028 ], [ 127.004811625169964, 35.616046721183373 ] ] ] ] } }
]
}
