{
"type": "FeatureCollection",
"name": "52190",
"crs": { "type": "name", "properties": { "name": "urn:ogc:def:crs:OGC:1.3:CRS84" } },
"features": [
{ "type": "Feature", "properties": { "emd_cd": "52190101", "emd_nm": "동충동" }, "geometry": { "type": "MultiPolygon", "coordinates": [ [ [ [ 127.38689897887302, 35.408989395110247 ], [ 127.376595007802038, 35.409329461983312 ], [ 127.376950201736619, 35.414012710447039 ], [ 127.386199015752084, 35.413940511737145 ], [ 127.386118937074542, 35.411972730185205 ], [ 127.391125166964017, 35.411884443314648 ], [ 127.38689897887302, 35.408989395110247 ] ] ] ] } },
{ "type": "Feature", "properties": { "emd_cd": "52190102", "emd_nm": "하정동" }, "geometry": { "type": "MultiPolygon", "coordinates": [ [ [ [ 127.382542985017935, 35.406289586844622 ], [ 127.376432437808219, 35.406515966569096 ], [ 127.376595007802038, 35.409329461983312 ], [ 127.382640985406852, 35.409121159270747 ], [ 127.382542985017935, 35.406289586844622 ] ] ] ] } },
{ "type": "Feature", "properties": { "emd_cd": "52190103", "emd_nm": "죽항동" }, "geometry": { "type": "MultiPolygon", "coordinates": [ [ [ [ 127.387798275087249, 35.406280031284915 ], [ 127.382542985017935, 35.406289586844622 ], [ 127.382640985406852, 35.409121159270747 ], [ 127.38689897887302, 35.408989395110247 ], [ 127.392159960265388, 35.412646050928927 ], [ 127.394008426551906, 35.41053895175029 ], [ 127.387798275087249, 35.406280031284915 ] ] ] ] } },
{ "type": "Feature", "properties": { "emd_cd": "52190104", "emd_nm": "쌍교동" }, "geometry": { "type": "MultiPolygon", "coordinates": [ [ [ [ 127.379887548139337, 35.406369931857562 ], [ 127.387798275087249, 35.406280031284915 ], [ 127.381362130736676, 35.401946625481351 ], [ 127.379624546006283, 35.404262688250455 ], [ 127.379887548139337, 35.406369931857562 ] ] ] ] } },
{ "type": "Feature", "properties": { "emd_cd": "52190105", "emd_nm": "천거동" }, "geometry": { "type": "MultiPolygon", "coordinates": [ [ [ [ 127.378148591055933, 35.40427693488752 ], [ 127.380441461893255, 35.404065372733626 ], [ 127.381362130736676, 35.401946625481351 ], [ 127.374809395170558, 35.399212105648019 ], [ 127.374339581470537, 35.400582883968326 ], [ 127.378148591055933, 35.40427693488752 ] ] ] ] } },
{ "type": "Feature", "properties": { "emd_cd": "52190106", "emd_nm": "금동" }, "geometry": { "type": "MultiPolygon", "coordinates": [ [ [ [ 127.361539473236249, 35.399720836482246 ], [ 127.370162043258688, 35.406697495790979 ], [ 127.379887548139337, 35.406369931857562 ], [ 127.379603714236268, 35.404212433262956 ], [ 127.372858836715466, 35.399855192644267 ], [ 127.36246870285656, 35.398451908335026 ], [ 127.361539473236249, 35.399720836482246 ] ] ] ] } },
{ "type": "Feature", "properties": { "emd_cd": "52190107", "emd_nm": "조산동" }, "geometry": { "type": "MultiPolygon", "coordinates": [ [ [ [ 127.356341424484611, 35.389442246522712 ], [ 127.356490869571672, 35.393452636011475 ], [ 127.359237153907756, 35.398734196336029 ], [ 127.374539743112734, 35.400303625386307 ], [ 127.372066195925086, 35.396083435582447 ], [ 127.356341424484611, 35.389442246522712 ] ] ] ] } },
{ "type": "Feature", "properties": { "emd_cd": "52190108", "emd_nm": "왕정동" }, "geometry": { "type": "MultiPolygon", "coordinates": [ [ [ [ 127.3683953511282, 35.418994124372389 ], [ 127.372533864766993, 35.411814219910283 ], [ 127.376806304090834, 35.414625705841488 ], [ 127.376468775663412, 35.406498782932353 ], [ 127.370162043258688, 35.406697495790979 ], [ 127.365869945680117, 35.403370305240671 ], [ 127.363444592846534, 35.407350082978468 ], [ 127.366076899566707, 35.409927936850586 ], [ 127.366279859765001, 35.417889570025473 ], [ 127.3683953511282, 35.418994124372389 ] ] ] ] } },
{ "type": "Feature", "properties": { "emd_cd": "52190109", "emd_nm": "신정동" }, "geometry": { "type": "MultiPolygon", "coordinates": [ [ [ [ 127.365869945680117, 35.403370305240671 ], [ 127.35671790687816, 35.395694787756462 ], [ 127.356504514912629, 35.400415130799253 ], [ 127.354044054252583, 35.402043248530561 ], [ 127.356019779979661, 35.408627415728077 ], [ 127.354441569356183, 35.411294186631295 ], [ 127.356796885592445, 35.413292498564687 ], [ 127.358236748614729, 35.417680500721126 ], [ 127.354365342685128, 35.426699740310951 ], [ 127.36390343623539, 35.422018754988095 ], [ 127.366454620144637, 35.4180927559945 ], [ 127.366076899566707, 35.409927936850586 ], [ 127.363444592846534, 35.407350082978468 ], [ 127.365869945680117, 35.403370305240671 ] ] ] ] } },
{ "type": "Feature", "properties": { "emd_cd": "52190110", "emd_nm": "화정동" }, "geometry": { "type": "MultiPolygon", "coordinates": [ [ [ [ 127.346661765746248, 35.40462831713424 ], [ 127.340469268278326, 35.412498344561008 ], [ 127.333635471623936, 35.412339512256928 ], [ 127.336625178633469, 35.417513295251347 ], [ 127.345952643372286, 35.417398406691234 ], [ 127.348890592956181, 35.422974569462475 ], [ 127.354365342685128, 35.426699740310951 ], [ 127.358236748614729, 35.417680500721126 ], [ 127.356796885592445, 35.413292498564687 ], [ 127.354441569356183, 35.411294186631295 ], [ 127.355840813271243, 35.40587051361473 ], [ 127.346661765746248, 35.40462831713424 ] ] ] ] } },
{ "type": "Feature", "properties": { "emd_cd": "52190111", "emd_nm": "향교동" }, "geometry": { "type": "MultiPolygon", "coordinates": [ [ [ [ 127.368961485415781, 35.418897621338076 ], [ 127.372411654905449, 35.420300858089149 ], [ 127.373920418129345, 35.419028225925089 ], [ 127.374579977548066, 35.420249041101457 ], [ 127.372387032877128, 35.422255782473677 ], [ 127.374985457742866, 35.421837227751141 ], [ 127.377648340398665, 35.424820810539401 ], [ 127.384054165494121, 35.424241911537493 ], [ 127.384688174776286, 35.422298303333719 ], [ 127.391195454554904, 35.425788217116825 ], [ 127.393769532202882, 35.424340070792297 ], [ 127.388767390949809, 35.416829444282747 ], [ 127.39123569696595, 35.413975169674984 ], [ 127.388244206082405, 35.411938462287381 ], [ 127.386118937074542, 35.411972730185205 ], [ 127.386199015752084, 35.413940511737145 ], [ 127.376656486977808, 35.414684224687171 ], [ 127.372533864766993, 35.411814219910283 ], [ 127.368961485415781, 35.418897621338076 ] ] ] ] } },
{ "type": "Feature", "properties": { "emd_cd": "52190112", "emd_nm": "용정동" }, "geometry": { "type": "MultiPolygon", "coordinates": [ [ [ [ 127.369565851795443, 35.432784147936161 ], [ 127.371762497921466, 35.432136683455404 ], [ 127.373003409411609, 35.434628176292804 ], [ 127.369356877050251, 35.43732087306919 ], [ 127.37344181968821, 35.44152009822308 ], [ 127.378860794023126, 35.438876642448292 ], [ 127.378704733611713, 35.44109305360751 ], [ 127.381255419937531, 35.442683189143203 ], [ 127.381067333398576, 35.440329354289155 ], [ 127.383383357973429, 35.43968482761025 ], [ 127.38347050904818, 35.438298037121385 ], [ 127.387438163823944, 35.438560750232448 ], [ 127.393704210168536, 35.442813312128386 ], [ 127.394482394178254, 35.441188964366759 ], [ 127.395346394089074, 35.437330067144927 ], [ 127.390904347486796, 35.431702334651661 ], [ 127.39197214340534, 35.427246547089304 ], [ 127.38989341605749, 35.424019017054171 ], [ 127.384688174776286, 35.422298303333719 ], [ 127.383984503910668, 35.424259689687645 ], [ 127.372608765913952, 35.425312492786837 ], [ 127.369565851795443, 35.432784147936161 ] ] ] ] } },
{ "type": "Feature", "properties": { "emd_cd": "52190113", "emd_nm": "광치동" }, "geometry": { "type": "MultiPolygon", "coordinates": [ [ [ [ 127.40177978044234, 35.455057353990391 ], [ 127.395334216593824, 35.453256165696793 ], [ 127.392037838048935, 35.44733195186798 ], [ 127.393704210168536, 35.442813312128386 ], [ 127.392744419911864, 35.441529497971331 ], [ 127.387438163823944, 35.438560750232448 ], [ 127.38347050904818, 35.438298037121385 ], [ 127.383383357973429, 35.43968482761025 ], [ 127.381067333398576, 35.440329354289155 ], [ 127.381255419937531, 35.442683189143203 ], [ 127.378704733611713, 35.44109305360751 ], [ 127.378860794023126, 35.438876642448292 ], [ 127.37344181968821, 35.44152009822308 ], [ 127.371863279956926, 35.439217760909003 ], [ 127.368674402591211, 35.439856973392807 ], [ 127.365944184786642, 35.442882656225088 ], [ 127.366474598610637, 35.446209818653315 ], [ 127.361129419074217, 35.449643249094144 ], [ 127.361502330468284, 35.451459789991844 ], [ 127.359703791874566, 35.452060046476994 ], [ 127.358456870603789, 35.455414303342231 ], [ 127.367879187885748, 35.4601278210557 ], [ 127.374236444329995, 35.46021949654525 ], [ 127.377631799394265, 35.465312498763069 ], [ 127.384140889350746, 35.463569100610258 ], [ 127.385949193435962, 35.460146436151248 ], [ 127.388619491429026, 35.460489977266377 ], [ 127.391888422822689, 35.462884744803617 ], [ 127.393410235553546, 35.466771408071217 ], [ 127.396993969552582, 35.467841081003172 ], [ 127.40177978044234, 35.455057353990391 ] ] ] ] } },
{ "type": "Feature", "properties": { "emd_cd": "52190114", "emd_nm": "내척동" }, "geometry": { "type": "MultiPolygon", "coordinates": [ [ [ [ 127.349695623695325, 35.450146377329759 ], [ 127.356776223926403, 35.454208674698926 ], [ 127.361502330468284, 35.451459789991844 ], [ 127.361129419074217, 35.449643249094144 ], [ 127.366474598610637, 35.446209818653315 ], [ 127.366715901100633, 35.441748365068605 ], [ 127.371101034888284, 35.439294887182214 ], [ 127.369356877050251, 35.43732087306919 ], [ 127.372965678607613, 35.435572564432547 ], [ 127.371762497921466, 35.432136683455404 ], [ 127.368758557856893, 35.432747282138301 ], [ 127.363836597272339, 35.429762700243749 ], [ 127.357509081781998, 35.431578640110743 ], [ 127.352080654955031, 35.430414323966772 ], [ 127.349843100459353, 35.432177647703355 ], [ 127.350026256243467, 35.434786206787578 ], [ 127.348294198857758, 35.435851095779974 ], [ 127.349917354653471, 35.441023665269633 ], [ 127.349695623695325, 35.450146377329759 ] ] ] ] } },
{ "type": "Feature", "properties": { "emd_cd": "52190115", "emd_nm": "산곡동" }, "geometry": { "type": "MultiPolygon", "coordinates": [ [ [ [ 127.370098959302865, 35.418849954591458 ], [ 127.370250341490618, 35.418834954316338 ], [ 127.370079105152726, 35.418851916952903 ], [ 127.370098959302865, 35.418849954591458 ] ] ], [ [ [ 127.369518141521297, 35.4327880608298 ], [ 127.372608765913952, 35.425312492786837 ], [ 127.377648340398665, 35.424820810539401 ], [ 127.374985457742866, 35.421837227751141 ], [ 127.372387032877128, 35.422255782473677 ], [ 127.374579977548066, 35.420249041101457 ], [ 127.373920418129345, 35.419028225925089 ], [ 127.372411654905449, 35.420300858089149 ], [ 127.366454620144637, 35.4180927559945 ], [ 127.361904297450778, 35.423266877042288 ], [ 127.358251638302818, 35.423699923669801 ], [ 127.356365866141957, 35.426246071473791 ], [ 127.352991427489201, 35.425931388985944 ], [ 127.351249818456097, 35.429606565502446 ], [ 127.355533542566008, 35.431672804019378 ], [ 127.363836597272339, 35.429762700243749 ], [ 127.369518141521297, 35.4327880608298 ] ] ] ] } },
{ "type": "Feature", "properties": { "emd_cd": "52190116", "emd_nm": "도통동" }, "geometry": { "type": "MultiPolygon", "coordinates": [ [ [ [ 127.393968180880975, 35.41058309349215 ], [ 127.392159960265388, 35.412646050928927 ], [ 127.388440887724272, 35.412158409820165 ], [ 127.39123569696595, 35.413975169674984 ], [ 127.388767390949809, 35.416829444282747 ], [ 127.393769532202882, 35.424340070792297 ], [ 127.397895270160888, 35.42110051104752 ], [ 127.399897778263551, 35.421228846969832 ], [ 127.402205477646831, 35.417700882474065 ], [ 127.393968180880975, 35.41058309349215 ] ] ] ] } },
{ "type": "Feature", "properties": { "emd_cd": "52190117", "emd_nm": "월락동" }, "geometry": { "type": "MultiPolygon", "coordinates": [ [ [ [ 127.408726166822035, 35.419299126378291 ], [ 127.400812798549794, 35.41693447113942 ], [ 127.402205477646831, 35.417700882474065 ], [ 127.399897778263551, 35.421228846969832 ], [ 127.397895270160888, 35.42110051104752 ], [ 127.391195454554904, 35.425788217116825 ], [ 127.390904347486796, 35.431702334651661 ], [ 127.395346394089074, 35.437330067144927 ], [ 127.399005722016568, 35.434892237538193 ], [ 127.403991512468011, 35.435757142960135 ], [ 127.40600328017841, 35.434665689530441 ], [ 127.407717152518941, 35.431720245491697 ], [ 127.407139768263676, 35.426533942160148 ], [ 127.412492850702705, 35.424699734879177 ], [ 127.408726166822035, 35.419299126378291 ] ] ] ] } },
{ "type": "Feature", "properties": { "emd_cd": "52190118", "emd_nm": "고죽동" }, "geometry": { "type": "MultiPolygon", "coordinates": [ [ [ [ 127.418381273188501, 35.432037380695661 ], [ 127.414533895466164, 35.42560372162901 ], [ 127.411213634814573, 35.424181395998538 ], [ 127.407139768263676, 35.426533942160148 ], [ 127.407717152518941, 35.431720245491697 ], [ 127.40600328017841, 35.434665689530441 ], [ 127.403991512468011, 35.435757142960135 ], [ 127.399005722016568, 35.434892237538193 ], [ 127.395346394089074, 35.437330067144927 ], [ 127.392037838048935, 35.44733195186798 ], [ 127.395334216593824, 35.453256165696793 ], [ 127.40177978044234, 35.455057353990391 ], [ 127.402433975177516, 35.451823533995736 ], [ 127.406864369977015, 35.450349050434049 ], [ 127.410627286171248, 35.446305663960914 ], [ 127.408746460174626, 35.441070858214935 ], [ 127.412725611935798, 35.438148986270214 ], [ 127.41174118463988, 35.435927715944537 ], [ 127.414945944493823, 35.436030862592858 ], [ 127.418381273188501, 35.432037380695661 ] ] ] ] } },
{ "type": "Feature", "properties": { "emd_cd": "52190119", "emd_nm": "식정동" }, "geometry": { "type": "MultiPolygon", "coordinates": [ [ [ [ 127.423969819186794, 35.460044496173218 ], [ 127.435513685241304, 35.457922643716856 ], [ 127.43536422734735, 35.453608831464152 ], [ 127.430910595204935, 35.441332373978554 ], [ 127.418381273188501, 35.432037380695661 ], [ 127.414945944493823, 35.436030862592858 ], [ 127.41174118463988, 35.435927715944537 ], [ 127.412725611935798, 35.438148986270214 ], [ 127.408650306916542, 35.441977597459058 ], [ 127.412139456910722, 35.446296059342487 ], [ 127.419362435893987, 35.44313604457593 ], [ 127.423125449094101, 35.444197198307833 ], [ 127.422396212485367, 35.45484784272336 ], [ 127.423969819186794, 35.460044496173218 ] ] ] ] } },
{ "type": "Feature", "properties": { "emd_cd": "52190120", "emd_nm": "갈치동" }, "geometry": { "type": "MultiPolygon", "coordinates": [ [ [ [ 127.4105123454233, 35.445705722010075 ], [ 127.406864369977015, 35.450349050434049 ], [ 127.402433975177516, 35.451823533995736 ], [ 127.401987808053264, 35.455715272916983 ], [ 127.399204052008628, 35.459312922430506 ], [ 127.399720910710002, 35.461663310202091 ], [ 127.40223484644757, 35.464618081888581 ], [ 127.412387714294582, 35.468398763848015 ], [ 127.416056757032379, 35.467141304993831 ], [ 127.418410310386903, 35.468096625020955 ], [ 127.419570271810855, 35.465435254644547 ], [ 127.425131024423678, 35.462687961837062 ], [ 127.422396212485367, 35.45484784272336 ], [ 127.423125449094101, 35.444197198307833 ], [ 127.419362435893987, 35.44313604457593 ], [ 127.415221762153976, 35.445591856259398 ], [ 127.4105123454233, 35.445705722010075 ] ] ] ] } },
{ "type": "Feature", "properties": { "emd_cd": "52190121", "emd_nm": "노암동" }, "geometry": { "type": "MultiPolygon", "coordinates": [ [ [ [ 127.368529718551045, 35.393930613140313 ], [ 127.375082545225197, 35.399448288193945 ], [ 127.382710975590868, 35.402769797789659 ], [ 127.3835569457611, 35.399885596080395 ], [ 127.388991520154519, 35.398616587844948 ], [ 127.388051874620217, 35.39559867131107 ], [ 127.385911775987609, 35.395284651622383 ], [ 127.387175048402582, 35.390636025947877 ], [ 127.385630533040569, 35.389766709479531 ], [ 127.385582077865578, 35.387321321156911 ], [ 127.381662001240386, 35.381769224069757 ], [ 127.377381810341859, 35.380368219325604 ], [ 127.376267268441907, 35.382415268546012 ], [ 127.372410791760572, 35.38253898691152 ], [ 127.369910867435721, 35.385077437154472 ], [ 127.371143006979537, 35.39180915550039 ], [ 127.368529718551045, 35.393930613140313 ] ] ] ] } },
{ "type": "Feature", "properties": { "emd_cd": "52190122", "emd_nm": "어현동" }, "geometry": { "type": "MultiPolygon", "coordinates": [ [ [ [ 127.377381810341859, 35.380368219325604 ], [ 127.381662001240386, 35.381769224069757 ], [ 127.387175048402582, 35.390636025947877 ], [ 127.385911775987609, 35.395284651622383 ], [ 127.388051874620217, 35.39559867131107 ], [ 127.388779758329576, 35.399646853247994 ], [ 127.3835569457611, 35.399885596080395 ], [ 127.382701480997042, 35.402778011661511 ], [ 127.388610183699058, 35.406865843332248 ], [ 127.393915929347003, 35.406251981865402 ], [ 127.396327685918777, 35.402554742476063 ], [ 127.402990478092491, 35.400363017876614 ], [ 127.406026217881475, 35.396586995261181 ], [ 127.402161727906872, 35.393350285719421 ], [ 127.398074589687212, 35.394720923179705 ], [ 127.395087869133107, 35.391653314050629 ], [ 127.394522932005628, 35.383361368994471 ], [ 127.395917443963725, 35.37889260693909 ], [ 127.394155806445781, 35.375155896952748 ], [ 127.390147693311206, 35.37567342113632 ], [ 127.381959842054016, 35.373648402339583 ], [ 127.375888874853288, 35.376057727315633 ], [ 127.377381810341859, 35.380368219325604 ] ] ] ] } },
{ "type": "Feature", "properties": { "emd_cd": "52190123", "emd_nm": "신촌동" }, "geometry": { "type": "MultiPolygon", "coordinates": [ [ [ [ 127.388610183699058, 35.406865843332248 ], [ 127.402290384816538, 35.417670947671517 ], [ 127.403953852174837, 35.417904235195209 ], [ 127.404358415149218, 35.41538631599451 ], [ 127.408358521148273, 35.413668351359171 ], [ 127.412522823962135, 35.415426529475887 ], [ 127.414287528186421, 35.411878719655931 ], [ 127.406859360477114, 35.409073047655582 ], [ 127.407743856060122, 35.404567339499359 ], [ 127.402990478092491, 35.400363017876614 ], [ 127.396327685918777, 35.402554742476063 ], [ 127.393915929347003, 35.406251981865402 ], [ 127.388610183699058, 35.406865843332248 ] ] ] ] } },
{ "type": "Feature", "properties": { "emd_cd": "52190250", "emd_nm": "운봉읍" }, "geometry": { "type": "MultiPolygon", "coordinates": [ [ [ [ 127.485955212048239, 35.457573390339995 ], [ 127.489696919188958, 35.458589581444215 ], [ 127.491947696606232, 35.462103344184335 ], [ 127.497890172784508, 35.463505914512886 ], [ 127.497510061352401, 35.473022946548454 ], [ 127.505242468419112, 35.474240241729575 ], [ 127.505345844429556, 35.476573769002052 ], [ 127.510066275608693, 35.478077040391263 ], [ 127.510980440367533, 35.480381598461335 ], [ 127.518965892891828, 35.478236555229323 ], [ 127.524848583139345, 35.473182684715496 ], [ 127.538127234020919, 35.469742751550434 ], [ 127.537904977839233, 35.471159258974197 ], [ 127.541635133565521, 35.471596938236836 ], [ 127.541145326558521, 35.469957114910223 ], [ 127.543828173043394, 35.468061374554594 ], [ 127.55365924841027, 35.471317320292869 ], [ 127.558513965021305, 35.471135979028816 ], [ 127.56173599307003, 35.473532007127496 ], [ 127.565922590747149, 35.473119536407296 ], [ 127.573404913424881, 35.470545730604933 ], [ 127.57326407405462, 35.468743090692577 ], [ 127.578154469225737, 35.46290996991133 ], [ 127.576453050925949, 35.461931484945623 ], [ 127.575807775384334, 35.456954201900281 ], [ 127.578866286212005, 35.458886146501186 ], [ 127.580265071400731, 35.454746444076214 ], [ 127.584013029746316, 35.452988060948655 ], [ 127.584201557098964, 35.447359759909801 ], [ 127.582181397171155, 35.444198508412889 ], [ 127.581212796861976, 35.437317723048743 ], [ 127.584050146630602, 35.433088562250894 ], [ 127.580572005967838, 35.42669045307612 ], [ 127.576131291480507, 35.421932020279115 ], [ 127.570303690181518, 35.420237648126133 ], [ 127.567803250281841, 35.414059587342933 ], [ 127.564456873489974, 35.411424764282032 ], [ 127.564681298679162, 35.40159187298039 ], [ 127.553509288205206, 35.386686977254165 ], [ 127.552329143138266, 35.381687190319965 ], [ 127.541378104332608, 35.37711970612974 ], [ 127.535141567021, 35.377090710101015 ], [ 127.525195144791127, 35.369784219990855 ], [ 127.521007670943121, 35.378919071949518 ], [ 127.515836548122238, 35.383283351501419 ], [ 127.506828155478473, 35.383658725870276 ], [ 127.505656122939541, 35.385291467656934 ], [ 127.506999614677767, 35.390000454554112 ], [ 127.50422684237914, 35.401246642414563 ], [ 127.50067802316282, 35.40495208437337 ], [ 127.49618750226594, 35.406304880161976 ], [ 127.498073991259147, 35.413759417634346 ], [ 127.501494840485606, 35.417164646363474 ], [ 127.498376684324995, 35.423234729722715 ], [ 127.499190656763489, 35.431449944965998 ], [ 127.496667427757487, 35.432418421233713 ], [ 127.49522428618468, 35.435127381133462 ], [ 127.499198040185433, 35.439927630635111 ], [ 127.500932667454293, 35.446632740941958 ], [ 127.500040140754109, 35.448757233680894 ], [ 127.495202297701084, 35.449398786965382 ], [ 127.493576881542992, 35.451993009807389 ], [ 127.487897941233143, 35.451889554769245 ], [ 127.488420591489884, 35.454077786091247 ], [ 127.485955212048239, 35.457573390339995 ] ] ] ] } },
{ "type": "Feature", "properties": { "emd_cd": "52190310", "emd_nm": "주천면" }, "geometry": { "type": "MultiPolygon", "coordinates": [ [ [ [ 127.398300969803543, 35.358427249555952 ], [ 127.395968737767589, 35.363648670378076 ], [ 127.391372887471874, 35.366538956552134 ], [ 127.392653295551597, 35.369184769242871 ], [ 127.390470204185107, 35.371260507591558 ], [ 127.395799609253999, 35.378229317682305 ], [ 127.394873119909278, 35.391167223648289 ], [ 127.396638826279286, 35.394036124507174 ], [ 127.402648759889146, 35.393470463662574 ], [ 127.406026217881475, 35.396586995261181 ], [ 127.402990478092491, 35.400363017876614 ], [ 127.407743856060122, 35.404567339499359 ], [ 127.406859360477114, 35.409073047655582 ], [ 127.41296647511794, 35.412054449254704 ], [ 127.425903261261794, 35.406294861425373 ], [ 127.434643310251332, 35.409390266649432 ], [ 127.44144777689344, 35.409516542148147 ], [ 127.445632154159341, 35.406224233296271 ], [ 127.450217295598492, 35.406432288699456 ], [ 127.4581048713288, 35.403673386967263 ], [ 127.460456707985955, 35.401078124049356 ], [ 127.464773680386983, 35.400761571441528 ], [ 127.46872024314797, 35.396379341124288 ], [ 127.474155596258058, 35.395365142945288 ], [ 127.479466299508232, 35.400064010554942 ], [ 127.48575935162107, 35.402843931323062 ], [ 127.488305314381549, 35.406382430783793 ], [ 127.495752512248231, 35.407783748514788 ], [ 127.496839530874141, 35.405448157121043 ], [ 127.500161187018534, 35.405250082022228 ], [ 127.50422684237914, 35.401246642414563 ], [ 127.506999614677767, 35.390000454554112 ], [ 127.505656122939541, 35.385291467656934 ], [ 127.506828155478473, 35.383658725870276 ], [ 127.515836548122238, 35.383283351501419 ], [ 127.521007670943121, 35.378919071949518 ], [ 127.525195144791127, 35.369784219990855 ], [ 127.521111935253302, 35.363580223582758 ], [ 127.520185887084665, 35.359163925222987 ], [ 127.51398655233362, 35.351134869726664 ], [ 127.508060238860693, 35.353183212560658 ], [ 127.500032666161033, 35.359255951359543 ], [ 127.485705528526665, 35.358349654060191 ], [ 127.4807291210372, 35.361668091330962 ], [ 127.480272963810492, 35.363642676272349 ], [ 127.470765722328025, 35.365335573836894 ], [ 127.465938831098541, 35.363533468652037 ], [ 127.458244725182212, 35.363543262804228 ], [ 127.454110294318895, 35.360753981522016 ], [ 127.443730345002066, 35.360945166452034 ], [ 127.441403874392179, 35.362107827776605 ], [ 127.441361601549886, 35.363836045937859 ], [ 127.436922279182298, 35.362711211422436 ], [ 127.424717038760619, 35.3520631647676 ], [ 127.421409569752115, 35.350870027318699 ], [ 127.409479654098917, 35.357434695409253 ], [ 127.398300969803543, 35.358427249555952 ] ] ] ] } },
{ "type": "Feature", "properties": { "emd_cd": "52190320", "emd_nm": "수지면" }, "geometry": { "type": "MultiPolygon", "coordinates": [ [ [ [ 127.393169318412816, 35.365426231487312 ], [ 127.395968737767589, 35.363648670378076 ], [ 127.397570369658638, 35.358612117911612 ], [ 127.401120168705873, 35.357241182130537 ], [ 127.409479654098917, 35.357434695409253 ], [ 127.421409569752115, 35.350870027318699 ], [ 127.420165500997442, 35.345230072933667 ], [ 127.408800832494691, 35.327569839493307 ], [ 127.4060847919569, 35.324418374958597 ], [ 127.401156825437383, 35.322723091252442 ], [ 127.399113792339719, 35.316859897673979 ], [ 127.392765501013088, 35.31272749526839 ], [ 127.392698376851726, 35.307346379805701 ], [ 127.384567179896024, 35.302457643829186 ], [ 127.380085468870732, 35.303679074811889 ], [ 127.37551600174001, 35.312197779593681 ], [ 127.370670784829542, 35.314605002649515 ], [ 127.367688458422052, 35.314159884825358 ], [ 127.354255883802736, 35.322355196304017 ], [ 127.348414112360757, 35.318642084741292 ], [ 127.339406757124621, 35.317845206745062 ], [ 127.336456804650027, 35.31490537712618 ], [ 127.330686865723223, 35.314896311195731 ], [ 127.329456825390693, 35.311051539770887 ], [ 127.325899957366659, 35.309638444190135 ], [ 127.325896011661001, 35.316952665135013 ], [ 127.328126175171661, 35.32183287275911 ], [ 127.32753327475055, 35.323318531830033 ], [ 127.324969842988949, 35.322160490998598 ], [ 127.32295172237697, 35.328406646458092 ], [ 127.327907969227596, 35.336754250479345 ], [ 127.333092908374852, 35.338288006812625 ], [ 127.334799240808763, 35.344847010994279 ], [ 127.337700152398696, 35.345747508628392 ], [ 127.352779205799791, 35.341126282392082 ], [ 127.359298649879392, 35.346410135476027 ], [ 127.36589787179264, 35.348165281321087 ], [ 127.369029303674623, 35.345778540885682 ], [ 127.371251964680937, 35.345957208486269 ], [ 127.373693615428181, 35.348279788630158 ], [ 127.372487966938394, 35.350896051263206 ], [ 127.373563583663696, 35.353489778769259 ], [ 127.377151188061205, 35.353151078501874 ], [ 127.37848228051827, 35.35675205490061 ], [ 127.384722868442836, 35.356711967131773 ], [ 127.384322237723495, 35.3587703689156 ], [ 127.386351247484214, 35.360991440673729 ], [ 127.393169318412816, 35.365426231487312 ] ] ] ] } },
{ "type": "Feature", "properties": { "emd_cd": "52190330", "emd_nm": "송동면" }, "geometry": { "type": "MultiPolygon", "coordinates": [ [ [ [ 127.368688050223525, 35.394769182266131 ], [ 127.371143006979537, 35.39180915550039 ], [ 127.369910867435721, 35.385077437154472 ], [ 127.372410791760572, 35.38253898691152 ], [ 127.376267268441907, 35.382415268546012 ], [ 127.377381810341859, 35.380368219325604 ], [ 127.375888874853288, 35.376057727315633 ], [ 127.382202609155726, 35.373631639321125 ], [ 127.394029247132778, 35.375468226251293 ], [ 127.390470204185107, 35.371260507591558 ], [ 127.392653295551597, 35.369184769242871 ], [ 127.391372887471874, 35.366538956552134 ], [ 127.393169318412816, 35.365426231487312 ], [ 127.386351247484214, 35.360991440673729 ], [ 127.384322237723495, 35.3587703689156 ], [ 127.384722868442836, 35.356711967131773 ], [ 127.37848228051827, 35.35675205490061 ], [ 127.377151188061205, 35.353151078501874 ], [ 127.373563583663696, 35.353489778769259 ], [ 127.372487966938394, 35.350896051263206 ], [ 127.373693615428181, 35.348279788630158 ], [ 127.371251964680937, 35.345957208486269 ], [ 127.369029303674623, 35.345778540885682 ], [ 127.36589787179264, 35.348165281321087 ], [ 127.359298649879392, 35.346410135476027 ], [ 127.352779205799791, 35.341126282392082 ], [ 127.337700152398696, 35.345747508628392 ], [ 127.334799240808763, 35.344847010994279 ], [ 127.333092908374852, 35.338288006812625 ], [ 127.327907969227596, 35.336754250479345 ], [ 127.323093398147321, 35.328880285100617 ], [ 127.324969842988949, 35.322160490998598 ], [ 127.32753327475055, 35.323318531830033 ], [ 127.328126175171661, 35.32183287275911 ], [ 127.325896011661001, 35.316952665135013 ], [ 127.326888444775946, 35.313344693624131 ], [ 127.323466784696151, 35.307409178131955 ], [ 127.319717753220914, 35.30638397258322 ], [ 127.318113603132545, 35.309762681455453 ], [ 127.314928357845844, 35.310656633062024 ], [ 127.305799890267835, 35.331426120456896 ], [ 127.307599975950552, 35.35305514963845 ], [ 127.311682420239364, 35.362338424895377 ], [ 127.314372739408157, 35.364127656427804 ], [ 127.314314455533136, 35.367298971929266 ], [ 127.328463841023051, 35.374988339329803 ], [ 127.331454518485486, 35.374351035692854 ], [ 127.338485676477191, 35.379022559332846 ], [ 127.338791441599611, 35.381803410774999 ], [ 127.341503962751219, 35.38155768881002 ], [ 127.364409358312002, 35.393914950169417 ], [ 127.368688050223525, 35.394769182266131 ] ] ] ] } },
{ "type": "Feature", "properties": { "emd_cd": "52190340", "emd_nm": "주생면" }, "geometry": { "type": "MultiPolygon", "coordinates": [ [ [ [ 127.332244063748249, 35.400213396906011 ], [ 127.338968510621854, 35.403582957625218 ], [ 127.354143128695455, 35.404692023814142 ], [ 127.357385713138171, 35.395738969340385 ], [ 127.356592825610221, 35.389756030381875 ], [ 127.341503962751219, 35.38155768881002 ], [ 127.338791441599611, 35.381803410774999 ], [ 127.338485676477191, 35.379022559332846 ], [ 127.331454518485486, 35.374351035692854 ], [ 127.328463841023051, 35.374988339329803 ], [ 127.314401366500164, 35.367445553694544 ], [ 127.314372739408157, 35.364127656427804 ], [ 127.311859578260155, 35.362605752052417 ], [ 127.310730961505101, 35.359573577356471 ], [ 127.307464326181019, 35.360658419880174 ], [ 127.309440486795467, 35.367521543799306 ], [ 127.306172537809346, 35.36877099806177 ], [ 127.306246421052066, 35.37292839534576 ], [ 127.303496955708283, 35.37496553573677 ], [ 127.295009815104194, 35.366894673549169 ], [ 127.288441079901247, 35.365321271228275 ], [ 127.283986218586406, 35.366968122910151 ], [ 127.280652723276816, 35.366332508139813 ], [ 127.273335977725381, 35.369320688141514 ], [ 127.260958919186407, 35.368984848538702 ], [ 127.255433634714265, 35.37424625091969 ], [ 127.260487850188341, 35.380168542434021 ], [ 127.259331500847523, 35.382065784722528 ], [ 127.26104463286967, 35.390656888378153 ], [ 127.263475944936332, 35.394295075764724 ], [ 127.266534356557898, 35.395306007439288 ], [ 127.267293892535179, 35.397298868812207 ], [ 127.265142915131023, 35.401136750423227 ], [ 127.268847989898958, 35.405033344082035 ], [ 127.271696443119751, 35.405164545708601 ], [ 127.275654475532349, 35.401406401638596 ], [ 127.282734613948165, 35.398516119231502 ], [ 127.283840141810927, 35.396150995061262 ], [ 127.289034477795511, 35.397885742607997 ], [ 127.303130822362036, 35.392145445689479 ], [ 127.306301719444605, 35.393609991851058 ], [ 127.304845940476952, 35.397720452011484 ], [ 127.315374816519068, 35.394145689265827 ], [ 127.319858514291582, 35.395788624608578 ], [ 127.321174923105801, 35.399010455095436 ], [ 127.324894811021451, 35.401862917079868 ], [ 127.326364893653007, 35.400225594003253 ], [ 127.332244063748249, 35.400213396906011 ] ] ] ] } },
{ "type": "Feature", "properties": { "emd_cd": "52190350", "emd_nm": "금지면" }, "geometry": { "type": "MultiPolygon", "coordinates": [ [ [ [ 127.319717753220914, 35.30638397258322 ], [ 127.309234303454915, 35.304489564957763 ], [ 127.307035499913226, 35.304520251616353 ], [ 127.307013307132522, 35.30618592618206 ], [ 127.306101303280997, 35.304608658239943 ], [ 127.298799624781523, 35.309596096052402 ], [ 127.286714423342062, 35.314022316115583 ], [ 127.265672650680727, 35.31371301542594 ], [ 127.260225721311016, 35.312208813806834 ], [ 127.253116049142022, 35.314508739953752 ], [ 127.251177262771648, 35.31720245735994 ], [ 127.252868576628444, 35.317995401974763 ], [ 127.251105021161948, 35.326911576141867 ], [ 127.253352009830962, 35.329099842302291 ], [ 127.252657855309295, 35.332267598989901 ], [ 127.256166774397187, 35.334986360714247 ], [ 127.253425961132507, 35.338869495467101 ], [ 127.254306434556128, 35.348758036275427 ], [ 127.246919549008595, 35.356016616033827 ], [ 127.248920676404197, 35.359396232750129 ], [ 127.247606477434871, 35.360940635876197 ], [ 127.248163814087491, 35.368514983549062 ], [ 127.255433634714265, 35.37424625091969 ], [ 127.260958919186407, 35.368984848538702 ], [ 127.273335977725381, 35.369320688141514 ], [ 127.280652723276816, 35.366332508139813 ], [ 127.283986218586406, 35.366968122910151 ], [ 127.288441079901247, 35.365321271228275 ], [ 127.295009815104194, 35.366894673549169 ], [ 127.303496955708283, 35.37496553573677 ], [ 127.305473826061558, 35.373908298669114 ], [ 127.306172537809346, 35.36877099806177 ], [ 127.309440486795467, 35.367521543799306 ], [ 127.307451351180319, 35.360686835295454 ], [ 127.310235340575147, 35.359634259611212 ], [ 127.307355707904236, 35.351535518666537 ], [ 127.305799890267835, 35.331426120456896 ], [ 127.314928357845844, 35.310656633062024 ], [ 127.318113603132545, 35.309762681455453 ], [ 127.319717753220914, 35.30638397258322 ] ] ] ] } },
{ "type": "Feature", "properties": { "emd_cd": "52190360", "emd_nm": "대강면" }, "geometry": { "type": "MultiPolygon", "coordinates": [ [ [ [ 127.251177262771648, 35.31720245735994 ], [ 127.235529084879417, 35.329226893791251 ], [ 127.231788366491031, 35.333740005686025 ], [ 127.219793746100748, 35.334133095337904 ], [ 127.215761172416222, 35.328709260126757 ], [ 127.215679257874172, 35.324407424670483 ], [ 127.212709414344246, 35.317352763318716 ], [ 127.209743616289842, 35.315572700422635 ], [ 127.1990466544067, 35.316652706770277 ], [ 127.19677362156024, 35.31930020443783 ], [ 127.187771632303523, 35.322557507636986 ], [ 127.184760296485877, 35.326112703096612 ], [ 127.183907021388322, 35.329875702280297 ], [ 127.186730165105317, 35.336184779161435 ], [ 127.194567189723585, 35.338865568174526 ], [ 127.187096583026005, 35.342482573541311 ], [ 127.188060041547473, 35.348797195975095 ], [ 127.193081394474902, 35.356398720035308 ], [ 127.19622105028553, 35.357720286590741 ], [ 127.201763008690293, 35.356988223672687 ], [ 127.208788688505507, 35.365672214265665 ], [ 127.217002649310032, 35.371651410477533 ], [ 127.21180867640274, 35.373121315323878 ], [ 127.21992502534809, 35.385335832913256 ], [ 127.225181184972229, 35.397762905408953 ], [ 127.227722300206494, 35.399014327982357 ], [ 127.233210612146621, 35.397494931195411 ], [ 127.236645280937168, 35.400082307533722 ], [ 127.245420708832896, 35.3982558010647 ], [ 127.247097205005147, 35.399168347813863 ], [ 127.250614791336972, 35.408923681507439 ], [ 127.249407802735718, 35.409546170147124 ], [ 127.251697182384135, 35.41731542116694 ], [ 127.257400006761188, 35.421194932061432 ], [ 127.2574826246708, 35.423903343421252 ], [ 127.260139623360871, 35.426969639078116 ], [ 127.275418643608205, 35.420892237188774 ], [ 127.27744541034663, 35.416579540552995 ], [ 127.275334068187291, 35.414296833485899 ], [ 127.2700001999563, 35.413056111689734 ], [ 127.270364855715329, 35.408800281211754 ], [ 127.272605385900462, 35.406273874130868 ], [ 127.265668513623496, 35.402486519685453 ], [ 127.267292886064652, 35.397280646428314 ], [ 127.26104463286967, 35.390656888378153 ], [ 127.259331500847523, 35.382065784722528 ], [ 127.260487850188341, 35.380168542434021 ], [ 127.247493544890048, 35.367410375921565 ], [ 127.247606477434871, 35.360940635876197 ], [ 127.248920676404197, 35.359396232750129 ], [ 127.246919549008595, 35.356016616033827 ], [ 127.254306434556128, 35.348758036275427 ], [ 127.253425961132507, 35.338869495467101 ], [ 127.256166774397187, 35.334986360714247 ], [ 127.252657855309295, 35.332267598989901 ], [ 127.253352009830962, 35.329099842302291 ], [ 127.251105021161948, 35.326911576141867 ], [ 127.252868576628444, 35.317995401974763 ], [ 127.251177262771648, 35.31720245735994 ] ] ] ] } },
{ "type": "Feature", "properties": { "emd_cd": "52190370", "emd_nm": "대산면" }, "geometry": { "type": "MultiPolygon", "coordinates": [ [ [ [ 127.332412611541315, 35.400206139360506 ], [ 127.332408649346931, 35.400206312451871 ], [ 127.332402056697504, 35.400206600906969 ], [ 127.332412611541315, 35.400206139360506 ] ] ], [ [ [ 127.331749620326079, 35.400271469448533 ], [ 127.326364893653007, 35.400225594003253 ], [ 127.324894811021451, 35.401862917079868 ], [ 127.321174923105801, 35.399010455095436 ], [ 127.319858514291582, 35.395788624608578 ], [ 127.315374816519068, 35.394145689265827 ], [ 127.304845940476952, 35.397720452011484 ], [ 127.306301719444605, 35.393609991851058 ], [ 127.303130822362036, 35.392145445689479 ], [ 127.289034477795511, 35.397885742607997 ], [ 127.283840141810927, 35.396150995061262 ], [ 127.282734613948165, 35.398516119231502 ], [ 127.272428276362092, 35.4042118394729 ], [ 127.272215124442255, 35.407354920182499 ], [ 127.270364855715329, 35.408800281211754 ], [ 127.2700001999563, 35.413056111689734 ], [ 127.275334068187291, 35.414296833485899 ], [ 127.27744541034663, 35.416579540552995 ], [ 127.275418643608205, 35.420892237188774 ], [ 127.277322011754691, 35.424232842501695 ], [ 127.288098021061032, 35.424502952782568 ], [ 127.294932596570845, 35.430902027479483 ], [ 127.297293222824649, 35.435649457237432 ], [ 127.296484767560187, 35.439526125177679 ], [ 127.297899190820061, 35.444706028925104 ], [ 127.306469055157564, 35.452857814203028 ], [ 127.311028513475179, 35.463020241362891 ], [ 127.313778362872426, 35.463693408367135 ], [ 127.32153752673247, 35.461579092253366 ], [ 127.326246601993844, 35.457837177245501 ], [ 127.330019650018343, 35.456983904645682 ], [ 127.337766554830225, 35.459529540573229 ], [ 127.345522695688274, 35.454864794353838 ], [ 127.346420848875141, 35.451497804259766 ], [ 127.348359051816573, 35.451841100712798 ], [ 127.349695623695325, 35.450146377329759 ], [ 127.349917354653471, 35.441023665269633 ], [ 127.348294198857758, 35.435851095779974 ], [ 127.350026256243467, 35.434786206787578 ], [ 127.349843100459353, 35.432177647703355 ], [ 127.352080654955031, 35.430414323966772 ], [ 127.352991427489201, 35.425931388985944 ], [ 127.346775874189007, 35.420599509864743 ], [ 127.345952643372286, 35.417398406691234 ], [ 127.336625178633469, 35.417513295251347 ], [ 127.333635471623936, 35.412339512256928 ], [ 127.340469268278326, 35.412498344561008 ], [ 127.346661765746248, 35.40462831713424 ], [ 127.338968510621854, 35.403582957625218 ], [ 127.336462154857514, 35.401586613539592 ], [ 127.333321046045413, 35.400194012119123 ], [ 127.331749620326079, 35.400271469448533 ] ], [ [ 127.333009917360272, 35.400590020184474 ], [ 127.333015999485468, 35.400473094155466 ], [ 127.333094179091901, 35.40042204548935 ], [ 127.333009917360272, 35.400590020184474 ] ] ] ] } },
{ "type": "Feature", "properties": { "emd_cd": "52190380", "emd_nm": "사매면" }, "geometry": { "type": "MultiPolygon", "coordinates": [ [ [ [ 127.396993969552582, 35.467841081003172 ], [ 127.393410235553546, 35.466771408071217 ], [ 127.390646406003356, 35.461522084178988 ], [ 127.386820445066064, 35.459999125120611 ], [ 127.384140889350746, 35.463569100610258 ], [ 127.377631799394265, 35.465312498763069 ], [ 127.374236444329995, 35.46021949654525 ], [ 127.363123706276767, 35.458588044623291 ], [ 127.36204901959627, 35.456519369516684 ], [ 127.358456870603789, 35.455414303342231 ], [ 127.358478177601668, 35.453911270343973 ], [ 127.354465591737707, 35.453583782995096 ], [ 127.353547118173779, 35.451471048773115 ], [ 127.349695623695325, 35.450146377329759 ], [ 127.348359051816573, 35.451841100712798 ], [ 127.346420848875141, 35.451497804259766 ], [ 127.345522695688274, 35.454864794353838 ], [ 127.337766554830225, 35.459529540573229 ], [ 127.330019650018343, 35.456983904645682 ], [ 127.326246601993844, 35.457837177245501 ], [ 127.32153752673247, 35.461579092253366 ], [ 127.313778362872426, 35.463693408367135 ], [ 127.314269561914401, 35.466219330034463 ], [ 127.311158300712634, 35.469325647482954 ], [ 127.310274832865304, 35.476069144031364 ], [ 127.30716598181634, 35.480633249747356 ], [ 127.307803349316643, 35.488960450615842 ], [ 127.311494784182955, 35.495671179384125 ], [ 127.313520478243817, 35.496659775373381 ], [ 127.319256807060185, 35.493474789334698 ], [ 127.325656131486951, 35.495711618186611 ], [ 127.333639117629033, 35.491891623627701 ], [ 127.341688422188781, 35.496601142468819 ], [ 127.352855368040565, 35.497403912155754 ], [ 127.355002645656086, 35.500819560799172 ], [ 127.357004410011214, 35.500950315434238 ], [ 127.355126378113027, 35.505617361594908 ], [ 127.364548658816034, 35.505913750451811 ], [ 127.370052506065534, 35.504298720494887 ], [ 127.372331541422056, 35.500903951644418 ], [ 127.374784079464916, 35.500917532625785 ], [ 127.381565004050827, 35.496444792622938 ], [ 127.386087118209019, 35.495735526505811 ], [ 127.387931087046596, 35.489577404087896 ], [ 127.391005412791458, 35.487087281673084 ], [ 127.390054403926271, 35.483212708519424 ], [ 127.391594838795484, 35.479095714057088 ], [ 127.395493505617978, 35.476892196413516 ], [ 127.396263974563396, 35.474154134190911 ], [ 127.394583017448497, 35.471122698368639 ], [ 127.396993969552582, 35.467841081003172 ] ] ] ] } },
{ "type": "Feature", "properties": { "emd_cd": "52190390", "emd_nm": "덕과면" }, "geometry": { "type": "MultiPolygon", "coordinates": [ [ [ [ 127.40667277279951, 35.511414169270658 ], [ 127.406680089846105, 35.511378597652659 ], [ 127.406510132054237, 35.511362764842644 ], [ 127.40667277279951, 35.511414169270658 ] ] ], [ [ [ 127.406510132054237, 35.511362764842644 ], [ 127.405807844612809, 35.509689389237899 ], [ 127.408244445776987, 35.509094816090382 ], [ 127.407978933487158, 35.50788664243499 ], [ 127.403856190606945, 35.505894117901015 ], [ 127.398427376502127, 35.497112795026474 ], [ 127.394265597904649, 35.496174492417708 ], [ 127.392950259048902, 35.491416636807536 ], [ 127.394015524072117, 35.490234882580033 ], [ 127.391005412791458, 35.487087281673084 ], [ 127.387931087046596, 35.489577404087896 ], [ 127.386087118209019, 35.495735526505811 ], [ 127.372331541422056, 35.500903951644418 ], [ 127.370052506065534, 35.504298720494887 ], [ 127.36302008118129, 35.50626415034538 ], [ 127.355126378113027, 35.505617361594908 ], [ 127.353752243883164, 35.513039113071414 ], [ 127.346002065130193, 35.517858912273688 ], [ 127.337670762137989, 35.525698007327051 ], [ 127.337738841399315, 35.527790820810907 ], [ 127.340184464218254, 35.527504973205573 ], [ 127.340606730853494, 35.525938959922485 ], [ 127.345460593330145, 35.527219463909539 ], [ 127.347321227649942, 35.534139410088947 ], [ 127.350132900492127, 35.535498935860218 ], [ 127.349698290465469, 35.540139745851846 ], [ 127.346867988075616, 35.542971712981618 ], [ 127.340789631164753, 35.543661837306011 ], [ 127.33713903725662, 35.547663647852886 ], [ 127.334399606120527, 35.547506423180103 ], [ 127.334628510382231, 35.552740595614033 ], [ 127.338828655176727, 35.554538131213704 ], [ 127.34335552416519, 35.551096584928295 ], [ 127.350166993057016, 35.55154055948401 ], [ 127.359272658414227, 35.558911278191253 ], [ 127.361419538617113, 35.557061653535065 ], [ 127.363653404703967, 35.558237175448625 ], [ 127.368680486296796, 35.555592622613958 ], [ 127.374035908668233, 35.550380496910748 ], [ 127.384091468348387, 35.546108875000627 ], [ 127.383321141819067, 35.542358290877843 ], [ 127.384963422547344, 35.539733352658232 ], [ 127.382499735249993, 35.535700124209377 ], [ 127.379464550619232, 35.535046117322182 ], [ 127.377362064170455, 35.53193070360372 ], [ 127.379673506762245, 35.526650006694439 ], [ 127.384347535272781, 35.523967496669307 ], [ 127.393492560136451, 35.52546676813742 ], [ 127.393068333961921, 35.519460947350318 ], [ 127.396244675725868, 35.519012953045646 ], [ 127.395922580628877, 35.517453543186285 ], [ 127.401157771324264, 35.51751261443794 ], [ 127.397370715929981, 35.515560399593518 ], [ 127.397088732084043, 35.512579384169079 ], [ 127.406510132054237, 35.511362764842644 ] ] ] ] } },
{ "type": "Feature", "properties": { "emd_cd": "52190400", "emd_nm": "보절면" }, "geometry": { "type": "MultiPolygon", "coordinates": [ [ [ [ 127.405871472576067, 35.511277346685425 ], [ 127.397088732084043, 35.512579384169079 ], [ 127.397370715929981, 35.515560399593518 ], [ 127.401157771324264, 35.51751261443794 ], [ 127.395922580628877, 35.517453543186285 ], [ 127.396244675725868, 35.519012953045646 ], [ 127.393068333961921, 35.519460947350318 ], [ 127.393492560136451, 35.52546676813742 ], [ 127.38205119546619, 35.524769866603833 ], [ 127.377362064170455, 35.53193070360372 ], [ 127.379464550619232, 35.535046117322182 ], [ 127.382499735249993, 35.535700124209377 ], [ 127.384963422547344, 35.539733352658232 ], [ 127.383321141819067, 35.542358290877843 ], [ 127.384469606679303, 35.54673763103002 ], [ 127.391416066269016, 35.545797639497593 ], [ 127.396833711380836, 35.548316812611894 ], [ 127.398188524053296, 35.547045970839754 ], [ 127.402644090488721, 35.548347157179926 ], [ 127.398119915553636, 35.552625534078466 ], [ 127.401348625545339, 35.55363346976835 ], [ 127.405588935857963, 35.56005740903619 ], [ 127.413443139387496, 35.560280700750525 ], [ 127.419926064841988, 35.552948100209974 ], [ 127.424134489141196, 35.55045334934411 ], [ 127.440209014913265, 35.551649471320331 ], [ 127.441246914160274, 35.547188320769123 ], [ 127.447169272883997, 35.544882678598469 ], [ 127.45278018599295, 35.540061389824245 ], [ 127.448915381155501, 35.531771315307338 ], [ 127.450127003144431, 35.525360202189319 ], [ 127.445601561327877, 35.522698548269105 ], [ 127.443320572390292, 35.517364114460698 ], [ 127.445207188932287, 35.510293094455989 ], [ 127.444426929572245, 35.505677437915757 ], [ 127.447821718773014, 35.502690098325253 ], [ 127.447238765302075, 35.499035270427591 ], [ 127.437544451934784, 35.494343295269523 ], [ 127.432817825595137, 35.485907855202996 ], [ 127.433090295649521, 35.482506475780539 ], [ 127.424075578035016, 35.478869367319795 ], [ 127.420517527767728, 35.473826154283465 ], [ 127.419564493587558, 35.468446329802362 ], [ 127.416056757032379, 35.467141304993831 ], [ 127.412387714294582, 35.468398763848015 ], [ 127.40223484644757, 35.464618081888581 ], [ 127.399758865038891, 35.461748808651414 ], [ 127.394583017448497, 35.471122698368639 ], [ 127.396263974563396, 35.474154134190911 ], [ 127.395493505617978, 35.476892196413516 ], [ 127.391594838795484, 35.479095714057088 ], [ 127.390152840052096, 35.484631847085787 ], [ 127.394015524072117, 35.490234882580033 ], [ 127.392950259048902, 35.491416636807536 ], [ 127.394265597904649, 35.496174492417708 ], [ 127.398427376502127, 35.497112795026474 ], [ 127.403856190606945, 35.505894117901015 ], [ 127.407978933487158, 35.50788664243499 ], [ 127.405871472576067, 35.511277346685425 ] ] ] ] } },
{ "type": "Feature", "properties": { "emd_cd": "52190410", "emd_nm": "산동면" }, "geometry": { "type": "MultiPolygon", "coordinates": [ [ [ [ 127.513916219375091, 35.480086973036926 ], [ 127.510980440367533, 35.480381598461335 ], [ 127.510066275608693, 35.478077040391263 ], [ 127.505345844429556, 35.476573769002052 ], [ 127.504390919021716, 35.473867493107029 ], [ 127.497510061352401, 35.473022946548454 ], [ 127.497890172784508, 35.463505914512886 ], [ 127.491947696606232, 35.462103344184335 ], [ 127.489696919188958, 35.458589581444215 ], [ 127.48462042863288, 35.457363536801807 ], [ 127.481387323904741, 35.460806570231696 ], [ 127.47258002161297, 35.461732198444217 ], [ 127.47194605901592, 35.464244049193688 ], [ 127.468403492927209, 35.463485869531198 ], [ 127.457904590408035, 35.466379782084886 ], [ 127.455461445724112, 35.468936048397318 ], [ 127.45311468416314, 35.468922878823641 ], [ 127.453740144563426, 35.469710795461516 ], [ 127.437761630901562, 35.461620102793496 ], [ 127.438798584607596, 35.460106563917613 ], [ 127.436228112895677, 35.457331676432872 ], [ 127.423969819186794, 35.460044496173218 ], [ 127.425131024423678, 35.462687961837062 ], [ 127.419570271810855, 35.465435254644547 ], [ 127.418410310386903, 35.468096625020955 ], [ 127.424075578035016, 35.478869367319795 ], [ 127.433090295649521, 35.482506475780539 ], [ 127.432817825595137, 35.485907855202996 ], [ 127.437544451934784, 35.494343295269523 ], [ 127.447238765302075, 35.499035270427591 ], [ 127.447821718773014, 35.502690098325253 ], [ 127.444426929572245, 35.505677437915757 ], [ 127.445207188932287, 35.510293094455989 ], [ 127.443320572390292, 35.517364114460698 ], [ 127.445601561327877, 35.522698548269105 ], [ 127.450127003144431, 35.525360202189319 ], [ 127.448915381155501, 35.531771315307338 ], [ 127.456239229454098, 35.546531230231373 ], [ 127.45950623888308, 35.545285490251395 ], [ 127.467524842511622, 35.546397958962402 ], [ 127.470948135203585, 35.540817719790482 ], [ 127.476502374171488, 35.538417040159601 ], [ 127.482589443507806, 35.538905832838296 ], [ 127.492421212328196, 35.534126485646006 ], [ 127.491313150921982, 35.527076998341656 ], [ 127.495980865888981, 35.522613643905665 ], [ 127.50163534419417, 35.521716314475626 ], [ 127.501082302402367, 35.518247922515101 ], [ 127.503592168572595, 35.514576932157702 ], [ 127.513377299035724, 35.508891659807844 ], [ 127.513209672760055, 35.501777834655655 ], [ 127.515245363416213, 35.50143940086393 ], [ 127.517148308661277, 35.498461798151098 ], [ 127.515150186291137, 35.497865563649832 ], [ 127.519892535334407, 35.498390805574331 ], [ 127.522032833710526, 35.496270080930756 ], [ 127.527252669675391, 35.495765699060684 ], [ 127.528268359585169, 35.491034291047924 ], [ 127.52688954135715, 35.490057939127254 ], [ 127.5267215265022, 35.485771464757853 ], [ 127.513916219375091, 35.480086973036926 ] ] ] ] } },
{ "type": "Feature", "properties": { "emd_cd": "52190420", "emd_nm": "이백면" }, "geometry": { "type": "MultiPolygon", "coordinates": [ [ [ [ 127.453740144563426, 35.469710795461516 ], [ 127.45311468416314, 35.468922878823641 ], [ 127.455461445724112, 35.468936048397318 ], [ 127.457904590408035, 35.466379782084886 ], [ 127.468403492927209, 35.463485869531198 ], [ 127.47194605901592, 35.464244049193688 ], [ 127.47258002161297, 35.461732198444217 ], [ 127.481387323904741, 35.460806570231696 ], [ 127.484114176301318, 35.457324724069963 ], [ 127.485955212048239, 35.457573390339995 ], [ 127.488420591489884, 35.454077786091247 ], [ 127.487897941233143, 35.451889554769245 ], [ 127.493576881542992, 35.451993009807389 ], [ 127.495202297701084, 35.449398786965382 ], [ 127.500040140754109, 35.448757233680894 ], [ 127.500932667454293, 35.446632740941958 ], [ 127.499198040185433, 35.439927630635111 ], [ 127.4952076599658, 35.434379215203727 ], [ 127.499190656763489, 35.431449944965998 ], [ 127.498376684324995, 35.423234729722715 ], [ 127.501438735829339, 35.416033489155005 ], [ 127.498073991259147, 35.413759417634346 ], [ 127.495752512248231, 35.407783748514788 ], [ 127.488305314381549, 35.406382430783793 ], [ 127.48575935162107, 35.402843931323062 ], [ 127.479466299508232, 35.400064010554942 ], [ 127.474394536446994, 35.395373347065949 ], [ 127.46872024314797, 35.396379341124288 ], [ 127.464773680386983, 35.400761571441528 ], [ 127.460456707985955, 35.401078124049356 ], [ 127.4581048713288, 35.403673386967263 ], [ 127.450217295598492, 35.406432288699456 ], [ 127.445632154159341, 35.406224233296271 ], [ 127.44144777689344, 35.409516542148147 ], [ 127.434643310251332, 35.409390266649432 ], [ 127.425903261261794, 35.406294861425373 ], [ 127.421229279368134, 35.40738447352922 ], [ 127.41888909234433, 35.410319611561846 ], [ 127.414930612435739, 35.410434858422207 ], [ 127.412175467304507, 35.415593777227407 ], [ 127.408358521148273, 35.413668351359171 ], [ 127.404358415149218, 35.41538631599451 ], [ 127.403953852174837, 35.417904235195209 ], [ 127.408726166822035, 35.419299126378291 ], [ 127.418381273188501, 35.432037380695661 ], [ 127.430910595204935, 35.441332373978554 ], [ 127.435494987624367, 35.457487139158623 ], [ 127.438798584607596, 35.460106563917613 ], [ 127.437761630901562, 35.461620102793496 ], [ 127.453740144563426, 35.469710795461516 ] ] ] ] } },
{ "type": "Feature", "properties": { "emd_cd": "52190450", "emd_nm": "아영면" }, "geometry": { "type": "MultiPolygon", "coordinates": [ [ [ [ 127.578154469225737, 35.46290996991133 ], [ 127.57326407405462, 35.468743090692577 ], [ 127.573404913424881, 35.470545730604933 ], [ 127.565922590747149, 35.473119536407296 ], [ 127.563950773495804, 35.472544785126793 ], [ 127.562750815916971, 35.472747970895817 ], [ 127.561905590558737, 35.473082438845395 ], [ 127.561715885219954, 35.473212736263719 ], [ 127.562337226872529, 35.476147614663617 ], [ 127.559619344421705, 35.480102477013951 ], [ 127.562268887273831, 35.483554408423643 ], [ 127.563588245185827, 35.492621204408543 ], [ 127.567713398539112, 35.493309384566693 ], [ 127.580132266993772, 35.502014363360942 ], [ 127.580007573636522, 35.513927100711733 ], [ 127.578491910918586, 35.516033752568532 ], [ 127.571118319530683, 35.518880638553597 ], [ 127.570133260651005, 35.523821392859695 ], [ 127.568496650230529, 35.52478984942865 ], [ 127.568629190391462, 35.533278650030574 ], [ 127.571496755222526, 35.534706220604072 ], [ 127.572814549592763, 35.546139288595612 ], [ 127.5785231251852, 35.547539907579704 ], [ 127.584860940636844, 35.553905556146447 ], [ 127.590709676140975, 35.554043880394758 ], [ 127.594124039176194, 35.547986111216211 ], [ 127.59862823573134, 35.547588263644904 ], [ 127.60045828443549, 35.545048293198853 ], [ 127.60653070982822, 35.542856374459667 ], [ 127.61207429615105, 35.535929670565068 ], [ 127.619151613967148, 35.536600920361408 ], [ 127.620702787320283, 35.533838417481256 ], [ 127.622833894045883, 35.533672229307818 ], [ 127.628693427020409, 35.535984741238444 ], [ 127.628807000918428, 35.533718872399518 ], [ 127.625329924205019, 35.531402644747821 ], [ 127.625213429545127, 35.525774212415506 ], [ 127.631079350039755, 35.520463773534807 ], [ 127.634423011652643, 35.520214248808486 ], [ 127.634575032822099, 35.516885014801218 ], [ 127.633059076045342, 35.515268407943097 ], [ 127.637002174594002, 35.509050042403437 ], [ 127.631789505291778, 35.507342444621315 ], [ 127.613774309813337, 35.507125413746934 ], [ 127.610416186236577, 35.498081942336214 ], [ 127.60736438257868, 35.495970268002196 ], [ 127.59939176763281, 35.474691552773663 ], [ 127.595705525854783, 35.475605957363243 ], [ 127.590276015464568, 35.474235728691873 ], [ 127.586880651649423, 35.468953603339997 ], [ 127.58740970550528, 35.464508203557124 ], [ 127.578154469225737, 35.46290996991133 ] ] ] ] } },
{ "type": "Feature", "properties": { "emd_cd": "52190460", "emd_nm": "산내면" }, "geometry": { "type": "MultiPolygon", "coordinates": [ [ [ [ 127.51398655233362, 35.351134869726664 ], [ 127.520185887084665, 35.359163925222987 ], [ 127.524359104468203, 35.369253327286543 ], [ 127.535141567021, 35.377090710101015 ], [ 127.541378104332608, 35.37711970612974 ], [ 127.552329143138266, 35.381687190319965 ], [ 127.553509288205206, 35.386686977254165 ], [ 127.564681298679162, 35.40159187298039 ], [ 127.564456873489974, 35.411424764282032 ], [ 127.567803250281841, 35.414059587342933 ], [ 127.570939753280683, 35.420617703293814 ], [ 127.576131291480507, 35.421932020279115 ], [ 127.584504033699119, 35.417763773345271 ], [ 127.588876254729357, 35.418511792788379 ], [ 127.594650907654582, 35.416804906676361 ], [ 127.597291528425217, 35.417847925240665 ], [ 127.612201146549708, 35.432803750577911 ], [ 127.612551868498585, 35.434038437680073 ], [ 127.608025333909083, 35.43581473248593 ], [ 127.609358256277659, 35.439567406823592 ], [ 127.618508777762969, 35.447716056544621 ], [ 127.638956381632354, 35.44506074687984 ], [ 127.647527620555209, 35.450918487660566 ], [ 127.653389011678598, 35.451583901976306 ], [ 127.661156762358644, 35.447543569052009 ], [ 127.67044607125402, 35.448723797207577 ], [ 127.674069404647625, 35.445720068463984 ], [ 127.670681674273737, 35.439621286720403 ], [ 127.665176615661608, 35.435648887866236 ], [ 127.665774404675261, 35.4274262716362 ], [ 127.663552432068329, 35.426213831587383 ], [ 127.660473796028853, 35.414433685537155 ], [ 127.656837140907385, 35.413920744089545 ], [ 127.646446655189877, 35.402664168715198 ], [ 127.636915525708957, 35.401038788714445 ], [ 127.625286744289326, 35.384701703951968 ], [ 127.625653452589233, 35.376910853585564 ], [ 127.621288515284945, 35.372224249204081 ], [ 127.610757980602173, 35.366953519522575 ], [ 127.612236277046378, 35.355850308736855 ], [ 127.61583557640914, 35.349970922656382 ], [ 127.620596048429633, 35.347253765924606 ], [ 127.623330483192419, 35.342165999682244 ], [ 127.620739125133554, 35.332491245392184 ], [ 127.615135767339751, 35.330728506139842 ], [ 127.607685233011821, 35.325044356019475 ], [ 127.604780293948892, 35.318374664576311 ], [ 127.585667150935194, 35.30914402850059 ], [ 127.577480734067535, 35.308901114083014 ], [ 127.57259710887466, 35.312076109408416 ], [ 127.566971442636657, 35.318997122332782 ], [ 127.554851858926114, 35.321978633468035 ], [ 127.552292508409693, 35.324807274536909 ], [ 127.542282634343309, 35.328500204774819 ], [ 127.541520224642696, 35.333650691058132 ], [ 127.530960340029296, 35.336040478762627 ], [ 127.525483588711424, 35.34403270366338 ], [ 127.516650679209505, 35.347285902872187 ], [ 127.51398655233362, 35.351134869726664 ] ] ] ] } },
{ "type": "Feature", "properties": { "emd_cd": "52190470", "emd_nm": "인월면" }, "geometry": { "type": "MultiPolygon", "coordinates": [ [ [ [ 127.576131291480507, 35.421932020279115 ], [ 127.584050146630602, 35.433088562250894 ], [ 127.581212796861976, 35.437317723048743 ], [ 127.582181397171155, 35.444198508412889 ], [ 127.584201557098964, 35.447359759909801 ], [ 127.584013029746316, 35.452988060948655 ], [ 127.580265071400731, 35.454746444076214 ], [ 127.578866286212005, 35.458886146501186 ], [ 127.575807775384334, 35.456954201900281 ], [ 127.576590776288441, 35.462205290897337 ], [ 127.58740970550528, 35.464508203557124 ], [ 127.586880651649423, 35.468953603339997 ], [ 127.590276015464568, 35.474235728691873 ], [ 127.595705525854783, 35.475605957363243 ], [ 127.59939176763281, 35.474691552773663 ], [ 127.60736438257868, 35.495970268002196 ], [ 127.610416186236577, 35.498081942336214 ], [ 127.613774309813337, 35.507125413746934 ], [ 127.631789505291778, 35.507342444621315 ], [ 127.637002174594002, 35.509050042403437 ], [ 127.639427258077461, 35.507548349227861 ], [ 127.64431274953705, 35.499018033718848 ], [ 127.650387985563398, 35.497899807279197 ], [ 127.649997183767525, 35.491328015605049 ], [ 127.653106784453826, 35.486868735173786 ], [ 127.636608490592309, 35.478208339562258 ], [ 127.637888399984547, 35.47023986328044 ], [ 127.635733436550112, 35.468813262136678 ], [ 127.636920719088565, 35.466003599920363 ], [ 127.635676506767339, 35.462243686689618 ], [ 127.645186238836573, 35.449127293024105 ], [ 127.642280694180542, 35.448494432610559 ], [ 127.638956381632354, 35.44506074687984 ], [ 127.61798098554253, 35.447400505969938 ], [ 127.609358256277659, 35.439567406823592 ], [ 127.608025333909083, 35.43581473248593 ], [ 127.612551868498585, 35.434038437680073 ], [ 127.609760033266255, 35.429414406730501 ], [ 127.605133453435286, 35.426848150629382 ], [ 127.595178118631608, 35.416920386429325 ], [ 127.588876254729357, 35.418511792788379 ], [ 127.584504033699119, 35.417763773345271 ], [ 127.576131291480507, 35.421932020279115 ] ] ] ] } }
]
}
