{
"type": "FeatureCollection",
"name": "52720",
"crs": { "type": "name", "properties": { "name": "urn:ogc:def:crs:OGC:1.3:CRS84" } },
"features": [
{ "type": "Feature", "properties": { "emd_cd": "52720250", "emd_nm": "진안읍" }, "geometry": { "type": "MultiPolygon", "coordinates": [ [ [ [ 127.359895709553825, 35.7755187732363 ], [ 127.361120216484068, 35.776900294023136 ], [ 127.363967578716711, 35.776401056799365 ], [ 127.366056916366219, 35.780357561423124 ], [ 127.362991816135349, 35.785117292945465 ], [ 127.3656437220763, 35.790470446115258 ], [ 127.364761570024115, 35.792908256332609 ], [ 127.357567142362655, 35.798902931164093 ], [ 127.362259182082724, 35.805025613622377 ], [ 127.371485819430717, 35.800956567028521 ], [ 127.379092779782056, 35.810397565104573 ], [ 127.385746892196693, 35.808239201307785 ], [ 127.399151057180944, 35.809317431615533 ], [ 127.404872291723422, 35.812036654188979 ], [ 127.410427440504122, 35.81880102307445 ], [ 127.415014301573578, 35.819273392612757 ], [ 127.417974185795401, 35.823238250698438 ], [ 127.424004808119989, 35.824027793691293 ], [ 127.425250489657756, 35.828520158427587 ], [ 127.431598939633048, 35.834447069938555 ], [ 127.435430437396604, 35.832068763881431 ], [ 127.448612387003166, 35.832630499062901 ], [ 127.452303997723192, 35.834118496747905 ], [ 127.459912060392185, 35.82676998303068 ], [ 127.463153938327793, 35.826088715912697 ], [ 127.46467318174922, 35.82293648956761 ], [ 127.467424843195687, 35.823246184161825 ], [ 127.468702049934365, 35.821881004250564 ], [ 127.465699703827255, 35.816177648135373 ], [ 127.467495240687413, 35.814804510759672 ], [ 127.462690560280947, 35.80822096463649 ], [ 127.468060716690815, 35.805824013940729 ], [ 127.46961458000311, 35.802002207231929 ], [ 127.473584028100206, 35.801820324698255 ], [ 127.477750596402672, 35.796112103423567 ], [ 127.485401419440578, 35.791275186135231 ], [ 127.488109517436186, 35.786309305168047 ], [ 127.493233138954764, 35.787440655317823 ], [ 127.500347139411119, 35.792954329290183 ], [ 127.501329895760989, 35.79694719216895 ], [ 127.496806776310493, 35.805477270440718 ], [ 127.499092331593346, 35.81614642992092 ], [ 127.508036959222878, 35.817371813321181 ], [ 127.50698414188922, 35.82124142829452 ], [ 127.511619693527862, 35.82202414051519 ], [ 127.513872239590398, 35.825743461476435 ], [ 127.513611197253155, 35.828758527151102 ], [ 127.52099360137079, 35.82823160336379 ], [ 127.521517819877204, 35.822125518721045 ], [ 127.51818183366143, 35.819767895960354 ], [ 127.518319375107311, 35.817914951778356 ], [ 127.522721638446185, 35.813063807476183 ], [ 127.519407501474774, 35.809606050665877 ], [ 127.51837128438892, 35.80297552360657 ], [ 127.513257490054585, 35.799535154016333 ], [ 127.51081107646192, 35.791601930072005 ], [ 127.512656005806249, 35.790220707408771 ], [ 127.513359367969215, 35.786379857407326 ], [ 127.511089252529231, 35.777703690352119 ], [ 127.51361246212781, 35.773735104603112 ], [ 127.51284918086975, 35.771186073404856 ], [ 127.517406932843798, 35.767454067353341 ], [ 127.519113660555675, 35.758397795883823 ], [ 127.522758564836735, 35.756402400611279 ], [ 127.522457723999025, 35.754314924211251 ], [ 127.519543028127742, 35.750231603297003 ], [ 127.508764098951104, 35.746926340773626 ], [ 127.504484963868094, 35.74222226216186 ], [ 127.491997542923826, 35.734467721481543 ], [ 127.487702112079958, 35.727215049455623 ], [ 127.484295250617478, 35.7254217519992 ], [ 127.48355580478875, 35.722433806514196 ], [ 127.481383839710873, 35.721105423860202 ], [ 127.478594288817916, 35.721327464683569 ], [ 127.474474645043685, 35.727489921004064 ], [ 127.463789370035869, 35.731084175397591 ], [ 127.457623935681582, 35.725038000636431 ], [ 127.435229621544934, 35.729963088521139 ], [ 127.432779371912218, 35.72829890404487 ], [ 127.427096126601725, 35.730353366553551 ], [ 127.424328803675564, 35.727976728538223 ], [ 127.424457731604292, 35.726152744712714 ], [ 127.419109420784963, 35.723970895768062 ], [ 127.409206238469494, 35.733405753127009 ], [ 127.40857236423264, 35.739625802400163 ], [ 127.406015285632321, 35.743702496822884 ], [ 127.402079419202906, 35.745277945518545 ], [ 127.397509708324321, 35.744325473702148 ], [ 127.398802658375487, 35.74710840904369 ], [ 127.397884747664278, 35.750319603117177 ], [ 127.401132991527064, 35.75411698735504 ], [ 127.405724912305118, 35.750074210294407 ], [ 127.409388221660379, 35.750282842363752 ], [ 127.414878947553845, 35.757658989122909 ], [ 127.41714448273359, 35.758558594271548 ], [ 127.416884454074875, 35.761634967137319 ], [ 127.405703982738672, 35.759721991407801 ], [ 127.405567282191171, 35.763507296013387 ], [ 127.401567131313371, 35.76305616929055 ], [ 127.399498809626067, 35.76450925047628 ], [ 127.387868207312764, 35.762308497266986 ], [ 127.388311092449314, 35.756477135946241 ], [ 127.383939598621865, 35.753774604302052 ], [ 127.38195131018891, 35.75337401802026 ], [ 127.381337833538254, 35.756617648263806 ], [ 127.376249733663812, 35.758684456983318 ], [ 127.365913865033008, 35.756349122471903 ], [ 127.364014020560333, 35.760084379179268 ], [ 127.365486746032488, 35.760919660773574 ], [ 127.365226689569027, 35.761435804852681 ], [ 127.360802950279748, 35.763131046796786 ], [ 127.359895709553825, 35.7755187732363 ] ] ] ] } },
{ "type": "Feature", "properties": { "emd_cd": "52720310", "emd_nm": "용담면" }, "geometry": { "type": "MultiPolygon", "coordinates": [ [ [ [ 127.499011336824978, 35.928129685875639 ], [ 127.491819874531799, 35.923771145280284 ], [ 127.488144056595956, 35.924105857048694 ], [ 127.484636799434654, 35.922128323233572 ], [ 127.479455785138086, 35.923795877061487 ], [ 127.466588132897826, 35.913099119465997 ], [ 127.46094067290035, 35.912808981016575 ], [ 127.457283772217664, 35.906027786915509 ], [ 127.452831245363029, 35.90676992569098 ], [ 127.446236001310027, 35.917640460718751 ], [ 127.441971124986736, 35.919641667880576 ], [ 127.440231235718372, 35.926204702027469 ], [ 127.443478188406615, 35.926042169795942 ], [ 127.449242603845775, 35.931107189634382 ], [ 127.447029783522183, 35.933497588080009 ], [ 127.451243490412182, 35.939355011755381 ], [ 127.447876835383639, 35.94500475009248 ], [ 127.445071548650787, 35.946679311443859 ], [ 127.445434868236319, 35.949086182430669 ], [ 127.442386641264207, 35.955762079095386 ], [ 127.447917054673681, 35.955944834701128 ], [ 127.449194251288688, 35.958265816128595 ], [ 127.452483116669598, 35.95858598233545 ], [ 127.454879717611931, 35.96124659719186 ], [ 127.454803120772297, 35.966101944848369 ], [ 127.451370015422668, 35.967823837376308 ], [ 127.45081123088363, 35.972569710686656 ], [ 127.452036115410465, 35.978081475608931 ], [ 127.45508060765853, 35.979848801391931 ], [ 127.455822485013755, 35.983813397653194 ], [ 127.463942112115447, 35.983931690559864 ], [ 127.466258262606971, 35.987986561046831 ], [ 127.468320529395172, 35.987958177786446 ], [ 127.475759102440506, 35.980680784117887 ], [ 127.485192923921929, 35.979998381565636 ], [ 127.487761369092084, 35.978324787844713 ], [ 127.494447540098093, 35.986180999319437 ], [ 127.499353314799947, 35.987384724265418 ], [ 127.502001268003724, 35.986213035870946 ], [ 127.502468709329847, 35.983580642049539 ], [ 127.506664885498125, 35.979649149934843 ], [ 127.508886921638492, 35.979807121511179 ], [ 127.509895118973233, 35.982157596395531 ], [ 127.519752598182379, 35.983279905297259 ], [ 127.523685564392764, 35.985608174232347 ], [ 127.527015454865733, 35.98295036160895 ], [ 127.527895115568484, 35.977494176144774 ], [ 127.536935954722495, 35.978142983104867 ], [ 127.537394819230926, 35.976214443913733 ], [ 127.533784025741966, 35.971171438709909 ], [ 127.536574551865726, 35.970825991078833 ], [ 127.53939250336532, 35.965204576379264 ], [ 127.546556016918544, 35.96015168832237 ], [ 127.545808883989721, 35.958084613579352 ], [ 127.547842111231773, 35.954228059840275 ], [ 127.550231327307316, 35.953746361716725 ], [ 127.552301170796724, 35.947447935509125 ], [ 127.554876224863762, 35.946885597276093 ], [ 127.553522171094727, 35.94384867280499 ], [ 127.544083304801688, 35.945198097042358 ], [ 127.534502339384574, 35.951419271026452 ], [ 127.530474440838617, 35.949689979418721 ], [ 127.529338966052862, 35.953456251117018 ], [ 127.526620687218426, 35.953818282263889 ], [ 127.52328027072835, 35.942022239105377 ], [ 127.524806583788035, 35.941121822951331 ], [ 127.524354951748677, 35.936653055819228 ], [ 127.520569932186163, 35.932451509773344 ], [ 127.523752567504033, 35.927769577784829 ], [ 127.513110355082276, 35.929486312710807 ], [ 127.513123093187929, 35.926890083732395 ], [ 127.519183513966169, 35.916383812622179 ], [ 127.518322221736625, 35.910778821414873 ], [ 127.513504732933299, 35.912952740988928 ], [ 127.509166768991221, 35.919391346632651 ], [ 127.497040908641225, 35.921152998271687 ], [ 127.500145112743127, 35.924469366105711 ], [ 127.499011336824978, 35.928129685875639 ] ] ] ] } },
{ "type": "Feature", "properties": { "emd_cd": "52720320", "emd_nm": "안천면" }, "geometry": { "type": "MultiPolygon", "coordinates": [ [ [ [ 127.574651931900732, 35.878958688363916 ], [ 127.56581181183364, 35.872128192631692 ], [ 127.564684088309477, 35.868463913710642 ], [ 127.55684320959007, 35.867838819228439 ], [ 127.555879115999275, 35.858446210169816 ], [ 127.550520596037913, 35.855045387313638 ], [ 127.539245007641142, 35.85651922630349 ], [ 127.533319117228118, 35.86623441683561 ], [ 127.527763417783206, 35.868656007117188 ], [ 127.529605419630087, 35.873685107581288 ], [ 127.52612886174164, 35.877928131799351 ], [ 127.527764596724239, 35.884876671559759 ], [ 127.529803392822544, 35.889063104316996 ], [ 127.531397861039054, 35.889172952095002 ], [ 127.529083327358563, 35.891854718287384 ], [ 127.530992968214548, 35.896474517672267 ], [ 127.52942740299234, 35.899755294258753 ], [ 127.523047374301456, 35.899410169950677 ], [ 127.522611420223512, 35.902301652530092 ], [ 127.525706034502804, 35.906343053770122 ], [ 127.52463675356779, 35.910525034183664 ], [ 127.520429770398181, 35.914279984298915 ], [ 127.520008080861871, 35.917167838473837 ], [ 127.519183513966169, 35.916383812622179 ], [ 127.512871421614491, 35.928058561007724 ], [ 127.513110355082276, 35.929486312710807 ], [ 127.523752567504033, 35.927769577784829 ], [ 127.520569932186163, 35.932451509773344 ], [ 127.524354951748677, 35.936653055819228 ], [ 127.524806583788035, 35.941121822951331 ], [ 127.52328027072835, 35.942022239105377 ], [ 127.525654127229231, 35.952875141718984 ], [ 127.527312958977987, 35.954344088931272 ], [ 127.529338966052862, 35.953456251117018 ], [ 127.530474440838617, 35.949689979418721 ], [ 127.534502339384574, 35.951419271026452 ], [ 127.544083304801688, 35.945198097042358 ], [ 127.553214014961952, 35.943541330527331 ], [ 127.552953766580629, 35.93747261355356 ], [ 127.548564779347501, 35.933063140346064 ], [ 127.553945365763511, 35.923361365829514 ], [ 127.555838607395174, 35.922221861778745 ], [ 127.563159678277358, 35.922811773093741 ], [ 127.567257871511828, 35.918252010450004 ], [ 127.568844093674542, 35.912190463002119 ], [ 127.57495243863579, 35.910024321549834 ], [ 127.579045921649367, 35.905442816032021 ], [ 127.581469987782185, 35.905790912079773 ], [ 127.581747109286439, 35.902403264108443 ], [ 127.584984710642033, 35.897274999280853 ], [ 127.580825673538214, 35.891628321598752 ], [ 127.580663836115264, 35.888861785627043 ], [ 127.578118061598786, 35.888917960497388 ], [ 127.574651931900732, 35.878958688363916 ] ] ] ] } },
{ "type": "Feature", "properties": { "emd_cd": "52720330", "emd_nm": "동향면" }, "geometry": { "type": "MultiPolygon", "coordinates": [ [ [ [ 127.51818183366143, 35.819767895960354 ], [ 127.521517819877204, 35.822125518721045 ], [ 127.521264029961458, 35.829263599905815 ], [ 127.530529623385121, 35.831677306917967 ], [ 127.531190192256844, 35.836361002166399 ], [ 127.536520451363572, 35.841173199735415 ], [ 127.538046224327061, 35.846219328282025 ], [ 127.536028125864121, 35.852558916501444 ], [ 127.540487655050214, 35.855807070534979 ], [ 127.550520596037913, 35.855045387313638 ], [ 127.553658578976126, 35.856426301975951 ], [ 127.556489601427657, 35.859694559320538 ], [ 127.55684320959007, 35.867838819228439 ], [ 127.564684088309477, 35.868463913710642 ], [ 127.56581181183364, 35.872128192631692 ], [ 127.574651931900732, 35.878958688363916 ], [ 127.58243487218904, 35.875312930366384 ], [ 127.590637575417531, 35.87833905181661 ], [ 127.593200645308173, 35.881779474520471 ], [ 127.602124453419961, 35.880807872181009 ], [ 127.597914389744275, 35.877489673129887 ], [ 127.599218223628498, 35.87228566568875 ], [ 127.603847352566831, 35.868859709330067 ], [ 127.603450863818225, 35.867103122536307 ], [ 127.605371857688695, 35.865258672259174 ], [ 127.608392748690719, 35.865516910847404 ], [ 127.608626705421571, 35.861990278771856 ], [ 127.612738248271341, 35.858464086681757 ], [ 127.615741524653544, 35.859955316084793 ], [ 127.617638247718517, 35.859239479498491 ], [ 127.621390611646589, 35.850251196485488 ], [ 127.624858865528267, 35.847386391731057 ], [ 127.61905027981048, 35.840856998746908 ], [ 127.619960206206855, 35.838943259435965 ], [ 127.609745606029904, 35.833429356505484 ], [ 127.605240280090271, 35.827561701975675 ], [ 127.600231698830328, 35.805824174513418 ], [ 127.598378876976909, 35.805303980429038 ], [ 127.59459254224447, 35.808512123396966 ], [ 127.591082499263507, 35.805950647899117 ], [ 127.59190782582462, 35.802853255032943 ], [ 127.589352328364441, 35.800661662427999 ], [ 127.585560694334916, 35.800903659089649 ], [ 127.585370052088919, 35.797770286351465 ], [ 127.578663111607298, 35.793869216692009 ], [ 127.576453815639482, 35.795334301810726 ], [ 127.571014158959173, 35.792880965573787 ], [ 127.567265125686845, 35.797604649335 ], [ 127.562773990785487, 35.799356250694075 ], [ 127.559829259150433, 35.79866922601601 ], [ 127.553560105996041, 35.808052324399014 ], [ 127.549972833002258, 35.805735820464356 ], [ 127.544546985013966, 35.807743495476075 ], [ 127.542934126777396, 35.806763168888402 ], [ 127.541144969849341, 35.810258153673622 ], [ 127.533142067446548, 35.815301789817596 ], [ 127.522721638446185, 35.813063807476183 ], [ 127.518658388936004, 35.816455227201395 ], [ 127.51818183366143, 35.819767895960354 ] ] ] ] } },
{ "type": "Feature", "properties": { "emd_cd": "52720340", "emd_nm": "상전면" }, "geometry": { "type": "MultiPolygon", "coordinates": [ [ [ [ 127.536520451363572, 35.841173199735415 ], [ 127.531190192256844, 35.836361002166399 ], [ 127.530529623385121, 35.831677306917967 ], [ 127.524071495960854, 35.830814764740978 ], [ 127.52099360137079, 35.82823160336379 ], [ 127.513611197253155, 35.828758527151102 ], [ 127.513872239590398, 35.825743461476435 ], [ 127.511619693527862, 35.82202414051519 ], [ 127.50698414188922, 35.82124142829452 ], [ 127.508036959222878, 35.817371813321181 ], [ 127.499092331593346, 35.81614642992092 ], [ 127.496806776310493, 35.805477270440718 ], [ 127.501329895760989, 35.79694719216895 ], [ 127.500347139411119, 35.792954329290183 ], [ 127.499208040204095, 35.790818377536993 ], [ 127.490553414330833, 35.786523540281685 ], [ 127.487214135549394, 35.786651786115705 ], [ 127.485401419440578, 35.791275186135231 ], [ 127.477750596402672, 35.796112103423567 ], [ 127.473910864409348, 35.801534129342841 ], [ 127.46961458000311, 35.802002207231929 ], [ 127.468060716690815, 35.805824013940729 ], [ 127.462690560280947, 35.80822096463649 ], [ 127.467495240687413, 35.814804510759672 ], [ 127.465699703827255, 35.816177648135373 ], [ 127.468702049934365, 35.821881004250564 ], [ 127.46373687961372, 35.82362896069597 ], [ 127.463153938327793, 35.826088715912697 ], [ 127.459912060392185, 35.82676998303068 ], [ 127.453698984497478, 35.83328385914249 ], [ 127.458464045674461, 35.834855025787476 ], [ 127.459479748264513, 35.836893566423804 ], [ 127.463941715907836, 35.836744771941497 ], [ 127.465582912092444, 35.840344299951511 ], [ 127.463308238787334, 35.84322006814979 ], [ 127.462927350376987, 35.851570930919458 ], [ 127.461134963723225, 35.853250783203684 ], [ 127.456590728952591, 35.853741835908778 ], [ 127.456271755294722, 35.856856253368925 ], [ 127.464262870656739, 35.859605390217745 ], [ 127.466165466792972, 35.864538163014117 ], [ 127.476755887882447, 35.872037167815783 ], [ 127.477167644805604, 35.874517716436316 ], [ 127.483033164662956, 35.874588562614136 ], [ 127.488135071776966, 35.876651156658092 ], [ 127.480809315371005, 35.884387601783686 ], [ 127.487430022771193, 35.887806600265797 ], [ 127.501165449690646, 35.898664574369398 ], [ 127.501538552670823, 35.900552337511115 ], [ 127.496045447458997, 35.906080988949192 ], [ 127.495729896260883, 35.908397776512167 ], [ 127.511968190709169, 35.892929590718964 ], [ 127.515389628497601, 35.893210333707444 ], [ 127.52158653871021, 35.899125777081217 ], [ 127.5296006148955, 35.899490958696433 ], [ 127.530992968214548, 35.896474517672267 ], [ 127.529083327358563, 35.891854718287384 ], [ 127.531397861039054, 35.889172952095002 ], [ 127.529803392822544, 35.889063104316996 ], [ 127.527764596724239, 35.884876671559759 ], [ 127.52631399094787, 35.876336509137026 ], [ 127.529605419630087, 35.873685107581288 ], [ 127.527763417783206, 35.868656007117188 ], [ 127.533319117228118, 35.86623441683561 ], [ 127.540487655050214, 35.855807070534979 ], [ 127.536028125864121, 35.852558916501444 ], [ 127.538046224327061, 35.846219328282025 ], [ 127.536520451363572, 35.841173199735415 ] ] ] ] } },
{ "type": "Feature", "properties": { "emd_cd": "52720350", "emd_nm": "백운면" }, "geometry": { "type": "MultiPolygon", "coordinates": [ [ [ [ 127.368942685821665, 35.695819163853834 ], [ 127.376369789744842, 35.70092751897581 ], [ 127.381304838181677, 35.709262709446151 ], [ 127.383497538017409, 35.710283284178253 ], [ 127.387374952295644, 35.70922172490431 ], [ 127.39150171753802, 35.711688784709601 ], [ 127.392239335756102, 35.715332529091135 ], [ 127.39029792487716, 35.71729560524858 ], [ 127.392067285893319, 35.72091606440145 ], [ 127.390396774223802, 35.725333454280602 ], [ 127.401453060541385, 35.730307661396132 ], [ 127.402211780001721, 35.7318745034082 ], [ 127.404447623612626, 35.731060353597115 ], [ 127.4094188702135, 35.733334788162324 ], [ 127.419796745713512, 35.723926320395421 ], [ 127.424457731604292, 35.726152744712714 ], [ 127.424328803675564, 35.727976728538223 ], [ 127.427096126601725, 35.730353366553551 ], [ 127.432779371912218, 35.72829890404487 ], [ 127.435229621544934, 35.729963088521139 ], [ 127.44114604083309, 35.728907663571796 ], [ 127.454141448335562, 35.725130921410425 ], [ 127.457623935681582, 35.725038000636431 ], [ 127.463789370035869, 35.731084175397591 ], [ 127.474474645043685, 35.727489921004064 ], [ 127.478594288817916, 35.721327464683569 ], [ 127.476054712252918, 35.718448985536732 ], [ 127.478449799753378, 35.706205346210126 ], [ 127.477758702129506, 35.702453928178073 ], [ 127.472018552715753, 35.696922540694601 ], [ 127.46488365335324, 35.693043120690547 ], [ 127.466870329213265, 35.684839296654737 ], [ 127.464332245013694, 35.678898451834392 ], [ 127.460748378973392, 35.676506270203589 ], [ 127.459533710937578, 35.673316083839097 ], [ 127.463933029283567, 35.669591505425316 ], [ 127.464196635388049, 35.66759310176792 ], [ 127.476584875121361, 35.661154497871557 ], [ 127.477688417996333, 35.658585992381994 ], [ 127.474071962861402, 35.654671612610024 ], [ 127.473891604665326, 35.647108667806521 ], [ 127.470165709106595, 35.6445023803482 ], [ 127.466419357749729, 35.637527991779947 ], [ 127.470111927795756, 35.628847145554033 ], [ 127.468724445269316, 35.621367268174517 ], [ 127.465758745788762, 35.620675368729756 ], [ 127.46207387222816, 35.622207287079853 ], [ 127.453846136758358, 35.618696166564 ], [ 127.440293099790765, 35.619387403993294 ], [ 127.435240102080328, 35.623045786546705 ], [ 127.434687711494732, 35.626190605059584 ], [ 127.430431694112301, 35.629987046289649 ], [ 127.432677306861379, 35.634532938039719 ], [ 127.428241386311043, 35.642193073200666 ], [ 127.418689168639261, 35.641341558883433 ], [ 127.410317827884313, 35.644605883318924 ], [ 127.398970238230476, 35.65197718013534 ], [ 127.39300590458862, 35.651158703794366 ], [ 127.388010759470305, 35.655446875055667 ], [ 127.378255657588667, 35.654151555971893 ], [ 127.379314571596822, 35.66079349700788 ], [ 127.375001241501067, 35.668818514919536 ], [ 127.375599847780123, 35.674695702468632 ], [ 127.364773438287486, 35.679441040924978 ], [ 127.365183289430249, 35.683491814524466 ], [ 127.367921043208568, 35.687482012276554 ], [ 127.366209622321591, 35.689577549515363 ], [ 127.369234661978638, 35.692562351418381 ], [ 127.368942685821665, 35.695819163853834 ] ] ] ] } },
{ "type": "Feature", "properties": { "emd_cd": "52720360", "emd_nm": "성수면" }, "geometry": { "type": "MultiPolygon", "coordinates": [ [ [ [ 127.368942685821665, 35.695819163853834 ], [ 127.369234661978638, 35.692562351418381 ], [ 127.366209622321591, 35.689577549515363 ], [ 127.367921043208568, 35.687482012276554 ], [ 127.365183289430249, 35.683491814524466 ], [ 127.364773438287486, 35.679441040924978 ], [ 127.375599847780123, 35.674695702468632 ], [ 127.375001241501067, 35.668818514919536 ], [ 127.377735271292323, 35.664464061040242 ], [ 127.367666159866133, 35.662610495065508 ], [ 127.366809454104967, 35.660449230807643 ], [ 127.36422777293572, 35.660689401325641 ], [ 127.361646384849806, 35.667374769521331 ], [ 127.356866417284792, 35.669147759463904 ], [ 127.346653220836046, 35.665386761347548 ], [ 127.335683321108561, 35.665076853822484 ], [ 127.327109668910708, 35.660959990026875 ], [ 127.323346046370489, 35.663575511584021 ], [ 127.318820453247824, 35.676088794690635 ], [ 127.312952094879293, 35.681111495913619 ], [ 127.305234534531905, 35.685115970327537 ], [ 127.297989542320281, 35.682777585377117 ], [ 127.288065782136954, 35.687049698332906 ], [ 127.292173868760287, 35.690825439393365 ], [ 127.292567877259316, 35.69801226121821 ], [ 127.294339456451382, 35.698890261877381 ], [ 127.290727663127782, 35.705545484895751 ], [ 127.292151296472966, 35.710004152909065 ], [ 127.290833635220139, 35.714052370098599 ], [ 127.293467224719109, 35.717814639000203 ], [ 127.286869682369996, 35.729841473965763 ], [ 127.287556239319997, 35.733243253558541 ], [ 127.281192451164074, 35.737179607729608 ], [ 127.28114611580628, 35.742914924365664 ], [ 127.277303233516093, 35.747132108125271 ], [ 127.274877795680993, 35.754516701163908 ], [ 127.265452190320602, 35.762624815714886 ], [ 127.266065433762677, 35.769289872603778 ], [ 127.272477539556235, 35.774032981774397 ], [ 127.271460497592017, 35.778877946569416 ], [ 127.274325295276583, 35.782223177141887 ], [ 127.27373834677465, 35.790097887068626 ], [ 127.286208931468408, 35.792942991707768 ], [ 127.297755093642252, 35.788613142077615 ], [ 127.30390893281583, 35.784308726750361 ], [ 127.299924945816102, 35.776858930852875 ], [ 127.301592866766086, 35.771932073424715 ], [ 127.31598021998208, 35.765696042104132 ], [ 127.317714915097653, 35.762143930853242 ], [ 127.323601786243259, 35.759884669730504 ], [ 127.323669550713646, 35.756857976976072 ], [ 127.329518170824656, 35.75642219169422 ], [ 127.335748273423221, 35.758920248679487 ], [ 127.342843090080294, 35.756059284040028 ], [ 127.342556223395903, 35.752950850727373 ], [ 127.345079969575963, 35.750092198801426 ], [ 127.341150892238517, 35.748445794349898 ], [ 127.341280762235868, 35.7472668758883 ], [ 127.335880821055497, 35.746787962574928 ], [ 127.334044741164888, 35.743432861152492 ], [ 127.334997417788202, 35.742108199147665 ], [ 127.331018720641026, 35.740360277689604 ], [ 127.330345057662569, 35.737443193203717 ], [ 127.332941813364087, 35.734590294050619 ], [ 127.332918673939801, 35.732423225359319 ], [ 127.336242375124613, 35.731514004626376 ], [ 127.343864774658627, 35.73292120293732 ], [ 127.34774136245727, 35.722423330324396 ], [ 127.351390672323149, 35.719401451403272 ], [ 127.350114733926901, 35.717785608514426 ], [ 127.351688826623544, 35.715627843560434 ], [ 127.355118725194714, 35.714060977089929 ], [ 127.363325632860196, 35.714922534749512 ], [ 127.365524273645789, 35.713360365650921 ], [ 127.367584441735673, 35.709698565660744 ], [ 127.364694898644615, 35.706839564036322 ], [ 127.364506357356277, 35.701620014463309 ], [ 127.368942685821665, 35.695819163853834 ] ] ] ] } },
{ "type": "Feature", "properties": { "emd_cd": "52720370", "emd_nm": "마령면" }, "geometry": { "type": "MultiPolygon", "coordinates": [ [ [ [ 127.402211780001721, 35.7318745034082 ], [ 127.390396774223802, 35.725333454280602 ], [ 127.392067285893319, 35.72091606440145 ], [ 127.39029792487716, 35.71729560524858 ], [ 127.392239335756102, 35.715332529091135 ], [ 127.39150171753802, 35.711688784709601 ], [ 127.387374952295644, 35.70922172490431 ], [ 127.383497538017409, 35.710283284178253 ], [ 127.381304838181677, 35.709262709446151 ], [ 127.376369789744842, 35.70092751897581 ], [ 127.368942685821665, 35.695819163853834 ], [ 127.364506357356277, 35.701620014463309 ], [ 127.364694898644615, 35.706839564036322 ], [ 127.367584441735673, 35.709698565660744 ], [ 127.365524273645789, 35.713360365650921 ], [ 127.363325632860196, 35.714922534749512 ], [ 127.355118725194714, 35.714060977089929 ], [ 127.351688826623544, 35.715627843560434 ], [ 127.350114733926901, 35.717785608514426 ], [ 127.351390672323149, 35.719401451403272 ], [ 127.34774136245727, 35.722423330324396 ], [ 127.343864774658627, 35.73292120293732 ], [ 127.336242375124613, 35.731514004626376 ], [ 127.332918673939801, 35.732423225359319 ], [ 127.332941813364087, 35.734590294050619 ], [ 127.330345057662569, 35.737443193203717 ], [ 127.331018720641026, 35.740360277689604 ], [ 127.334997417788202, 35.742108199147665 ], [ 127.334044741164888, 35.743432861152492 ], [ 127.335880821055497, 35.746787962574928 ], [ 127.341280762235868, 35.7472668758883 ], [ 127.341150892238517, 35.748445794349898 ], [ 127.345079969575963, 35.750092198801426 ], [ 127.342556223395903, 35.752950850727373 ], [ 127.342843090080294, 35.756059284040028 ], [ 127.335748273423221, 35.758920248679487 ], [ 127.329518170824656, 35.75642219169422 ], [ 127.323669550713646, 35.756857976976072 ], [ 127.323601786243259, 35.759884669730504 ], [ 127.317714915097653, 35.762143930853242 ], [ 127.31598021998208, 35.765696042104132 ], [ 127.301592866766086, 35.771932073424715 ], [ 127.300262580187976, 35.778237124580983 ], [ 127.30390893281583, 35.784308726750361 ], [ 127.309100787465951, 35.785403309407556 ], [ 127.319080267880992, 35.779979058090866 ], [ 127.333568431071782, 35.784811832290018 ], [ 127.338571791900449, 35.783895483975513 ], [ 127.344858689832378, 35.780686359695842 ], [ 127.348344975570143, 35.78088815873631 ], [ 127.355791494203004, 35.775265091016664 ], [ 127.359895709553825, 35.7755187732363 ], [ 127.360802950279748, 35.763131046796786 ], [ 127.365226689569027, 35.761435804852681 ], [ 127.364014020560333, 35.760084379179268 ], [ 127.365464215246064, 35.756482779649986 ], [ 127.376249733663812, 35.758684456983318 ], [ 127.381337833538254, 35.756617648263806 ], [ 127.38195131018891, 35.75337401802026 ], [ 127.388311092449314, 35.756477135946241 ], [ 127.387439206834486, 35.761661690386575 ], [ 127.38870571958239, 35.762824594636989 ], [ 127.399498809626067, 35.76450925047628 ], [ 127.401567131313371, 35.76305616929055 ], [ 127.405567282191171, 35.763507296013387 ], [ 127.405703982738672, 35.759721991407801 ], [ 127.416884454074875, 35.761634967137319 ], [ 127.41714448273359, 35.758558594271548 ], [ 127.414878947553845, 35.757658989122909 ], [ 127.409388221660379, 35.750282842363752 ], [ 127.405724912305118, 35.750074210294407 ], [ 127.402368774470929, 35.754135037359951 ], [ 127.398179307915626, 35.75096899834589 ], [ 127.397557313888171, 35.74376566183463 ], [ 127.400593484876978, 35.745285155348448 ], [ 127.40511966359314, 35.744531995776548 ], [ 127.40857236423264, 35.739625802400163 ], [ 127.409206238469494, 35.733405753127009 ], [ 127.404447623612626, 35.731060353597115 ], [ 127.402211780001721, 35.7318745034082 ] ] ] ] } },
{ "type": "Feature", "properties": { "emd_cd": "52720380", "emd_nm": "부귀면" }, "geometry": { "type": "MultiPolygon", "coordinates": [ [ [ [ 127.377861675005136, 35.809601439949631 ], [ 127.371485819430717, 35.800956567028521 ], [ 127.362479418343241, 35.805082659660066 ], [ 127.35756864958887, 35.79892584555445 ], [ 127.364761570024115, 35.792908256332609 ], [ 127.3656437220763, 35.790470446115258 ], [ 127.362991816135349, 35.785117292945465 ], [ 127.366011772122491, 35.781707805374168 ], [ 127.365566382010158, 35.778981469831479 ], [ 127.363967578716711, 35.776401056799365 ], [ 127.361120216484068, 35.776900294023136 ], [ 127.359895709553825, 35.7755187732363 ], [ 127.355791494203004, 35.775265091016664 ], [ 127.348344975570143, 35.78088815873631 ], [ 127.344858689832378, 35.780686359695842 ], [ 127.335920400754105, 35.784617465457757 ], [ 127.316849296908543, 35.780289599122881 ], [ 127.309327951919101, 35.785381963133844 ], [ 127.30390893281583, 35.784308726750361 ], [ 127.297755093642252, 35.788613142077615 ], [ 127.286846641604185, 35.792818692873972 ], [ 127.287223611078474, 35.795395531991687 ], [ 127.2986511362366, 35.798083023256545 ], [ 127.303079709646028, 35.800755993796166 ], [ 127.295083260530518, 35.808345857140758 ], [ 127.298543470894671, 35.812739155270322 ], [ 127.297134742180404, 35.817391826189372 ], [ 127.301192616961885, 35.818482673763093 ], [ 127.301234228010699, 35.820129372158824 ], [ 127.305711035280751, 35.820406281852478 ], [ 127.310478139068863, 35.82450315700229 ], [ 127.308551724622333, 35.830201234453149 ], [ 127.308644925774402, 35.832761147641676 ], [ 127.310398963631272, 35.834004656253185 ], [ 127.310707016350307, 35.841219292734102 ], [ 127.321543447719492, 35.847466446514439 ], [ 127.321086208043042, 35.850834493700482 ], [ 127.325124567483314, 35.857072522943007 ], [ 127.322417596363152, 35.861252978891443 ], [ 127.319066605557779, 35.863066696913052 ], [ 127.320532275219492, 35.86793069214545 ], [ 127.323606166976049, 35.868682994548614 ], [ 127.324501850373537, 35.871478624290546 ], [ 127.333222649179163, 35.873466657005643 ], [ 127.332181762605302, 35.877410152809652 ], [ 127.333746328405553, 35.881909211403759 ], [ 127.331363656608914, 35.884534811024771 ], [ 127.334559163176792, 35.887593444581235 ], [ 127.332222364708812, 35.898694318456343 ], [ 127.333906306003371, 35.901857575012443 ], [ 127.333600373740751, 35.905918145016159 ], [ 127.332074278632703, 35.908165336801979 ], [ 127.340886685286449, 35.908299622838101 ], [ 127.348510310360254, 35.912940828929116 ], [ 127.355856169935777, 35.912707935631161 ], [ 127.357743783386752, 35.911306074798695 ], [ 127.358350738249285, 35.906522845847235 ], [ 127.361106760466114, 35.903871729893098 ], [ 127.360738412884942, 35.89870896005587 ], [ 127.366102121132386, 35.891183816404691 ], [ 127.370364819930202, 35.890216641012685 ], [ 127.384701372306978, 35.881821408862031 ], [ 127.393933019844951, 35.879975939098053 ], [ 127.394334564582735, 35.877300405813806 ], [ 127.400831389318554, 35.874511447767588 ], [ 127.406632601741407, 35.868964194777611 ], [ 127.418728159819565, 35.866202284257731 ], [ 127.422949921038537, 35.867626756618627 ], [ 127.424823316695537, 35.860193316643638 ], [ 127.436118010803611, 35.849488517523213 ], [ 127.43449464180776, 35.845852033115278 ], [ 127.430743681532235, 35.842954339568109 ], [ 127.430095441455379, 35.83857121873104 ], [ 127.431598939633048, 35.834447069938555 ], [ 127.425250489657756, 35.828520158427587 ], [ 127.42410765781699, 35.826543207390799 ], [ 127.425318775728172, 35.825382040037951 ], [ 127.422625073981209, 35.823027304078082 ], [ 127.417974185795401, 35.823238250698438 ], [ 127.415014301573578, 35.819273392612757 ], [ 127.410427440504122, 35.81880102307445 ], [ 127.404872291723422, 35.812036654188979 ], [ 127.399151057180944, 35.809317431615533 ], [ 127.385746892196693, 35.808239201307785 ], [ 127.377861675005136, 35.809601439949631 ] ] ] ] } },
{ "type": "Feature", "properties": { "emd_cd": "52720390", "emd_nm": "정천면" }, "geometry": { "type": "MultiPolygon", "coordinates": [ [ [ [ 127.357743783386752, 35.911306074798695 ], [ 127.371141681956956, 35.920023505281215 ], [ 127.380254522843543, 35.918352785054189 ], [ 127.381188408704261, 35.922630631770858 ], [ 127.393455808998425, 35.93105359055145 ], [ 127.408962505118268, 35.919145947377189 ], [ 127.416846734528988, 35.922652023822522 ], [ 127.419496595748456, 35.915911486255055 ], [ 127.423906077400773, 35.910990588408566 ], [ 127.447516598252093, 35.915252727356496 ], [ 127.452831245363029, 35.90676992569098 ], [ 127.457283772217664, 35.906027786915509 ], [ 127.46094067290035, 35.912808981016575 ], [ 127.466588132897826, 35.913099119465997 ], [ 127.479455785138086, 35.923795877061487 ], [ 127.484636799434654, 35.922128323233572 ], [ 127.488144056595956, 35.924105857048694 ], [ 127.491819874531799, 35.923771145280284 ], [ 127.499011336824978, 35.928129685875639 ], [ 127.500145112743127, 35.924469366105711 ], [ 127.497040908641225, 35.921152998271687 ], [ 127.509573514351516, 35.91918456951948 ], [ 127.513504732933299, 35.912952740988928 ], [ 127.517219690591276, 35.910782155823298 ], [ 127.519207140798343, 35.911552347001056 ], [ 127.518183846621724, 35.915566927725109 ], [ 127.520008080861871, 35.917167838473837 ], [ 127.520429770398181, 35.914279984298915 ], [ 127.52463675356779, 35.910525034183664 ], [ 127.525706034502804, 35.906343053770122 ], [ 127.522611420223512, 35.902301652530092 ], [ 127.523047374301456, 35.899410169950677 ], [ 127.515389628497601, 35.893210333707444 ], [ 127.512526205368815, 35.892882264199017 ], [ 127.509058991227221, 35.894475250810558 ], [ 127.508022270777175, 35.89740026064198 ], [ 127.504808660309365, 35.898899281715458 ], [ 127.502381941440575, 35.903192514165262 ], [ 127.495729896260883, 35.908397776512167 ], [ 127.496045447458997, 35.906080988949192 ], [ 127.501538552670823, 35.900552337511115 ], [ 127.501165449690646, 35.898664574369398 ], [ 127.480408287117598, 35.883540490014127 ], [ 127.488135071776966, 35.876651156658092 ], [ 127.483033164662956, 35.874588562614136 ], [ 127.477167644805604, 35.874517716436316 ], [ 127.476755887882447, 35.872037167815783 ], [ 127.466165466792972, 35.864538163014117 ], [ 127.464262870656739, 35.859605390217745 ], [ 127.457458396283869, 35.857513014099361 ], [ 127.455629103110667, 35.855490907344382 ], [ 127.456590728952591, 35.853741835908778 ], [ 127.461134963723225, 35.853250783203684 ], [ 127.462927350376987, 35.851570930919458 ], [ 127.463308238787334, 35.84322006814979 ], [ 127.465582912092444, 35.840344299951511 ], [ 127.46449398653246, 35.837156262052908 ], [ 127.459479748264513, 35.836893566423804 ], [ 127.458464045674461, 35.834855025787476 ], [ 127.453698984497478, 35.83328385914249 ], [ 127.435430437396604, 35.832068763881431 ], [ 127.431598939633048, 35.834447069938555 ], [ 127.430095441455379, 35.83857121873104 ], [ 127.431454820586453, 35.844414145750399 ], [ 127.43449464180776, 35.845852033115278 ], [ 127.436118010803611, 35.849488517523213 ], [ 127.424823316695537, 35.860193316643638 ], [ 127.423270653091961, 35.867338559008388 ], [ 127.418728159819565, 35.866202284257731 ], [ 127.406632601741407, 35.868964194777611 ], [ 127.400831389318554, 35.874511447767588 ], [ 127.394334564582735, 35.877300405813806 ], [ 127.393933019844951, 35.879975939098053 ], [ 127.384701372306978, 35.881821408862031 ], [ 127.370364819930202, 35.890216641012685 ], [ 127.366102121132386, 35.891183816404691 ], [ 127.360738412884942, 35.89870896005587 ], [ 127.361106760466114, 35.903871729893098 ], [ 127.357293857138018, 35.908611740128151 ], [ 127.357743783386752, 35.911306074798695 ] ] ] ] } },
{ "type": "Feature", "properties": { "emd_cd": "52720400", "emd_nm": "주천면" }, "geometry": { "type": "MultiPolygon", "coordinates": [ [ [ [ 127.447516598252093, 35.915252727356496 ], [ 127.423906077400773, 35.910990588408566 ], [ 127.419496595748456, 35.915911486255055 ], [ 127.416846734528988, 35.922652023822522 ], [ 127.408962505118268, 35.919145947377189 ], [ 127.393455808998425, 35.93105359055145 ], [ 127.381188408704261, 35.922630631770858 ], [ 127.380254522843543, 35.918352785054189 ], [ 127.371141681956956, 35.920023505281215 ], [ 127.357743783386752, 35.911306074798695 ], [ 127.353882382067283, 35.913072301014132 ], [ 127.350377719256187, 35.917591947217744 ], [ 127.350937278053564, 35.92203745318028 ], [ 127.347907293134639, 35.926156591142487 ], [ 127.350806699688519, 35.929335654430346 ], [ 127.35164169195572, 35.933102727593329 ], [ 127.34737841207631, 35.939873508315337 ], [ 127.352866798689362, 35.949510939785519 ], [ 127.344402555206315, 35.959110381245253 ], [ 127.346112742238319, 35.962491686705683 ], [ 127.345629510353575, 35.968530912691037 ], [ 127.341942794174869, 35.971311945910088 ], [ 127.34181386348628, 35.974369642748307 ], [ 127.343073913585613, 35.979886298170328 ], [ 127.349903317817351, 35.983433314537464 ], [ 127.35267120185911, 35.989058348925099 ], [ 127.365350345575592, 35.989816102102715 ], [ 127.361671614421468, 35.994119621804025 ], [ 127.3634282309893, 35.99992533713462 ], [ 127.360428025662202, 36.005394287163597 ], [ 127.360574240349607, 36.011349009573927 ], [ 127.367541506051069, 36.021101756100734 ], [ 127.370115910341738, 36.021849569782418 ], [ 127.372129057933819, 36.020099155402775 ], [ 127.376418783229099, 36.022783853557677 ], [ 127.383852155135841, 36.021218688480886 ], [ 127.389649421094731, 36.016302916364452 ], [ 127.391867692500412, 36.017099486659312 ], [ 127.396761466787453, 36.010631180814904 ], [ 127.401206949342523, 36.008719489733316 ], [ 127.407315091712377, 36.014209545775543 ], [ 127.413424484508894, 36.015159420840945 ], [ 127.419643389008712, 36.022713453147794 ], [ 127.434560147796461, 36.029451275794507 ], [ 127.434368344381966, 36.024410405492283 ], [ 127.436834354052266, 36.023058063215622 ], [ 127.437344421748534, 36.020684830978539 ], [ 127.435255190249052, 36.014647005394174 ], [ 127.437542111548197, 36.011950966461669 ], [ 127.43724507690132, 36.009316496880103 ], [ 127.444434976522004, 36.00724207986184 ], [ 127.444129760938651, 36.003572390109284 ], [ 127.448074952984896, 35.998915813174477 ], [ 127.448604592562518, 35.99312245754524 ], [ 127.454843194189507, 35.987285181184724 ], [ 127.455754632590896, 35.984416652753225 ], [ 127.4555866686798, 35.980858508822344 ], [ 127.45216959418363, 35.978369068084959 ], [ 127.45081123088363, 35.972569710686656 ], [ 127.451370015422668, 35.967823837376308 ], [ 127.454803120772297, 35.966101944848369 ], [ 127.454879717611931, 35.96124659719186 ], [ 127.452483116669598, 35.95858598233545 ], [ 127.449194251288688, 35.958265816128595 ], [ 127.447917054673681, 35.955944834701128 ], [ 127.442386641264207, 35.955762079095386 ], [ 127.445434868236319, 35.949086182430669 ], [ 127.445071548650787, 35.946679311443859 ], [ 127.447876835383639, 35.94500475009248 ], [ 127.451243490412182, 35.939355011755381 ], [ 127.447029783522183, 35.933497588080009 ], [ 127.449242603845775, 35.931107189634382 ], [ 127.443478188406615, 35.926042169795942 ], [ 127.440231235718372, 35.926204702027469 ], [ 127.441971124986736, 35.919641667880576 ], [ 127.446236001310027, 35.917640460718751 ], [ 127.447516598252093, 35.915252727356496 ] ] ] ] } }
]
}
