{
"type": "FeatureCollection",
"name": "52730",
"crs": { "type": "name", "properties": { "name": "urn:ogc:def:crs:OGC:1.3:CRS84" } },
"features": [
{ "type": "Feature", "properties": { "emd_cd": "52730250", "emd_nm": "무주읍" }, "geometry": { "type": "MultiPolygon", "coordinates": [ [ [ [ 127.638063092624492, 36.06866709666064 ], [ 127.644550087830126, 36.066813750176451 ], [ 127.648423671243364, 36.062576776967759 ], [ 127.649050156380142, 36.057992824705671 ], [ 127.654439282377353, 36.056617550363704 ], [ 127.654715072302139, 36.05257781855353 ], [ 127.658010099219965, 36.047682965946265 ], [ 127.6608979980453, 36.038193917121049 ], [ 127.6690587972668, 36.038655308824524 ], [ 127.672735475189697, 36.041629992657349 ], [ 127.670531922100821, 36.045023853399471 ], [ 127.671814240965077, 36.048483694798165 ], [ 127.669168158728851, 36.051153957607539 ], [ 127.6855465572078, 36.062190807182169 ], [ 127.689015233564362, 36.062671669077822 ], [ 127.690735647501171, 36.058034712038463 ], [ 127.695093776936943, 36.058728254837085 ], [ 127.695018639273087, 36.045908316480627 ], [ 127.696461058142702, 36.04110272895258 ], [ 127.70021487169457, 36.036590903304699 ], [ 127.705718444954627, 36.033994681043382 ], [ 127.711639056320735, 36.035900653652135 ], [ 127.716657826924916, 36.034726787459881 ], [ 127.719182369728557, 36.031864026707261 ], [ 127.721166303248694, 36.031771722297151 ], [ 127.72155928878648, 36.029037236778322 ], [ 127.718340229740335, 36.022633638229834 ], [ 127.710647322198113, 36.025091227636864 ], [ 127.708314492321264, 36.024413957560903 ], [ 127.707648920242463, 36.02215022641446 ], [ 127.708933205340045, 36.017402822875546 ], [ 127.706584909593673, 36.011455995434474 ], [ 127.708553687094465, 36.008068653973318 ], [ 127.707196391180929, 36.005906760772909 ], [ 127.714346125362511, 36.002459026222162 ], [ 127.713874238414505, 36.000388614415364 ], [ 127.716595570776207, 35.997423955494426 ], [ 127.713501980611923, 35.993857806910896 ], [ 127.712734949617314, 35.990169299166126 ], [ 127.70402847685979, 35.990054371423795 ], [ 127.699495707430756, 35.992393572952722 ], [ 127.691526916747719, 35.992192777604316 ], [ 127.688707365930881, 35.990382914460291 ], [ 127.683890070375838, 35.991138237749865 ], [ 127.677683942469571, 35.98505796517432 ], [ 127.683291847848636, 35.974748223846873 ], [ 127.677637382038881, 35.970469008964393 ], [ 127.670838916637891, 35.975402483679417 ], [ 127.667962378468502, 35.975600297001307 ], [ 127.664090816712175, 35.967943428683057 ], [ 127.657247356372451, 35.963485419836395 ], [ 127.656413449906339, 35.960078306449113 ], [ 127.652625481469713, 35.958184366325334 ], [ 127.65221809634113, 35.955807680741763 ], [ 127.649324914427382, 35.955326645024577 ], [ 127.646445939553416, 35.955146406311435 ], [ 127.644756654050482, 35.9578649349599 ], [ 127.63785381096514, 35.959695967029681 ], [ 127.633068687519895, 35.967995976949716 ], [ 127.627337964121438, 35.972490938389186 ], [ 127.617063001578387, 35.968060637765539 ], [ 127.61711267394557, 35.971620024352582 ], [ 127.603846413329691, 35.978389063862458 ], [ 127.600296102330248, 35.974732531824166 ], [ 127.594668535164899, 35.97310848115373 ], [ 127.595817855976122, 35.97716029575281 ], [ 127.591884457985628, 35.983713096132377 ], [ 127.598506379200359, 35.988977451785601 ], [ 127.597168341626912, 35.989310801877977 ], [ 127.598951182744372, 35.992562438394032 ], [ 127.598340622926116, 35.996769836106537 ], [ 127.599563925107404, 35.997264178139112 ], [ 127.600092942968516, 36.004180534402344 ], [ 127.602137165889616, 36.006321877247053 ], [ 127.606975370345111, 36.007477922790812 ], [ 127.609810295604348, 36.00544831796109 ], [ 127.610569065342631, 36.001044500919186 ], [ 127.612741637399694, 36.000445607726753 ], [ 127.615999750632739, 36.002841468534143 ], [ 127.618662625961889, 36.007981974720806 ], [ 127.616441271958394, 36.01905626334505 ], [ 127.610971116080549, 36.022300916195761 ], [ 127.610740051166957, 36.025354095435496 ], [ 127.616545892077013, 36.026323511590093 ], [ 127.622943746225204, 36.024640408158632 ], [ 127.62690988512027, 36.026912172879989 ], [ 127.628449429728178, 36.03195603676496 ], [ 127.631682999872581, 36.03201636543821 ], [ 127.635329916910891, 36.028684085502043 ], [ 127.639747976682813, 36.032252426269963 ], [ 127.637053921080167, 36.035167436376149 ], [ 127.632682847915589, 36.03544819724312 ], [ 127.630534470051657, 36.042152376299633 ], [ 127.625132856040452, 36.042313683078007 ], [ 127.619099490322881, 36.039172975852999 ], [ 127.618490715641229, 36.04193587140707 ], [ 127.620550704628471, 36.064205292106408 ], [ 127.623923950429543, 36.06727165424784 ], [ 127.637997461631471, 36.066672530059762 ], [ 127.638063092624492, 36.06866709666064 ] ] ] ] } },
{ "type": "Feature", "properties": { "emd_cd": "52730310", "emd_nm": "무풍면" }, "geometry": { "type": "MultiPolygon", "coordinates": [ [ [ [ 127.804237064215087, 35.85862594729884 ], [ 127.804341699518659, 35.862078141180824 ], [ 127.801180020911588, 35.869433494116535 ], [ 127.802176254328216, 35.875056307181644 ], [ 127.795280862134788, 35.879212791535139 ], [ 127.792791504807923, 35.884746323061492 ], [ 127.801285874393514, 35.895274195386556 ], [ 127.798064030368764, 35.897821707645122 ], [ 127.798095840061222, 35.901085888881667 ], [ 127.802582733760673, 35.903838695893519 ], [ 127.800147289914236, 35.908937244718366 ], [ 127.80659400736981, 35.916476270980034 ], [ 127.806309559706662, 35.924770156670071 ], [ 127.810998266959743, 35.925071523298136 ], [ 127.813787018403701, 35.92823198672518 ], [ 127.814932445454801, 35.933161770500497 ], [ 127.818149935040836, 35.935573361180936 ], [ 127.818710555521733, 35.945159977472059 ], [ 127.814291817522758, 35.95182511003685 ], [ 127.815123292969488, 35.954285537732602 ], [ 127.813918547654282, 35.95674147415523 ], [ 127.808539891591096, 35.964870745147138 ], [ 127.807690080155496, 35.971879061385735 ], [ 127.822407474193383, 35.975086990167931 ], [ 127.824453737574999, 35.979764595831817 ], [ 127.831148720572401, 35.981134347720328 ], [ 127.833078402498174, 35.985405288026911 ], [ 127.839148627151573, 35.98787087373352 ], [ 127.841778336999539, 35.991382337056201 ], [ 127.8478174895763, 35.992438599161694 ], [ 127.854979447779868, 35.990280444378406 ], [ 127.868109134557429, 35.989846052971266 ], [ 127.8722293633747, 35.991562855594715 ], [ 127.875420172763114, 35.996804513162097 ], [ 127.879204073012446, 35.993917645788542 ], [ 127.886757019173004, 35.992105780204213 ], [ 127.894712560230246, 35.985486458980617 ], [ 127.889332509117708, 35.979582640462326 ], [ 127.896271923205916, 35.977633034271641 ], [ 127.89656803364683, 35.971625291690707 ], [ 127.900511010477885, 35.966327015405483 ], [ 127.899865864545845, 35.963152274329474 ], [ 127.901668739347855, 35.96159708345138 ], [ 127.902338847081111, 35.956990415004469 ], [ 127.91100907719715, 35.949491874234688 ], [ 127.907988762494725, 35.943989670365823 ], [ 127.908303158849236, 35.941367134330044 ], [ 127.898957860997001, 35.937539355255538 ], [ 127.895707100609684, 35.934121749378519 ], [ 127.882844071895022, 35.93002448274018 ], [ 127.882504251211898, 35.919231640140183 ], [ 127.888255528980778, 35.914827938689093 ], [ 127.887895401786508, 35.912038667433741 ], [ 127.885101644222345, 35.909603747430282 ], [ 127.879510539932497, 35.909850118693555 ], [ 127.869271189712251, 35.904010456961736 ], [ 127.864091946531602, 35.906615554062249 ], [ 127.859540077278879, 35.906490517183272 ], [ 127.858274690870985, 35.897016875159572 ], [ 127.850533049852473, 35.890280542171453 ], [ 127.853674802711637, 35.881343089037863 ], [ 127.851061982943307, 35.877642473388654 ], [ 127.846777063050112, 35.877903107200609 ], [ 127.844332231297912, 35.875128410207786 ], [ 127.844862664314931, 35.870253433123828 ], [ 127.841751081185251, 35.866247085071919 ], [ 127.834951554238017, 35.866898824445201 ], [ 127.832731917134623, 35.86891802479488 ], [ 127.826561556146686, 35.86834693044991 ], [ 127.819408757328176, 35.862529428016678 ], [ 127.819443980337482, 35.8596366511116 ], [ 127.814535409115393, 35.856793064800385 ], [ 127.813922663300943, 35.853616854502476 ], [ 127.804237064215087, 35.85862594729884 ] ] ] ] } },
{ "type": "Feature", "properties": { "emd_cd": "52730320", "emd_nm": "설천면" }, "geometry": { "type": "MultiPolygon", "coordinates": [ [ [ [ 127.706584909593673, 36.011455995434481 ], [ 127.708933205340045, 36.017402822875546 ], [ 127.707711654362186, 36.018620473945909 ], [ 127.708314492321264, 36.02441395756091 ], [ 127.713122360656911, 36.024720726487239 ], [ 127.716358089828475, 36.02225969200925 ], [ 127.718340229740335, 36.022633638229834 ], [ 127.721360226930869, 36.027359088055363 ], [ 127.721166303248694, 36.031771722297158 ], [ 127.725039974494194, 36.032416192413514 ], [ 127.727977262779163, 36.030906639881721 ], [ 127.727530338764694, 36.029703810381974 ], [ 127.730825775459081, 36.032311515227597 ], [ 127.734835023293414, 36.032319380456357 ], [ 127.741485307362709, 36.024801502389451 ], [ 127.743586210451966, 36.028469959633348 ], [ 127.747304742847035, 36.029701153342202 ], [ 127.753858114196291, 36.024056097474933 ], [ 127.761604579050029, 36.025178925169243 ], [ 127.762644501578393, 36.021573938530381 ], [ 127.75935857681209, 36.014970599997298 ], [ 127.766182605894102, 36.012206713668142 ], [ 127.781533704035823, 36.016508813713457 ], [ 127.787618592665709, 36.01450394716413 ], [ 127.799440584124625, 36.026066097095871 ], [ 127.805500206011786, 36.025957096788837 ], [ 127.814610111336989, 36.029013720151738 ], [ 127.818503875068302, 36.02813029929402 ], [ 127.830395479079058, 36.035228808605567 ], [ 127.839086601442801, 36.035877255843488 ], [ 127.848573344826107, 36.039728804274802 ], [ 127.852807822861237, 36.039106235830026 ], [ 127.855663837774046, 36.032927993724066 ], [ 127.860594994290551, 36.031458465601389 ], [ 127.866147139528081, 36.024290655437099 ], [ 127.877131263664737, 36.022455164233286 ], [ 127.875360496519576, 36.016174009066361 ], [ 127.875675151349427, 36.008944091590593 ], [ 127.878345221892999, 36.00581457250842 ], [ 127.87849610344955, 36.000758390274676 ], [ 127.875957965663247, 35.999444971763154 ], [ 127.8722293633747, 35.991562855594729 ], [ 127.864242498145558, 35.989587836805889 ], [ 127.8478174895763, 35.992438599161702 ], [ 127.841778336999539, 35.991382337056194 ], [ 127.839148627151545, 35.98787087373352 ], [ 127.833078402498145, 35.98540528802689 ], [ 127.831148720572401, 35.981134347720328 ], [ 127.824453737574999, 35.979764595831831 ], [ 127.822407474193412, 35.975086990167931 ], [ 127.80769008015551, 35.971879061385728 ], [ 127.808539891591096, 35.964870745147145 ], [ 127.813918547654282, 35.956741474155237 ], [ 127.815123292969488, 35.954285537732595 ], [ 127.814291817522744, 35.95182511003685 ], [ 127.818710555521719, 35.945159977472059 ], [ 127.818149935040807, 35.93557336118095 ], [ 127.814932445454801, 35.933161770500504 ], [ 127.813787018403701, 35.92823198672518 ], [ 127.810998266959714, 35.925071523298151 ], [ 127.806309559706662, 35.924770156670078 ], [ 127.806594007369782, 35.916476270980041 ], [ 127.800147289914236, 35.908937244718345 ], [ 127.802582733760673, 35.903838695893491 ], [ 127.798095840061194, 35.901085888881667 ], [ 127.798064030368749, 35.897821707645129 ], [ 127.801285874393514, 35.895274195386584 ], [ 127.792791504807909, 35.884746323061499 ], [ 127.795280862134788, 35.879212791535139 ], [ 127.802176254328216, 35.875056307181644 ], [ 127.801180020911559, 35.869433494116528 ], [ 127.804341699518659, 35.862078141180831 ], [ 127.804237064215073, 35.85862594729884 ], [ 127.792046932771768, 35.85240799527093 ], [ 127.787571878624263, 35.85263277622343 ], [ 127.783753953612447, 35.850835283500402 ], [ 127.772764581046118, 35.839578777393058 ], [ 127.757761376118879, 35.836764328520793 ], [ 127.752532286993215, 35.841399365868135 ], [ 127.745377068046494, 35.843600922992167 ], [ 127.743660428320808, 35.847507605724168 ], [ 127.747295488309121, 35.851483336494688 ], [ 127.74630420392532, 35.859814267986593 ], [ 127.740363784014448, 35.87062320249759 ], [ 127.734448646337711, 35.876386777335192 ], [ 127.720788819094636, 35.877513929690707 ], [ 127.718385096478642, 35.88066138580826 ], [ 127.717934516394934, 35.885228977438423 ], [ 127.727806099482933, 35.890840674348041 ], [ 127.732400689044979, 35.896395008274169 ], [ 127.741248895996293, 35.89983776269036 ], [ 127.742333711478963, 35.905726641695956 ], [ 127.74792386096388, 35.912123274750201 ], [ 127.745072610135594, 35.919511656181356 ], [ 127.745551590073589, 35.923295489687185 ], [ 127.742545513827139, 35.925707385925371 ], [ 127.739603328276417, 35.933317517012462 ], [ 127.741374865591297, 35.9348407486032 ], [ 127.741383149015064, 35.938862841830044 ], [ 127.743813635633913, 35.940389073248092 ], [ 127.73937904268648, 35.948459568302184 ], [ 127.739329861469173, 35.953135303736367 ], [ 127.74408821440727, 35.961016423390397 ], [ 127.749745379855071, 35.965190977817976 ], [ 127.752388582071191, 35.978705689600666 ], [ 127.749966406189458, 35.979257267109503 ], [ 127.744297890557263, 35.985332661524019 ], [ 127.738259916017583, 35.985056461408711 ], [ 127.736566898213837, 35.98968817043265 ], [ 127.732992009103299, 35.991950572933398 ], [ 127.729258552520733, 35.992154439903558 ], [ 127.723965609549083, 35.995063848944589 ], [ 127.721780582492187, 35.994516753220033 ], [ 127.716595570776207, 35.997423955494448 ], [ 127.713874238414533, 36.000388614415364 ], [ 127.714346125362511, 36.002459026222162 ], [ 127.707196391180929, 36.005906760772909 ], [ 127.708553687094465, 36.008068653973332 ], [ 127.706584909593673, 36.011455995434481 ] ] ] ] } },
{ "type": "Feature", "properties": { "emd_cd": "52730330", "emd_nm": "적상면" }, "geometry": { "type": "MultiPolygon", "coordinates": [ [ [ [ 127.716595570776207, 35.997423955494426 ], [ 127.721780582492187, 35.994516753220019 ], [ 127.723965609549111, 35.995063848944589 ], [ 127.729258552520733, 35.992154439903565 ], [ 127.732992009103299, 35.991950572933376 ], [ 127.736566898213837, 35.98968817043265 ], [ 127.738259916017583, 35.985056461408711 ], [ 127.744297890557263, 35.985332661524019 ], [ 127.749966406189486, 35.979257267109496 ], [ 127.75226757230476, 35.979272305611786 ], [ 127.749745379855071, 35.965190977817976 ], [ 127.74408821440727, 35.961016423390376 ], [ 127.739329861469173, 35.953135303736367 ], [ 127.739379042686508, 35.948459568302198 ], [ 127.743813635633913, 35.94038907324812 ], [ 127.741383149015064, 35.938862841830044 ], [ 127.741374865591297, 35.934840748603179 ], [ 127.739603328276417, 35.933317517012462 ], [ 127.742545513827139, 35.925707385925364 ], [ 127.745551590073617, 35.923295489687192 ], [ 127.74507261013558, 35.919511656181349 ], [ 127.748139588769178, 35.913540467029492 ], [ 127.742333711478963, 35.905726641695956 ], [ 127.741248895996293, 35.899837762690353 ], [ 127.732400689045008, 35.896395008274183 ], [ 127.727806099482962, 35.890840674348041 ], [ 127.717934516394934, 35.885228977438409 ], [ 127.701118221892003, 35.892166814260982 ], [ 127.682726505521288, 35.886151514789809 ], [ 127.680105888625562, 35.883698857724291 ], [ 127.67484343473626, 35.887407104960182 ], [ 127.670005076970313, 35.883264619693414 ], [ 127.663403132397889, 35.881715104114967 ], [ 127.659792424109227, 35.878555101783199 ], [ 127.655928284050233, 35.881366028650646 ], [ 127.650965637130497, 35.881955005384619 ], [ 127.641814686355886, 35.892800403820964 ], [ 127.63577960390657, 35.887088961994941 ], [ 127.624431486232552, 35.887748238056282 ], [ 127.61723254408416, 35.88331329989937 ], [ 127.609059159653739, 35.883973578267366 ], [ 127.604087630903791, 35.886596371167691 ], [ 127.602475554691807, 35.888293621957203 ], [ 127.602366835772443, 35.894896368224451 ], [ 127.6058410834505, 35.909592770413994 ], [ 127.600991632930814, 35.918327782213069 ], [ 127.597414422702158, 35.920573831792396 ], [ 127.597472096735885, 35.922977200906082 ], [ 127.592744008145417, 35.924517779710357 ], [ 127.592399854489173, 35.929695328382749 ], [ 127.588869226343647, 35.936831595386593 ], [ 127.591718346046434, 35.943850089031848 ], [ 127.591506167229596, 35.949089118303561 ], [ 127.584324866860996, 35.957196254269121 ], [ 127.586853327983533, 35.964469258983911 ], [ 127.588884994880473, 35.965031938901305 ], [ 127.593904397488998, 35.972509810679469 ], [ 127.600296102330248, 35.974732531824166 ], [ 127.603846413329691, 35.978389063862458 ], [ 127.61711267394557, 35.971620024352582 ], [ 127.617063001578387, 35.968060637765539 ], [ 127.627337964121438, 35.972490938389186 ], [ 127.633068687519895, 35.967995976949716 ], [ 127.63785381096514, 35.959695967029681 ], [ 127.644756654050482, 35.9578649349599 ], [ 127.646445939553416, 35.955146406311435 ], [ 127.65221809634113, 35.955807680741763 ], [ 127.652625481469713, 35.958184366325334 ], [ 127.656413449906339, 35.960078306449113 ], [ 127.657247356372451, 35.963485419836395 ], [ 127.664562994542123, 35.968494571367245 ], [ 127.667962378468502, 35.975600297001307 ], [ 127.670838916637891, 35.975402483679417 ], [ 127.677637382038881, 35.970469008964393 ], [ 127.683291847848636, 35.974748223846873 ], [ 127.677683942469571, 35.98505796517432 ], [ 127.683890070375838, 35.991138237749865 ], [ 127.688707365930881, 35.990382914460291 ], [ 127.691526916747719, 35.992192777604316 ], [ 127.699495707430756, 35.992393572952722 ], [ 127.70402847685979, 35.990054371423795 ], [ 127.711334491638624, 35.989633336161013 ], [ 127.716595570776207, 35.997423955494426 ] ] ] ] } },
{ "type": "Feature", "properties": { "emd_cd": "52730340", "emd_nm": "안성면" }, "geometry": { "type": "MultiPolygon", "coordinates": [ [ [ [ 127.597909734956701, 35.877487677483785 ], [ 127.601800783326468, 35.880565959752126 ], [ 127.60423257629904, 35.880600736148303 ], [ 127.606974270081636, 35.884948592668074 ], [ 127.61723254408416, 35.88331329989937 ], [ 127.624431486232552, 35.887748238056282 ], [ 127.63577960390657, 35.887088961994941 ], [ 127.641814686355886, 35.892800403820964 ], [ 127.650965637130497, 35.881955005384619 ], [ 127.655928284050233, 35.881366028650646 ], [ 127.659792424109227, 35.878555101783199 ], [ 127.663403132397889, 35.881715104114967 ], [ 127.670005076970313, 35.883264619693414 ], [ 127.67484343473626, 35.887407104960182 ], [ 127.680105888625562, 35.883698857724291 ], [ 127.681898301151151, 35.885792519876965 ], [ 127.687258356084513, 35.886726563589903 ], [ 127.691062559213748, 35.889369261771542 ], [ 127.696547628186934, 35.889705668856649 ], [ 127.702476017673646, 35.892288691275184 ], [ 127.706060384384244, 35.889051397309551 ], [ 127.717594190429395, 35.885555699525092 ], [ 127.718385096478642, 35.880661385808253 ], [ 127.720788819094636, 35.877513929690707 ], [ 127.735027310745537, 35.876009021203238 ], [ 127.740363784014448, 35.870623202497598 ], [ 127.74630420392532, 35.859814267986593 ], [ 127.747295488309149, 35.851483336494709 ], [ 127.743660428320808, 35.847507605724168 ], [ 127.744453018627098, 35.844422619911946 ], [ 127.738045751737602, 35.835186295436834 ], [ 127.739471030873986, 35.829710513697336 ], [ 127.738590254234111, 35.827078829145677 ], [ 127.733315024755342, 35.822271634365052 ], [ 127.72965261991844, 35.813004316966548 ], [ 127.724572407551477, 35.81250001004409 ], [ 127.72401095323616, 35.805282411132147 ], [ 127.720609894536025, 35.801993278978181 ], [ 127.719385808302377, 35.79731602581311 ], [ 127.710483502131439, 35.791800242830533 ], [ 127.706530458772207, 35.79202014573773 ], [ 127.699735225844492, 35.788230995522433 ], [ 127.688209768477719, 35.795523663044534 ], [ 127.686766640306629, 35.803915127672894 ], [ 127.682336042991409, 35.805464057926926 ], [ 127.677296790856232, 35.810260926300629 ], [ 127.670773249161556, 35.809787574265634 ], [ 127.669215524736941, 35.813722537848882 ], [ 127.663514463936295, 35.818080870346847 ], [ 127.65490647153203, 35.811746913523081 ], [ 127.646662569417131, 35.812204937109669 ], [ 127.634260848849664, 35.818534281723068 ], [ 127.630286157618485, 35.812794350953766 ], [ 127.620961664361985, 35.824376380707832 ], [ 127.621150238652078, 35.829263106817173 ], [ 127.622718915737224, 35.831321265320412 ], [ 127.619053659517888, 35.840848924335489 ], [ 127.624839424494212, 35.847391638627712 ], [ 127.621390503342653, 35.85024439272933 ], [ 127.617685432302096, 35.859260921174503 ], [ 127.612814372331798, 35.85845837310022 ], [ 127.608605737704423, 35.861980317957972 ], [ 127.608393671672545, 35.865507272012984 ], [ 127.6042324188424, 35.86595913618342 ], [ 127.603836426436132, 35.868865865452662 ], [ 127.599225573432875, 35.87229269477475 ], [ 127.597909734956701, 35.877487677483785 ] ] ] ] } },
{ "type": "Feature", "properties": { "emd_cd": "52730350", "emd_nm": "부남면" }, "geometry": { "type": "MultiPolygon", "coordinates": [ [ [ [ 127.533156517272815, 36.041134486904745 ], [ 127.540983795231256, 36.038122992152218 ], [ 127.547778956492991, 36.038208744027607 ], [ 127.552203321684928, 36.032770506073831 ], [ 127.55903027502886, 36.033443605559675 ], [ 127.562474907380306, 36.030718162042007 ], [ 127.566330792566518, 36.031220852900759 ], [ 127.574532738154844, 36.023302392732852 ], [ 127.582560315225436, 36.027226430017222 ], [ 127.589770134358929, 36.026046247890164 ], [ 127.591235667444025, 36.025152224068435 ], [ 127.591503219320231, 36.021047151705055 ], [ 127.596297515041158, 36.01900783326721 ], [ 127.600064827530332, 36.011941329362237 ], [ 127.605586260081466, 36.012133912418676 ], [ 127.607517662509878, 36.01035847278429 ], [ 127.606975370345111, 36.007477922790812 ], [ 127.604608454076143, 36.007702406955708 ], [ 127.600092942968516, 36.004180534402344 ], [ 127.599563925107404, 35.997264178139112 ], [ 127.59827212554903, 35.996252565143038 ], [ 127.598951182744372, 35.992562438394032 ], [ 127.597236871637918, 35.990363755627804 ], [ 127.598506379200359, 35.988977451785601 ], [ 127.591884457985628, 35.983713096132377 ], [ 127.595681451497143, 35.977677196891158 ], [ 127.595481488242996, 35.975327427509733 ], [ 127.588884994880473, 35.965031938901305 ], [ 127.586853327983533, 35.964469258983911 ], [ 127.584324866860996, 35.957196254269121 ], [ 127.591506167229596, 35.949089118303561 ], [ 127.591718346046434, 35.943850089031848 ], [ 127.588869226343647, 35.936831595386593 ], [ 127.592399854489173, 35.929695328382749 ], [ 127.592744008145417, 35.924517779710357 ], [ 127.597472096735885, 35.922977200906082 ], [ 127.597414422702158, 35.920573831792396 ], [ 127.600991632930814, 35.918327782213069 ], [ 127.6058410834505, 35.909592770413994 ], [ 127.602272199262003, 35.893564853430547 ], [ 127.602475554691807, 35.888293621957203 ], [ 127.606974270081636, 35.884948592668074 ], [ 127.60423257629904, 35.880600736148303 ], [ 127.593103262101891, 35.881715858680053 ], [ 127.590562948940587, 35.878306036197792 ], [ 127.582396356682864, 35.875226111682345 ], [ 127.574648022370155, 35.878910968765346 ], [ 127.57808209196979, 35.88893053410532 ], [ 127.580606280606247, 35.88892140013899 ], [ 127.581097885375243, 35.8922372488558 ], [ 127.584963364239428, 35.897291289056504 ], [ 127.581728185829093, 35.902428535852465 ], [ 127.581473544953923, 35.905789570095173 ], [ 127.578998247931722, 35.905487547932566 ], [ 127.574914690512813, 35.91002056345296 ], [ 127.56883665414486, 35.912222221349779 ], [ 127.567274234136093, 35.918267362343151 ], [ 127.563135068019605, 35.922855399405883 ], [ 127.555795948678693, 35.922242309286439 ], [ 127.553963683407972, 35.92338082913809 ], [ 127.548567919737579, 35.933060557543655 ], [ 127.55300727892336, 35.937483425733078 ], [ 127.55271255422528, 35.941291567142542 ], [ 127.554882263215632, 35.946942526708554 ], [ 127.552331840545634, 35.947464206028428 ], [ 127.550263116088487, 35.953755859446943 ], [ 127.547899482320219, 35.954240749223274 ], [ 127.545826106255319, 35.958111554085797 ], [ 127.546578929366106, 35.960182261822688 ], [ 127.539504111932558, 35.965102706767247 ], [ 127.536530733351995, 35.971065262077751 ], [ 127.533788731981986, 35.971172255968185 ], [ 127.537398633295808, 35.976199682935231 ], [ 127.536948061558789, 35.978160908392901 ], [ 127.527309378921544, 35.977925075909489 ], [ 127.527007091043075, 35.98293482518622 ], [ 127.524368290530745, 35.985128330142288 ], [ 127.528757604638869, 35.990136167586925 ], [ 127.533640065342254, 35.992007346260138 ], [ 127.536655197707432, 35.996450467304669 ], [ 127.532103912924669, 36.007967381317897 ], [ 127.53306374550526, 36.009634613794432 ], [ 127.539870207834369, 36.011716899434163 ], [ 127.537709923650084, 36.015134353190852 ], [ 127.537918382813075, 36.018539654519792 ], [ 127.536127765761378, 36.019940429136625 ], [ 127.538841610654003, 36.025879093545036 ], [ 127.537395995764427, 36.02703564335971 ], [ 127.537600766848044, 36.032488289477513 ], [ 127.532002799104532, 36.034569000643721 ], [ 127.53081732879761, 36.038938485449357 ], [ 127.533156517272815, 36.041134486904745 ] ] ] ] } }
]
}
