{
"type": "FeatureCollection",
"name": "52740",
"crs": { "type": "name", "properties": { "name": "urn:ogc:def:crs:OGC:1.3:CRS84" } },
"features": [
{ "type": "Feature", "properties": { "emd_cd": "52740250", "emd_nm": "장수읍" }, "geometry": { "type": "MultiPolygon", "coordinates": [ [ [ [ 127.511204114287651, 35.584709962243586 ], [ 127.501550976813022, 35.580661445447724 ], [ 127.499885073698749, 35.583391264707402 ], [ 127.492537364918277, 35.583941308387466 ], [ 127.487634392057601, 35.586446624934197 ], [ 127.483925666411324, 35.57719652504791 ], [ 127.487062512554601, 35.572560184703207 ], [ 127.479979023102132, 35.566971076683842 ], [ 127.482719377706189, 35.561758304770095 ], [ 127.481843120882417, 35.560505517810128 ], [ 127.477058485099249, 35.558418229699619 ], [ 127.467156102553432, 35.562785453823615 ], [ 127.458870720076632, 35.562317823620589 ], [ 127.45845009353539, 35.558127849252415 ], [ 127.447826586443568, 35.552246249924984 ], [ 127.447263211115001, 35.544923231803672 ], [ 127.441027135567737, 35.547733878245829 ], [ 127.439139545422421, 35.553624535060464 ], [ 127.442810897077379, 35.556892826444219 ], [ 127.44361734057658, 35.561370766515815 ], [ 127.449527679403118, 35.563437386642178 ], [ 127.454799878206671, 35.57389064935554 ], [ 127.457525167685731, 35.575347063572401 ], [ 127.4562888384757, 35.577051967924476 ], [ 127.450454269058056, 35.578114416217439 ], [ 127.450878989427835, 35.580831704727963 ], [ 127.446506422979311, 35.584547131161919 ], [ 127.446467235529013, 35.588418216339512 ], [ 127.442651236581625, 35.590091674379998 ], [ 127.44317889607261, 35.592830545635181 ], [ 127.44614556035863, 35.59545605259531 ], [ 127.446616322860407, 35.599372376094038 ], [ 127.443844361392479, 35.604832032250179 ], [ 127.445027554643005, 35.605462850131516 ], [ 127.444004494328851, 35.608518051767071 ], [ 127.441524163656638, 35.611786228567752 ], [ 127.441734810774605, 35.618968070983996 ], [ 127.447174060586363, 35.619873161154423 ], [ 127.45371773311075, 35.618696143877905 ], [ 127.462039156353484, 35.622197613916626 ], [ 127.465677318827446, 35.620578191509864 ], [ 127.468710082223907, 35.621336509274172 ], [ 127.469936285422278, 35.628775789836411 ], [ 127.466325920507927, 35.637441866234951 ], [ 127.47011407382017, 35.644446576231786 ], [ 127.473878908550915, 35.647082733954001 ], [ 127.474100780788348, 35.654595991117695 ], [ 127.477764226485135, 35.658525794232467 ], [ 127.477101206252485, 35.663676859476773 ], [ 127.480065089346454, 35.666644078691647 ], [ 127.485495167619177, 35.667898831548072 ], [ 127.49470241462798, 35.666999264497107 ], [ 127.500130168686908, 35.66958240995401 ], [ 127.503251541907701, 35.673927462321416 ], [ 127.507928781272128, 35.67634419917772 ], [ 127.514684450706284, 35.673388482425366 ], [ 127.518570118830084, 35.67786264534773 ], [ 127.521523445563446, 35.673174920479639 ], [ 127.524128176965732, 35.673169861249086 ], [ 127.535554361350819, 35.681620930540952 ], [ 127.539460630469378, 35.687515200432017 ], [ 127.542112613479674, 35.687422287844136 ], [ 127.544476964952679, 35.686235743298887 ], [ 127.544890903568287, 35.670546080423549 ], [ 127.547279935067863, 35.668313099307341 ], [ 127.561306866982548, 35.668026298433603 ], [ 127.563582150080876, 35.666440884098847 ], [ 127.568638171449777, 35.653249371552803 ], [ 127.572297361913868, 35.652716569147721 ], [ 127.577794943995144, 35.64882500270037 ], [ 127.57946853336432, 35.642638530736782 ], [ 127.582194029088058, 35.640993912079139 ], [ 127.582229798257302, 35.63792317601979 ], [ 127.588630535873477, 35.632007355864282 ], [ 127.594001776710613, 35.630777945283874 ], [ 127.594894086654122, 35.628173097182419 ], [ 127.590206321283944, 35.619262202401892 ], [ 127.580846449198432, 35.614640217664189 ], [ 127.578051970245411, 35.605596849117028 ], [ 127.568477294725369, 35.603732951342863 ], [ 127.56466190331588, 35.605214772234184 ], [ 127.558165152437681, 35.602175626822351 ], [ 127.548019801481061, 35.600904898045997 ], [ 127.545879458298941, 35.599327693059458 ], [ 127.545949659781627, 35.595229240588395 ], [ 127.542685527766707, 35.591998258326448 ], [ 127.536304167995823, 35.595911786654298 ], [ 127.536759761730593, 35.602809893443087 ], [ 127.535193692623523, 35.608928635223549 ], [ 127.521982270552513, 35.608969960695042 ], [ 127.519980126581061, 35.602553129992629 ], [ 127.517198144806102, 35.600733025727727 ], [ 127.513948124961161, 35.595147861227382 ], [ 127.514599379271019, 35.592193379620646 ], [ 127.511204114287651, 35.584709962243586 ] ] ] ] } },
{ "type": "Feature", "properties": { "emd_cd": "52740310", "emd_nm": "산서면" }, "geometry": { "type": "MultiPolygon", "coordinates": [ [ [ [ 127.36175928742756, 35.561886840309015 ], [ 127.366018687227054, 35.569203053783362 ], [ 127.365390260790576, 35.570765413320174 ], [ 127.372319262129921, 35.57157291319438 ], [ 127.378940748653875, 35.576438295281974 ], [ 127.37859253814969, 35.578595610876143 ], [ 127.375973616564011, 35.579122645582196 ], [ 127.377288440124673, 35.579851487459798 ], [ 127.377040379623367, 35.583603127850978 ], [ 127.373876181948262, 35.586665847424378 ], [ 127.37166449723675, 35.586606740607003 ], [ 127.371642447602298, 35.589920955164601 ], [ 127.374933144504411, 35.59809738122815 ], [ 127.372552646405964, 35.606126736747136 ], [ 127.379318912058821, 35.60997095182482 ], [ 127.380088524240435, 35.613482257427883 ], [ 127.38460224489944, 35.613542020982777 ], [ 127.387934707540438, 35.615518438387809 ], [ 127.400219046539931, 35.612778648366728 ], [ 127.410138431323517, 35.614855082571495 ], [ 127.414303017918968, 35.613693585404377 ], [ 127.419768369963933, 35.615166288705261 ], [ 127.425861326715903, 35.614623791529752 ], [ 127.436149030871945, 35.622027745581491 ], [ 127.441734810774605, 35.618968070983996 ], [ 127.441524163656638, 35.611786228567752 ], [ 127.444004494328851, 35.608518051767071 ], [ 127.445027554643005, 35.605462850131516 ], [ 127.443844361392479, 35.604832032250179 ], [ 127.446616322860407, 35.599372376094038 ], [ 127.44614556035863, 35.59545605259531 ], [ 127.44317889607261, 35.592830545635181 ], [ 127.442651236581625, 35.590091674379998 ], [ 127.446467235529013, 35.588418216339512 ], [ 127.446506422979311, 35.584547131161919 ], [ 127.450878989427835, 35.580831704727963 ], [ 127.450454269058056, 35.578114416217439 ], [ 127.4562888384757, 35.577051967924476 ], [ 127.457525167685731, 35.575347063572401 ], [ 127.454799878206671, 35.57389064935554 ], [ 127.449527679403118, 35.563437386642178 ], [ 127.44361734057658, 35.561370766515815 ], [ 127.442810897077379, 35.556892826444219 ], [ 127.439139545422421, 35.553624535060464 ], [ 127.440282329431071, 35.551571802027411 ], [ 127.424254917399239, 35.550419128878247 ], [ 127.419957464687641, 35.552969450891318 ], [ 127.413453795135624, 35.560244234337027 ], [ 127.410496371589048, 35.560785548876517 ], [ 127.405610592779297, 35.560007936911063 ], [ 127.401373765786474, 35.553634522015727 ], [ 127.398126692068459, 35.552653379620445 ], [ 127.402644604219773, 35.548370588978507 ], [ 127.398210938102096, 35.547040273054769 ], [ 127.396839026371538, 35.548240302790376 ], [ 127.391435170904728, 35.545771196973725 ], [ 127.387388939785382, 35.547198850869421 ], [ 127.384135944762448, 35.546090455716531 ], [ 127.374053330344182, 35.550320164843967 ], [ 127.368680660364888, 35.555594514790378 ], [ 127.36365640722282, 35.557953314590925 ], [ 127.36175928742756, 35.561886840309015 ] ] ] ] } },
{ "type": "Feature", "properties": { "emd_cd": "52740320", "emd_nm": "번암면" }, "geometry": { "type": "MultiPolygon", "coordinates": [ [ [ [ 127.458870720076632, 35.562317823620589 ], [ 127.470476450616573, 35.561913993115994 ], [ 127.477058485099249, 35.558418229699619 ], [ 127.481843120882417, 35.560505517810128 ], [ 127.482719377706189, 35.561758304770095 ], [ 127.479979023102132, 35.566971076683842 ], [ 127.487062512554601, 35.572560184703207 ], [ 127.483925666411324, 35.57719652504791 ], [ 127.487634392057601, 35.586446624934197 ], [ 127.492537364918277, 35.583941308387466 ], [ 127.499885073698749, 35.583391264707402 ], [ 127.501550976813022, 35.580661445447724 ], [ 127.511204114287651, 35.584709962243586 ], [ 127.514599379271019, 35.592193379620646 ], [ 127.513948124961161, 35.595147861227382 ], [ 127.517198144806102, 35.600733025727727 ], [ 127.519980126581061, 35.602553129992629 ], [ 127.521982270552513, 35.608969960695042 ], [ 127.535193692623523, 35.608928635223549 ], [ 127.536759761730593, 35.602809893443087 ], [ 127.536304167995823, 35.595911786654298 ], [ 127.542685527766707, 35.591998258326448 ], [ 127.545949659781627, 35.595229240588395 ], [ 127.545879458298941, 35.599327693059458 ], [ 127.548019801481061, 35.600904898045997 ], [ 127.558165152437681, 35.602175626822351 ], [ 127.56466190331588, 35.605214772234184 ], [ 127.568477294725369, 35.603732951342863 ], [ 127.578051970245411, 35.605596849117028 ], [ 127.580846449198432, 35.614640217664189 ], [ 127.590206321283944, 35.619262202401892 ], [ 127.595110022263256, 35.629078015221289 ], [ 127.599865227901319, 35.631107235143823 ], [ 127.60435439692067, 35.635164195064398 ], [ 127.604511648681452, 35.637815195592992 ], [ 127.613185808412936, 35.643822834849168 ], [ 127.620058801343774, 35.642803489971399 ], [ 127.623460388785546, 35.639658358701922 ], [ 127.625324222213735, 35.635810646087393 ], [ 127.624095020993295, 35.631778424054303 ], [ 127.63537368814255, 35.618517256122253 ], [ 127.629247195795017, 35.618359634065932 ], [ 127.62567900313627, 35.615081549267053 ], [ 127.62134884918153, 35.61504576298848 ], [ 127.61748823373587, 35.609782735327848 ], [ 127.61302374450446, 35.608378125386089 ], [ 127.612026051135686, 35.602652102824635 ], [ 127.613067076623395, 35.599144456247174 ], [ 127.608876563556848, 35.597724443703967 ], [ 127.607583002530845, 35.594985067768654 ], [ 127.611205667555438, 35.583961356138836 ], [ 127.606357536091593, 35.581742204495072 ], [ 127.604883009438765, 35.577749628256001 ], [ 127.596077257579196, 35.573935554629614 ], [ 127.592259344184086, 35.567009364122917 ], [ 127.588550944243067, 35.565025155514981 ], [ 127.587166418042173, 35.557251222366801 ], [ 127.584177812811063, 35.552768938381561 ], [ 127.578602177339562, 35.547580366313959 ], [ 127.572858033762543, 35.546100615860347 ], [ 127.571586303328218, 35.53482050368185 ], [ 127.568701735363874, 35.533381082261165 ], [ 127.568414855251405, 35.524731704457146 ], [ 127.570060520852735, 35.523713797851514 ], [ 127.570888425553079, 35.518949753026 ], [ 127.578473452295526, 35.516170178377187 ], [ 127.579940233345923, 35.514065671919042 ], [ 127.580216655048744, 35.501981268885885 ], [ 127.575385260404119, 35.499891556309123 ], [ 127.577397888078764, 35.498879967784227 ], [ 127.562676905459469, 35.491520239191978 ], [ 127.563933448202704, 35.488992893331208 ], [ 127.559633043089349, 35.480139465781633 ], [ 127.562381487133905, 35.47526874769374 ], [ 127.558590880511403, 35.471110649176211 ], [ 127.553771392974554, 35.471329632589395 ], [ 127.543823926030001, 35.468091749246717 ], [ 127.541150717333949, 35.469936162744879 ], [ 127.541599954682894, 35.471646450551319 ], [ 127.536082928015716, 35.470343731095141 ], [ 127.524907246372408, 35.473241086588509 ], [ 127.521750443725836, 35.476879851883872 ], [ 127.515016643362486, 35.479025572754523 ], [ 127.513969181061569, 35.480148531873247 ], [ 127.515338272353048, 35.481133286595608 ], [ 127.526799268863584, 35.48584411305837 ], [ 127.526906763032841, 35.490064263315233 ], [ 127.528273490447233, 35.491043714189594 ], [ 127.527291017676845, 35.495793679285867 ], [ 127.522223310343477, 35.496283688695044 ], [ 127.520359765186654, 35.497942036013583 ], [ 127.515354918193196, 35.497502228391404 ], [ 127.517148308661277, 35.498461798151098 ], [ 127.513221871003879, 35.501742623546932 ], [ 127.513339708839368, 35.508847845356456 ], [ 127.503649395740354, 35.514524437166997 ], [ 127.501090956079565, 35.518247886673876 ], [ 127.501633067921887, 35.521729690026369 ], [ 127.495997443491405, 35.522595099520657 ], [ 127.491311192371455, 35.527014150441076 ], [ 127.49240222713992, 35.534032702865062 ], [ 127.482582199850199, 35.538854299104706 ], [ 127.476560885575879, 35.538367049601376 ], [ 127.471038804984673, 35.54080332473054 ], [ 127.467016998016831, 35.546596977898389 ], [ 127.461069357593004, 35.545261382073001 ], [ 127.456303818585667, 35.546530932557417 ], [ 127.452762651398402, 35.540059148144167 ], [ 127.448272097967262, 35.543323101254188 ], [ 127.446615839864762, 35.549006210504821 ], [ 127.447826586443568, 35.552246249924984 ], [ 127.45845009353539, 35.558127849252415 ], [ 127.458870720076632, 35.562317823620589 ] ] ] ] } },
{ "type": "Feature", "properties": { "emd_cd": "52740335", "emd_nm": "장계면" }, "geometry": { "type": "MultiPolygon", "coordinates": [ [ [ [ 127.563618584629268, 35.778499106108022 ], [ 127.564823486117618, 35.777316510927903 ], [ 127.574167509327125, 35.777346397891385 ], [ 127.580217666370018, 35.77175576663948 ], [ 127.578862708726589, 35.767557677559481 ], [ 127.579807313380158, 35.765005282867456 ], [ 127.585170248882179, 35.766295767896118 ], [ 127.590714773838826, 35.763951011957317 ], [ 127.593947794666917, 35.76445524096799 ], [ 127.603532980996363, 35.756488792890558 ], [ 127.616075453450335, 35.751567663200447 ], [ 127.619519274580782, 35.748743765355528 ], [ 127.626958825079001, 35.752217732988939 ], [ 127.629973056172886, 35.757736304682737 ], [ 127.632321191142523, 35.758520165782336 ], [ 127.632568702081471, 35.76118871155235 ], [ 127.641735141651409, 35.765164665176322 ], [ 127.647602153562602, 35.771208545430255 ], [ 127.656312017949702, 35.772469522001728 ], [ 127.659674562514894, 35.775269263864566 ], [ 127.66446949209751, 35.77474001513373 ], [ 127.669228872519099, 35.771361917852985 ], [ 127.665478037829516, 35.768815456570358 ], [ 127.661929402768621, 35.760818310270949 ], [ 127.663299960832958, 35.755954372756584 ], [ 127.661496634617976, 35.749203736266715 ], [ 127.662838990680342, 35.741604511030211 ], [ 127.660126541105925, 35.737508671938322 ], [ 127.663261950055599, 35.725091675620554 ], [ 127.659695893597686, 35.715926279013097 ], [ 127.660863469917231, 35.709932257403494 ], [ 127.657440300143094, 35.705827414924798 ], [ 127.65531890537838, 35.706377014834153 ], [ 127.649399619919024, 35.703757175094232 ], [ 127.649656660693452, 35.70137739028214 ], [ 127.645018416854001, 35.698569065614954 ], [ 127.645050538895831, 35.695984328058628 ], [ 127.641646423121117, 35.69291591230246 ], [ 127.642165178138953, 35.689854243501948 ], [ 127.639384574556701, 35.686279663657523 ], [ 127.640546600711261, 35.684406519313626 ], [ 127.638901250439858, 35.678912710593849 ], [ 127.640134605273857, 35.672218870463283 ], [ 127.637734949562613, 35.668972781626032 ], [ 127.62874435747635, 35.664102951868998 ], [ 127.627715607080106, 35.662276979182501 ], [ 127.629310976461397, 35.656688410709656 ], [ 127.622192441264573, 35.6509764961542 ], [ 127.620058801343774, 35.642803489971399 ], [ 127.613614130003938, 35.643308821425308 ], [ 127.61230859369546, 35.646341157680205 ], [ 127.611853180358466, 35.656958363565273 ], [ 127.612911386137057, 35.658048697151706 ], [ 127.61041307398088, 35.664479372252778 ], [ 127.612206092301264, 35.670719306047431 ], [ 127.610737169461132, 35.67423778940308 ], [ 127.61286327096812, 35.682337531484542 ], [ 127.606904651781193, 35.68971456220082 ], [ 127.609035330478534, 35.697799772700634 ], [ 127.603711241206113, 35.703305529846972 ], [ 127.604599652285017, 35.707789202585701 ], [ 127.59779467049772, 35.712997363981962 ], [ 127.597056377268501, 35.716398355664005 ], [ 127.589103274794653, 35.726691034532259 ], [ 127.582810407593655, 35.727575610173091 ], [ 127.577815555667954, 35.730605382366285 ], [ 127.573465089663969, 35.739611574901978 ], [ 127.562463388208684, 35.750060845375145 ], [ 127.552844731866628, 35.746813921894422 ], [ 127.554007367864045, 35.749814652328141 ], [ 127.551630062063523, 35.750418409179872 ], [ 127.552739798696464, 35.756201663566706 ], [ 127.558485520411637, 35.76220994276423 ], [ 127.559694603689948, 35.767801909315004 ], [ 127.554488831964832, 35.771457342464927 ], [ 127.555315746950114, 35.776713863733143 ], [ 127.563618584629268, 35.778499106108022 ] ], [ [ 127.650720752223322, 35.771081790558789 ], [ 127.650767493695113, 35.771119399493031 ], [ 127.650720982162383, 35.771119605513938 ], [ 127.650720752223322, 35.771081790558789 ] ] ] ] } },
{ "type": "Feature", "properties": { "emd_cd": "52740340", "emd_nm": "천천면" }, "geometry": { "type": "MultiPolygon", "coordinates": [ [ [ [ 127.556015035278818, 35.717156098359858 ], [ 127.554338298259239, 35.713292020068458 ], [ 127.546134523022687, 35.707016704596235 ], [ 127.550377477127782, 35.697351438472502 ], [ 127.545040640581732, 35.686774281358524 ], [ 127.539460630469378, 35.687515200432017 ], [ 127.535554361350819, 35.681620930540952 ], [ 127.524675111374492, 35.673358184648215 ], [ 127.521523445563446, 35.673174920479639 ], [ 127.518570118830084, 35.67786264534773 ], [ 127.514684450706284, 35.673388482425366 ], [ 127.507928781272128, 35.67634419917772 ], [ 127.503251541907701, 35.673927462321416 ], [ 127.500130168686908, 35.66958240995401 ], [ 127.49470241462798, 35.666999264497107 ], [ 127.485495167619177, 35.667898831548072 ], [ 127.480065089346454, 35.666644078691647 ], [ 127.476605538024131, 35.661139608500818 ], [ 127.4640505041978, 35.667457130036233 ], [ 127.464018861565663, 35.669542182811384 ], [ 127.45954129636803, 35.673292405713951 ], [ 127.466571461755592, 35.68481786586694 ], [ 127.464593790644045, 35.693061396240672 ], [ 127.472047127685315, 35.696855383978779 ], [ 127.477585403810039, 35.702191922710405 ], [ 127.478363325211077, 35.706001598039229 ], [ 127.476021001636568, 35.718332873897587 ], [ 127.47857861052583, 35.721307825300698 ], [ 127.483419025015763, 35.722366165073389 ], [ 127.484224234670791, 35.725426705431978 ], [ 127.487648324212586, 35.727254255227471 ], [ 127.491892343232308, 35.734445979367827 ], [ 127.503142535382779, 35.741217388156137 ], [ 127.508784208958843, 35.746964676465467 ], [ 127.51953039288378, 35.750274521337225 ], [ 127.522436060464827, 35.754299074863724 ], [ 127.522789693556675, 35.756418235911632 ], [ 127.519095849587643, 35.758365670772548 ], [ 127.517363741617345, 35.767488734486619 ], [ 127.512878916436435, 35.771159891808743 ], [ 127.513614794097862, 35.77377281200679 ], [ 127.511158338358399, 35.777200418938236 ], [ 127.513385745831044, 35.786327707025102 ], [ 127.512658384176561, 35.790219002951737 ], [ 127.510803858836894, 35.791592416428259 ], [ 127.513173794112944, 35.799392770792764 ], [ 127.518371317577802, 35.802975523463886 ], [ 127.520068251602297, 35.807262038033365 ], [ 127.519392855382691, 35.809509365124669 ], [ 127.522701399067984, 35.813095655076431 ], [ 127.533196225730421, 35.815342565865926 ], [ 127.541190521248623, 35.810204162954932 ], [ 127.543016594099413, 35.806738409781488 ], [ 127.544536041358285, 35.807787165119436 ], [ 127.55001520118536, 35.805755932192071 ], [ 127.553507021428189, 35.80801399493825 ], [ 127.55982069322269, 35.798682964712654 ], [ 127.564099280769369, 35.79899942735296 ], [ 127.567800376406083, 35.797043853594403 ], [ 127.570956670261054, 35.792880922421993 ], [ 127.576330648599139, 35.795149901312961 ], [ 127.579048299614215, 35.789686537978035 ], [ 127.579052389625176, 35.786217228723785 ], [ 127.574167509327125, 35.777346397891385 ], [ 127.556644703751275, 35.777951746968903 ], [ 127.554123234066964, 35.773159327999096 ], [ 127.559592020857053, 35.767202793220306 ], [ 127.558485520411637, 35.76220994276423 ], [ 127.552739798696464, 35.756201663566706 ], [ 127.551236492470409, 35.748606672255299 ], [ 127.54917989118978, 35.746713030541549 ], [ 127.55550584651175, 35.743611180419101 ], [ 127.55922993182844, 35.738291918460185 ], [ 127.554213026890295, 35.728048896203326 ], [ 127.556015035278818, 35.717156098359858 ] ] ] ] } },
{ "type": "Feature", "properties": { "emd_cd": "52740350", "emd_nm": "계남면" }, "geometry": { "type": "MultiPolygon", "coordinates": [ [ [ [ 127.55236928085273, 35.750518652363667 ], [ 127.554007367864045, 35.749814652328141 ], [ 127.553419753085421, 35.746303618543095 ], [ 127.562463388208684, 35.750060845375145 ], [ 127.573465089663969, 35.739611574901978 ], [ 127.578216436543642, 35.730204061921143 ], [ 127.582810407593655, 35.727575610173091 ], [ 127.589103274794653, 35.726691034532259 ], [ 127.597056377268501, 35.716398355664005 ], [ 127.59779467049772, 35.712997363981962 ], [ 127.604599652285017, 35.707789202585701 ], [ 127.605223343053652, 35.70608391849121 ], [ 127.6035801626536, 35.703628952639612 ], [ 127.605054057710646, 35.7007899483323 ], [ 127.608796036368574, 35.698816588860396 ], [ 127.609048033271989, 35.695508135582124 ], [ 127.606749518233144, 35.690303395402417 ], [ 127.61286327096812, 35.682337531484542 ], [ 127.610737169461132, 35.67423778940308 ], [ 127.612206092301264, 35.670719306047431 ], [ 127.61041307398088, 35.664479372252778 ], [ 127.612911386137057, 35.658048697151706 ], [ 127.611524734313846, 35.650540579322154 ], [ 127.613185808412936, 35.643822834849168 ], [ 127.604511648681452, 35.637815195592992 ], [ 127.60435439692067, 35.635164195064398 ], [ 127.599865227901319, 35.631107235143823 ], [ 127.595539631265041, 35.629002849730199 ], [ 127.594001776710613, 35.630777945283874 ], [ 127.588630535873477, 35.632007355864282 ], [ 127.582229798257302, 35.63792317601979 ], [ 127.582194029088058, 35.640993912079139 ], [ 127.57946853336432, 35.642638530736782 ], [ 127.577794943995144, 35.64882500270037 ], [ 127.572297361913868, 35.652716569147721 ], [ 127.568638171449777, 35.653249371552803 ], [ 127.563582150080876, 35.666440884098847 ], [ 127.561306866982548, 35.668026298433603 ], [ 127.547279935067863, 35.668313099307341 ], [ 127.544890903568287, 35.670546080423549 ], [ 127.543778614778915, 35.683822092838263 ], [ 127.550377477127782, 35.697351438472502 ], [ 127.546134523022687, 35.707016704596235 ], [ 127.555881746501711, 35.715292795508446 ], [ 127.554213026890295, 35.728048896203326 ], [ 127.55922993182844, 35.738291918460185 ], [ 127.55550584651175, 35.743611180419101 ], [ 127.54917989118978, 35.746713030541549 ], [ 127.55236928085273, 35.750518652363667 ] ] ] ] } },
{ "type": "Feature", "properties": { "emd_cd": "52740360", "emd_nm": "계북면" }, "geometry": { "type": "MultiPolygon", "coordinates": [ [ [ [ 127.650767493695113, 35.771119399493031 ], [ 127.650720752223322, 35.771081790558789 ], [ 127.650720982162383, 35.771119605513938 ], [ 127.650767493695113, 35.771119399493031 ] ] ], [ [ [ 127.619543074342417, 35.839046839468409 ], [ 127.622714765726343, 35.831321286771043 ], [ 127.621157524916072, 35.829267926918362 ], [ 127.621030153114759, 35.824120085226525 ], [ 127.630277131168469, 35.812805861926449 ], [ 127.634258697476341, 35.818539267880745 ], [ 127.646479316155876, 35.812286599300265 ], [ 127.65478475273062, 35.811782119495852 ], [ 127.662799242408667, 35.818048081883838 ], [ 127.669084458031051, 35.81394920579843 ], [ 127.670817329251904, 35.809828524394909 ], [ 127.677306513657683, 35.810295875671308 ], [ 127.682344630821291, 35.805468245105835 ], [ 127.686748562710818, 35.803920259615502 ], [ 127.688208168728892, 35.795458593775486 ], [ 127.69976872539948, 35.788124256573873 ], [ 127.684826121676053, 35.777677360637064 ], [ 127.679407673711012, 35.768397620136014 ], [ 127.675582402274074, 35.770870356323179 ], [ 127.669228872519099, 35.771361917852985 ], [ 127.66446949209751, 35.77474001513373 ], [ 127.659674562514894, 35.775269263864566 ], [ 127.656312017949702, 35.772469522001728 ], [ 127.647602153562602, 35.771208545430255 ], [ 127.641735141651409, 35.765164665176322 ], [ 127.633565313087672, 35.76207577558506 ], [ 127.627596161257728, 35.752801066910287 ], [ 127.619519274580782, 35.748743765355528 ], [ 127.616075453450335, 35.751567663200447 ], [ 127.603532980996363, 35.756488792890558 ], [ 127.593947794666917, 35.76445524096799 ], [ 127.590714773838826, 35.763951011957317 ], [ 127.585170248882179, 35.766295767896118 ], [ 127.579807313380158, 35.765005282867456 ], [ 127.578862708726589, 35.767557677559481 ], [ 127.580217666370018, 35.77175576663948 ], [ 127.574167509327125, 35.777346397891385 ], [ 127.579052389625176, 35.786217228723785 ], [ 127.579048299614215, 35.789686537978035 ], [ 127.576330648599139, 35.795149901312961 ], [ 127.579090196563129, 35.793989032100384 ], [ 127.585485099406995, 35.798034440832026 ], [ 127.585565438667288, 35.800889828998862 ], [ 127.589539513229838, 35.800778809854457 ], [ 127.592010642960688, 35.80314713187358 ], [ 127.591078372681864, 35.805949172074897 ], [ 127.594562566692332, 35.808449193391617 ], [ 127.598376151929088, 35.805306481385479 ], [ 127.600234026390552, 35.805815889524382 ], [ 127.605303085067092, 35.827671517761338 ], [ 127.609757023181359, 35.833438923932661 ], [ 127.619543074342417, 35.839046839468409 ] ] ] ] } }
]
}
