{
"type": "FeatureCollection",
"name": "52790",
"crs": { "type": "name", "properties": { "name": "urn:ogc:def:crs:OGC:1.3:CRS84" } },
"features": [
{ "type": "Feature", "properties": { "emd_cd": "52790250", "emd_nm": "고창읍" }, "geometry": { "type": "MultiPolygon", "coordinates": [ [ [ [ 126.644219828186905, 35.449727861310492 ], [ 126.659403834655478, 35.45732443217215 ], [ 126.664808240218932, 35.465747750282162 ], [ 126.672634788008438, 35.461809715690777 ], [ 126.683147466424359, 35.464021211030285 ], [ 126.68701649032657, 35.463320167717065 ], [ 126.687560971010186, 35.455184830829893 ], [ 126.710818613023989, 35.455426411171999 ], [ 126.716457797569248, 35.44998191182853 ], [ 126.722535658626953, 35.447536455591376 ], [ 126.728603604561542, 35.451164427251328 ], [ 126.738263075326145, 35.44937893760013 ], [ 126.74433159688104, 35.440734225385313 ], [ 126.748575163116627, 35.439559686560969 ], [ 126.751722213593396, 35.435955751760552 ], [ 126.751114793848572, 35.432977520910569 ], [ 126.752966583962561, 35.429876934195264 ], [ 126.751963084061103, 35.42308387205702 ], [ 126.754726850311229, 35.417525288851287 ], [ 126.749122411609875, 35.415552139005953 ], [ 126.744536383668503, 35.408709155971898 ], [ 126.737791723509801, 35.405813203956335 ], [ 126.736805801622268, 35.403206853788149 ], [ 126.722540884645127, 35.400051816413061 ], [ 126.721470184678168, 35.397679819468934 ], [ 126.718315908720442, 35.396158610933178 ], [ 126.710330702686903, 35.396307692986603 ], [ 126.705379024613578, 35.397958450177036 ], [ 126.703557990684331, 35.403515459511212 ], [ 126.701666853392112, 35.404560793530969 ], [ 126.690577321815695, 35.405324271315706 ], [ 126.688940215123694, 35.416987801483238 ], [ 126.683607239740027, 35.423997888162845 ], [ 126.666815941188247, 35.431686401461477 ], [ 126.665115681797474, 35.433770486577458 ], [ 126.657840020178952, 35.431545476988752 ], [ 126.657474946897892, 35.429378621251374 ], [ 126.655321211756203, 35.428180117888516 ], [ 126.654107257181906, 35.433621821616342 ], [ 126.648674260901998, 35.4376992145719 ], [ 126.650997541011577, 35.444118666192615 ], [ 126.646151567708884, 35.446362094231006 ], [ 126.644219828186905, 35.449727861310492 ] ] ] ] } },
{ "type": "Feature", "properties": { "emd_cd": "52790310", "emd_nm": "고수면" }, "geometry": { "type": "MultiPolygon", "coordinates": [ [ [ [ 126.652217426740435, 35.424719296763499 ], [ 126.657474946897892, 35.429378621251374 ], [ 126.657840020178952, 35.431545476988752 ], [ 126.665545583596668, 35.433690430229689 ], [ 126.666815941188247, 35.431686401461477 ], [ 126.676802649160663, 35.427770065571721 ], [ 126.685974258787525, 35.421928286808324 ], [ 126.69039433882557, 35.412664719063912 ], [ 126.689387568839635, 35.407576035814614 ], [ 126.690577321815695, 35.405324271315706 ], [ 126.701666853392112, 35.404560793530969 ], [ 126.703557990684331, 35.403515459511212 ], [ 126.705379024613578, 35.397958450177036 ], [ 126.711312408019268, 35.396059416865612 ], [ 126.718315908720442, 35.396158610933178 ], [ 126.721802277720798, 35.398358710871953 ], [ 126.726518297328155, 35.39711897838108 ], [ 126.729808687055538, 35.394498789438735 ], [ 126.729873023705352, 35.389104161249314 ], [ 126.732080357661829, 35.384025386973065 ], [ 126.731186541987086, 35.376759554301671 ], [ 126.719519941150494, 35.36489093959667 ], [ 126.710337298822566, 35.364026545399291 ], [ 126.70458882761794, 35.365157716382072 ], [ 126.699317618357568, 35.349925986869714 ], [ 126.691628287589452, 35.351937615181185 ], [ 126.68572213545292, 35.34447919476051 ], [ 126.681844370015426, 35.347373477977278 ], [ 126.666465611292324, 35.35142716271136 ], [ 126.668023071485791, 35.358695421047628 ], [ 126.663908883792146, 35.365915109575134 ], [ 126.664617779536385, 35.369247141100033 ], [ 126.662764273879574, 35.370826567144228 ], [ 126.665459322174385, 35.373346817804951 ], [ 126.663011742924169, 35.375437397285516 ], [ 126.661892708696314, 35.381676674133146 ], [ 126.654386146460567, 35.387133683848496 ], [ 126.655333134015166, 35.390952970500301 ], [ 126.65091666163697, 35.392366540176418 ], [ 126.651393847755699, 35.39406808040534 ], [ 126.649114549621672, 35.394506099871521 ], [ 126.649434307492754, 35.395596097689243 ], [ 126.641213499404557, 35.395807189415386 ], [ 126.636648042845167, 35.398546233880914 ], [ 126.635913277657295, 35.402466630679349 ], [ 126.630223878849975, 35.410740638381014 ], [ 126.633841347598192, 35.411791065370238 ], [ 126.63605200082516, 35.419581492103262 ], [ 126.638377380330382, 35.420052516596002 ], [ 126.64228980440096, 35.425128965929829 ], [ 126.652217426740435, 35.424719296763499 ] ] ] ] } },
{ "type": "Feature", "properties": { "emd_cd": "52790320", "emd_nm": "아산면" }, "geometry": { "type": "MultiPolygon", "coordinates": [ [ [ [ 126.569729442854594, 35.450688273084118 ], [ 126.57108911472308, 35.460875849104035 ], [ 126.568471100007272, 35.464676643912959 ], [ 126.564692971435889, 35.467158344279163 ], [ 126.559800160343102, 35.463569990240856 ], [ 126.555957545977336, 35.465464281918088 ], [ 126.555239118958241, 35.471137836981569 ], [ 126.559593647380339, 35.476361376264656 ], [ 126.559745038943035, 35.481031101673139 ], [ 126.559567360614892, 35.484447330563334 ], [ 126.556311558202268, 35.487508542444246 ], [ 126.55603704389145, 35.48972300474675 ], [ 126.563312839099339, 35.497205641548256 ], [ 126.566632055326465, 35.496905583415632 ], [ 126.569168882617774, 35.498785524898558 ], [ 126.567516352993039, 35.504031228197242 ], [ 126.571317516153144, 35.507488943907227 ], [ 126.577152462528659, 35.518072145731743 ], [ 126.588407984708638, 35.518088558234147 ], [ 126.593039860101214, 35.511577360269385 ], [ 126.595743736359736, 35.512722500763829 ], [ 126.598476965364753, 35.508144921059078 ], [ 126.598057683891781, 35.509643454040713 ], [ 126.61165772002326, 35.506677788830793 ], [ 126.61401836632642, 35.509160411558049 ], [ 126.617056627561752, 35.507996661505771 ], [ 126.620680603255579, 35.50562632633455 ], [ 126.621503428413391, 35.499968690465039 ], [ 126.624960178915956, 35.499018517883421 ], [ 126.627446734529244, 35.501043415760492 ], [ 126.628835747418222, 35.497665263067219 ], [ 126.63593016200852, 35.493523606204946 ], [ 126.647587329415941, 35.499100559896306 ], [ 126.650798115774265, 35.498553715224297 ], [ 126.656647738990927, 35.492123161123864 ], [ 126.658072987612883, 35.488420767232853 ], [ 126.663647034168577, 35.486117517056478 ], [ 126.666849523345689, 35.481604208620496 ], [ 126.666816955495278, 35.476223773923635 ], [ 126.66966918275368, 35.473635024258613 ], [ 126.66816050106388, 35.467781964783271 ], [ 126.663641113131348, 35.464556590312519 ], [ 126.661142296857705, 35.458745167712287 ], [ 126.65359720298899, 35.453403661229792 ], [ 126.644219828186905, 35.449727861310492 ], [ 126.646151567708884, 35.446362094231006 ], [ 126.650997541011577, 35.444118666192615 ], [ 126.648674260901998, 35.4376992145719 ], [ 126.654355449561763, 35.433249339802693 ], [ 126.655506102332055, 35.427098104022065 ], [ 126.65186856906773, 35.424644217939026 ], [ 126.64228980440096, 35.425128965929829 ], [ 126.638377380330382, 35.420052516596002 ], [ 126.63605200082516, 35.419581492103262 ], [ 126.633841347598192, 35.411791065370238 ], [ 126.631715051180265, 35.411498896456713 ], [ 126.628670070251928, 35.415586323991711 ], [ 126.626731775723385, 35.414605082529732 ], [ 126.622374111122809, 35.415800799014093 ], [ 126.619144255056369, 35.424059926076076 ], [ 126.617120934776395, 35.423978218189809 ], [ 126.61695654847415, 35.426735605980866 ], [ 126.61434895252448, 35.426122219524103 ], [ 126.611263461541867, 35.421613801164916 ], [ 126.601289120201457, 35.421411404904703 ], [ 126.593025915770994, 35.428462058230799 ], [ 126.587797620607219, 35.427452565447886 ], [ 126.584573732740168, 35.429599395748397 ], [ 126.582302272136744, 35.429201980142878 ], [ 126.58066304826211, 35.436108668198329 ], [ 126.582979089500611, 35.438487327591986 ], [ 126.580386515265317, 35.442765277194397 ], [ 126.580355391996662, 35.446520926659105 ], [ 126.577656579921324, 35.450026826026061 ], [ 126.573095687651502, 35.449316989426734 ], [ 126.569729442854594, 35.450688273084118 ] ], [ [ 126.59673705925303, 35.510157293492185 ], [ 126.596541964157083, 35.510297583270052 ], [ 126.596773937960563, 35.510054885973034 ], [ 126.59673705925303, 35.510157293492185 ] ] ] ] } },
{ "type": "Feature", "properties": { "emd_cd": "52790330", "emd_nm": "무장면" }, "geometry": { "type": "MultiPolygon", "coordinates": [ [ [ [ 126.621344931719946, 35.417740759841593 ], [ 126.612737695827477, 35.400740882116118 ], [ 126.613021728785228, 35.397765791847412 ], [ 126.620740025207226, 35.392055337646177 ], [ 126.622284822423794, 35.386427817408631 ], [ 126.61962790996742, 35.384097062931794 ], [ 126.619404649085482, 35.382620807183763 ], [ 126.621287677923789, 35.382157251530359 ], [ 126.620341741080878, 35.379848646695073 ], [ 126.616920606571881, 35.374314037804844 ], [ 126.608442763298527, 35.371076090705245 ], [ 126.600966850932124, 35.372142617002943 ], [ 126.596551629900503, 35.381605033188357 ], [ 126.588259380037783, 35.383058388106477 ], [ 126.585333929812606, 35.38651440939821 ], [ 126.579400905082466, 35.38472662872114 ], [ 126.57692735319182, 35.38980520164511 ], [ 126.577923365097575, 35.394628367919495 ], [ 126.570950148919124, 35.395195197928984 ], [ 126.567870265282963, 35.398351504765991 ], [ 126.563126289186044, 35.394662557857835 ], [ 126.563763753309786, 35.392262516341489 ], [ 126.560667453390792, 35.39051366849597 ], [ 126.553961389778308, 35.389996541562418 ], [ 126.553934677448552, 35.392495163088832 ], [ 126.551883258883848, 35.393490245528028 ], [ 126.547227078287534, 35.39033819152467 ], [ 126.5476029323235, 35.389163448165213 ], [ 126.542456246306088, 35.387893059932743 ], [ 126.540550298381902, 35.391597056410617 ], [ 126.544356596907861, 35.401604906837058 ], [ 126.543272825220441, 35.403938533152612 ], [ 126.530381695135546, 35.406179849974606 ], [ 126.530631547126077, 35.408365321529985 ], [ 126.526937515008896, 35.409912020020464 ], [ 126.528602792816031, 35.414694300545484 ], [ 126.526048441540823, 35.42034521844564 ], [ 126.529558220766404, 35.423398848662032 ], [ 126.530945201707681, 35.429665709086287 ], [ 126.530057131157946, 35.433325665003196 ], [ 126.525661616031286, 35.435056972051932 ], [ 126.527534466922617, 35.442705557187587 ], [ 126.529912889169026, 35.444290650159616 ], [ 126.539791441464843, 35.442315306952487 ], [ 126.544967463393391, 35.445542539370308 ], [ 126.546801621428443, 35.442521913939785 ], [ 126.549477064247796, 35.443266438451204 ], [ 126.56100348944328, 35.438923950829135 ], [ 126.563114204552093, 35.44207573757943 ], [ 126.568845883367615, 35.445647317017993 ], [ 126.569729442854594, 35.450688273084118 ], [ 126.573095687651502, 35.449316989426734 ], [ 126.577656579921324, 35.450026826026061 ], [ 126.582935463825294, 35.438783588352358 ], [ 126.58066304826211, 35.436108668198329 ], [ 126.582302272136744, 35.429201980142878 ], [ 126.584573732740168, 35.429599395748397 ], [ 126.587797620607219, 35.427452565447886 ], [ 126.593025915770994, 35.428462058230799 ], [ 126.601289120201457, 35.421411404904703 ], [ 126.611263461541867, 35.421613801164916 ], [ 126.61434895252448, 35.426122219524103 ], [ 126.61695654847415, 35.426735605980866 ], [ 126.617120934776395, 35.423978218189809 ], [ 126.619144255056369, 35.424059926076076 ], [ 126.621344931719946, 35.417740759841593 ] ] ] ] } },
{ "type": "Feature", "properties": { "emd_cd": "52790340", "emd_nm": "공음면" }, "geometry": { "type": "MultiPolygon", "coordinates": [ [ [ [ 126.477407134752866, 35.386174164253809 ], [ 126.482656591921824, 35.390558190641656 ], [ 126.484817441527326, 35.390140410313904 ], [ 126.489753027503227, 35.393485525523722 ], [ 126.489386503845651, 35.398244233137859 ], [ 126.491501637804546, 35.400089942914164 ], [ 126.490934245858682, 35.404147839343565 ], [ 126.492926417143323, 35.409631725401532 ], [ 126.501867656629102, 35.414162491294988 ], [ 126.503839236537431, 35.419143413949563 ], [ 126.503724901715842, 35.423989819884113 ], [ 126.507289006495469, 35.431258230683135 ], [ 126.505563098652033, 35.436704356212317 ], [ 126.512437396070183, 35.437514332527613 ], [ 126.514096241750025, 35.435671504571857 ], [ 126.524709637437056, 35.435237164290839 ], [ 126.530057131157946, 35.433325665003196 ], [ 126.530945201707681, 35.429665709086287 ], [ 126.529558220766404, 35.423398848662032 ], [ 126.526048441540823, 35.42034521844564 ], [ 126.528602792816031, 35.414694300545484 ], [ 126.526937515008896, 35.409912020020464 ], [ 126.530631547126077, 35.408365321529985 ], [ 126.530381695135546, 35.406179849974606 ], [ 126.543272825220441, 35.403938533152612 ], [ 126.544356596907861, 35.401604906837058 ], [ 126.540550298381902, 35.391597056410617 ], [ 126.542456246306088, 35.387893059932743 ], [ 126.5476029323235, 35.389163448165213 ], [ 126.547227078287534, 35.39033819152467 ], [ 126.551883258883848, 35.393490245528028 ], [ 126.553934677448552, 35.392495163088832 ], [ 126.553961389778308, 35.389996541562418 ], [ 126.560667453390792, 35.39051366849597 ], [ 126.563763753309786, 35.392262516341489 ], [ 126.563126289186044, 35.394662557857835 ], [ 126.567870265282963, 35.398351504765991 ], [ 126.570950148919124, 35.395195197928984 ], [ 126.577923365097575, 35.394628367919495 ], [ 126.577561277657352, 35.386939940389375 ], [ 126.580423142085309, 35.384384136063318 ], [ 126.581331774274346, 35.381055506412366 ], [ 126.579149878345021, 35.375163280841569 ], [ 126.572809697795435, 35.370391359393061 ], [ 126.569334187878567, 35.368928632900477 ], [ 126.564641280433008, 35.372425335791164 ], [ 126.562983996519819, 35.371294314668972 ], [ 126.564576133463575, 35.369729992052427 ], [ 126.55885549941631, 35.365606666275752 ], [ 126.554112373269376, 35.365230859159354 ], [ 126.553412057531219, 35.363950688206856 ], [ 126.555881298325659, 35.360276539929508 ], [ 126.558959486016079, 35.361677279363406 ], [ 126.561202250339662, 35.360896494220363 ], [ 126.56230579497813, 35.356537574089081 ], [ 126.559173591724189, 35.35334478817483 ], [ 126.560174410334596, 35.351245395478095 ], [ 126.554415249935786, 35.351966675672195 ], [ 126.551150984922984, 35.34934816058594 ], [ 126.534383562775361, 35.344539469402349 ], [ 126.530090559255754, 35.337162446791581 ], [ 126.530388521929908, 35.338718867023438 ], [ 126.52844335931853, 35.338019664753851 ], [ 126.528257596919886, 35.333428699240429 ], [ 126.524080468965323, 35.331718522735841 ], [ 126.523156301903697, 35.333949958000368 ], [ 126.520613035634881, 35.334148795661477 ], [ 126.520606615990204, 35.332149828152701 ], [ 126.517485993125021, 35.330481936296515 ], [ 126.5162836635876, 35.331804181820921 ], [ 126.51712352284288, 35.338279708593852 ], [ 126.51890549487203, 35.343281784804432 ], [ 126.519928829488165, 35.342869799656896 ], [ 126.520428556615244, 35.348606644070081 ], [ 126.513872243348189, 35.356401947084279 ], [ 126.512615778286417, 35.362028448735913 ], [ 126.506236104444497, 35.360545028201443 ], [ 126.498859317204079, 35.354457639050729 ], [ 126.496965083189494, 35.350095348958277 ], [ 126.49368746458623, 35.350493643309179 ], [ 126.49256475404728, 35.354852684646659 ], [ 126.496145276021736, 35.357614700308091 ], [ 126.495222962594141, 35.362416701552348 ], [ 126.497260793582228, 35.36481931139658 ], [ 126.496008596680667, 35.37067168481736 ], [ 126.49740198662893, 35.37320597828608 ], [ 126.492403896820448, 35.373997982937873 ], [ 126.486165882889154, 35.377579496505142 ], [ 126.483272854205197, 35.380567159420217 ], [ 126.482893306724762, 35.384627529903405 ], [ 126.477407134752866, 35.386174164253809 ] ] ] ] } },
{ "type": "Feature", "properties": { "emd_cd": "52790350", "emd_nm": "상하면" }, "geometry": { "type": "MultiPolygon", "coordinates": [ [ [ [ 126.423487996892874, 35.448521582660021 ], [ 126.423786250440145, 35.44966495145723 ], [ 126.424493637014805, 35.450340520060678 ], [ 126.425313161984576, 35.45058399790782 ], [ 126.427032325615684, 35.450603005032242 ], [ 126.427624045354136, 35.4509902213522 ], [ 126.428375399264766, 35.451001360979255 ], [ 126.427291822674519, 35.450542590762282 ], [ 126.428288115782209, 35.449578612083499 ], [ 126.437298557989052, 35.449971565021904 ], [ 126.443599525524348, 35.448204721139298 ], [ 126.442242074164085, 35.451904328768286 ], [ 126.46077329635223, 35.480532576652351 ], [ 126.464939944487782, 35.479947881300902 ], [ 126.468968686727081, 35.481863215362075 ], [ 126.471659403515034, 35.476426737935249 ], [ 126.47159582699345, 35.472144139809004 ], [ 126.467655013301012, 35.463589593363864 ], [ 126.475297189875576, 35.461962083103991 ], [ 126.480508636307135, 35.45653352442492 ], [ 126.489955596305606, 35.46025570122606 ], [ 126.496543462412689, 35.460506163037842 ], [ 126.501356560378127, 35.458581115969224 ], [ 126.511028553935262, 35.464070501722595 ], [ 126.515339710156269, 35.460554878326505 ], [ 126.513922817854507, 35.455927585031127 ], [ 126.519927164892124, 35.455679706831631 ], [ 126.52243851301229, 35.451469190594175 ], [ 126.521917867588215, 35.449905891910539 ], [ 126.529474765214204, 35.444001666604258 ], [ 126.527534466922617, 35.442705557187587 ], [ 126.525661616031286, 35.435056972051932 ], [ 126.517177178776151, 35.434944345016746 ], [ 126.512437396070183, 35.437514332527613 ], [ 126.505563098652033, 35.436704356212317 ], [ 126.507289006495469, 35.431258230683135 ], [ 126.503724901715842, 35.423989819884113 ], [ 126.503839236537431, 35.419143413949563 ], [ 126.501867656629102, 35.414162491294988 ], [ 126.49287667995543, 35.409219448432729 ], [ 126.490796924134912, 35.412934873591048 ], [ 126.487418428419005, 35.413138226240314 ], [ 126.485931784856149, 35.416165237328997 ], [ 126.479627179888283, 35.420938440250822 ], [ 126.480989039986483, 35.421117907415713 ], [ 126.479104271683809, 35.424253765315804 ], [ 126.479644542807804, 35.426496638094775 ], [ 126.476006991912996, 35.429326202748896 ], [ 126.469890338138114, 35.425496953401783 ], [ 126.464192960717156, 35.425386182038146 ], [ 126.450215311030675, 35.427887112273019 ], [ 126.447721505471279, 35.429688145418055 ], [ 126.450102883292033, 35.431711417786893 ], [ 126.445884419752545, 35.432594338850187 ], [ 126.448057469509592, 35.434721720495737 ], [ 126.446256300023833, 35.435343731068777 ], [ 126.441467995654804, 35.435727683138964 ], [ 126.431957389548202, 35.432009251782723 ], [ 126.430211413199316, 35.432733382344942 ], [ 126.42921962308273, 35.435769666243473 ], [ 126.4346321253838, 35.44272617179405 ], [ 126.437111366010527, 35.449788096613226 ], [ 126.428238878666903, 35.449485635004038 ], [ 126.427805387268208, 35.447889796760684 ], [ 126.425452526341701, 35.448276805452444 ], [ 126.424662457834344, 35.448755407127138 ], [ 126.426432643264704, 35.448269940727599 ], [ 126.425325699548353, 35.450509430477865 ], [ 126.423487996892874, 35.448521582660021 ] ] ] ] } },
{ "type": "Feature", "properties": { "emd_cd": "52790360", "emd_nm": "해리면" }, "geometry": { "type": "MultiPolygon", "coordinates": [ [ [ [ 126.463002611497956, 35.480472350415312 ], [ 126.462854676290718, 35.484271062033528 ], [ 126.473063715150616, 35.501980863576684 ], [ 126.47273310544179, 35.504236119146931 ], [ 126.477710618668794, 35.508118574581907 ], [ 126.483710789560135, 35.520464575795017 ], [ 126.486149382887731, 35.522394192511371 ], [ 126.491094928688497, 35.511747185476594 ], [ 126.496658127210054, 35.509610973817935 ], [ 126.500237385324169, 35.512851063402763 ], [ 126.507596689502222, 35.508205563217679 ], [ 126.507565320568133, 35.503880715595741 ], [ 126.518060555863258, 35.489827448096577 ], [ 126.519011855888252, 35.484658185394757 ], [ 126.520193041194943, 35.485875431281272 ], [ 126.534009527934515, 35.479179365340791 ], [ 126.538755537358355, 35.478792718630714 ], [ 126.543775533837888, 35.472283781112978 ], [ 126.555239118958241, 35.471137836981569 ], [ 126.555957545977336, 35.465464281918088 ], [ 126.559800160343102, 35.463569990240856 ], [ 126.564692971435889, 35.467158344279163 ], [ 126.568471100007272, 35.464676643912959 ], [ 126.571153728216842, 35.459702252531741 ], [ 126.568845883367615, 35.445647317017993 ], [ 126.563114204552093, 35.44207573757943 ], [ 126.56100348944328, 35.438923950829135 ], [ 126.549477064247796, 35.443266438451204 ], [ 126.546801621428443, 35.442521913939785 ], [ 126.544967463393391, 35.445542539370308 ], [ 126.539791441464843, 35.442315306952487 ], [ 126.529474765214204, 35.444001666604258 ], [ 126.521917867588215, 35.449905891910539 ], [ 126.52243851301229, 35.451469190594175 ], [ 126.519927164892124, 35.455679706831631 ], [ 126.513922817854507, 35.455927585031127 ], [ 126.515339710156269, 35.460554878326505 ], [ 126.510968075979633, 35.464084424404533 ], [ 126.501356560378127, 35.458581115969224 ], [ 126.496543462412689, 35.460506163037842 ], [ 126.489955596305606, 35.46025570122606 ], [ 126.480508636307135, 35.45653352442492 ], [ 126.475297189875576, 35.461962083103991 ], [ 126.467655013301012, 35.463589593363864 ], [ 126.471482813206492, 35.470678859662343 ], [ 126.470000457364449, 35.481704358736714 ], [ 126.463002611497956, 35.480472350415312 ] ] ] ] } },
{ "type": "Feature", "properties": { "emd_cd": "52790370", "emd_nm": "성송면" }, "geometry": { "type": "MultiPolygon", "coordinates": [ [ [ [ 126.621344931719946, 35.417740759841593 ], [ 126.622563922007146, 35.415724089274306 ], [ 126.626731775723385, 35.414605082529732 ], [ 126.628670070251928, 35.415586323991711 ], [ 126.631715051180265, 35.411498896456713 ], [ 126.630276620735614, 35.410595139710615 ], [ 126.635913277657295, 35.402466630679349 ], [ 126.636750333280816, 35.398459385814625 ], [ 126.641213499404557, 35.395807189415386 ], [ 126.649434307492754, 35.395596097689243 ], [ 126.649114549621672, 35.394506099871521 ], [ 126.651393847755699, 35.39406808040534 ], [ 126.65091666163697, 35.392366540176418 ], [ 126.655170219300075, 35.391159724796935 ], [ 126.654386146460567, 35.387133683848496 ], [ 126.661892708696314, 35.381676674133146 ], [ 126.663011742924169, 35.375437397285516 ], [ 126.665459322174385, 35.373346817804951 ], [ 126.662764273879574, 35.370826567144228 ], [ 126.664146225963947, 35.370306541381659 ], [ 126.663908883792146, 35.365915109575134 ], [ 126.667916243884051, 35.359320119062822 ], [ 126.666897308409077, 35.352403487567422 ], [ 126.664509568219842, 35.345547882773197 ], [ 126.660251717161984, 35.344176793469622 ], [ 126.661015020194156, 35.340281261713088 ], [ 126.659257818670142, 35.33893938827331 ], [ 126.659538082451363, 35.334091779316466 ], [ 126.657872619427437, 35.334487813191366 ], [ 126.651728167207921, 35.32682295837688 ], [ 126.647046882285167, 35.328463923592345 ], [ 126.641782749697057, 35.327020846478128 ], [ 126.634571707092903, 35.330574206535267 ], [ 126.624855994092641, 35.331830099157131 ], [ 126.62044995226573, 35.336434350709332 ], [ 126.614663261218325, 35.332681154671128 ], [ 126.612302911505708, 35.332964004645376 ], [ 126.608556241154005, 35.337262364317056 ], [ 126.609475978684387, 35.342712522589871 ], [ 126.604879709609165, 35.346456250255812 ], [ 126.607429132585182, 35.350381997279428 ], [ 126.606192795645796, 35.352869114496059 ], [ 126.608335790014834, 35.35335673964186 ], [ 126.607683169414699, 35.359819081066348 ], [ 126.603872415529395, 35.36934205392739 ], [ 126.600791330954607, 35.37221219358107 ], [ 126.608442763298527, 35.371076090705245 ], [ 126.616920606571881, 35.374314037804844 ], [ 126.620341741080878, 35.379848646695073 ], [ 126.621287677923789, 35.382157251530359 ], [ 126.619404649085482, 35.382620807183763 ], [ 126.61962790996742, 35.384097062931794 ], [ 126.622284822423794, 35.386427817408631 ], [ 126.620740025207226, 35.392055337646177 ], [ 126.613021728785228, 35.397765791847412 ], [ 126.612737695827477, 35.400740882116118 ], [ 126.621344931719946, 35.417740759841593 ] ] ] ] } },
{ "type": "Feature", "properties": { "emd_cd": "52790380", "emd_nm": "대산면" }, "geometry": { "type": "MultiPolygon", "coordinates": [ [ [ [ 126.585333929812606, 35.38651440939821 ], [ 126.588259380037783, 35.383058388106477 ], [ 126.596551629900503, 35.381605033188357 ], [ 126.600197502284388, 35.372882973816893 ], [ 126.603872415529395, 35.36934205392739 ], [ 126.607645251301108, 35.360010126871941 ], [ 126.608335790014834, 35.35335673964186 ], [ 126.606192795645796, 35.352869114496059 ], [ 126.607429132585182, 35.350381997279428 ], [ 126.604879709609165, 35.346456250255812 ], [ 126.609475978684387, 35.342712522589871 ], [ 126.608556241154005, 35.337262364317056 ], [ 126.612302911505708, 35.332964004645376 ], [ 126.614663261218325, 35.332681154671128 ], [ 126.62044995226573, 35.336434350709332 ], [ 126.624674720368247, 35.331897142568288 ], [ 126.634571707092903, 35.330574206535267 ], [ 126.644783891167393, 35.326588276909753 ], [ 126.646800810925598, 35.323042885993473 ], [ 126.644648530129459, 35.319938262142038 ], [ 126.626414040014282, 35.321354767391711 ], [ 126.619155126564763, 35.324417355697449 ], [ 126.615619573391868, 35.328425825592227 ], [ 126.607926358717435, 35.331829118677454 ], [ 126.604199719409024, 35.335762635343741 ], [ 126.600493255901299, 35.331435480754777 ], [ 126.595478231262305, 35.328917427182823 ], [ 126.587048123187998, 35.330754238612876 ], [ 126.582585070496876, 35.327489346510369 ], [ 126.580682342856988, 35.323719886797413 ], [ 126.583373006029873, 35.318181303510372 ], [ 126.580927612500503, 35.317249302729572 ], [ 126.582764953864427, 35.315693478520807 ], [ 126.585003390386703, 35.317358379343247 ], [ 126.589447488102209, 35.317503662501707 ], [ 126.588659304305779, 35.313921460786055 ], [ 126.590652294112729, 35.310736137688373 ], [ 126.588737708603574, 35.310764906143227 ], [ 126.588055241417592, 35.3056541951984 ], [ 126.584855557382284, 35.300834586503349 ], [ 126.576617063276387, 35.304493979282874 ], [ 126.572714757536559, 35.310144757832084 ], [ 126.567643226808741, 35.31119795838876 ], [ 126.563602825244871, 35.309073194254147 ], [ 126.560958699247038, 35.311858594344315 ], [ 126.553091411125521, 35.312166471775846 ], [ 126.55108676026029, 35.313670657172736 ], [ 126.548138362332082, 35.313475843978459 ], [ 126.543376062330026, 35.309815514231111 ], [ 126.539381307285822, 35.310628073774311 ], [ 126.532305314994701, 35.306736658712708 ], [ 126.529751499449503, 35.308727434482414 ], [ 126.529939230918458, 35.31228182404174 ], [ 126.524386858116159, 35.313500428617395 ], [ 126.521185652551367, 35.324931380826435 ], [ 126.513994159762277, 35.327147255978929 ], [ 126.51342330644384, 35.329445540248791 ], [ 126.518652263909615, 35.330572918054642 ], [ 126.520613035634881, 35.334148795661477 ], [ 126.523156301903697, 35.333949958000368 ], [ 126.524080468965323, 35.331718522735841 ], [ 126.528257596919886, 35.333428699240429 ], [ 126.52844335931853, 35.338019664753851 ], [ 126.530388521929908, 35.338718867023438 ], [ 126.530090559255754, 35.337162446791581 ], [ 126.535676761600271, 35.345149341293641 ], [ 126.551150984922984, 35.34934816058594 ], [ 126.554415249935786, 35.351966675672195 ], [ 126.560174410334596, 35.351245395478095 ], [ 126.559173591724189, 35.35334478817483 ], [ 126.56230579497813, 35.356537574089081 ], [ 126.561202250339662, 35.360896494220363 ], [ 126.558959486016079, 35.361677279363406 ], [ 126.555881298325659, 35.360276539929508 ], [ 126.553412057531219, 35.363950688206856 ], [ 126.554112373269376, 35.365230859159354 ], [ 126.55885549941631, 35.365606666275752 ], [ 126.564576133463575, 35.369729992052427 ], [ 126.562983996519819, 35.371294314668972 ], [ 126.564641280433008, 35.372425335791164 ], [ 126.569334187878567, 35.368928632900477 ], [ 126.578183847804539, 35.374052772449858 ], [ 126.581331774274346, 35.381055506412366 ], [ 126.580423142085309, 35.384384136063318 ], [ 126.585333929812606, 35.38651440939821 ] ] ] ] } },
{ "type": "Feature", "properties": { "emd_cd": "52790390", "emd_nm": "심원면" }, "geometry": { "type": "MultiPolygon", "coordinates": [ [ [ [ 126.493823907025543, 35.51642444804142 ], [ 126.497944229875941, 35.516624929282507 ], [ 126.496898065298794, 35.513913536139214 ], [ 126.498928473713903, 35.513212136926029 ], [ 126.500765747407414, 35.516263295268871 ], [ 126.499362948571871, 35.521834532056744 ], [ 126.502510293467125, 35.525354917984821 ], [ 126.517622623586959, 35.533181707379661 ], [ 126.525516915827509, 35.532084811358615 ], [ 126.526306247064696, 35.534724875261688 ], [ 126.530830167072338, 35.534130123785573 ], [ 126.53080156024977, 35.531200663455138 ], [ 126.532026854277916, 35.531058465191435 ], [ 126.531989872696059, 35.533189985204764 ], [ 126.533646413011141, 35.534039711670104 ], [ 126.541173764121694, 35.534002138632353 ], [ 126.536861462027858, 35.529366213113249 ], [ 126.541464526860267, 35.533352959237682 ], [ 126.543273627762417, 35.532620770276672 ], [ 126.541446097893768, 35.52934519117531 ], [ 126.541933549804583, 35.52729731908164 ], [ 126.544193388396565, 35.527237345672098 ], [ 126.543276140047965, 35.523207722531062 ], [ 126.544892596403486, 35.527659048737355 ], [ 126.543593179334678, 35.529650280947735 ], [ 126.547592568552176, 35.53452193705558 ], [ 126.550750349598175, 35.532091582711558 ], [ 126.552889995932503, 35.531761196788572 ], [ 126.549810942248314, 35.533650561327171 ], [ 126.548817199352143, 35.537528739669675 ], [ 126.551363768507258, 35.538419071700488 ], [ 126.552347642152597, 35.536703387661831 ], [ 126.555432076345852, 35.536300835450639 ], [ 126.562203891938424, 35.541689174106175 ], [ 126.566877748468713, 35.543274131136457 ], [ 126.576024088581491, 35.540813002774769 ], [ 126.5869398447946, 35.541848731442229 ], [ 126.587297843608454, 35.539822276983806 ], [ 126.591702066035054, 35.540327387429684 ], [ 126.593643638169326, 35.538063385127003 ], [ 126.5921574582879, 35.533850777177825 ], [ 126.593199391998297, 35.529876723005586 ], [ 126.595859532539919, 35.528932203125812 ], [ 126.598493946598396, 35.524411807302222 ], [ 126.597949737139061, 35.523283039526682 ], [ 126.595424181886315, 35.523835322170797 ], [ 126.598485561715506, 35.522604309896536 ], [ 126.598407236382258, 35.520311854102282 ], [ 126.595705198033727, 35.515993922232902 ], [ 126.595743736359736, 35.512722500763829 ], [ 126.593039860101214, 35.511577360269385 ], [ 126.588407984708638, 35.518088558234147 ], [ 126.577152462528659, 35.518072145731743 ], [ 126.571317516153144, 35.507488943907227 ], [ 126.567516352993039, 35.504031228197242 ], [ 126.569168882617774, 35.498785524898558 ], [ 126.566632055326465, 35.496905583415632 ], [ 126.563312839099339, 35.497205641548256 ], [ 126.556162859345349, 35.490114955809553 ], [ 126.556311558202268, 35.487508542444246 ], [ 126.559567360614892, 35.484447330563334 ], [ 126.559593647380339, 35.476361376264656 ], [ 126.556156801281219, 35.471671676025316 ], [ 126.553749755438204, 35.470944185057085 ], [ 126.543775533837888, 35.472283781112978 ], [ 126.538755537358355, 35.478792718630714 ], [ 126.534009527934515, 35.479179365340791 ], [ 126.520193041194943, 35.485875431281272 ], [ 126.519011855888252, 35.484658185394757 ], [ 126.518060555863258, 35.489827448096577 ], [ 126.507565320568133, 35.503880715595741 ], [ 126.507596689502222, 35.508205563217679 ], [ 126.500237385324169, 35.512851063402763 ], [ 126.49702061372227, 35.510139942878908 ], [ 126.493823907025543, 35.51642444804142 ] ] ], [ [ [ 126.48113913583812, 35.535070064399392 ], [ 126.482188068485584, 35.533797724389323 ], [ 126.480079932760432, 35.534741108744129 ], [ 126.48113913583812, 35.535070064399392 ] ] ], [ [ [ 126.48112598883192, 35.540977084426601 ], [ 126.484731747310278, 35.539794950567469 ], [ 126.483760119256601, 35.537973126086854 ], [ 126.479246844372071, 35.539397248164157 ], [ 126.48112598883192, 35.540977084426601 ] ] ], [ [ [ 126.440843137018931, 35.544730128813661 ], [ 126.442163292571948, 35.544658468773122 ], [ 126.442694554909068, 35.543299958994695 ], [ 126.440843137018931, 35.544730128813661 ] ] ] ] } },
{ "type": "Feature", "properties": { "emd_cd": "52790400", "emd_nm": "흥덕면" }, "geometry": { "type": "MultiPolygon", "coordinates": [ [ [ [ 126.668383724717955, 35.563499563534592 ], [ 126.669853327932145, 35.566954394733351 ], [ 126.674137908240041, 35.568424332427618 ], [ 126.673379923167985, 35.569715097576413 ], [ 126.677527198699806, 35.571952140594284 ], [ 126.686602675322575, 35.569501813969289 ], [ 126.696134700970987, 35.570967489468742 ], [ 126.698616070931465, 35.569045855821948 ], [ 126.698927110977934, 35.571224528021524 ], [ 126.702646901239817, 35.574511068359854 ], [ 126.723221236438079, 35.572497274943778 ], [ 126.723995096983387, 35.574450708625569 ], [ 126.724799102392566, 35.562318678036775 ], [ 126.7231543716467, 35.557186279172491 ], [ 126.720840532414854, 35.557304916419774 ], [ 126.720696157656619, 35.553989252922982 ], [ 126.718327479117917, 35.553126830070696 ], [ 126.718771736892847, 35.550062921644695 ], [ 126.71716316390814, 35.547490611037283 ], [ 126.720472336949967, 35.54149425104363 ], [ 126.719147737584393, 35.534458236288579 ], [ 126.71681153780662, 35.53336752429928 ], [ 126.72007865434081, 35.529561964965914 ], [ 126.713373278437288, 35.522003222578419 ], [ 126.723043917735055, 35.518529474997912 ], [ 126.727341002248238, 35.520788924749262 ], [ 126.731927174269629, 35.510067085538509 ], [ 126.733989257948451, 35.508520855217128 ], [ 126.734866273537662, 35.504443183859017 ], [ 126.732910286638344, 35.49879175391029 ], [ 126.727631543725565, 35.498243166758371 ], [ 126.716734989269696, 35.503367161512884 ], [ 126.709743637749995, 35.502471677576899 ], [ 126.699128242485557, 35.504316633897723 ], [ 126.699481172544395, 35.507200238514962 ], [ 126.684108722817712, 35.496195545977137 ], [ 126.679584401217141, 35.496306103646887 ], [ 126.678432613852848, 35.497999360421723 ], [ 126.679738993792284, 35.499911386152576 ], [ 126.676784474417346, 35.501207444039053 ], [ 126.680783243994981, 35.505140703012017 ], [ 126.678603184539838, 35.507071867810311 ], [ 126.678569004726526, 35.509516950364791 ], [ 126.681251384768586, 35.512321994662919 ], [ 126.681267287322058, 35.515804970358282 ], [ 126.677779758849823, 35.521432402493197 ], [ 126.680453146147272, 35.52499288302198 ], [ 126.678130237303549, 35.537510443144654 ], [ 126.679485831290265, 35.538011501916323 ], [ 126.674621635362499, 35.539878208542845 ], [ 126.676522027192107, 35.547686393679228 ], [ 126.675026671219769, 35.550750719047478 ], [ 126.676454510688643, 35.552576408196224 ], [ 126.670257472449009, 35.555750204206419 ], [ 126.668383724717955, 35.563499563534592 ] ] ] ] } },
{ "type": "Feature", "properties": { "emd_cd": "52790410", "emd_nm": "성내면" }, "geometry": { "type": "MultiPolygon", "coordinates": [ [ [ [ 126.734866273537662, 35.504443183859017 ], [ 126.727341002248238, 35.520788924749262 ], [ 126.723043917735055, 35.518529474997912 ], [ 126.713373278437288, 35.522003222578419 ], [ 126.72007865434081, 35.529561964965914 ], [ 126.71681153780662, 35.53336752429928 ], [ 126.719147737584393, 35.534458236288579 ], [ 126.720257165513019, 35.537271396368816 ], [ 126.720097148675336, 35.543813358888293 ], [ 126.717214241795318, 35.545851118287509 ], [ 126.718327479117917, 35.553126830070696 ], [ 126.720696157656619, 35.553989252922982 ], [ 126.720557008174396, 35.556849518961002 ], [ 126.723086340771033, 35.55711636222037 ], [ 126.724022074140692, 35.559647630924637 ], [ 126.724994089521701, 35.572475215905918 ], [ 126.739665977120069, 35.568341297047908 ], [ 126.741065517667835, 35.571655259769322 ], [ 126.745132768239188, 35.569165745033082 ], [ 126.755613099794346, 35.573032210580237 ], [ 126.75443805516791, 35.574618916912776 ], [ 126.75675031527696, 35.572472200635936 ], [ 126.757091135311583, 35.573508022807033 ], [ 126.761389803885933, 35.571497860472732 ], [ 126.769384591229937, 35.560775239336067 ], [ 126.765994721910388, 35.556844145824144 ], [ 126.761979267967774, 35.555105460041155 ], [ 126.766271564834142, 35.549149882245189 ], [ 126.762195576261533, 35.544560535808252 ], [ 126.763168625801953, 35.537699105821886 ], [ 126.761162500558456, 35.533036376152999 ], [ 126.765196549922962, 35.533434002173308 ], [ 126.763605101683339, 35.53081710794023 ], [ 126.767117403198228, 35.530008823284355 ], [ 126.76870409359573, 35.525933709155701 ], [ 126.769980365173623, 35.52670488086725 ], [ 126.774054716205143, 35.523092030003134 ], [ 126.760878963107871, 35.51695344181082 ], [ 126.759288895391833, 35.513593898381735 ], [ 126.760755438715165, 35.510515455212627 ], [ 126.770645204905264, 35.50760804441056 ], [ 126.767305294444157, 35.501687910011341 ], [ 126.768479727242365, 35.4961321405777 ], [ 126.763440189544127, 35.49289303332619 ], [ 126.758705008840764, 35.494552477913892 ], [ 126.756415270154108, 35.49455086956759 ], [ 126.754145445226342, 35.491862866822267 ], [ 126.747039556332396, 35.493300245139977 ], [ 126.744469786025377, 35.494512728219178 ], [ 126.748218657888856, 35.500152529265755 ], [ 126.745783413008809, 35.501773456398062 ], [ 126.746675367009146, 35.504840041257673 ], [ 126.745480645915279, 35.506830123070358 ], [ 126.740647915866305, 35.506819151847161 ], [ 126.73804438180936, 35.504619436703976 ], [ 126.734866273537662, 35.504443183859017 ] ] ] ] } },
{ "type": "Feature", "properties": { "emd_cd": "52790420", "emd_nm": "신림면" }, "geometry": { "type": "MultiPolygon", "coordinates": [ [ [ [ 126.664808240218932, 35.465747750282162 ], [ 126.668090542717351, 35.467666855486776 ], [ 126.669654610968848, 35.472375829051586 ], [ 126.680571720584538, 35.476518428223315 ], [ 126.683276084181131, 35.485675589623689 ], [ 126.686690401973564, 35.488684323265176 ], [ 126.68266844468296, 35.496112435402438 ], [ 126.699481172544395, 35.507200238514962 ], [ 126.699128242485557, 35.504316633897723 ], [ 126.709743637749995, 35.502471677576899 ], [ 126.716734989269696, 35.503367161512884 ], [ 126.720333273406794, 35.500732340288323 ], [ 126.72242505478475, 35.501155362338984 ], [ 126.729503077996256, 35.497946950734189 ], [ 126.732910286638344, 35.49879175391029 ], [ 126.734091100461072, 35.504292862496015 ], [ 126.73804438180936, 35.504619436703976 ], [ 126.740647915866305, 35.506819151847161 ], [ 126.745480645915279, 35.506830123070358 ], [ 126.746675367009146, 35.504840041257673 ], [ 126.745783413008809, 35.501773456398062 ], [ 126.748218657888856, 35.500152529265755 ], [ 126.744469786025377, 35.494512728219178 ], [ 126.753122291489902, 35.49193576304188 ], [ 126.755471532787908, 35.49216526886034 ], [ 126.756415270154108, 35.49455086956759 ], [ 126.764337756248295, 35.493078359340011 ], [ 126.766732337755954, 35.485640213179273 ], [ 126.770240645766748, 35.482237851406452 ], [ 126.773441957753207, 35.469652503423802 ], [ 126.771017170395879, 35.466713725988434 ], [ 126.762445408874129, 35.46533752059522 ], [ 126.757172593919321, 35.461282184383187 ], [ 126.754472816260588, 35.455319856831025 ], [ 126.748123503938345, 35.450453639279729 ], [ 126.741031133944816, 35.452455621843193 ], [ 126.738263075326145, 35.44937893760013 ], [ 126.728603604561542, 35.451164427251328 ], [ 126.722535658626953, 35.447536455591376 ], [ 126.716457797569248, 35.44998191182853 ], [ 126.710818613023989, 35.455426411171999 ], [ 126.687560971010186, 35.455184830829893 ], [ 126.68701649032657, 35.463320167717065 ], [ 126.68556563536346, 35.463871060508296 ], [ 126.672634788008438, 35.461809715690777 ], [ 126.664808240218932, 35.465747750282162 ] ] ] ] } },
{ "type": "Feature", "properties": { "emd_cd": "52790430", "emd_nm": "부안면" }, "geometry": { "type": "MultiPolygon", "coordinates": [ [ [ [ 126.594025201086268, 35.534172390103663 ], [ 126.603233971551219, 35.54244287464725 ], [ 126.602945728298067, 35.544669369065602 ], [ 126.604603100445473, 35.543883141704356 ], [ 126.606814589370657, 35.545749938608452 ], [ 126.607207868562583, 35.548966933697152 ], [ 126.605837052952566, 35.549841471209831 ], [ 126.608629712194144, 35.551213438789489 ], [ 126.610875987496698, 35.554950536055777 ], [ 126.617052146213027, 35.557184648718589 ], [ 126.617440756590796, 35.56958820744407 ], [ 126.624164392674757, 35.568183014720269 ], [ 126.626010328907171, 35.570868697686279 ], [ 126.63212038158855, 35.572295550252718 ], [ 126.633839993846578, 35.57459569624065 ], [ 126.635630311984414, 35.571699929367753 ], [ 126.64754095997435, 35.569646479073285 ], [ 126.654718451969615, 35.563559560564741 ], [ 126.654009595782028, 35.560904586998575 ], [ 126.657879814334251, 35.557229946164561 ], [ 126.659939213648641, 35.558634930517819 ], [ 126.664130850582993, 35.554691718138436 ], [ 126.673832795474127, 35.549573270967699 ], [ 126.673594536566256, 35.539097903061119 ], [ 126.67800214990659, 35.536444636435824 ], [ 126.680453146147272, 35.52499288302198 ], [ 126.677779758849823, 35.521432402493197 ], [ 126.681383265975526, 35.51479189676985 ], [ 126.68109986463196, 35.511981704466358 ], [ 126.678569004726526, 35.509516950364791 ], [ 126.678603184539838, 35.507071867810311 ], [ 126.680783243994981, 35.505140703012017 ], [ 126.676784474417346, 35.501207444039053 ], [ 126.679738993792284, 35.499911386152576 ], [ 126.678903772349429, 35.497052238160258 ], [ 126.682210267813744, 35.496607208994199 ], [ 126.686697315043716, 35.488762574160852 ], [ 126.683276084181131, 35.485675589623689 ], [ 126.680571720584538, 35.476518428223315 ], [ 126.669654610968848, 35.472375829051586 ], [ 126.666816955495278, 35.476223773923635 ], [ 126.666849523345689, 35.481604208620496 ], [ 126.664253991718681, 35.485312731124139 ], [ 126.658072987612883, 35.488420767232853 ], [ 126.656647738990927, 35.492123161123864 ], [ 126.650798115774265, 35.498553715224297 ], [ 126.647587329415941, 35.499100559896306 ], [ 126.63593016200852, 35.493523606204946 ], [ 126.628835747418222, 35.497665263067219 ], [ 126.627446734529244, 35.501043415760492 ], [ 126.624960178915956, 35.499018517883421 ], [ 126.621503428413391, 35.499968690465039 ], [ 126.620680603255579, 35.50562632633455 ], [ 126.617056627561752, 35.507996661505771 ], [ 126.61401836632642, 35.509160411558049 ], [ 126.61165772002326, 35.506677788830793 ], [ 126.597900120655439, 35.50942778818488 ], [ 126.595871159097271, 35.514784457956999 ], [ 126.599116127924333, 35.518835910962409 ], [ 126.600074179431147, 35.523536567277603 ], [ 126.594025201086268, 35.534172390103663 ] ] ], [ [ [ 126.587785528496013, 35.570171629608652 ], [ 126.587340316150417, 35.573743775460088 ], [ 126.589824733712419, 35.571376065096445 ], [ 126.587785528496013, 35.570171629608652 ] ] ] ] } }
]
}
