{
"type": "FeatureCollection",
"name": "52800",
"crs": { "type": "name", "properties": { "name": "urn:ogc:def:crs:OGC:1.3:CRS84" } },
"features": [
{ "type": "Feature", "properties": { "emd_cd": "52800250", "emd_nm": "부안읍" }, "geometry": { "type": "MultiPolygon", "coordinates": [ [ [ [ 126.718373232983623, 35.679714936495735 ], [ 126.713610745963891, 35.682761716023393 ], [ 126.712592249931646, 35.685375208786823 ], [ 126.713951964938005, 35.68691995276199 ], [ 126.710576250027898, 35.688407053183106 ], [ 126.711476146878951, 35.691041925980493 ], [ 126.709683790365744, 35.691157816048502 ], [ 126.719155369226982, 35.690706635723636 ], [ 126.725480525119551, 35.693908040860727 ], [ 126.727959089613705, 35.700793704051677 ], [ 126.725697974371542, 35.702523137638153 ], [ 126.72628169080842, 35.706287153974259 ], [ 126.723198077103262, 35.709973066132399 ], [ 126.728808466475868, 35.712110545303062 ], [ 126.724132253164626, 35.725239645796776 ], [ 126.726376281843912, 35.732044112484843 ], [ 126.731006459836593, 35.733862400543629 ], [ 126.730236572551931, 35.738703881415567 ], [ 126.731967153283478, 35.741232569892354 ], [ 126.738262862307309, 35.742231262409526 ], [ 126.737959306486388, 35.740579735406364 ], [ 126.745713190624841, 35.738394028651832 ], [ 126.748683129671917, 35.734161836903866 ], [ 126.75267834152983, 35.736733017754062 ], [ 126.76086701833546, 35.736304966851705 ], [ 126.762364934380955, 35.734621910837163 ], [ 126.76007450829276, 35.731536876155033 ], [ 126.765371402739333, 35.727875455576275 ], [ 126.768196163757651, 35.72222069324971 ], [ 126.765661547744799, 35.721107276456671 ], [ 126.766215534478391, 35.71838774033823 ], [ 126.775720033193153, 35.720707978129617 ], [ 126.774683722886053, 35.718510929320296 ], [ 126.778829025015142, 35.716393748596246 ], [ 126.772697942656947, 35.703136956827464 ], [ 126.771176041959166, 35.702994259062862 ], [ 126.768634598809612, 35.698319329507427 ], [ 126.767476229413759, 35.698728432643065 ], [ 126.764053562072945, 35.692336937697299 ], [ 126.761654870363188, 35.693177936981179 ], [ 126.757142606436901, 35.68351164442997 ], [ 126.750336934866837, 35.685072526319075 ], [ 126.748138559293437, 35.680810759717346 ], [ 126.743813989489226, 35.681807909147331 ], [ 126.743575470130267, 35.683778788124464 ], [ 126.740710466849663, 35.68518154070172 ], [ 126.739930456125776, 35.682956716606931 ], [ 126.7371653101698, 35.683302851036736 ], [ 126.734092571620081, 35.679311324695085 ], [ 126.729966532253655, 35.678261185343608 ], [ 126.728203143586825, 35.675557081475617 ], [ 126.724477987875275, 35.679193868154165 ], [ 126.721473943099369, 35.677066405995809 ], [ 126.719836974474745, 35.680518879006357 ], [ 126.718373232983623, 35.679714936495735 ] ] ] ] } },
{ "type": "Feature", "properties": { "emd_cd": "52800310", "emd_nm": "주산면" }, "geometry": { "type": "MultiPolygon", "coordinates": [ [ [ [ 126.718406277208274, 35.679813721535076 ], [ 126.719836974474745, 35.680518879006357 ], [ 126.721473943099369, 35.677066405995809 ], [ 126.724477987875275, 35.679193868154165 ], [ 126.728203143586825, 35.675557081475617 ], [ 126.729966532253655, 35.678261185343608 ], [ 126.73439729480657, 35.679891384180351 ], [ 126.739292346474897, 35.675932627771992 ], [ 126.742960430361208, 35.669820645610038 ], [ 126.742325540920532, 35.667989360105786 ], [ 126.744270472189314, 35.667538259449685 ], [ 126.742473533101403, 35.662943474817752 ], [ 126.743602307056847, 35.66240504135407 ], [ 126.741224487794639, 35.659052317999631 ], [ 126.742212881906511, 35.658470873223948 ], [ 126.737846061898566, 35.650314213511741 ], [ 126.735602547689908, 35.649196926136291 ], [ 126.734074540015826, 35.651055249369186 ], [ 126.726832241177647, 35.648198201329251 ], [ 126.727217172016481, 35.645342902493923 ], [ 126.725246605138707, 35.643881511467669 ], [ 126.723391492721589, 35.634434727138782 ], [ 126.71670940219856, 35.635995816689061 ], [ 126.716597960280936, 35.63869695609857 ], [ 126.712469294513255, 35.641911842148922 ], [ 126.712284804778804, 35.643886540767369 ], [ 126.702234581582147, 35.642868940950606 ], [ 126.701928631435948, 35.644868241341001 ], [ 126.697626518440245, 35.647797396379993 ], [ 126.687033945315022, 35.652460813577456 ], [ 126.684456284876319, 35.649982885074671 ], [ 126.678813024909388, 35.649502058724714 ], [ 126.679371403624742, 35.647425183409432 ], [ 126.677322423828912, 35.645879315908211 ], [ 126.670821956380479, 35.645496415505946 ], [ 126.66938711764989, 35.649703103533881 ], [ 126.67161093610089, 35.660336902846794 ], [ 126.676352051358393, 35.659630991924431 ], [ 126.677742050484142, 35.665387666606229 ], [ 126.682111068021825, 35.664711731521237 ], [ 126.685459605616046, 35.6664613833819 ], [ 126.687249213968812, 35.672506786095958 ], [ 126.690615918182829, 35.676016606895317 ], [ 126.690416710096642, 35.680120890509713 ], [ 126.692819735598007, 35.679728756959783 ], [ 126.694533964562694, 35.685626552170831 ], [ 126.692368748393079, 35.687052771941957 ], [ 126.696305116889462, 35.696281814327939 ], [ 126.694611229672404, 35.697970002222469 ], [ 126.697470672520197, 35.700376885283532 ], [ 126.700787336649356, 35.696452977476604 ], [ 126.706733944248427, 35.694701842690975 ], [ 126.716932934654835, 35.696665695466848 ], [ 126.725574605348569, 35.695417974489459 ], [ 126.722017589189534, 35.691207362672706 ], [ 126.711488999713112, 35.692063429865726 ], [ 126.709683790365744, 35.691157816048502 ], [ 126.711476146878951, 35.691041925980493 ], [ 126.710576250027898, 35.688407053183106 ], [ 126.713951964938005, 35.68691995276199 ], [ 126.712592249931646, 35.685375208786823 ], [ 126.713610745963891, 35.682761716023393 ], [ 126.718406277208274, 35.679813721535076 ] ], [ [ 126.697314374779111, 35.700061614215969 ], [ 126.696748888627766, 35.69962378080163 ], [ 126.696343324448236, 35.699309751889139 ], [ 126.697314374779111, 35.700061614215969 ] ] ], [ [ [ 126.718404138354103, 35.679828190942416 ], [ 126.718392453379039, 35.679902680677202 ], [ 126.718406277208274, 35.679813721535076 ], [ 126.718404138354103, 35.679828190942416 ] ] ] ] } },
{ "type": "Feature", "properties": { "emd_cd": "52800320", "emd_nm": "동진면" }, "geometry": { "type": "MultiPolygon", "coordinates": [ [ [ [ 126.695950573420618, 35.741680925211853 ], [ 126.696062760990557, 35.74400187044666 ], [ 126.693514715909842, 35.744386343503749 ], [ 126.692676672510473, 35.746662405428459 ], [ 126.694931360345592, 35.74908057762196 ], [ 126.694632917717172, 35.751223827195865 ], [ 126.704272428960394, 35.753201508242228 ], [ 126.703429822597656, 35.754919570339048 ], [ 126.706719653816606, 35.756923751290955 ], [ 126.704063958537674, 35.759831575670333 ], [ 126.709678175169799, 35.759636673150247 ], [ 126.714138653700957, 35.768185041987444 ], [ 126.717071789447616, 35.76921971808035 ], [ 126.720304752524925, 35.767262384042226 ], [ 126.718006036351326, 35.774328724713548 ], [ 126.721460088910348, 35.773608598407939 ], [ 126.730840145043899, 35.777232488350101 ], [ 126.728825000126676, 35.778931404871031 ], [ 126.728923858420686, 35.804785422686457 ], [ 126.762959478752123, 35.796640099079298 ], [ 126.779663267244857, 35.757027543366689 ], [ 126.783022355089912, 35.75490835046935 ], [ 126.780133020948824, 35.743486180762531 ], [ 126.784413994343012, 35.742785909904967 ], [ 126.784174550183479, 35.740260134324146 ], [ 126.782484605166175, 35.739860874766045 ], [ 126.789680525340742, 35.731800217982105 ], [ 126.789325292652862, 35.728316990657724 ], [ 126.778325493615412, 35.720400475452273 ], [ 126.77629446199353, 35.721088677079521 ], [ 126.766215534478391, 35.71838774033823 ], [ 126.765661547744799, 35.721107276456671 ], [ 126.768196163757651, 35.72222069324971 ], [ 126.765371402739333, 35.727875455576275 ], [ 126.76007450829276, 35.731536876155033 ], [ 126.762364934380955, 35.734621910837163 ], [ 126.76086701833546, 35.736304966851705 ], [ 126.75267834152983, 35.736733017754062 ], [ 126.748683129671917, 35.734161836903866 ], [ 126.745419704461312, 35.738619090097735 ], [ 126.735254788466321, 35.742641821713605 ], [ 126.732022455405698, 35.741296449121293 ], [ 126.730915545055254, 35.739054874978976 ], [ 126.724661741125971, 35.746779527162751 ], [ 126.718674940191107, 35.750161858110971 ], [ 126.718291793900917, 35.755186823420132 ], [ 126.712079676427905, 35.753273003053458 ], [ 126.714865600172658, 35.748869077825248 ], [ 126.714976064754381, 35.74501363291732 ], [ 126.711888633793009, 35.744572482421503 ], [ 126.706007448305968, 35.738925292129117 ], [ 126.701643896490111, 35.737683454335055 ], [ 126.70065667270984, 35.741523795521218 ], [ 126.695950573420618, 35.741680925211853 ] ] ] ] } },
{ "type": "Feature", "properties": { "emd_cd": "52800330", "emd_nm": "행안면" }, "geometry": { "type": "MultiPolygon", "coordinates": [ [ [ [ 126.718291793900917, 35.755186823420132 ], [ 126.718674940191107, 35.750161858110971 ], [ 126.726547031242347, 35.744945931692683 ], [ 126.731391775500583, 35.737021314313516 ], [ 126.730064666547349, 35.734728477293991 ], [ 126.731006459836593, 35.733862400543629 ], [ 126.726132461497798, 35.73171681034686 ], [ 126.724132253164626, 35.725239645796776 ], [ 126.728808466475868, 35.712110545303062 ], [ 126.723198077103262, 35.709973066132399 ], [ 126.72628169080842, 35.706287153974259 ], [ 126.725676345212776, 35.702585654195637 ], [ 126.727897722256671, 35.700217824611656 ], [ 126.725574605348569, 35.695417974489459 ], [ 126.716932934654835, 35.696665695466848 ], [ 126.706733944248427, 35.694701842690975 ], [ 126.700787336649356, 35.696452977476604 ], [ 126.694493826353536, 35.704147809045068 ], [ 126.690797297996625, 35.705107170989109 ], [ 126.688848649990277, 35.708263403382013 ], [ 126.686160137100828, 35.708136189072448 ], [ 126.687181164689633, 35.710279549012164 ], [ 126.685337856963883, 35.712062655168332 ], [ 126.68874927798862, 35.712390704996665 ], [ 126.690342412005933, 35.724974431576712 ], [ 126.678757820542586, 35.725347602239339 ], [ 126.675791905756441, 35.723941156639924 ], [ 126.669593306834798, 35.738808767471042 ], [ 126.677506406363918, 35.739638574957887 ], [ 126.677906254190873, 35.737730344279917 ], [ 126.682613352565284, 35.738143232056153 ], [ 126.682231949832683, 35.742143618469285 ], [ 126.699463031964285, 35.741565778567214 ], [ 126.70065667270984, 35.741523795521218 ], [ 126.701643896490111, 35.737683454335055 ], [ 126.703247473888425, 35.737632038514953 ], [ 126.711888633793009, 35.744572482421503 ], [ 126.714976064754381, 35.74501363291732 ], [ 126.714865600172658, 35.748869077825248 ], [ 126.712079676427905, 35.753273003053458 ], [ 126.718291793900917, 35.755186823420132 ] ] ] ] } },
{ "type": "Feature", "properties": { "emd_cd": "52800340", "emd_nm": "계화면" }, "geometry": { "type": "MultiPolygon", "coordinates": [ [ [ [ 126.640975580235434, 35.793700926272841 ], [ 126.642307046685474, 35.795305355432298 ], [ 126.643207213260993, 35.793484976997455 ], [ 126.653186986582739, 35.791954188849033 ], [ 126.689614384651989, 35.795559015282592 ], [ 126.697500022632113, 35.798109928946175 ], [ 126.706899798521547, 35.796195535557899 ], [ 126.698717649976544, 35.811746589483008 ], [ 126.728923858420686, 35.804785422686457 ], [ 126.728825000126676, 35.778931404871031 ], [ 126.730840145043899, 35.777232488350101 ], [ 126.721460088910348, 35.773608598407939 ], [ 126.718006036351326, 35.774328724713548 ], [ 126.720304752524925, 35.767262384042226 ], [ 126.717071789447616, 35.76921971808035 ], [ 126.714138653700957, 35.768185041987444 ], [ 126.709678175169799, 35.759636673150247 ], [ 126.704063958537674, 35.759831575670333 ], [ 126.706719653816606, 35.756923751290955 ], [ 126.703429822597656, 35.754919570339048 ], [ 126.704272428960394, 35.753201508242228 ], [ 126.694632917717172, 35.751223827195865 ], [ 126.694931360345592, 35.74908057762196 ], [ 126.692676672510473, 35.746662405428459 ], [ 126.693514715909842, 35.744386343503749 ], [ 126.696062760990557, 35.74400187044666 ], [ 126.695950573420618, 35.741680925211853 ], [ 126.682231949832683, 35.742143618469285 ], [ 126.682613352565284, 35.738143232056153 ], [ 126.677906254190873, 35.737730344279917 ], [ 126.677506406363918, 35.739638574957887 ], [ 126.669593306834798, 35.738808767471042 ], [ 126.663476352718916, 35.750944355137406 ], [ 126.652058966205672, 35.749397468866867 ], [ 126.650108975789678, 35.746532190441449 ], [ 126.635735704911866, 35.739377394489239 ], [ 126.632857536427522, 35.743344244150357 ], [ 126.632174894163242, 35.742806027168946 ], [ 126.6314209523984, 35.742481384050926 ], [ 126.631292550248489, 35.742490668629529 ], [ 126.633389949027958, 35.744060032724249 ], [ 126.62655494130793, 35.747568335056521 ], [ 126.628621788485745, 35.749066342165563 ], [ 126.625585254289916, 35.777449233998603 ], [ 126.627375633662481, 35.780606774506388 ], [ 126.621372546583601, 35.786887582340597 ], [ 126.624980779358879, 35.789270598620739 ], [ 126.626914594357785, 35.79482976077724 ], [ 126.631792624674247, 35.797625318559327 ], [ 126.632580099521732, 35.800084360681929 ], [ 126.637443174430885, 35.798790365157203 ], [ 126.637960273410442, 35.794900988098114 ], [ 126.640975580235434, 35.793700926272841 ] ] ] ] } },
{ "type": "Feature", "properties": { "emd_cd": "52800350", "emd_nm": "보안면" }, "geometry": { "type": "MultiPolygon", "coordinates": [ [ [ [ 126.687033945315022, 35.652460813577456 ], [ 126.697626518440245, 35.647797396379993 ], [ 126.701928631435948, 35.644868241341001 ], [ 126.702234581582147, 35.642868940950606 ], [ 126.712284804778804, 35.643886540767369 ], [ 126.712469294513255, 35.641911842148922 ], [ 126.716597960280936, 35.63869695609857 ], [ 126.71670940219856, 35.635995816689061 ], [ 126.723497281826454, 35.634657127613295 ], [ 126.720254212286221, 35.630224435843992 ], [ 126.722075321085995, 35.622060078099992 ], [ 126.721341807416522, 35.622975221344994 ], [ 126.717169759646211, 35.620993023392607 ], [ 126.717833933538998, 35.620048144036495 ], [ 126.713969813267425, 35.617273746834265 ], [ 126.701950324948015, 35.618858350608853 ], [ 126.700948644905566, 35.612332650610071 ], [ 126.690221656892646, 35.612044817429656 ], [ 126.676510541983689, 35.606575995483382 ], [ 126.672540541891479, 35.600946035024613 ], [ 126.664289578788768, 35.599488437591873 ], [ 126.660978635840223, 35.591677439606549 ], [ 126.657304154095158, 35.590899650989243 ], [ 126.659030615947017, 35.590028700012319 ], [ 126.658199840150658, 35.587672245269005 ], [ 126.651192249429542, 35.580612258266129 ], [ 126.62737644447337, 35.58605603581271 ], [ 126.625727271744267, 35.597986316436817 ], [ 126.63070418487564, 35.607099525355849 ], [ 126.629869201491175, 35.609763058718059 ], [ 126.623230499756062, 35.61329203313592 ], [ 126.624555541101259, 35.617850186881334 ], [ 126.617064971806229, 35.624904126738798 ], [ 126.622758130921383, 35.628656788085401 ], [ 126.622173488751514, 35.634881356653878 ], [ 126.631806943227161, 35.637882015659038 ], [ 126.645129817768151, 35.633977035879496 ], [ 126.647212817469381, 35.638444995368481 ], [ 126.646088557112634, 35.640593436545146 ], [ 126.650660635527615, 35.6494880894709 ], [ 126.658416672693932, 35.650862007184116 ], [ 126.660679602420359, 35.644659885336402 ], [ 126.666261943469948, 35.640292459977559 ], [ 126.672993340464117, 35.644846767519681 ], [ 126.677322423828912, 35.645879315908211 ], [ 126.679371403624742, 35.647425183409432 ], [ 126.678813024909388, 35.649502058724714 ], [ 126.684456284876319, 35.649982885074671 ], [ 126.687033945315022, 35.652460813577456 ] ] ] ] } },
{ "type": "Feature", "properties": { "emd_cd": "52800360", "emd_nm": "변산면" }, "geometry": { "type": "MultiPolygon", "coordinates": [ [ [ [ 126.466459724963713, 35.598951505580899 ], [ 126.466906310402265, 35.602779273575671 ], [ 126.46670914652023, 35.598656949129868 ], [ 126.466459724963713, 35.598951505580899 ] ] ], [ [ [ 126.462788349270198, 35.620953110711888 ], [ 126.463379137788934, 35.617585506415644 ], [ 126.463315707762291, 35.617550388970514 ], [ 126.462788349270198, 35.620953110711888 ] ] ], [ [ [ 126.459082191004597, 35.636823558241176 ], [ 126.461142315449337, 35.635983234158147 ], [ 126.465697903005918, 35.638798056614064 ], [ 126.467393625240504, 35.642005957048035 ], [ 126.469831646431828, 35.640834492600774 ], [ 126.474913506840025, 35.643301442588381 ], [ 126.479480679593692, 35.642680282999699 ], [ 126.482438651191899, 35.645352601843754 ], [ 126.481585077605416, 35.647508784917008 ], [ 126.483422942897533, 35.646788144341585 ], [ 126.497548277316852, 35.657843967460728 ], [ 126.497795507629348, 35.653802696248434 ], [ 126.49907467050059, 35.654514768293382 ], [ 126.49845432868436, 35.654760145172141 ], [ 126.499199233705255, 35.656895898021133 ], [ 126.506522655897527, 35.660830806787203 ], [ 126.510438609735914, 35.665037514871599 ], [ 126.514627718920892, 35.665826629049882 ], [ 126.522467510146654, 35.676591922558927 ], [ 126.525968846010812, 35.677793227043651 ], [ 126.526259338716713, 35.67488354457651 ], [ 126.527173406689627, 35.676953788571971 ], [ 126.528687188138733, 35.676813303841215 ], [ 126.531474030718684, 35.680913483936472 ], [ 126.531530928608134, 35.682451256564448 ], [ 126.530147106923167, 35.68255257555893 ], [ 126.533234957382078, 35.686617073269538 ], [ 126.532577782803216, 35.687793037013897 ], [ 126.534948488306227, 35.690067034911266 ], [ 126.539271696341032, 35.689133172016959 ], [ 126.554624667884738, 35.696903933339463 ], [ 126.553570847045208, 35.698208472862902 ], [ 126.554163325080893, 35.699170702410974 ], [ 126.554829213320318, 35.696976883671837 ], [ 126.556351435691525, 35.697783024692825 ], [ 126.532534870621873, 35.726041785490189 ], [ 126.523260028936335, 35.73135389658448 ], [ 126.524464501670934, 35.732653874896762 ], [ 126.527307520490808, 35.730893327401162 ], [ 126.531676970512706, 35.730824124127608 ], [ 126.532122069113086, 35.728283500228478 ], [ 126.553583856263799, 35.703734224147546 ], [ 126.554493609776443, 35.708669966334718 ], [ 126.562030435159528, 35.707267340367139 ], [ 126.567438323572247, 35.696247699276093 ], [ 126.56828149985067, 35.693320614295111 ], [ 126.566251608449377, 35.692058407178365 ], [ 126.568687137743609, 35.689384406344004 ], [ 126.569487670450485, 35.684726002600755 ], [ 126.571585710260379, 35.690197557506316 ], [ 126.573621884683305, 35.690766047057856 ], [ 126.582024317215044, 35.681602399509252 ], [ 126.587840718110826, 35.681983361097153 ], [ 126.592222046914799, 35.678773503513369 ], [ 126.598673951005352, 35.677674305296527 ], [ 126.601493081061392, 35.678878253492442 ], [ 126.601843801558658, 35.682358126075513 ], [ 126.604624743273263, 35.682906480518774 ], [ 126.611262162087243, 35.677689159021348 ], [ 126.619100884718478, 35.677305426201336 ], [ 126.610723650583296, 35.672555212497151 ], [ 126.61127947032837, 35.668815020415046 ], [ 126.604468481080872, 35.666200299612264 ], [ 126.600126809300178, 35.656017933942373 ], [ 126.601490456772964, 35.653260150559952 ], [ 126.600290285445766, 35.650987826335296 ], [ 126.594234253025661, 35.647164707844809 ], [ 126.593164932729678, 35.642515427133162 ], [ 126.589158699083697, 35.638851161280343 ], [ 126.58826064776612, 35.63560649641893 ], [ 126.590064632436892, 35.627249444604168 ], [ 126.587044080510864, 35.627377871509381 ], [ 126.582906466491679, 35.623271107127778 ], [ 126.571775376348768, 35.622161453129344 ], [ 126.567557404671277, 35.619520594794956 ], [ 126.56066430450673, 35.621324931914309 ], [ 126.544296837971174, 35.619671190902615 ], [ 126.537355382943304, 35.626253126645324 ], [ 126.530786040038237, 35.617343794802345 ], [ 126.5248329717096, 35.619505869308107 ], [ 126.516622156423182, 35.617217102988803 ], [ 126.515822821516679, 35.61459299429108 ], [ 126.509877357600843, 35.614078818165765 ], [ 126.510487118043912, 35.60845200942547 ], [ 126.516536878840014, 35.602272188789556 ], [ 126.517879996147869, 35.595046075633313 ], [ 126.521704682419795, 35.594712367140247 ], [ 126.523097433105264, 35.589948623339922 ], [ 126.524816106466702, 35.589431193703817 ], [ 126.523936401477286, 35.587563460263247 ], [ 126.527016627356645, 35.584764504087076 ], [ 126.527914897707987, 35.58092000102917 ], [ 126.530265236123995, 35.579649572033347 ], [ 126.529218696370265, 35.579314544521615 ], [ 126.526075992685975, 35.579529351361231 ], [ 126.525630713994801, 35.581347532863511 ], [ 126.523050368285396, 35.57973174269577 ], [ 126.516992246773043, 35.580761127414924 ], [ 126.517561536268374, 35.586297381093686 ], [ 126.51656086691311, 35.587885136440093 ], [ 126.514144813750889, 35.587293283825119 ], [ 126.510409949632063, 35.582793360321347 ], [ 126.512545130403183, 35.58170012529974 ], [ 126.510676577551394, 35.579358018609099 ], [ 126.507018925263054, 35.581018497655577 ], [ 126.508003733314453, 35.581945010864651 ], [ 126.506819281237838, 35.583366737970934 ], [ 126.500416814068785, 35.583069218543208 ], [ 126.498923957468065, 35.586108443994831 ], [ 126.491928983199529, 35.586226708398826 ], [ 126.491843143610296, 35.588399913211532 ], [ 126.487776468952902, 35.589889722935922 ], [ 126.489421046708273, 35.590898265190432 ], [ 126.487769032108673, 35.59641200894103 ], [ 126.485566472573623, 35.596289446081713 ], [ 126.48379062066661, 35.599061791553517 ], [ 126.481378223457909, 35.598015451877458 ], [ 126.481943474617751, 35.600343803715056 ], [ 126.476450743578582, 35.60388296821872 ], [ 126.473861406762154, 35.602231610077432 ], [ 126.469429940408546, 35.603204297142049 ], [ 126.46768089292101, 35.600345830435685 ], [ 126.469787707214778, 35.599578468995844 ], [ 126.467739835513356, 35.598275907116182 ], [ 126.467640843221758, 35.600776642819795 ], [ 126.469054198364276, 35.602734245273169 ], [ 126.468515011940923, 35.604860907266186 ], [ 126.466701215021047, 35.606969028495868 ], [ 126.464545432050983, 35.605342214760448 ], [ 126.46514974091059, 35.609468540528781 ], [ 126.461590572794179, 35.610058610305771 ], [ 126.461485737371135, 35.612824310312227 ], [ 126.463705171253778, 35.617428419067416 ], [ 126.46993447871975, 35.618195534691338 ], [ 126.469740326939686, 35.624161775702788 ], [ 126.46803464786467, 35.622296652081502 ], [ 126.463870206762778, 35.623179784583016 ], [ 126.460921978117867, 35.621730697353136 ], [ 126.463758458500664, 35.623213687470432 ], [ 126.466982313574093, 35.623070831658751 ], [ 126.467060824554224, 35.623222611579763 ], [ 126.4677880411204, 35.623303425294566 ], [ 126.469872250256728, 35.624303343755123 ], [ 126.465566504910683, 35.624056707728343 ], [ 126.469914245469752, 35.627643532852673 ], [ 126.470089510181211, 35.629627570948237 ], [ 126.467180123608514, 35.635088641616029 ], [ 126.460721419673249, 35.634275107053107 ], [ 126.459082191004597, 35.636823558241176 ] ] ], [ [ [ 126.450675698635365, 35.660548892648897 ], [ 126.450942607182299, 35.660353087386532 ], [ 126.450683507854023, 35.660305830055997 ], [ 126.450675698635365, 35.660548892648897 ] ] ], [ [ [ 126.45088348818453, 35.660795960294834 ], [ 126.451175758629304, 35.66065247175618 ], [ 126.450868432188599, 35.660669380849811 ], [ 126.45088348818453, 35.660795960294834 ] ] ], [ [ [ 126.485758810357353, 35.665785074029984 ], [ 126.487410439064874, 35.664941357965695 ], [ 126.486894278539083, 35.661775581520253 ], [ 126.484560671008779, 35.661435553398071 ], [ 126.483443854767984, 35.66312143196096 ], [ 126.485758810357353, 35.665785074029984 ] ] ], [ [ [ 126.451141547223372, 35.697247281912965 ], [ 126.451604154957977, 35.697564106733672 ], [ 126.451718489056432, 35.697064682018315 ], [ 126.451141547223372, 35.697247281912965 ] ] ] ] } },
{ "type": "Feature", "properties": { "emd_cd": "52800370", "emd_nm": "진서면" }, "geometry": { "type": "MultiPolygon", "coordinates": [ [ [ [ 126.509474756916219, 35.61330310596356 ], [ 126.512191972336993, 35.615104534155606 ], [ 126.515822821516679, 35.61459299429108 ], [ 126.516622156423182, 35.617217102988803 ], [ 126.5248329717096, 35.619505869308107 ], [ 126.530786040038237, 35.617343794802345 ], [ 126.537355382943304, 35.626253126645324 ], [ 126.544296837971174, 35.619671190902615 ], [ 126.56066430450673, 35.621324931914309 ], [ 126.567557404671277, 35.619520594794956 ], [ 126.571775376348768, 35.622161453129344 ], [ 126.582906466491679, 35.623271107127778 ], [ 126.587686407181451, 35.62763363517827 ], [ 126.603921710045782, 35.621971217143582 ], [ 126.614290717668197, 35.626904678055155 ], [ 126.624555541101259, 35.617850186881334 ], [ 126.623230499756062, 35.61329203313592 ], [ 126.629869201491175, 35.609763058718059 ], [ 126.63070418487564, 35.607099525355849 ], [ 126.625727271744267, 35.597986316436817 ], [ 126.62737644447337, 35.58605603581271 ], [ 126.614540973852314, 35.590422794229283 ], [ 126.618717565372989, 35.588267281041624 ], [ 126.617916025430461, 35.587028443045817 ], [ 126.609255637198856, 35.587058411392476 ], [ 126.604910913141538, 35.584956852224877 ], [ 126.604241064020641, 35.586480176562581 ], [ 126.593449045496115, 35.590138216706883 ], [ 126.592761902179902, 35.588417008600089 ], [ 126.584943791728548, 35.587875443910747 ], [ 126.5753073757474, 35.590406014910478 ], [ 126.575266922188234, 35.584838672739906 ], [ 126.565455378407549, 35.585193559613593 ], [ 126.561884935509994, 35.586961885112068 ], [ 126.558077097779844, 35.586464726098541 ], [ 126.557711503072838, 35.584795045966736 ], [ 126.557022913199688, 35.586823095864126 ], [ 126.546946248892354, 35.586233108860149 ], [ 126.546780673747435, 35.583835617806059 ], [ 126.546188338029921, 35.586099328661362 ], [ 126.530265236123995, 35.579649572033347 ], [ 126.527914897707987, 35.58092000102917 ], [ 126.527016627356645, 35.584764504087076 ], [ 126.523936401477286, 35.587563460263247 ], [ 126.524816106466702, 35.589431193703817 ], [ 126.523097433105264, 35.589948623339922 ], [ 126.521704682419795, 35.594712367140247 ], [ 126.517879996147869, 35.595046075633313 ], [ 126.516536878840014, 35.602272188789556 ], [ 126.510487118043912, 35.60845200942547 ], [ 126.509474756916219, 35.61330310596356 ] ] ] ] } },
{ "type": "Feature", "properties": { "emd_cd": "52800380", "emd_nm": "백산면" }, "geometry": { "type": "MultiPolygon", "coordinates": [ [ [ [ 126.829518296922998, 35.68487117870891 ], [ 126.829512168222053, 35.68502966798922 ], [ 126.829689134842937, 35.685089990484002 ], [ 126.829518296922998, 35.68487117870891 ] ] ], [ [ [ 126.734337011817288, 35.680091170793986 ], [ 126.7371653101698, 35.683302851036736 ], [ 126.739930456125776, 35.682956716606931 ], [ 126.740710466849663, 35.68518154070172 ], [ 126.743575470130267, 35.683778788124464 ], [ 126.743813989489226, 35.681807909147331 ], [ 126.748138559293437, 35.680810759717346 ], [ 126.750336934866837, 35.685072526319075 ], [ 126.757142606436901, 35.68351164442997 ], [ 126.761654870363188, 35.693177936981179 ], [ 126.764053562072945, 35.692336937697299 ], [ 126.767476229413759, 35.698728432643065 ], [ 126.768634598809612, 35.698319329507427 ], [ 126.774723566102494, 35.706858734878956 ], [ 126.778829025015142, 35.716393748596246 ], [ 126.774683722886053, 35.718510929320296 ], [ 126.775720033193153, 35.720707978129617 ], [ 126.778325493615412, 35.720400475452273 ], [ 126.783648921899186, 35.723154803244611 ], [ 126.784193340878886, 35.725616724393831 ], [ 126.786912966195985, 35.725809562709948 ], [ 126.789290194226496, 35.72820215246891 ], [ 126.789680525340742, 35.731800217982105 ], [ 126.782484605166175, 35.739860874766045 ], [ 126.784174550183479, 35.740260134324146 ], [ 126.784413994343012, 35.742785909904967 ], [ 126.780133020948824, 35.743486180762531 ], [ 126.783061742761291, 35.751305191186411 ], [ 126.795855671018003, 35.753438223420837 ], [ 126.796276515511863, 35.746230987286857 ], [ 126.797760305361848, 35.746233508491819 ], [ 126.79668128120943, 35.744443541527374 ], [ 126.798974532728678, 35.742641045078194 ], [ 126.806702652659737, 35.745425262918836 ], [ 126.807682564244587, 35.743685818210189 ], [ 126.806382358782798, 35.733879824020264 ], [ 126.809230389860346, 35.730879936443792 ], [ 126.805900895988273, 35.729146131584827 ], [ 126.804758999692112, 35.726400543267481 ], [ 126.813649578255408, 35.728972812809019 ], [ 126.814208985259938, 35.727127799220952 ], [ 126.811244209905425, 35.723138934185656 ], [ 126.814899211479414, 35.724200112158641 ], [ 126.814804076300177, 35.726226194502885 ], [ 126.81712288676637, 35.727164382904085 ], [ 126.818147289626907, 35.725370532632809 ], [ 126.815212232360409, 35.722199331548232 ], [ 126.816309607631908, 35.719752918725916 ], [ 126.812393089334577, 35.718516823864007 ], [ 126.813063462827188, 35.71562938962731 ], [ 126.818454815362969, 35.714583222683139 ], [ 126.822505618619445, 35.716872805100593 ], [ 126.823183583115636, 35.712634681887778 ], [ 126.825743343799246, 35.715994277631779 ], [ 126.826946212498697, 35.715606553198853 ], [ 126.826208520459502, 35.7122926399962 ], [ 126.831399052812031, 35.705740712010645 ], [ 126.834840187540664, 35.703741737384384 ], [ 126.833499315898123, 35.701146528783511 ], [ 126.837149598004203, 35.698702351269993 ], [ 126.83972511325544, 35.699983554060907 ], [ 126.840867871312383, 35.697674745227253 ], [ 126.840489527737347, 35.695331499643444 ], [ 126.837787837427129, 35.696368574308458 ], [ 126.834792784392945, 35.687257228068567 ], [ 126.828880530350133, 35.685013523774693 ], [ 126.827098396155918, 35.679994553867338 ], [ 126.818783620816077, 35.680692070573592 ], [ 126.814722537072811, 35.683687083825674 ], [ 126.808763285928322, 35.680746336701873 ], [ 126.80576443453262, 35.675738939870357 ], [ 126.798486815918267, 35.684660817700376 ], [ 126.788219269501639, 35.675074435003545 ], [ 126.783454712880996, 35.675801902426905 ], [ 126.777210714644156, 35.679601194498055 ], [ 126.777286962070349, 35.682162575807226 ], [ 126.772980685358746, 35.683582044257967 ], [ 126.769675929553173, 35.681475139505537 ], [ 126.764970747473797, 35.673180957991953 ], [ 126.763954277870909, 35.665630111956681 ], [ 126.765120931559096, 35.664486912644911 ], [ 126.763143328875884, 35.662003307964895 ], [ 126.756002626171465, 35.665021128664321 ], [ 126.75534520179535, 35.666878306946593 ], [ 126.75155267665653, 35.667741759377435 ], [ 126.750185954149586, 35.663493187674263 ], [ 126.743690727482232, 35.666575972432028 ], [ 126.739631427578217, 35.675487208075211 ], [ 126.734337011817288, 35.680091170793986 ] ] ] ] } },
{ "type": "Feature", "properties": { "emd_cd": "52800390", "emd_nm": "상서면" }, "geometry": { "type": "MultiPolygon", "coordinates": [ [ [ [ 126.694493826353536, 35.704147809045068 ], [ 126.697470672520197, 35.700376885283532 ], [ 126.694611229672404, 35.697970002222469 ], [ 126.696305116889462, 35.696281814327939 ], [ 126.692368748393079, 35.687052771941957 ], [ 126.694533964562694, 35.685626552170831 ], [ 126.692819735598007, 35.679728756959783 ], [ 126.690416710096642, 35.680120890509713 ], [ 126.690615918182829, 35.676016606895317 ], [ 126.687249213968812, 35.672506786095958 ], [ 126.685459605616046, 35.6664613833819 ], [ 126.682111068021825, 35.664711731521237 ], [ 126.677742050484142, 35.665387666606229 ], [ 126.676352051358393, 35.659630991924431 ], [ 126.67161093610089, 35.660336902846794 ], [ 126.66938711764989, 35.649703103533881 ], [ 126.670821956380479, 35.645496415505946 ], [ 126.672993340464117, 35.644846767519681 ], [ 126.672323443955449, 35.643448564245553 ], [ 126.666539494458945, 35.640328255563489 ], [ 126.664611222837209, 35.640952393990105 ], [ 126.660679602420359, 35.644659885336402 ], [ 126.657421077049563, 35.651085270507821 ], [ 126.649190169637393, 35.647965032255129 ], [ 126.646088557112634, 35.640593436545146 ], [ 126.646600448261296, 35.635205572361905 ], [ 126.645129817768151, 35.633977035879496 ], [ 126.631806943227161, 35.637882015659038 ], [ 126.623023584036261, 35.63535561382507 ], [ 126.621771697956632, 35.627673165859328 ], [ 126.617046026544713, 35.625439794718822 ], [ 126.61294704706782, 35.626724549643264 ], [ 126.605653331039363, 35.622122879753498 ], [ 126.598131174476279, 35.622951561977317 ], [ 126.595283232448836, 35.625696459756554 ], [ 126.590064632436892, 35.627249444604168 ], [ 126.58826064776612, 35.63560649641893 ], [ 126.589158699083697, 35.638851161280343 ], [ 126.593164932729678, 35.642515427133162 ], [ 126.594234253025661, 35.647164707844809 ], [ 126.600290285445766, 35.650987826335296 ], [ 126.601490456772964, 35.653260150559952 ], [ 126.600126809300178, 35.656017933942373 ], [ 126.604468481080872, 35.666200299612264 ], [ 126.610508662180507, 35.668240294623224 ], [ 126.610723650583296, 35.672555212497151 ], [ 126.619236032551314, 35.676420348561443 ], [ 126.621818847973458, 35.685373816422008 ], [ 126.623076196526085, 35.684579890134735 ], [ 126.626479534947521, 35.687174565315459 ], [ 126.631042821398509, 35.687953561751854 ], [ 126.633208630425656, 35.686173827622547 ], [ 126.637393296486508, 35.687909753152425 ], [ 126.639835755341153, 35.68642283693346 ], [ 126.642520862003678, 35.694790345526386 ], [ 126.659209154253148, 35.710042045627063 ], [ 126.662114755187332, 35.714895072456883 ], [ 126.67345364414453, 35.716854341713585 ], [ 126.675443983374208, 35.715156357041707 ], [ 126.677367869875624, 35.717753863641342 ], [ 126.6853612092373, 35.716923606293989 ], [ 126.686456825226728, 35.715553850479552 ], [ 126.685337856963883, 35.712062655168332 ], [ 126.687181164689633, 35.710279549012164 ], [ 126.686160137100828, 35.708136189072448 ], [ 126.688848649990277, 35.708263403382013 ], [ 126.690797297996625, 35.705107170989109 ], [ 126.694493826353536, 35.704147809045068 ] ] ], [ [ [ 126.696343324448236, 35.699309751889139 ], [ 126.697262386791834, 35.70002136738168 ], [ 126.697314374779111, 35.700061614215969 ], [ 126.696343324448236, 35.699309751889139 ] ] ] ] } },
{ "type": "Feature", "properties": { "emd_cd": "52800400", "emd_nm": "하서면" }, "geometry": { "type": "MultiPolygon", "coordinates": [ [ [ [ 126.568721185489892, 35.692731064405052 ], [ 126.576640523353191, 35.700261457196433 ], [ 126.580518585169145, 35.700883524315579 ], [ 126.580006088020724, 35.702471372954363 ], [ 126.584232726127993, 35.707191544420652 ], [ 126.589297949952453, 35.708137369135351 ], [ 126.597395701932399, 35.714632204740916 ], [ 126.611587046287909, 35.7336039826993 ], [ 126.610939014459632, 35.736394961013801 ], [ 126.603914887095897, 35.740156261051879 ], [ 126.593598550268752, 35.742246543261565 ], [ 126.600787035376385, 35.742660580641626 ], [ 126.612908297204655, 35.746385314183684 ], [ 126.619464336937028, 35.741676279922061 ], [ 126.625934756860474, 35.747002293559902 ], [ 126.624570487586297, 35.748789262782431 ], [ 126.628818839143065, 35.74581372079745 ], [ 126.631171387993945, 35.74595477607015 ], [ 126.633461961796158, 35.743805538806647 ], [ 126.631292550248489, 35.742490668629529 ], [ 126.632857536427522, 35.743344244150357 ], [ 126.635735704911866, 35.739377394489239 ], [ 126.650108975789678, 35.746532190441449 ], [ 126.652058966205672, 35.749397468866867 ], [ 126.663476352718916, 35.750944355137406 ], [ 126.673460711668113, 35.731764953068804 ], [ 126.675791905756441, 35.723941156639924 ], [ 126.678757820542586, 35.725347602239339 ], [ 126.690342412005933, 35.724974431576712 ], [ 126.68874927798862, 35.712390704996665 ], [ 126.68635287614326, 35.712454483648671 ], [ 126.6853612092373, 35.716923606293989 ], [ 126.679011466482564, 35.717825954260391 ], [ 126.675443983374208, 35.715156357041707 ], [ 126.67345364414453, 35.716854341713585 ], [ 126.662114755187332, 35.714895072456883 ], [ 126.659209154253148, 35.710042045627063 ], [ 126.642520862003678, 35.694790345526386 ], [ 126.639835755341153, 35.68642283693346 ], [ 126.637393296486508, 35.687909753152425 ], [ 126.633208630425656, 35.686173827622547 ], [ 126.631042821398509, 35.687953561751854 ], [ 126.626479534947521, 35.687174565315459 ], [ 126.623076196526085, 35.684579890134735 ], [ 126.621818847973458, 35.685373816422008 ], [ 126.619100884718478, 35.677305426201336 ], [ 126.611262162087243, 35.677689159021348 ], [ 126.604624743273263, 35.682906480518774 ], [ 126.601843801558658, 35.682358126075513 ], [ 126.601493081061392, 35.678878253492442 ], [ 126.598673951005352, 35.677674305296527 ], [ 126.592222046914799, 35.678773503513369 ], [ 126.587840718110826, 35.681983361097153 ], [ 126.582024317215044, 35.681602399509252 ], [ 126.573621884683305, 35.690766047057856 ], [ 126.568721185489892, 35.692731064405052 ] ] ] ] } },
{ "type": "Feature", "properties": { "emd_cd": "52800410", "emd_nm": "줄포면" }, "geometry": { "type": "MultiPolygon", "coordinates": [ [ [ [ 126.721341807416522, 35.622975221344994 ], [ 126.723175179517881, 35.617750901299921 ], [ 126.719890117107695, 35.610475509319514 ], [ 126.721779632919819, 35.605694951187211 ], [ 126.720516656470821, 35.603314048388853 ], [ 126.72235525174014, 35.601020811633205 ], [ 126.721571626455344, 35.594869347780616 ], [ 126.726383011744218, 35.594435008960581 ], [ 126.724415793279931, 35.591831736441499 ], [ 126.724251602683808, 35.583636412109065 ], [ 126.717792066671706, 35.583785599489715 ], [ 126.715568413634031, 35.579603881065097 ], [ 126.7158191127523, 35.575161270833583 ], [ 126.717713522537096, 35.57292681793826 ], [ 126.704153242415146, 35.574769144878083 ], [ 126.700476895054535, 35.572984675003688 ], [ 126.698091786937439, 35.569293888281202 ], [ 126.696127804047819, 35.571002991770769 ], [ 126.686633507218119, 35.569490592327398 ], [ 126.677652568568277, 35.571961156770996 ], [ 126.673385371362286, 35.569720808540019 ], [ 126.672294332448899, 35.571573378615739 ], [ 126.668107905501586, 35.572721868906903 ], [ 126.664814584836336, 35.576411067153366 ], [ 126.660813653908477, 35.585344007510699 ], [ 126.657510800402605, 35.586846380831531 ], [ 126.65910326451548, 35.589885935648802 ], [ 126.657304154095158, 35.590899650989243 ], [ 126.660978635840223, 35.591677439606549 ], [ 126.664289578788768, 35.599488437591873 ], [ 126.672540541891479, 35.600946035024613 ], [ 126.676510541983689, 35.606575995483382 ], [ 126.690221656892646, 35.612044817429656 ], [ 126.700948644905566, 35.612332650610071 ], [ 126.701950324948015, 35.618858350608853 ], [ 126.713969813267425, 35.617273746834265 ], [ 126.721341807416522, 35.622975221344994 ] ] ] ] } },
{ "type": "Feature", "properties": { "emd_cd": "52800420", "emd_nm": "위도면" }, "geometry": { "type": "MultiPolygon", "coordinates": [ [ [ [ 126.238510406038898, 35.573113824030138 ], [ 126.240112365717295, 35.573363165644437 ], [ 126.240405321661413, 35.57301620745573 ], [ 126.238510406038898, 35.573113824030138 ] ] ], [ [ [ 126.242033470796045, 35.573149010986278 ], [ 126.244817060835786, 35.577887119553502 ], [ 126.246196224751458, 35.576313307728491 ], [ 126.24966846427381, 35.577459872913522 ], [ 126.249177308774492, 35.574618604563724 ], [ 126.242033470796045, 35.573149010986278 ] ] ], [ [ [ 126.24037497937293, 35.582676543398108 ], [ 126.241131987989874, 35.58322291762822 ], [ 126.241138865712102, 35.58235753968998 ], [ 126.24037497937293, 35.582676543398108 ] ] ], [ [ [ 126.239926773419199, 35.58446790477219 ], [ 126.240667066537966, 35.583851626356839 ], [ 126.239588987492368, 35.584052153029603 ], [ 126.239926773419199, 35.58446790477219 ] ] ], [ [ [ 126.244483819026797, 35.583877962846351 ], [ 126.245309109220386, 35.585352303242125 ], [ 126.245442813710952, 35.583417225404496 ], [ 126.244483819026797, 35.583877962846351 ] ] ], [ [ [ 126.233329773245984, 35.585497098845607 ], [ 126.23467053057891, 35.586553237332474 ], [ 126.23472701398363, 35.584859527233228 ], [ 126.233329773245984, 35.585497098845607 ] ] ], [ [ [ 126.252048337062803, 35.597857782307713 ], [ 126.252187038190783, 35.597606272987242 ], [ 126.251959571978531, 35.597743085344426 ], [ 126.252048337062803, 35.597857782307713 ] ] ], [ [ [ 126.251398884959301, 35.598069342307348 ], [ 126.251781159890783, 35.597755089065096 ], [ 126.251214120591797, 35.597876286330852 ], [ 126.251398884959301, 35.598069342307348 ] ] ], [ [ [ 126.113566411634864, 35.64463639334673 ], [ 126.119046161560135, 35.645425634267916 ], [ 126.12420760787515, 35.643839514923705 ], [ 126.124048671514217, 35.642184307422291 ], [ 126.128086403095182, 35.639693825770841 ], [ 126.128747043757031, 35.636761851562319 ], [ 126.125211633566053, 35.635565519193285 ], [ 126.123681562932831, 35.638850892471211 ], [ 126.119515411543304, 35.640976812991219 ], [ 126.116940867036888, 35.638290234961261 ], [ 126.114319875956227, 35.639671228212634 ], [ 126.113218754533236, 35.638197965625608 ], [ 126.11205135809189, 35.640132268613073 ], [ 126.113566411634864, 35.64463639334673 ] ] ], [ [ [ 126.101811549852641, 35.659878609056975 ], [ 126.110717268292518, 35.665841282522152 ], [ 126.111432742073717, 35.664563833739798 ], [ 126.108582817592932, 35.65945044248798 ], [ 126.112165036667093, 35.658228428067957 ], [ 126.10806779091277, 35.656424031863807 ], [ 126.106374894187255, 35.659090318206189 ], [ 126.101811549852641, 35.659878609056975 ] ] ], [ [ [ 126.129417603600729, 35.661994439098692 ], [ 126.12845281053589, 35.662404166370465 ], [ 126.129314805540517, 35.662627594137561 ], [ 126.129417603600729, 35.661994439098692 ] ] ], [ [ [ 126.139338281588948, 35.663578059793323 ], [ 126.140302038001181, 35.664080811684613 ], [ 126.140646699659186, 35.663236528825472 ], [ 126.139338281588948, 35.663578059793323 ] ] ], [ [ [ 126.121611732662217, 35.665664187653022 ], [ 126.122328642585288, 35.664695170097005 ], [ 126.120823811398793, 35.665035362416887 ], [ 126.121611732662217, 35.665664187653022 ] ] ], [ [ [ 126.119333514432256, 35.668154337510487 ], [ 126.11979182580032, 35.668802866903754 ], [ 126.120893591588882, 35.668374997517716 ], [ 126.119333514432256, 35.668154337510487 ] ] ], [ [ [ 126.122919537900273, 35.66930064601074 ], [ 126.123203408590243, 35.669093529207125 ], [ 126.122927175410325, 35.668956390780011 ], [ 126.122919537900273, 35.66930064601074 ] ] ], [ [ [ 126.355831398631139, 35.559056298426796 ], [ 126.357157952472321, 35.55888465318008 ], [ 126.357176587774731, 35.558375252684854 ], [ 126.355831398631139, 35.559056298426796 ] ] ], [ [ [ 126.347063500151279, 35.562662096382475 ], [ 126.347692020710667, 35.564179772940982 ], [ 126.348384823900204, 35.563600159776179 ], [ 126.347063500151279, 35.562662096382475 ] ] ], [ [ [ 126.294476562026631, 35.585720396158074 ], [ 126.295738988960451, 35.586243508389387 ], [ 126.295094066738542, 35.584833428610906 ], [ 126.294476562026631, 35.585720396158074 ] ] ], [ [ [ 126.298352773731665, 35.590550006401415 ], [ 126.299779694721224, 35.589376183394762 ], [ 126.29875201041483, 35.585539339943928 ], [ 126.296967679722528, 35.588188916964427 ], [ 126.298352773731665, 35.590550006401415 ] ] ], [ [ [ 126.249272744773123, 35.587912459041199 ], [ 126.255767933157713, 35.589302406880513 ], [ 126.25649150045588, 35.586150236848603 ], [ 126.25856598632609, 35.585767916495477 ], [ 126.260218187972313, 35.586582233053242 ], [ 126.260253454294698, 35.588722395944345 ], [ 126.271466279658213, 35.590069371096256 ], [ 126.271265125519548, 35.592687770533452 ], [ 126.268720698989313, 35.593650904143189 ], [ 126.257405401105174, 35.593881720478926 ], [ 126.2579659671092, 35.598914546861202 ], [ 126.259538864402131, 35.598967536708329 ], [ 126.260266774514193, 35.595981225983195 ], [ 126.264393632300155, 35.594885929793243 ], [ 126.266540952519051, 35.596307809021944 ], [ 126.266107405732271, 35.597483792824576 ], [ 126.269000596848329, 35.596214837861204 ], [ 126.270554342782461, 35.598836873797566 ], [ 126.273361194759957, 35.598607791504001 ], [ 126.27313315408216, 35.601448613347976 ], [ 126.268451374420692, 35.605082962806094 ], [ 126.271916345360424, 35.605307746517738 ], [ 126.271067210902743, 35.608017360621808 ], [ 126.275793790455765, 35.603996178702261 ], [ 126.279960854086951, 35.605692133146974 ], [ 126.278647411638659, 35.603518074561201 ], [ 126.281971216031437, 35.600768585974087 ], [ 126.281406813574833, 35.602667649273137 ], [ 126.285193372394133, 35.606636039191741 ], [ 126.281051781152442, 35.6106739586684 ], [ 126.279030722443551, 35.61029889338532 ], [ 126.276490886620167, 35.612518942765043 ], [ 126.275802141931507, 35.615807702974195 ], [ 126.279420189252747, 35.613326722011621 ], [ 126.284253269617892, 35.613979854220489 ], [ 126.287905473456959, 35.610021305553602 ], [ 126.287134728310122, 35.608538801824366 ], [ 126.29204919178278, 35.609410497224779 ], [ 126.290556315049301, 35.605912328886511 ], [ 126.294358493380116, 35.604275632318974 ], [ 126.297160440219713, 35.612216985274529 ], [ 126.29904993663672, 35.611290978896115 ], [ 126.304044905820902, 35.612598840429577 ], [ 126.302473664692513, 35.613637807380044 ], [ 126.300589036770489, 35.617486990535895 ], [ 126.29991194651069, 35.620523299027838 ], [ 126.300513025333544, 35.61830752713972 ], [ 126.305065305300232, 35.617270081000498 ], [ 126.305781533020095, 35.619275924728932 ], [ 126.304085567754328, 35.621103994656366 ], [ 126.301025327135463, 35.620464633294056 ], [ 126.303786937563743, 35.621577564899681 ], [ 126.307323092839383, 35.620553343683106 ], [ 126.315632137231688, 35.610320290573178 ], [ 126.313015633813635, 35.608525497832005 ], [ 126.311290935052227, 35.60383055577141 ], [ 126.304557503438019, 35.600269712508215 ], [ 126.304660769387667, 35.59741797273103 ], [ 126.302685178327096, 35.595177044250939 ], [ 126.299106134935045, 35.59560646831649 ], [ 126.289960246000334, 35.592624258290201 ], [ 126.288129675462216, 35.59078324550881 ], [ 126.289210615754655, 35.588794053089423 ], [ 126.286116774008235, 35.587845155454261 ], [ 126.284695583205846, 35.584939842345484 ], [ 126.27920141985355, 35.581260754610106 ], [ 126.279561089737669, 35.580009444290802 ], [ 126.274957796051638, 35.577998613264796 ], [ 126.273526678921414, 35.579247184880536 ], [ 126.271594893423639, 35.577300438120332 ], [ 126.267457361140103, 35.576578781103997 ], [ 126.26668654799424, 35.574655935976175 ], [ 126.267424085727171, 35.576604525978937 ], [ 126.265067996866946, 35.575611894168681 ], [ 126.262591953061104, 35.57112552890807 ], [ 126.266730909024801, 35.5688174499507 ], [ 126.266857806791791, 35.567170298776126 ], [ 126.258944913357425, 35.572788456057559 ], [ 126.255927007323962, 35.573044284533594 ], [ 126.256678999322901, 35.576315538331414 ], [ 126.253268442454626, 35.577208113907645 ], [ 126.255184033168092, 35.57775062643092 ], [ 126.255170520652214, 35.580426356801979 ], [ 126.250957378382168, 35.580674166423051 ], [ 126.254313652105907, 35.581843787018244 ], [ 126.254501479957909, 35.58388998558933 ], [ 126.249795095659081, 35.584649894909738 ], [ 126.249272744773123, 35.587912459041199 ] ] ], [ [ [ 126.253312954860533, 35.596879945651899 ], [ 126.253387802858967, 35.597414823351286 ], [ 126.254298486674259, 35.597715537136885 ], [ 126.253312954860533, 35.596879945651899 ] ] ], [ [ [ 126.266998529567061, 35.609591236722935 ], [ 126.266907840991749, 35.607588358020209 ], [ 126.265496360526797, 35.608586248919735 ], [ 126.266998529567061, 35.609591236722935 ] ] ], [ [ [ 126.288303994618474, 35.614679176600347 ], [ 126.291874344282334, 35.615680432492553 ], [ 126.292407363495954, 35.618300945892372 ], [ 126.294165241764119, 35.617923545306944 ], [ 126.290857827586422, 35.61130305344652 ], [ 126.288303994618474, 35.614679176600347 ] ] ], [ [ [ 126.283901707044421, 35.616016453409095 ], [ 126.284387005575766, 35.615086679825602 ], [ 126.283476199538853, 35.615959248130267 ], [ 126.283901707044421, 35.616016453409095 ] ] ], [ [ [ 126.289104443447442, 35.616248720142657 ], [ 126.288545251617123, 35.616565325164721 ], [ 126.288870731434116, 35.616779615001484 ], [ 126.289104443447442, 35.616248720142657 ] ] ], [ [ [ 126.290668169379046, 35.619178289152913 ], [ 126.291607181200035, 35.619878256646345 ], [ 126.292622246632291, 35.619436530383851 ], [ 126.290668169379046, 35.619178289152913 ] ] ], [ [ [ 126.368618971300876, 35.624667446619391 ], [ 126.369868107272183, 35.624817726180957 ], [ 126.36886485119561, 35.623337954818766 ], [ 126.368618971300876, 35.624667446619391 ] ] ], [ [ [ 126.274045222824057, 35.626171184027534 ], [ 126.276312679526612, 35.626746428192163 ], [ 126.276415780987421, 35.625756112759021 ], [ 126.274045222824057, 35.626171184027534 ] ] ], [ [ [ 126.273292106533773, 35.631777338094729 ], [ 126.279786227305138, 35.634009180403723 ], [ 126.284258678300631, 35.630930868474955 ], [ 126.284582529991866, 35.632901779164897 ], [ 126.290276564008551, 35.633088381530186 ], [ 126.29487625843656, 35.628545603474578 ], [ 126.289116943595261, 35.62589694908975 ], [ 126.28945730053124, 35.622954449102707 ], [ 126.287984790455951, 35.624918149363829 ], [ 126.285081887579352, 35.623443674317983 ], [ 126.285077475784291, 35.6206957011632 ], [ 126.282835058806157, 35.625537983527749 ], [ 126.285980396024868, 35.625749933660124 ], [ 126.287012195874226, 35.629681588972446 ], [ 126.284341301201579, 35.630566980751532 ], [ 126.284341362054363, 35.629188052558334 ], [ 126.281366864864964, 35.628560427531603 ], [ 126.278786791105773, 35.629692012631516 ], [ 126.276667361736045, 35.627186124392665 ], [ 126.275386087837433, 35.629834873701896 ], [ 126.276568850740361, 35.630309479682921 ], [ 126.273292106533773, 35.631777338094729 ] ] ], [ [ [ 126.288302531330245, 35.637503610592859 ], [ 126.289158612028828, 35.637190621074289 ], [ 126.289015837432757, 35.636919669229897 ], [ 126.288302531330245, 35.637503610592859 ] ] ] ] } }
]
}
