{
"type": "FeatureCollection",
"name": "30200",
"crs": { "type": "name", "properties": { "name": "urn:ogc:def:crs:OGC:1.3:CRS84" } },
"features": [
{ "type": "Feature", "properties": { "emd_cd": "30200101", "emd_nm": "원내동" }, "geometry": { "type": "MultiPolygon", "coordinates": [ [ [ [ 127.307764005711107, 36.297402559620437 ], [ 127.315670977338698, 36.299904929359087 ], [ 127.315750404865184, 36.302803269363672 ], [ 127.320568862195685, 36.304300970827214 ], [ 127.319453153141865, 36.309789641832808 ], [ 127.323398951904849, 36.309752416626296 ], [ 127.328570400961212, 36.306694845462566 ], [ 127.331901448054694, 36.306551879335579 ], [ 127.332221149594275, 36.307529673209729 ], [ 127.333090493960668, 36.308499445320891 ], [ 127.332483242870069, 36.301597463846804 ], [ 127.323774990457665, 36.298875302099951 ], [ 127.320327723285658, 36.292873286169623 ], [ 127.319861323856273, 36.287999283013974 ], [ 127.317693077845433, 36.285990574218751 ], [ 127.314392129262401, 36.285737446162024 ], [ 127.315694517600889, 36.289065027045808 ], [ 127.314178360530505, 36.291552976830772 ], [ 127.3115359460934, 36.291554414366558 ], [ 127.307764005711107, 36.297402559620437 ] ] ] ] } },
{ "type": "Feature", "properties": { "emd_cd": "30200102", "emd_nm": "교촌동" }, "geometry": { "type": "MultiPolygon", "coordinates": [ [ [ [ 127.315015594693904, 36.315583813105462 ], [ 127.320402812222994, 36.308593720165604 ], [ 127.320568862195685, 36.304300970827214 ], [ 127.315750404865184, 36.302803269363672 ], [ 127.315670977338698, 36.299904929359087 ], [ 127.307312965405188, 36.297839866587758 ], [ 127.300718675853702, 36.311461010989618 ], [ 127.315015594693904, 36.315583813105462 ] ] ] ] } },
{ "type": "Feature", "properties": { "emd_cd": "30200103", "emd_nm": "대정동" }, "geometry": { "type": "MultiPolygon", "coordinates": [ [ [ [ 127.292655972216565, 36.32014544169845 ], [ 127.294860198120972, 36.325603562312629 ], [ 127.301999588580458, 36.322764671899463 ], [ 127.315534438398345, 36.321034039613821 ], [ 127.317374659984878, 36.319311884699722 ], [ 127.333017487451059, 36.319966187305411 ], [ 127.339737262210363, 36.317713647447924 ], [ 127.339881767029013, 36.314621351924323 ], [ 127.331901448054694, 36.306551879335579 ], [ 127.328570400961212, 36.306694845462566 ], [ 127.323398951904849, 36.309752416626296 ], [ 127.319453153141865, 36.309789641832808 ], [ 127.315015594693904, 36.315583813105462 ], [ 127.300718675853702, 36.311461010989618 ], [ 127.292655972216565, 36.32014544169845 ] ] ] ] } },
{ "type": "Feature", "properties": { "emd_cd": "30200104", "emd_nm": "용계동" }, "geometry": { "type": "MultiPolygon", "coordinates": [ [ [ [ 127.309953883126155, 36.322043179161135 ], [ 127.311781425148197, 36.324083404006295 ], [ 127.312286472341142, 36.333288439355002 ], [ 127.317989930043225, 36.328089832705146 ], [ 127.325044230392862, 36.326791729407518 ], [ 127.327703813889002, 36.332254001199907 ], [ 127.338140416242538, 36.332206776401861 ], [ 127.338136740578193, 36.330135621234398 ], [ 127.335906845099373, 36.330144223979744 ], [ 127.337559971246506, 36.31849575388712 ], [ 127.333017487451059, 36.319966187305411 ], [ 127.317374659984878, 36.319311884699722 ], [ 127.309953883126155, 36.322043179161135 ] ] ] ] } },
{ "type": "Feature", "properties": { "emd_cd": "30200105", "emd_nm": "학하동" }, "geometry": { "type": "MultiPolygon", "coordinates": [ [ [ [ 127.328156564342464, 36.332492008048654 ], [ 127.325044230392862, 36.326791729407518 ], [ 127.317989930043225, 36.328089832705167 ], [ 127.312286472341142, 36.333288439355002 ], [ 127.311542158899883, 36.327941159081654 ], [ 127.305975230971072, 36.329950497779485 ], [ 127.302146355146618, 36.334137400388229 ], [ 127.304647320008868, 36.335461548052031 ], [ 127.305373393376868, 36.338173739379101 ], [ 127.30370842611967, 36.338814639606326 ], [ 127.306728362421921, 36.343673564800113 ], [ 127.322294960498056, 36.336847598919142 ], [ 127.328156564342464, 36.332492008048654 ] ] ] ] } },
{ "type": "Feature", "properties": { "emd_cd": "30200106", "emd_nm": "계산동" }, "geometry": { "type": "MultiPolygon", "coordinates": [ [ [ [ 127.306728362421921, 36.343673564800113 ], [ 127.30370842611967, 36.338814639606326 ], [ 127.305373393376868, 36.338173739379101 ], [ 127.304647320008868, 36.335461548052031 ], [ 127.30234520759133, 36.335074543734628 ], [ 127.302191688563198, 36.333549541075186 ], [ 127.305975230971072, 36.329950497779485 ], [ 127.311542158899883, 36.327941159081654 ], [ 127.311781425148197, 36.324083404006295 ], [ 127.309953883126155, 36.322043179161135 ], [ 127.301999588580458, 36.322764671899463 ], [ 127.297062688855533, 36.325247660523971 ], [ 127.295901598979739, 36.324375061589123 ], [ 127.290610137814269, 36.332631083139105 ], [ 127.282742784955531, 36.330662549641112 ], [ 127.279838193439502, 36.333859956094756 ], [ 127.280161647788333, 36.336276393557625 ], [ 127.289516720168763, 36.34574895126152 ], [ 127.303991313369394, 36.344768058217326 ], [ 127.306728362421921, 36.343673564800113 ] ] ] ] } },
{ "type": "Feature", "properties": { "emd_cd": "30200107", "emd_nm": "성북동" }, "geometry": { "type": "MultiPolygon", "coordinates": [ [ [ [ 127.289619450052172, 36.332644983445796 ], [ 127.294935805205597, 36.326319287957467 ], [ 127.293294422211659, 36.31857716377651 ], [ 127.300540388789827, 36.312021556476878 ], [ 127.307312965405188, 36.297839866587758 ], [ 127.310132036107319, 36.295085730709772 ], [ 127.30089869872215, 36.292392214640685 ], [ 127.299254090539321, 36.293182456405546 ], [ 127.300730817887739, 36.285383976147735 ], [ 127.293755790223571, 36.287860467822505 ], [ 127.287705349148723, 36.287810244639012 ], [ 127.283916333435187, 36.291045624101884 ], [ 127.282309465575636, 36.298735282185511 ], [ 127.277735330401669, 36.303770487623147 ], [ 127.278063839342494, 36.30879290394779 ], [ 127.275073626996587, 36.313833698049145 ], [ 127.274130392334669, 36.319912081168425 ], [ 127.270696309740018, 36.32220033519144 ], [ 127.265980364528545, 36.329051901996991 ], [ 127.268764207562938, 36.331625529248939 ], [ 127.277183274487015, 36.332024127721731 ], [ 127.281876535697606, 36.328928985927078 ], [ 127.282742784955545, 36.330662549641104 ], [ 127.289619450052172, 36.332644983445796 ] ] ] ] } },
{ "type": "Feature", "properties": { "emd_cd": "30200108", "emd_nm": "세동" }, "geometry": { "type": "MultiPolygon", "coordinates": [ [ [ [ 127.266186422703683, 36.328392245372996 ], [ 127.274130392334669, 36.319912081168425 ], [ 127.275073626996587, 36.313833698049145 ], [ 127.278063839342494, 36.30879290394779 ], [ 127.277735330401669, 36.303770487623147 ], [ 127.282309465575636, 36.298735282185511 ], [ 127.283916333435187, 36.291045624101884 ], [ 127.287615034847462, 36.288147277045297 ], [ 127.284470553966813, 36.286010634083077 ], [ 127.284060505000937, 36.278865386938641 ], [ 127.281798378466263, 36.27748837796215 ], [ 127.277189725767641, 36.281970513653448 ], [ 127.273191622501642, 36.280997997587804 ], [ 127.271859883488972, 36.285818345785536 ], [ 127.266859260279332, 36.286003565510924 ], [ 127.264788340314766, 36.30394585411463 ], [ 127.260757814088606, 36.301997743176933 ], [ 127.258417473819904, 36.303503681980516 ], [ 127.258418554038656, 36.317638862127382 ], [ 127.260779595265049, 36.321694798841932 ], [ 127.259766236221978, 36.327254768809297 ], [ 127.266186422703683, 36.328392245372996 ] ] ] ] } },
{ "type": "Feature", "properties": { "emd_cd": "30200109", "emd_nm": "송정동" }, "geometry": { "type": "MultiPolygon", "coordinates": [ [ [ [ 127.264788340314766, 36.30394585411463 ], [ 127.266482961709031, 36.286692073470704 ], [ 127.271859883488972, 36.285818345785536 ], [ 127.272937876619523, 36.281218318049234 ], [ 127.272054797299774, 36.276922850878954 ], [ 127.26644818013348, 36.273628539422333 ], [ 127.257865982331637, 36.276677139849888 ], [ 127.246652706242358, 36.290959508303125 ], [ 127.25405889293026, 36.296869049666945 ], [ 127.259861657610472, 36.29565335981448 ], [ 127.261602906791254, 36.303392077234122 ], [ 127.264788340314766, 36.30394585411463 ] ] ] ] } },
{ "type": "Feature", "properties": { "emd_cd": "30200110", "emd_nm": "방동" }, "geometry": { "type": "MultiPolygon", "coordinates": [ [ [ [ 127.291935217066566, 36.26424187674958 ], [ 127.29013632386706, 36.265911889917298 ], [ 127.281245002754602, 36.265185358048754 ], [ 127.26644818013348, 36.273628539422333 ], [ 127.272054797299774, 36.276922850878954 ], [ 127.272937876619523, 36.281218318049234 ], [ 127.277189725767641, 36.281970513653448 ], [ 127.281798378466263, 36.27748837796215 ], [ 127.284060505000937, 36.278865386938641 ], [ 127.284470553966813, 36.286010634083077 ], [ 127.288230479266758, 36.288140467866775 ], [ 127.300730817887739, 36.285383976147735 ], [ 127.299254090539321, 36.293182456405546 ], [ 127.30089869872215, 36.292392214640685 ], [ 127.310078002132016, 36.294721811852632 ], [ 127.3115359460934, 36.291554414366558 ], [ 127.314178360530505, 36.291552976830772 ], [ 127.315694517600889, 36.289065027045808 ], [ 127.31358123661272, 36.282516114249979 ], [ 127.311300809468008, 36.282509958973762 ], [ 127.310502380854473, 36.278154389806048 ], [ 127.308559997538836, 36.277164461239046 ], [ 127.310513583359281, 36.272442786338459 ], [ 127.300754842237311, 36.270326897049635 ], [ 127.291935217066566, 36.26424187674958 ] ] ] ] } },
{ "type": "Feature", "properties": { "emd_cd": "30200111", "emd_nm": "봉명동" }, "geometry": { "type": "MultiPolygon", "coordinates": [ [ [ [ 127.346490779613291, 36.359778955276056 ], [ 127.351185508638167, 36.359450989506882 ], [ 127.3627901429075, 36.363382682729224 ], [ 127.358071332414426, 36.357129145812664 ], [ 127.350298737124206, 36.352958020515842 ], [ 127.349096055007806, 36.34973187784815 ], [ 127.3500194571848, 36.347102863831395 ], [ 127.341584864564751, 36.342258996039632 ], [ 127.339440394899086, 36.342899116275326 ], [ 127.340310580953428, 36.348533203965566 ], [ 127.332815474371316, 36.356109086033712 ], [ 127.346490779613291, 36.359778955276056 ] ] ] ] } },
{ "type": "Feature", "properties": { "emd_cd": "30200112", "emd_nm": "구암동" }, "geometry": { "type": "MultiPolygon", "coordinates": [ [ [ [ 127.324061234496597, 36.345131209642425 ], [ 127.309630004838212, 36.352041872637336 ], [ 127.310560326266028, 36.357829937655112 ], [ 127.304534257339881, 36.360475345432306 ], [ 127.303367696086781, 36.364739584002834 ], [ 127.304835950842929, 36.366658526324699 ], [ 127.309475484944443, 36.366393365646793 ], [ 127.309492723395152, 36.362749076797691 ], [ 127.320862119564453, 36.361683389171034 ], [ 127.321756022325246, 36.359483054806695 ], [ 127.333483627381383, 36.356859040900908 ], [ 127.333454848461372, 36.354898753386315 ], [ 127.335631050879613, 36.354309270907009 ], [ 127.335112700663942, 36.353116128932413 ], [ 127.339029113357583, 36.348758518224145 ], [ 127.326673244777623, 36.348870730183933 ], [ 127.324061234496597, 36.345131209642425 ] ] ] ] } },
{ "type": "Feature", "properties": { "emd_cd": "30200113", "emd_nm": "덕명동" }, "geometry": { "type": "MultiPolygon", "coordinates": [ [ [ [ 127.31167836398707, 36.350571333045721 ], [ 127.304647347509416, 36.348965466738946 ], [ 127.308406211923867, 36.346483004437943 ], [ 127.305332944110461, 36.34430640892267 ], [ 127.289103227582842, 36.345558114660157 ], [ 127.280161647788333, 36.33627639355764 ], [ 127.280435170690197, 36.332352342120757 ], [ 127.282742784955545, 36.330662549641104 ], [ 127.281876535697606, 36.328928985927078 ], [ 127.277183274487015, 36.332024127721731 ], [ 127.268120707210656, 36.331409576156794 ], [ 127.265594249189292, 36.335817484648203 ], [ 127.265730766596846, 36.338042316036024 ], [ 127.273109037449331, 36.344279095584376 ], [ 127.279119287744422, 36.344821316611608 ], [ 127.277885522360393, 36.349008119548536 ], [ 127.28272635649104, 36.353672191344415 ], [ 127.294758230932118, 36.35734091418562 ], [ 127.300086658087707, 36.361424858139884 ], [ 127.303333980259637, 36.361710389983898 ], [ 127.310560326266028, 36.357829937655112 ], [ 127.309010111606298, 36.352868941553851 ], [ 127.31167836398707, 36.350571333045721 ] ] ] ] } },
{ "type": "Feature", "properties": { "emd_cd": "30200114", "emd_nm": "원신흥동" }, "geometry": { "type": "MultiPolygon", "coordinates": [ [ [ [ 127.341584864564751, 36.342258996039632 ], [ 127.3500194571848, 36.347102863831395 ], [ 127.354574280627247, 36.334992571870657 ], [ 127.353753154039779, 36.332154058991257 ], [ 127.331591987468954, 36.332229673292986 ], [ 127.341584864564751, 36.342258996039632 ] ] ] ] } },
{ "type": "Feature", "properties": { "emd_cd": "30200115", "emd_nm": "상대동" }, "geometry": { "type": "MultiPolygon", "coordinates": [ [ [ [ 127.324061234496597, 36.345131209642425 ], [ 127.326673244777623, 36.348870730183933 ], [ 127.339029113357583, 36.348758518224145 ], [ 127.340310580953428, 36.348533203965566 ], [ 127.339440394899086, 36.342899116275326 ], [ 127.341584864564751, 36.342258996039632 ], [ 127.337304796348036, 36.338948065663864 ], [ 127.334816086022713, 36.334592972190684 ], [ 127.331645793366874, 36.33334088697999 ], [ 127.332444291727739, 36.332477716232845 ], [ 127.328033843961634, 36.332328086601251 ], [ 127.328435730439253, 36.338288937740877 ], [ 127.332075146562758, 36.339140041199407 ], [ 127.326030468456281, 36.341532691792729 ], [ 127.324967498066329, 36.343150175542789 ], [ 127.32594785274263, 36.344900746596622 ], [ 127.324061234496597, 36.345131209642425 ] ] ] ] } },
{ "type": "Feature", "properties": { "emd_cd": "30200116", "emd_nm": "복용동" }, "geometry": { "type": "MultiPolygon", "coordinates": [ [ [ [ 127.322294960498056, 36.336847598919142 ], [ 127.305741641137757, 36.345146009064912 ], [ 127.308406211923867, 36.346483004437943 ], [ 127.304647347509416, 36.348965466738953 ], [ 127.31214476169076, 36.350783626833291 ], [ 127.32198567329911, 36.345499235928983 ], [ 127.324996113949027, 36.34581351849129 ], [ 127.325811546026372, 36.341705644162815 ], [ 127.332091810244492, 36.338626119893526 ], [ 127.32843573043921, 36.338288937740877 ], [ 127.32841150618458, 36.332491716530512 ], [ 127.328080593912333, 36.332492044434204 ], [ 127.322294960498056, 36.336847598919142 ] ] ] ] } },
{ "type": "Feature", "properties": { "emd_cd": "30200117", "emd_nm": "장대동" }, "geometry": { "type": "MultiPolygon", "coordinates": [ [ [ [ 127.331276595733414, 36.367947386617566 ], [ 127.340842489200895, 36.36433756692756 ], [ 127.339729371301587, 36.359830737284213 ], [ 127.341750094903389, 36.358747563070985 ], [ 127.338450724367817, 36.356736951947745 ], [ 127.321756022325246, 36.359483054806695 ], [ 127.319998367212349, 36.361219006500171 ], [ 127.325401046626041, 36.36288873969341 ], [ 127.331276595733414, 36.367947386617566 ] ] ] ] } },
{ "type": "Feature", "properties": { "emd_cd": "30200118", "emd_nm": "갑동" }, "geometry": { "type": "MultiPolygon", "coordinates": [ [ [ [ 127.283091061743988, 36.382853496710027 ], [ 127.299397052282117, 36.380580243197251 ], [ 127.300343051555217, 36.375802949563145 ], [ 127.306517492406215, 36.3714821983015 ], [ 127.306357531281577, 36.368097982495563 ], [ 127.303367696086781, 36.364739584002834 ], [ 127.304534257339881, 36.360475345432306 ], [ 127.303333980259637, 36.361710389983898 ], [ 127.299592253494566, 36.361227538009715 ], [ 127.294758230932118, 36.35734091418562 ], [ 127.283079386096318, 36.353916739757175 ], [ 127.277885522360393, 36.349008119548536 ], [ 127.272408153975178, 36.354124978343705 ], [ 127.270569156500756, 36.360857705151076 ], [ 127.271983947944705, 36.361767089442736 ], [ 127.273280374405402, 36.360634648230587 ], [ 127.272340789007941, 36.362618679541065 ], [ 127.277675430233643, 36.365290303366983 ], [ 127.277049676106543, 36.368379162024809 ], [ 127.279351863971883, 36.369395286713363 ], [ 127.28103945644105, 36.374859511643706 ], [ 127.27900531919029, 36.382057793763764 ], [ 127.283091061743988, 36.382853496710027 ] ] ] ] } },
{ "type": "Feature", "properties": { "emd_cd": "30200119", "emd_nm": "노은동" }, "geometry": { "type": "MultiPolygon", "coordinates": [ [ [ [ 127.332358132683538, 36.368004026693988 ], [ 127.328116300405455, 36.366252518601186 ], [ 127.325401046626041, 36.36288873969341 ], [ 127.319649397624914, 36.361140624350817 ], [ 127.311513454251298, 36.362247793393941 ], [ 127.309290182267475, 36.362907348324569 ], [ 127.309475484944443, 36.366393365646793 ], [ 127.306259393380785, 36.367522918133353 ], [ 127.306517492406215, 36.3714821983015 ], [ 127.305262372848532, 36.372395530272811 ], [ 127.30991957584024, 36.373451985898924 ], [ 127.310651600849781, 36.371503779751315 ], [ 127.325354767034398, 36.372174028194458 ], [ 127.325456598187998, 36.377100745260897 ], [ 127.328987850659232, 36.374808652145369 ], [ 127.332358132683538, 36.368004026693988 ] ] ] ] } },
{ "type": "Feature", "properties": { "emd_cd": "30200120", "emd_nm": "지족동" }, "geometry": { "type": "MultiPolygon", "coordinates": [ [ [ [ 127.289927026152853, 36.391436712443557 ], [ 127.294268684234353, 36.387974957625261 ], [ 127.306035390576127, 36.390293820431985 ], [ 127.318124424518658, 36.38783125213412 ], [ 127.326294538878599, 36.373979055386307 ], [ 127.325354767034398, 36.372174028194458 ], [ 127.310651600849781, 36.371503779751315 ], [ 127.30991957584024, 36.373451985898924 ], [ 127.304641756871177, 36.372253685842111 ], [ 127.300343051555217, 36.375802949563145 ], [ 127.299397052282117, 36.380580243197251 ], [ 127.296923156351383, 36.38158981750589 ], [ 127.278548091656333, 36.382381445666859 ], [ 127.277401844913314, 36.387023041048153 ], [ 127.279170030668183, 36.39147437819922 ], [ 127.289927026152853, 36.391436712443557 ] ] ] ] } },
{ "type": "Feature", "properties": { "emd_cd": "30200121", "emd_nm": "죽동" }, "geometry": { "type": "MultiPolygon", "coordinates": [ [ [ [ 127.333338714514568, 36.384632607357752 ], [ 127.340401525216677, 36.38194369015288 ], [ 127.342091105305101, 36.378520566640091 ], [ 127.339282119625807, 36.365695127763352 ], [ 127.331683052273902, 36.368511899756484 ], [ 127.331656180463099, 36.371160855730906 ], [ 127.325159099573284, 36.377179817924244 ], [ 127.321730435263305, 36.383416113815187 ], [ 127.32281880418563, 36.384963654958369 ], [ 127.326392410495956, 36.384098422696738 ], [ 127.330048035496958, 36.385345666419695 ], [ 127.329797910819977, 36.383987676721944 ], [ 127.333338714514568, 36.384632607357752 ] ] ] ] } },
{ "type": "Feature", "properties": { "emd_cd": "30200122", "emd_nm": "궁동" }, "geometry": { "type": "MultiPolygon", "coordinates": [ [ [ [ 127.338880318770478, 36.367002955890648 ], [ 127.342091105305101, 36.378520566640091 ], [ 127.345759619825387, 36.377675905362544 ], [ 127.348700713543892, 36.376003391398399 ], [ 127.35009239545478, 36.373037296346162 ], [ 127.348620007557543, 36.364886023806605 ], [ 127.351976079500147, 36.365886101417829 ], [ 127.353812734556712, 36.36060717539236 ], [ 127.34069418085322, 36.358919083745882 ], [ 127.340805148412315, 36.36466795094163 ], [ 127.338880318770478, 36.367002955890648 ] ] ] ] } },
{ "type": "Feature", "properties": { "emd_cd": "30200123", "emd_nm": "어은동" }, "geometry": { "type": "MultiPolygon", "coordinates": [ [ [ [ 127.35608076393396, 36.380250399281039 ], [ 127.365494693444361, 36.375321280309443 ], [ 127.360568899494297, 36.374837608058755 ], [ 127.361186401967615, 36.371636044148275 ], [ 127.358063559245551, 36.371385481823552 ], [ 127.359114830958688, 36.369022121963944 ], [ 127.361945707748731, 36.368094776549363 ], [ 127.359463520029294, 36.367108639922705 ], [ 127.360936646030993, 36.364060543776219 ], [ 127.358188350292608, 36.361146077468767 ], [ 127.352436653374539, 36.360146087121016 ], [ 127.353812734556712, 36.36060717539236 ], [ 127.352816425325514, 36.36483039417886 ], [ 127.351976079500147, 36.365886101417829 ], [ 127.348945060034367, 36.364574455588681 ], [ 127.348446495804694, 36.368903570396746 ], [ 127.352052110771155, 36.371650074313635 ], [ 127.35118939384428, 36.37477446725412 ], [ 127.353004604431376, 36.378334096989875 ], [ 127.35608076393396, 36.380250399281039 ] ] ] ] } },
{ "type": "Feature", "properties": { "emd_cd": "30200124", "emd_nm": "구성동" }, "geometry": { "type": "MultiPolygon", "coordinates": [ [ [ [ 127.361205579520345, 36.37478742632787 ], [ 127.365494693444361, 36.375321280309443 ], [ 127.362414237179536, 36.376795461529412 ], [ 127.369082148934893, 36.375673735955608 ], [ 127.372494642591946, 36.377842321331805 ], [ 127.376102156414944, 36.377610837024648 ], [ 127.379023264840527, 36.372009534039414 ], [ 127.370195060172193, 36.368953990756566 ], [ 127.366381160882867, 36.364441635696487 ], [ 127.357686609120478, 36.362057465207194 ], [ 127.360936646030993, 36.364060543776219 ], [ 127.359463520029294, 36.367108639922705 ], [ 127.361945707748731, 36.368094776549363 ], [ 127.359114830958688, 36.369022121963944 ], [ 127.358063559245551, 36.371385481823552 ], [ 127.361186401967615, 36.371636044148275 ], [ 127.361205579520345, 36.37478742632787 ] ] ] ] } },
{ "type": "Feature", "properties": { "emd_cd": "30200125", "emd_nm": "신성동" }, "geometry": { "type": "MultiPolygon", "coordinates": [ [ [ [ 127.340394271374137, 36.381735965142589 ], [ 127.342431338410364, 36.386393930365116 ], [ 127.345954227698016, 36.386904029664848 ], [ 127.347578345754698, 36.3888169761561 ], [ 127.347417622599593, 36.392665977804427 ], [ 127.350786399894673, 36.392083638061663 ], [ 127.352047533924136, 36.393047837800232 ], [ 127.35064050604808, 36.394040075175653 ], [ 127.35518843860109, 36.397132416272036 ], [ 127.35875248072206, 36.384777828773032 ], [ 127.357138189277478, 36.381339071146165 ], [ 127.358408589513445, 36.37906942047298 ], [ 127.355655028643525, 36.380869239481363 ], [ 127.355627771604802, 36.379082760777742 ], [ 127.353004604431376, 36.378334096989875 ], [ 127.35118939384428, 36.37477446725412 ], [ 127.352052110771155, 36.371650074313635 ], [ 127.350212958282924, 36.371437104013005 ], [ 127.348700713543892, 36.376003391398399 ], [ 127.341195620699281, 36.379008556207701 ], [ 127.340394271374137, 36.381735965142589 ] ] ] ] } },
{ "type": "Feature", "properties": { "emd_cd": "30200126", "emd_nm": "가정동" }, "geometry": { "type": "MultiPolygon", "coordinates": [ [ [ [ 127.367345081798348, 36.388685617052566 ], [ 127.378439007925053, 36.381234151491505 ], [ 127.37968764571059, 36.37466673532731 ], [ 127.378600979852052, 36.374111321831201 ], [ 127.376102156414944, 36.377610837024648 ], [ 127.367307866433123, 36.37575522237136 ], [ 127.357656673429673, 36.379723351036077 ], [ 127.357344323866258, 36.38209543557948 ], [ 127.360950182552827, 36.381608906123802 ], [ 127.361101389020703, 36.384628613123311 ], [ 127.363784824886437, 36.384194362393295 ], [ 127.367345081798348, 36.388685617052566 ] ], [ [ 127.375785813691621, 36.382526553559877 ], [ 127.375781517171191, 36.382609077593699 ], [ 127.375703170140056, 36.382795467467758 ], [ 127.375785813691621, 36.382526553559877 ] ] ] ] } },
{ "type": "Feature", "properties": { "emd_cd": "30200127", "emd_nm": "도룡동" }, "geometry": { "type": "MultiPolygon", "coordinates": [ [ [ [ 127.378439007925053, 36.381234151491505 ], [ 127.367854847302723, 36.389342084053453 ], [ 127.372216964562796, 36.39253569271375 ], [ 127.37600891735579, 36.391853930298183 ], [ 127.380036331866023, 36.393367749704552 ], [ 127.384385378578301, 36.389214569511473 ], [ 127.388219006746837, 36.381380564867506 ], [ 127.390445963174344, 36.38215745535242 ], [ 127.400957685291559, 36.37494634067491 ], [ 127.390828466228541, 36.374081435995244 ], [ 127.393240773563576, 36.373011743866748 ], [ 127.393080773638232, 36.371341607637412 ], [ 127.380064379196483, 36.371513022739386 ], [ 127.378600979852052, 36.374111321831201 ], [ 127.379843360859638, 36.374812465325867 ], [ 127.378439007925053, 36.381234151491505 ] ] ], [ [ [ 127.375846861308844, 36.382437372326336 ], [ 127.375703170140056, 36.382795467467758 ], [ 127.375962980058262, 36.38232126288284 ], [ 127.375846861308844, 36.382437372326336 ] ] ] ] } },
{ "type": "Feature", "properties": { "emd_cd": "30200128", "emd_nm": "장동" }, "geometry": { "type": "MultiPolygon", "coordinates": [ [ [ [ 127.350403778799176, 36.408653683209749 ], [ 127.357030169320723, 36.408491468206122 ], [ 127.362585378160759, 36.402267352307966 ], [ 127.364377727009611, 36.403034963104943 ], [ 127.365970159718941, 36.404713870349894 ], [ 127.366183838492873, 36.404908049039946 ], [ 127.366585039733266, 36.405044908143722 ], [ 127.371264929037835, 36.402509242401912 ], [ 127.367109211295599, 36.396932238982821 ], [ 127.36722621451591, 36.393956792680882 ], [ 127.372216964562796, 36.39253569271375 ], [ 127.363784824886437, 36.384194362393295 ], [ 127.361101389020703, 36.384628613123311 ], [ 127.360950182552827, 36.381608906123802 ], [ 127.357344323866258, 36.38209543557948 ], [ 127.35875248072206, 36.384777828773032 ], [ 127.35518843860109, 36.397132416272036 ], [ 127.353535230306122, 36.396607642193331 ], [ 127.35097834716359, 36.400055869771585 ], [ 127.350403778799176, 36.408653683209749 ] ] ] ] } },
{ "type": "Feature", "properties": { "emd_cd": "30200129", "emd_nm": "방현동" }, "geometry": { "type": "MultiPolygon", "coordinates": [ [ [ [ 127.356266606266729, 36.412795283352871 ], [ 127.359912231416772, 36.420115634619464 ], [ 127.369223928205827, 36.414768366988064 ], [ 127.369938234466417, 36.410453657049821 ], [ 127.376348425354962, 36.40834944270356 ], [ 127.376652983743611, 36.405734202532315 ], [ 127.371264929037835, 36.402509242401912 ], [ 127.366585039733266, 36.405044908143722 ], [ 127.362585378160759, 36.402267352307966 ], [ 127.357045626712491, 36.408057152885043 ], [ 127.356266606266729, 36.412795283352871 ] ] ] ] } },
{ "type": "Feature", "properties": { "emd_cd": "30200130", "emd_nm": "화암동" }, "geometry": { "type": "MultiPolygon", "coordinates": [ [ [ [ 127.377428684003874, 36.41733808517737 ], [ 127.381154371074047, 36.415602408585748 ], [ 127.38079424054888, 36.414178568439034 ], [ 127.38278481850891, 36.412972011648215 ], [ 127.381949207887075, 36.410811434723428 ], [ 127.384158624291175, 36.408261988021216 ], [ 127.386578982523105, 36.408878820008532 ], [ 127.38564912269436, 36.407146856795954 ], [ 127.387030127524767, 36.405589870142741 ], [ 127.385707464542492, 36.403818765670479 ], [ 127.381337147849649, 36.403698463119177 ], [ 127.380045144795787, 36.400888185860623 ], [ 127.3817266323247, 36.396233825218552 ], [ 127.380036331866023, 36.393367749704552 ], [ 127.37600891735579, 36.391853930298183 ], [ 127.371466234791896, 36.393635528161276 ], [ 127.368590806319276, 36.392637269720588 ], [ 127.367109211295599, 36.396932238982821 ], [ 127.371699215015084, 36.403111810100448 ], [ 127.376652983743611, 36.405734202532315 ], [ 127.376348425354962, 36.40834944270356 ], [ 127.369938234466417, 36.410453657049821 ], [ 127.369053807059345, 36.414408129622586 ], [ 127.377428684003874, 36.41733808517737 ] ] ] ] } },
{ "type": "Feature", "properties": { "emd_cd": "30200131", "emd_nm": "덕진동" }, "geometry": { "type": "MultiPolygon", "coordinates": [ [ [ [ 127.351218681360336, 36.428619726255207 ], [ 127.357478257142958, 36.433728523590574 ], [ 127.361295923370108, 36.434155132061093 ], [ 127.365305501607111, 36.430446400557074 ], [ 127.366144193274678, 36.433296715201934 ], [ 127.37186104951769, 36.435508290281511 ], [ 127.379278298134793, 36.424872976069878 ], [ 127.378202765143982, 36.422845038625063 ], [ 127.380943714187651, 36.42067317560182 ], [ 127.377502269533522, 36.417367456558253 ], [ 127.370215519116925, 36.414353560728102 ], [ 127.361004954591721, 36.418531104382865 ], [ 127.359391856787823, 36.42133211950388 ], [ 127.359732556249241, 36.425873638195256 ], [ 127.353309931957071, 36.426762676656203 ], [ 127.351218681360336, 36.428619726255207 ] ] ] ] } },
{ "type": "Feature", "properties": { "emd_cd": "30200132", "emd_nm": "하기동" }, "geometry": { "type": "MultiPolygon", "coordinates": [ [ [ [ 127.315590948431932, 36.391276874917089 ], [ 127.319949966189867, 36.388828178916825 ], [ 127.319249255914613, 36.393531445855309 ], [ 127.329726199602788, 36.39986592132658 ], [ 127.332329256759934, 36.396587392072661 ], [ 127.339760572473921, 36.39758821638835 ], [ 127.34159850975594, 36.393196144483994 ], [ 127.347417622599593, 36.392665977804427 ], [ 127.34764596721125, 36.389712077409186 ], [ 127.345954227698016, 36.386904029664848 ], [ 127.342431338410364, 36.386393930365116 ], [ 127.339052945060416, 36.3813546679648 ], [ 127.333338714514568, 36.384632607357752 ], [ 127.329797910819977, 36.383987676721944 ], [ 127.330048035496958, 36.385345666419695 ], [ 127.326392410495956, 36.384098422696738 ], [ 127.32281880418563, 36.384963654958369 ], [ 127.321730435263305, 36.383416113815187 ], [ 127.315590948431932, 36.391276874917089 ] ] ] ] } },
{ "type": "Feature", "properties": { "emd_cd": "30200133", "emd_nm": "추목동" }, "geometry": { "type": "MultiPolygon", "coordinates": [ [ [ [ 127.341757612984125, 36.430714030599866 ], [ 127.359732556249241, 36.425873638195256 ], [ 127.359912231416772, 36.420115634619464 ], [ 127.356266606266729, 36.412795283352871 ], [ 127.357030169320723, 36.408491468206122 ], [ 127.351837065450681, 36.408522108100698 ], [ 127.348957782887311, 36.410949478388332 ], [ 127.345281210889667, 36.410025885674145 ], [ 127.342194081852327, 36.41431679486184 ], [ 127.334849129057346, 36.418933061472899 ], [ 127.33282517802256, 36.417982771206553 ], [ 127.326464796420368, 36.420210037720857 ], [ 127.326298466215107, 36.422094580511029 ], [ 127.341757612984125, 36.430714030599866 ] ] ] ] } },
{ "type": "Feature", "properties": { "emd_cd": "30200134", "emd_nm": "자운동" }, "geometry": { "type": "MultiPolygon", "coordinates": [ [ [ [ 127.338099114381933, 36.402824085763875 ], [ 127.338872535200423, 36.406158265446656 ], [ 127.348957782887311, 36.410949478388332 ], [ 127.350641703355677, 36.408990544643174 ], [ 127.35097834716359, 36.400055869771585 ], [ 127.354001824549499, 36.396357653328806 ], [ 127.35064050604808, 36.394040075175653 ], [ 127.352047533924136, 36.393047837800232 ], [ 127.350786399894673, 36.392083638061663 ], [ 127.34159850975594, 36.393196144483994 ], [ 127.338099114381933, 36.402824085763875 ] ] ] ] } },
{ "type": "Feature", "properties": { "emd_cd": "30200135", "emd_nm": "신봉동" }, "geometry": { "type": "MultiPolygon", "coordinates": [ [ [ [ 127.34573024536698, 36.409865384129162 ], [ 127.338563927622118, 36.405837818706019 ], [ 127.339293781951113, 36.397812854614777 ], [ 127.332329256759934, 36.396587392072661 ], [ 127.330660498667754, 36.399809172161007 ], [ 127.32586473485064, 36.398562494330058 ], [ 127.326380112604852, 36.403843600213712 ], [ 127.32280924070561, 36.408662409995998 ], [ 127.327579484146256, 36.41105747317151 ], [ 127.326464796420368, 36.420210037720857 ], [ 127.33282517802256, 36.417982771206553 ], [ 127.334849129057346, 36.418933061472899 ], [ 127.342194081852327, 36.41431679486184 ], [ 127.34573024536698, 36.409865384129162 ] ] ] ] } },
{ "type": "Feature", "properties": { "emd_cd": "30200136", "emd_nm": "수남동" }, "geometry": { "type": "MultiPolygon", "coordinates": [ [ [ [ 127.301495164137492, 36.421840452660994 ], [ 127.3025683602974, 36.424129346949961 ], [ 127.305050956649211, 36.424790595362772 ], [ 127.310948235323337, 36.424689910325633 ], [ 127.316370061660393, 36.420444791712363 ], [ 127.321620249685864, 36.423681088992822 ], [ 127.325786653977076, 36.422490778526608 ], [ 127.328171876759328, 36.414298951473981 ], [ 127.327360359485112, 36.410464107026534 ], [ 127.318838289450781, 36.407216561293176 ], [ 127.316830439214201, 36.409324299006272 ], [ 127.313525337369356, 36.408571552722172 ], [ 127.306144495990068, 36.412335530530349 ], [ 127.306786699223991, 36.415826060927103 ], [ 127.301495164137492, 36.421840452660994 ] ] ] ] } },
{ "type": "Feature", "properties": { "emd_cd": "30200137", "emd_nm": "안산동" }, "geometry": { "type": "MultiPolygon", "coordinates": [ [ [ [ 127.310860778158514, 36.410419332903892 ], [ 127.306291805401315, 36.409226498579329 ], [ 127.30285186894173, 36.410792499190308 ], [ 127.293570993398532, 36.399298409860819 ], [ 127.291292623683276, 36.400082429983883 ], [ 127.278482448950584, 36.396759674972948 ], [ 127.282120105373153, 36.41461095355951 ], [ 127.291085866134367, 36.416151972216312 ], [ 127.291247958948375, 36.418684985774568 ], [ 127.295311814857783, 36.41977019108667 ], [ 127.294191785230026, 36.42220299269011 ], [ 127.296417993404958, 36.423208391229075 ], [ 127.302298367512094, 36.421331421325384 ], [ 127.306786699223991, 36.415826060927103 ], [ 127.306144495990068, 36.412335530530349 ], [ 127.310860778158514, 36.410419332903892 ] ] ] ] } },
{ "type": "Feature", "properties": { "emd_cd": "30200138", "emd_nm": "외삼동" }, "geometry": { "type": "MultiPolygon", "coordinates": [ [ [ [ 127.293570993398532, 36.399298409860819 ], [ 127.30285186894173, 36.410792499190308 ], [ 127.306291805401315, 36.409226498579329 ], [ 127.310860778158514, 36.410419332903892 ], [ 127.313525337369356, 36.408571552722172 ], [ 127.316830439214201, 36.409324299006272 ], [ 127.317811946449325, 36.40728022967776 ], [ 127.32280924070561, 36.408662409995998 ], [ 127.326502909103112, 36.403308723743294 ], [ 127.325303625956153, 36.39733592086769 ], [ 127.319249255914613, 36.393531445855309 ], [ 127.31705445701607, 36.39643638025111 ], [ 127.31315200184568, 36.395701220187959 ], [ 127.310551711984346, 36.39912617112924 ], [ 127.304307232269835, 36.398183877963582 ], [ 127.300193727848509, 36.400682042073164 ], [ 127.293570993398532, 36.399298409860819 ] ] ] ] } },
{ "type": "Feature", "properties": { "emd_cd": "30200139", "emd_nm": "반석동" }, "geometry": { "type": "MultiPolygon", "coordinates": [ [ [ [ 127.319249255914613, 36.393531445855309 ], [ 127.319949966189867, 36.388828178916825 ], [ 127.315590948431932, 36.391276874917089 ], [ 127.318124424518658, 36.38783125213412 ], [ 127.306035390576127, 36.390293820431985 ], [ 127.296159144769177, 36.387830069804714 ], [ 127.292224673977742, 36.388434281532369 ], [ 127.290067868844446, 36.391412527437929 ], [ 127.279170030668183, 36.39147437819922 ], [ 127.278644273795919, 36.396600937963171 ], [ 127.282728128089332, 36.398614352254548 ], [ 127.291292623683276, 36.400082429983883 ], [ 127.294643055654859, 36.398905155965593 ], [ 127.300193727848509, 36.400682042073164 ], [ 127.304307232269835, 36.398183877963582 ], [ 127.310551711984346, 36.39912617112924 ], [ 127.31315199073498, 36.395701229228592 ], [ 127.31705445701607, 36.39643638025111 ], [ 127.319249255914613, 36.393531445855309 ] ] ] ] } },
{ "type": "Feature", "properties": { "emd_cd": "30200140", "emd_nm": "문지동" }, "geometry": { "type": "MultiPolygon", "coordinates": [ [ [ [ 127.392107358153211, 36.385534595745128 ], [ 127.395311554453826, 36.386072658070788 ], [ 127.394154290403478, 36.385590092100081 ], [ 127.392107358153211, 36.385534595745128 ] ] ], [ [ [ 127.398779989726677, 36.396368212505656 ], [ 127.411717589336433, 36.395838302555568 ], [ 127.411548402754946, 36.388157374824267 ], [ 127.405204181829092, 36.38810920781556 ], [ 127.405222401280326, 36.386642540646442 ], [ 127.393149762163745, 36.386327305936867 ], [ 127.391751410290169, 36.385596867013248 ], [ 127.386927037118937, 36.387534711426227 ], [ 127.385487947522918, 36.38611217434967 ], [ 127.380036331866023, 36.393367749704552 ], [ 127.382371254179375, 36.395916554021717 ], [ 127.392143030972719, 36.395519077383383 ], [ 127.398163442094912, 36.398295384927678 ], [ 127.398779989726677, 36.396368212505656 ] ] ] ] } },
{ "type": "Feature", "properties": { "emd_cd": "30200141", "emd_nm": "전민동" }, "geometry": { "type": "MultiPolygon", "coordinates": [ [ [ [ 127.380045144795787, 36.400888185860623 ], [ 127.381337147849649, 36.403698463119177 ], [ 127.386576007423727, 36.404751652191401 ], [ 127.387603246206126, 36.412038771530057 ], [ 127.399039571622836, 36.407841858561362 ], [ 127.404070705265795, 36.407852247102873 ], [ 127.409209791946424, 36.41095036255718 ], [ 127.411731556562557, 36.409954597383951 ], [ 127.411476688670803, 36.411830981775076 ], [ 127.415661217293874, 36.410607855072385 ], [ 127.417561867638184, 36.407468325421618 ], [ 127.413658797989484, 36.402972142759197 ], [ 127.411717589336433, 36.395838302555568 ], [ 127.398779989726677, 36.396368212505656 ], [ 127.398163442094912, 36.398295384927678 ], [ 127.392143030972719, 36.395519077383383 ], [ 127.38786003490236, 36.396477308733978 ], [ 127.381473229273752, 36.39515696829416 ], [ 127.380045144795787, 36.400888185860623 ] ] ] ] } },
{ "type": "Feature", "properties": { "emd_cd": "30200142", "emd_nm": "원촌동" }, "geometry": { "type": "MultiPolygon", "coordinates": [ [ [ [ 127.411548402754946, 36.388157374824267 ], [ 127.41163379074041, 36.381283627020458 ], [ 127.409374225203536, 36.37825828194169 ], [ 127.400170655029285, 36.375882891245766 ], [ 127.390445963174344, 36.38215745535242 ], [ 127.388219006746837, 36.381380564867506 ], [ 127.385487947522918, 36.38611217434967 ], [ 127.386927037118937, 36.387534711426227 ], [ 127.391751410290169, 36.385596867013248 ], [ 127.392117688567836, 36.385997813798106 ], [ 127.393149762163745, 36.386327305936867 ], [ 127.405222401280326, 36.386642540646442 ], [ 127.405186411097361, 36.388106167875854 ], [ 127.409788490447752, 36.388248518042012 ], [ 127.411548402754946, 36.388157374824267 ] ], [ [ 127.395062361875191, 36.386144725281667 ], [ 127.392995767202308, 36.386178551137967 ], [ 127.392107358153211, 36.385534595745128 ], [ 127.394154290403478, 36.385590092100081 ], [ 127.395062361875191, 36.386144725281667 ] ] ] ] } },
{ "type": "Feature", "properties": { "emd_cd": "30200143", "emd_nm": "탑립동" }, "geometry": { "type": "MultiPolygon", "coordinates": [ [ [ [ 127.392905483911548, 36.410155606826407 ], [ 127.39845854426521, 36.413615498266815 ], [ 127.400210127449796, 36.412953673606538 ], [ 127.408609669783758, 36.423657669484186 ], [ 127.406384974103588, 36.425186197007527 ], [ 127.406362919330022, 36.427441685946121 ], [ 127.413221881503219, 36.423882481968775 ], [ 127.420247569029883, 36.413690961819633 ], [ 127.41740830229358, 36.407605025423457 ], [ 127.415661217293874, 36.410607855072385 ], [ 127.411476688670803, 36.411830981775076 ], [ 127.411731556562557, 36.409954597383951 ], [ 127.409209791946424, 36.41095036255718 ], [ 127.404070705265795, 36.407852247102873 ], [ 127.395037876061451, 36.408470162635687 ], [ 127.392905483911548, 36.410155606826407 ] ] ] ] } },
{ "type": "Feature", "properties": { "emd_cd": "30200144", "emd_nm": "용산동" }, "geometry": { "type": "MultiPolygon", "coordinates": [ [ [ [ 127.387307569767373, 36.41323758378752 ], [ 127.390076400810869, 36.417865409379644 ], [ 127.394824456472577, 36.421023561941851 ], [ 127.400047091576312, 36.429600324032783 ], [ 127.401465699262459, 36.430325075089414 ], [ 127.406362919330022, 36.427441685946135 ], [ 127.406384974103588, 36.425186197007513 ], [ 127.408609669783758, 36.423657669484207 ], [ 127.400210127449796, 36.412953673606538 ], [ 127.39845854426521, 36.413615498266807 ], [ 127.393557236365623, 36.410340702781184 ], [ 127.387307569767373, 36.41323758378752 ] ] ] ] } },
{ "type": "Feature", "properties": { "emd_cd": "30200145", "emd_nm": "봉산동" }, "geometry": { "type": "MultiPolygon", "coordinates": [ [ [ [ 127.398209488679058, 36.458060993459178 ], [ 127.402085369362993, 36.45604053468189 ], [ 127.396940716973646, 36.451126852858444 ], [ 127.392691591449349, 36.449688888392785 ], [ 127.389518040831973, 36.445160585507978 ], [ 127.390562577824397, 36.439667911725756 ], [ 127.393861426070856, 36.437593479824351 ], [ 127.392318184603511, 36.435826194564932 ], [ 127.388799206194449, 36.433968728272092 ], [ 127.385681785234922, 36.437964971798884 ], [ 127.370873536465822, 36.436082880761404 ], [ 127.370567000983243, 36.442763148281252 ], [ 127.375586381782497, 36.445280815217082 ], [ 127.374599126483645, 36.452048408193022 ], [ 127.387498188535005, 36.451938113425449 ], [ 127.39078713757624, 36.454861577218828 ], [ 127.39748734302033, 36.455090734014853 ], [ 127.398209488679058, 36.458060993459178 ] ] ] ] } },
{ "type": "Feature", "properties": { "emd_cd": "30200146", "emd_nm": "관평동" }, "geometry": { "type": "MultiPolygon", "coordinates": [ [ [ [ 127.377204243040822, 36.417832238959242 ], [ 127.38469114411761, 36.424340779449217 ], [ 127.38884336410112, 36.434035090314246 ], [ 127.393858310295045, 36.437446421556039 ], [ 127.401465699262459, 36.430325075089414 ], [ 127.395981968010901, 36.424373039799924 ], [ 127.394824456472577, 36.421023561941851 ], [ 127.389136765527411, 36.416389175910822 ], [ 127.387307569767373, 36.41323758378752 ], [ 127.388257037743031, 36.410225749384701 ], [ 127.386793564005885, 36.406897252535444 ], [ 127.38564912269436, 36.407146856795954 ], [ 127.386578982523105, 36.408878820008532 ], [ 127.384158624291175, 36.408261988021216 ], [ 127.381949207887075, 36.410811434723463 ], [ 127.38278481850891, 36.412972011648208 ], [ 127.38079424054888, 36.414178568439041 ], [ 127.381036070719261, 36.415741527043757 ], [ 127.377204243040822, 36.417832238959242 ] ] ] ] } },
{ "type": "Feature", "properties": { "emd_cd": "30200147", "emd_nm": "송강동" }, "geometry": { "type": "MultiPolygon", "coordinates": [ [ [ [ 127.384490704112295, 36.437910971567696 ], [ 127.388799206194449, 36.433968728272092 ], [ 127.38469114411761, 36.424340779449217 ], [ 127.381743057097438, 36.421247157680618 ], [ 127.378202765143982, 36.422845038625063 ], [ 127.379278298134793, 36.424872976069878 ], [ 127.37186104951769, 36.435508290281511 ], [ 127.384490704112295, 36.437910971567696 ] ] ] ] } },
{ "type": "Feature", "properties": { "emd_cd": "30200148", "emd_nm": "금고동" }, "geometry": { "type": "MultiPolygon", "coordinates": [ [ [ [ 127.384422353969185, 36.478057145980586 ], [ 127.394908271987603, 36.471524336531708 ], [ 127.402494447394275, 36.473223050466245 ], [ 127.401392817900657, 36.462666563900115 ], [ 127.399203069453918, 36.462682062848792 ], [ 127.399778341358882, 36.457954082957137 ], [ 127.397226837669081, 36.456889612796203 ], [ 127.39748734302033, 36.455090734014853 ], [ 127.39078713757624, 36.454861577218828 ], [ 127.387498188535005, 36.451938113425449 ], [ 127.374599126483645, 36.452048408193022 ], [ 127.374429572914835, 36.456771412915032 ], [ 127.372111708304558, 36.460282989204764 ], [ 127.372916920958403, 36.465234172335443 ], [ 127.374066086563872, 36.466589824347672 ], [ 127.379878536935706, 36.46689391643659 ], [ 127.381312637925006, 36.469325379235869 ], [ 127.380563833198536, 36.473297435408661 ], [ 127.382664692790627, 36.47520809354539 ], [ 127.379711540454039, 36.480464125219477 ], [ 127.381698640169901, 36.481468169933045 ], [ 127.384422353969185, 36.478057145980586 ] ] ] ] } },
{ "type": "Feature", "properties": { "emd_cd": "30200149", "emd_nm": "대동" }, "geometry": { "type": "MultiPolygon", "coordinates": [ [ [ [ 127.398922394269732, 36.48910476148739 ], [ 127.403014105734485, 36.485483617662389 ], [ 127.404144125109369, 36.481114253503684 ], [ 127.402494447394275, 36.473223050466245 ], [ 127.394908271987603, 36.471524336531708 ], [ 127.389101571982323, 36.474004322753714 ], [ 127.381698640169901, 36.481468169933045 ], [ 127.382825283224292, 36.485418300871842 ], [ 127.3872863879851, 36.485113746736808 ], [ 127.389894578107061, 36.487259020254662 ], [ 127.393050096851084, 36.48678588714337 ], [ 127.398922394269732, 36.48910476148739 ] ] ] ] } },
{ "type": "Feature", "properties": { "emd_cd": "30200150", "emd_nm": "금탄동" }, "geometry": { "type": "MultiPolygon", "coordinates": [ [ [ [ 127.369146893551118, 36.488587446666614 ], [ 127.380293835898854, 36.499507608190015 ], [ 127.383855139644439, 36.500230637214301 ], [ 127.398113434548463, 36.489838625817065 ], [ 127.3872863879851, 36.485113746736808 ], [ 127.382825283224292, 36.485418300871842 ], [ 127.381698640169901, 36.481468169933045 ], [ 127.37730838226507, 36.479489951553248 ], [ 127.375055969737488, 36.482942098327229 ], [ 127.371564596871337, 36.483766443807937 ], [ 127.371057020798375, 36.48712551596136 ], [ 127.369146893551118, 36.488587446666614 ] ] ] ] } },
{ "type": "Feature", "properties": { "emd_cd": "30200151", "emd_nm": "신동" }, "geometry": { "type": "MultiPolygon", "coordinates": [ [ [ [ 127.379711540454039, 36.480464125219477 ], [ 127.382664692790627, 36.47520809354539 ], [ 127.380563833198536, 36.473297435408661 ], [ 127.381312637925006, 36.469325379235869 ], [ 127.379240128668684, 36.466625277950961 ], [ 127.373376786479909, 36.466406454057754 ], [ 127.372490909381796, 36.46109759724775 ], [ 127.368519323047835, 36.463146632762673 ], [ 127.367529511903072, 36.468687447053135 ], [ 127.362353458223282, 36.47072386051974 ], [ 127.363883888078732, 36.475221029342634 ], [ 127.360589331716767, 36.478595567142634 ], [ 127.360258611092078, 36.481611339946667 ], [ 127.357762510294933, 36.483185583421928 ], [ 127.360987311293812, 36.490877668494278 ], [ 127.370217996033958, 36.488044885647561 ], [ 127.37080264965509, 36.484618001818845 ], [ 127.375055969737488, 36.482942098327229 ], [ 127.377264053310483, 36.479500165993976 ], [ 127.379711540454039, 36.480464125219477 ] ] ] ] } },
{ "type": "Feature", "properties": { "emd_cd": "30200152", "emd_nm": "둔곡동" }, "geometry": { "type": "MultiPolygon", "coordinates": [ [ [ [ 127.362649905477696, 36.47068868402917 ], [ 127.367529511903072, 36.468687447053135 ], [ 127.368519323047835, 36.463146632762673 ], [ 127.372490909381796, 36.46109759724775 ], [ 127.374429572914835, 36.456771412915032 ], [ 127.374147909067815, 36.448497748927849 ], [ 127.366513038877471, 36.452509088904215 ], [ 127.357562462613686, 36.454444991969105 ], [ 127.358622848563982, 36.455890266175707 ], [ 127.356068813476696, 36.464014824957644 ], [ 127.359644080165992, 36.466142962273004 ], [ 127.359791533636013, 36.469831725777489 ], [ 127.362649905477696, 36.47068868402917 ] ] ] ] } },
{ "type": "Feature", "properties": { "emd_cd": "30200153", "emd_nm": "구룡동" }, "geometry": { "type": "MultiPolygon", "coordinates": [ [ [ [ 127.356205111287409, 36.454270199217156 ], [ 127.366513038877471, 36.452509088904215 ], [ 127.374647341926845, 36.447847817474369 ], [ 127.375586381782497, 36.445280815217082 ], [ 127.370567000983243, 36.442763148281252 ], [ 127.370503982482674, 36.43660264781176 ], [ 127.37186104951769, 36.435508290281511 ], [ 127.366144193274678, 36.433296715201934 ], [ 127.365305501607111, 36.430446400557074 ], [ 127.361295923370108, 36.434155132061093 ], [ 127.357304174783806, 36.433660815927858 ], [ 127.351218681360336, 36.428619726255207 ], [ 127.341061062664579, 36.430813816261349 ], [ 127.340154310112368, 36.436150611879775 ], [ 127.343106756019992, 36.43872882638049 ], [ 127.344894512622645, 36.444414506188643 ], [ 127.349743736741388, 36.44798610982096 ], [ 127.353416352197542, 36.447871868806665 ], [ 127.356312041769343, 36.451281637071325 ], [ 127.356205111287409, 36.454270199217156 ] ] ] ] } }
]
}
