{
"type": "FeatureCollection",
"name": "50110",
"crs": { "type": "name", "properties": { "name": "urn:ogc:def:crs:OGC:1.3:CRS84" } },
"features": [
{ "type": "Feature", "properties": { "emd_cd": "50110101", "emd_nm": "일도일동" }, "geometry": { "type": "MultiPolygon", "coordinates": [ [ [ [ 126.523519634996461, 33.512552024243206 ], [ 126.524017196428161, 33.516041231728941 ], [ 126.531993045592543, 33.513237173844033 ], [ 126.527771777429507, 33.50966352071773 ], [ 126.528939842237179, 33.506281429511759 ], [ 126.526571895512291, 33.512739261911108 ], [ 126.523519634996461, 33.512552024243206 ] ] ] ] } },
{ "type": "Feature", "properties": { "emd_cd": "50110102", "emd_nm": "일도이동" }, "geometry": { "type": "MultiPolygon", "coordinates": [ [ [ [ 126.538412760396014, 33.514225783732108 ], [ 126.54574153720398, 33.511326509342304 ], [ 126.543111604576481, 33.509724290729544 ], [ 126.548092281594606, 33.50545227904604 ], [ 126.552272843584291, 33.503269230089337 ], [ 126.554754009928175, 33.50461159398629 ], [ 126.554844961587136, 33.500197010570552 ], [ 126.552797266568732, 33.497389863397402 ], [ 126.549633854124394, 33.499273450188788 ], [ 126.5462258435129, 33.497426587708247 ], [ 126.541985679962593, 33.503653353687284 ], [ 126.538189201128048, 33.505618774229077 ], [ 126.534930187459139, 33.502931221517535 ], [ 126.528760805040505, 33.506567929356677 ], [ 126.527613747495934, 33.508464914916537 ], [ 126.529021686766598, 33.511090013389939 ], [ 126.531852653019115, 33.513217005317415 ], [ 126.538412760396014, 33.514225783732108 ] ] ] ] } },
{ "type": "Feature", "properties": { "emd_cd": "50110103", "emd_nm": "이도일동" }, "geometry": { "type": "MultiPolygon", "coordinates": [ [ [ [ 126.524375009981, 33.500710683944376 ], [ 126.525475700544007, 33.505859375102965 ], [ 126.52316116804468, 33.510786038397576 ], [ 126.523519773961908, 33.512550239638543 ], [ 126.52558092498171, 33.513102423841836 ], [ 126.528832706188226, 33.506346413102257 ], [ 126.534094759803622, 33.504114545714344 ], [ 126.534562173785389, 33.503667451920947 ], [ 126.534930187459139, 33.502931221517535 ], [ 126.534967365142521, 33.502655123853472 ], [ 126.525677073626227, 33.500143496388397 ], [ 126.529514226640075, 33.497013561669881 ], [ 126.529797211626956, 33.496487425796012 ], [ 126.52973294996518, 33.496443174686718 ], [ 126.524375009981, 33.500710683944376 ] ] ] ] } },
{ "type": "Feature", "properties": { "emd_cd": "50110104", "emd_nm": "이도이동" }, "geometry": { "type": "MultiPolygon", "coordinates": [ [ [ [ 126.525677073626227, 33.500143496388368 ], [ 126.534967365142521, 33.502655123853437 ], [ 126.538189201128048, 33.505618774229049 ], [ 126.541985679962593, 33.503653353687284 ], [ 126.5462258435129, 33.497426587708276 ], [ 126.549633854124394, 33.499273450188788 ], [ 126.552797266568732, 33.497389863397409 ], [ 126.552138339414668, 33.494374714080749 ], [ 126.554063637316133, 33.492480449313426 ], [ 126.551558593639456, 33.48814904772464 ], [ 126.548210129636189, 33.491719924658732 ], [ 126.54086108029658, 33.494332085867057 ], [ 126.543677515380139, 33.490298797671144 ], [ 126.5432371809991, 33.487669115187366 ], [ 126.534061164101573, 33.485692389105445 ], [ 126.53005153044208, 33.487931723050124 ], [ 126.532605802689275, 33.490958400946283 ], [ 126.532290043915253, 33.493019421199143 ], [ 126.525677073626227, 33.500143496388368 ] ] ] ] } },
{ "type": "Feature", "properties": { "emd_cd": "50110105", "emd_nm": "삼도일동" }, "geometry": { "type": "MultiPolygon", "coordinates": [ [ [ [ 126.514512911346344, 33.505521649831316 ], [ 126.519891323411485, 33.510572528055569 ], [ 126.519904367364902, 33.504368462877153 ], [ 126.524856498349564, 33.504335332272163 ], [ 126.525604533069554, 33.497984806585663 ], [ 126.516351477442015, 33.498320822731685 ], [ 126.514512911346344, 33.505521649831316 ] ] ] ] } },
{ "type": "Feature", "properties": { "emd_cd": "50110106", "emd_nm": "삼도이동" }, "geometry": { "type": "MultiPolygon", "coordinates": [ [ [ [ 126.524840523449782, 33.504275198064093 ], [ 126.519904367364902, 33.50436846287716 ], [ 126.519870587159062, 33.511335613164974 ], [ 126.516526109925593, 33.515439453935741 ], [ 126.517047585124857, 33.51920992126518 ], [ 126.524859476554312, 33.51852726063035 ], [ 126.526014077559054, 33.516646661279708 ], [ 126.524343049421944, 33.516611865265091 ], [ 126.523097347305992, 33.514369633100848 ], [ 126.524840523449782, 33.504275198064093 ] ] ] ] } },
{ "type": "Feature", "properties": { "emd_cd": "50110107", "emd_nm": "건입동" }, "geometry": { "type": "MultiPolygon", "coordinates": [ [ [ [ 126.524177317458154, 33.516089506416471 ], [ 126.526014077559054, 33.516646661279708 ], [ 126.524859476554312, 33.51852726063035 ], [ 126.528279002500994, 33.518080251424863 ], [ 126.528445359399271, 33.520500769027421 ], [ 126.53009882509194, 33.522827642465494 ], [ 126.528466146463884, 33.517078060048973 ], [ 126.533460695424594, 33.517975295995726 ], [ 126.530481578398025, 33.521123767714272 ], [ 126.534524881604838, 33.523561604065662 ], [ 126.540582171425797, 33.532301843166699 ], [ 126.535565152722924, 33.523541258559696 ], [ 126.531586657004468, 33.521361555213765 ], [ 126.535309837144652, 33.519787006951496 ], [ 126.537554223402282, 33.521353659111782 ], [ 126.537230428529909, 33.523098970687691 ], [ 126.538902852665231, 33.52187461562481 ], [ 126.541019972994576, 33.524261993021817 ], [ 126.54285711215843, 33.522885089391423 ], [ 126.54318913041412, 33.527569494750786 ], [ 126.541614263722366, 33.529470979914173 ], [ 126.543398543560585, 33.527866926721153 ], [ 126.545982367460326, 33.527882133045033 ], [ 126.546227112514117, 33.524356842101128 ], [ 126.553435832793554, 33.524218760342208 ], [ 126.553391802382691, 33.522903998444612 ], [ 126.550176473246353, 33.521873175879151 ], [ 126.547942482051397, 33.522511456044953 ], [ 126.544862879009159, 33.522276371675758 ], [ 126.54467441049816, 33.521604085653124 ], [ 126.549040019497113, 33.520533800206344 ], [ 126.549902297406476, 33.516869183155329 ], [ 126.553355909357833, 33.513539365390606 ], [ 126.547967836843043, 33.511398824578919 ], [ 126.556909962355419, 33.507062011827088 ], [ 126.552272843584291, 33.503269230089337 ], [ 126.543160494738245, 33.509649612729703 ], [ 126.545819257499176, 33.511202962092632 ], [ 126.5437943689804, 33.513044872136597 ], [ 126.538412760396014, 33.514225783732108 ], [ 126.529974088250938, 33.513039508025436 ], [ 126.528569475307137, 33.515160844285539 ], [ 126.524177317458154, 33.516089506416471 ] ] ], [ [ [ 126.543992414330916, 33.528465609646155 ], [ 126.546452856060071, 33.528651651731373 ], [ 126.556541752911997, 33.532535899656992 ], [ 126.558219270785983, 33.533098461467063 ], [ 126.558374378404579, 33.532849908416708 ], [ 126.546010857654011, 33.528320498283641 ], [ 126.543992414330916, 33.528465609646155 ] ] ] ] } },
{ "type": "Feature", "properties": { "emd_cd": "50110108", "emd_nm": "용담일동" }, "geometry": { "type": "MultiPolygon", "coordinates": [ [ [ [ 126.519891323411485, 33.510572528055548 ], [ 126.514512911346344, 33.505521649831316 ], [ 126.515603031575026, 33.500010937553228 ], [ 126.512056450798212, 33.500210695970772 ], [ 126.511419454679896, 33.509339737404915 ], [ 126.514079911399278, 33.512130846796104 ], [ 126.515339522601707, 33.517091413182598 ], [ 126.519891323411485, 33.510572528055548 ] ] ] ] } },
{ "type": "Feature", "properties": { "emd_cd": "50110109", "emd_nm": "용담이동" }, "geometry": { "type": "MultiPolygon", "coordinates": [ [ [ [ 126.510140994710326, 33.515793534402668 ], [ 126.514563229585846, 33.515838903374608 ], [ 126.514877963467583, 33.514134781947767 ], [ 126.511419454679896, 33.509339737404915 ], [ 126.512056450798212, 33.500210695970772 ], [ 126.50584431960803, 33.500444152329862 ], [ 126.49504436143026, 33.49710925129979 ], [ 126.492302890180852, 33.493906013999599 ], [ 126.49110123972477, 33.496922848833293 ], [ 126.490950464552469, 33.500328610886747 ], [ 126.492526298937264, 33.500551328372502 ], [ 126.491585654723693, 33.505409570442495 ], [ 126.485077261462152, 33.511131766389852 ], [ 126.494048341409851, 33.512071185851156 ], [ 126.497505160151491, 33.516020574159938 ], [ 126.501500713226719, 33.513076686344981 ], [ 126.51038606569557, 33.5126303473794 ], [ 126.510140994710326, 33.515793534402668 ] ] ] ] } },
{ "type": "Feature", "properties": { "emd_cd": "50110110", "emd_nm": "용담삼동" }, "geometry": { "type": "MultiPolygon", "coordinates": [ [ [ [ 126.500690106366193, 33.517516259597748 ], [ 126.510483310580526, 33.515655001328874 ], [ 126.510440023360317, 33.512656553910602 ], [ 126.501500713226719, 33.513076686344981 ], [ 126.497505160151491, 33.516020574159938 ], [ 126.494048341409851, 33.512071185851156 ], [ 126.48374888025063, 33.511569748993097 ], [ 126.485937614578916, 33.517367826920591 ], [ 126.495085186328552, 33.520640404143954 ], [ 126.501311809803198, 33.518955409003134 ], [ 126.500690106366193, 33.517516259597748 ] ] ] ] } },
{ "type": "Feature", "properties": { "emd_cd": "50110111", "emd_nm": "화북일동" }, "geometry": { "type": "MultiPolygon", "coordinates": [ [ [ [ 126.549190511667248, 33.520531635847462 ], [ 126.55896174617699, 33.522509782440302 ], [ 126.561793832473498, 33.527247007788169 ], [ 126.566122491937023, 33.527465375955423 ], [ 126.563711318213635, 33.526880162410855 ], [ 126.565437983402489, 33.525708527087517 ], [ 126.564798195079049, 33.525794485037089 ], [ 126.564393943638578, 33.524462038610494 ], [ 126.568037953063026, 33.525334755087293 ], [ 126.568369362294064, 33.527080375532712 ], [ 126.57404776999671, 33.525456421729849 ], [ 126.575996264874547, 33.522890494645075 ], [ 126.575441449858928, 33.52123898990471 ], [ 126.578281842159726, 33.521380445423162 ], [ 126.579052652759728, 33.519393127192529 ], [ 126.577742808255721, 33.514275549779434 ], [ 126.569695958218531, 33.515054802849953 ], [ 126.568877614966183, 33.512633005509898 ], [ 126.559688145978399, 33.512125295487394 ], [ 126.559192505761402, 33.514178859407011 ], [ 126.553284301343837, 33.513510282668229 ], [ 126.549902297406476, 33.516869183155329 ], [ 126.549190511667248, 33.520531635847462 ] ] ], [ [ [ 126.55106025937134, 33.521390481829378 ], [ 126.551135868141643, 33.52147951782446 ], [ 126.551123780234974, 33.521356894218378 ], [ 126.55106025937134, 33.521390481829378 ] ] ], [ [ [ 126.556538088095152, 33.529572376123042 ], [ 126.559576937968899, 33.526976497697859 ], [ 126.556397309862021, 33.529377398494972 ], [ 126.556538088095152, 33.529572376123042 ] ] ] ] } },
{ "type": "Feature", "properties": { "emd_cd": "50110112", "emd_nm": "화북이동" }, "geometry": { "type": "MultiPolygon", "coordinates": [ [ [ [ 126.579118792943689, 33.498185182693653 ], [ 126.575581672910715, 33.497998423449964 ], [ 126.569765272978387, 33.494312352236804 ], [ 126.56345287232071, 33.494487493122335 ], [ 126.564842177015166, 33.487673875535485 ], [ 126.555664885695322, 33.486377343192004 ], [ 126.552591889936352, 33.490612505220547 ], [ 126.554063637316133, 33.492480449313426 ], [ 126.552138339414668, 33.494374714080749 ], [ 126.552971064558506, 33.498883479977323 ], [ 126.554844961587136, 33.500197010570552 ], [ 126.554878753345662, 33.504959434769077 ], [ 126.556909962355419, 33.507062011827088 ], [ 126.547967836843043, 33.511398824578919 ], [ 126.555886857589968, 33.514437484342118 ], [ 126.559192505761402, 33.514178859407011 ], [ 126.559688145978399, 33.512125295487394 ], [ 126.568877614966183, 33.512633005509898 ], [ 126.569695958218531, 33.515054802849953 ], [ 126.577742808255721, 33.514275549779434 ], [ 126.577502916349644, 33.508489611288944 ], [ 126.573109666637251, 33.509528245346104 ], [ 126.579118792943689, 33.498185182693653 ] ] ] ] } },
{ "type": "Feature", "properties": { "emd_cd": "50110113", "emd_nm": "삼양일동" }, "geometry": { "type": "MultiPolygon", "coordinates": [ [ [ [ 126.586134014239917, 33.525445974090765 ], [ 126.589257342678181, 33.529088782423237 ], [ 126.588786773392755, 33.530622302674104 ], [ 126.589554712335257, 33.531040742242801 ], [ 126.589364173570345, 33.532305719764395 ], [ 126.589963362304488, 33.533221198880099 ], [ 126.589636861213037, 33.531779252515719 ], [ 126.591627078617819, 33.532105302638115 ], [ 126.590243658153355, 33.532556470306851 ], [ 126.597720878347616, 33.537676109565915 ], [ 126.602074701298022, 33.535939279302383 ], [ 126.602920937277588, 33.531714707294157 ], [ 126.600245989261779, 33.531373784253155 ], [ 126.60164578786258, 33.529331832670962 ], [ 126.598943090814302, 33.527796242811519 ], [ 126.599864957736699, 33.520576305300558 ], [ 126.611679876340688, 33.517177798513835 ], [ 126.61052826707369, 33.510088699994263 ], [ 126.608602358836777, 33.509133243742717 ], [ 126.602256175809771, 33.511507533244391 ], [ 126.598321784660939, 33.516873274076026 ], [ 126.591711362860991, 33.519359811125156 ], [ 126.586134014239917, 33.525445974090765 ] ] ] ] } },
{ "type": "Feature", "properties": { "emd_cd": "50110114", "emd_nm": "삼양이동" }, "geometry": { "type": "MultiPolygon", "coordinates": [ [ [ [ 126.58628890848918, 33.517145203236723 ], [ 126.578238273777743, 33.517342282871468 ], [ 126.578494645920387, 33.523217146713819 ], [ 126.581964319438157, 33.525285409350026 ], [ 126.586664536050009, 33.525509726482561 ], [ 126.591749301944816, 33.519442801576197 ], [ 126.58628890848918, 33.517145203236723 ] ] ] ] } },
{ "type": "Feature", "properties": { "emd_cd": "50110115", "emd_nm": "삼양삼동" }, "geometry": { "type": "MultiPolygon", "coordinates": [ [ [ [ 126.578289001093182, 33.521358173612498 ], [ 126.575441449858928, 33.52123898990471 ], [ 126.575966380302049, 33.522979027062945 ], [ 126.573788122682856, 33.525752607586476 ], [ 126.574896724226335, 33.527489296981344 ], [ 126.576437015472308, 33.527954354730859 ], [ 126.578197343695081, 33.527923262898 ], [ 126.578918217459417, 33.527436351349209 ], [ 126.576338593716756, 33.527236525424605 ], [ 126.580039843155802, 33.524692450075342 ], [ 126.578289001093182, 33.521358173612498 ] ] ] ] } },
{ "type": "Feature", "properties": { "emd_cd": "50110116", "emd_nm": "봉개동" }, "geometry": { "type": "MultiPolygon", "coordinates": [ [ [ [ 126.621243263970712, 33.464084730781089 ], [ 126.630872498824374, 33.439816291884661 ], [ 126.633308032770358, 33.436661913397622 ], [ 126.64224801734872, 33.439672487239037 ], [ 126.639609640583046, 33.432417007288905 ], [ 126.637842099132527, 33.431457393611822 ], [ 126.636736054464279, 33.427282499876839 ], [ 126.631948469721294, 33.426073349378036 ], [ 126.622590516913675, 33.419031768462922 ], [ 126.615388018039738, 33.407563514201492 ], [ 126.615074135937519, 33.403205796314111 ], [ 126.611451573825519, 33.403117631916366 ], [ 126.60653368903867, 33.394981148361936 ], [ 126.603010979253654, 33.393445796583968 ], [ 126.597862578442985, 33.39431702287483 ], [ 126.590814533846086, 33.391382123881797 ], [ 126.593413266922653, 33.395879135343577 ], [ 126.592475600307964, 33.401424109943811 ], [ 126.599480548100885, 33.413077753879705 ], [ 126.603114894069577, 33.41506229993022 ], [ 126.601326608351755, 33.417307590571248 ], [ 126.605076766333184, 33.421385813177885 ], [ 126.604966129397056, 33.423416167686334 ], [ 126.61059799938181, 33.425093336910805 ], [ 126.612518148588336, 33.427297559725936 ], [ 126.609955359450353, 33.430091139543464 ], [ 126.611571231450355, 33.434328465068234 ], [ 126.606749087556381, 33.43949614385906 ], [ 126.603493414041765, 33.446797449085317 ], [ 126.604170448547819, 33.452705815346469 ], [ 126.601486819085437, 33.457537330577061 ], [ 126.602568154357471, 33.460728412019243 ], [ 126.600352860148092, 33.464383852070007 ], [ 126.601113317493713, 33.467617316383667 ], [ 126.598119440449707, 33.470526090138428 ], [ 126.596992460116681, 33.47727306030842 ], [ 126.593613841710592, 33.481256389405438 ], [ 126.589928115590098, 33.481239999398198 ], [ 126.588285173007449, 33.483172709066736 ], [ 126.588122898319014, 33.486775746570494 ], [ 126.581673009812178, 33.493865193041998 ], [ 126.581563416535303, 33.496936967909463 ], [ 126.593260648663616, 33.494389005012806 ], [ 126.59506542910546, 33.496987832978533 ], [ 126.600519881201564, 33.498974348830515 ], [ 126.600967886672734, 33.496510583099443 ], [ 126.599384408265252, 33.494397993662574 ], [ 126.603259442846266, 33.491852900188597 ], [ 126.605141445062685, 33.485583317515534 ], [ 126.610843181817714, 33.482761256217735 ], [ 126.622975440693324, 33.482789159558905 ], [ 126.625474314601561, 33.479601111856397 ], [ 126.624818983041294, 33.477502299348622 ], [ 126.615995647819929, 33.471128423683119 ], [ 126.616548853809675, 33.469806517054828 ], [ 126.620048170835304, 33.470394685453364 ], [ 126.621243263970712, 33.464084730781089 ] ] ] ] } },
{ "type": "Feature", "properties": { "emd_cd": "50110117", "emd_nm": "아라일동" }, "geometry": { "type": "MultiPolygon", "coordinates": [ [ [ [ 126.564485442600485, 33.461526796262454 ], [ 126.567675042731622, 33.455996855980928 ], [ 126.56973651749361, 33.445376017848133 ], [ 126.566879148422487, 33.439908402653828 ], [ 126.567518232225908, 33.430759818382384 ], [ 126.57705609818322, 33.404015066967439 ], [ 126.577688615057255, 33.391339968315592 ], [ 126.572496414311971, 33.386504220500036 ], [ 126.560360302740605, 33.379909808132197 ], [ 126.559685003790634, 33.373159332593218 ], [ 126.55736623916205, 33.372020715283362 ], [ 126.553716044909237, 33.373676375858075 ], [ 126.545499230229396, 33.369187538329712 ], [ 126.547879233138474, 33.375983106934093 ], [ 126.551208764642041, 33.379725128670934 ], [ 126.553956815734381, 33.391132790847116 ], [ 126.555636425076543, 33.392899227563433 ], [ 126.557168899372613, 33.402678052417876 ], [ 126.556142672149093, 33.408311172347588 ], [ 126.559719625829047, 33.415363831129305 ], [ 126.554477020536538, 33.423752707134895 ], [ 126.554859839828254, 33.433654735296784 ], [ 126.552763374903563, 33.437211028935764 ], [ 126.554687391689072, 33.442627094131012 ], [ 126.550763426201769, 33.444820217590525 ], [ 126.550998260829388, 33.449166561405477 ], [ 126.544922917349126, 33.458365816638491 ], [ 126.547172306575419, 33.458480311758329 ], [ 126.547376235611466, 33.461731002176364 ], [ 126.543828634280956, 33.46131671569286 ], [ 126.540628395423511, 33.467025821999144 ], [ 126.535924366224876, 33.466743191421031 ], [ 126.535893849753208, 33.470814085699573 ], [ 126.529973821908115, 33.476819211282596 ], [ 126.532797241527049, 33.482513521670612 ], [ 126.530273593010634, 33.485385980421057 ], [ 126.530422647312221, 33.487636447528018 ], [ 126.534061164101558, 33.485692389105445 ], [ 126.5403154044578, 33.487786982617088 ], [ 126.543497691086898, 33.484791622260197 ], [ 126.544324381692348, 33.476825367673804 ], [ 126.550466376618644, 33.477840199534711 ], [ 126.553274294143023, 33.469427543360553 ], [ 126.559887656251604, 33.460206153806354 ], [ 126.564485442600485, 33.461526796262454 ] ] ] ] } },
{ "type": "Feature", "properties": { "emd_cd": "50110118", "emd_nm": "아라이동" }, "geometry": { "type": "MultiPolygon", "coordinates": [ [ [ [ 126.540452549991201, 33.487673387411824 ], [ 126.543237180999128, 33.487669115187352 ], [ 126.543844133054975, 33.489448491746707 ], [ 126.54086108029658, 33.494332085867065 ], [ 126.54766347588162, 33.492029739638767 ], [ 126.551437298242419, 33.48894146665311 ], [ 126.552432033740274, 33.485521812745489 ], [ 126.555199002512239, 33.483249325180545 ], [ 126.555578680760235, 33.480879729127381 ], [ 126.558888726930604, 33.479354788730156 ], [ 126.5628856281742, 33.471957081870762 ], [ 126.564851495580584, 33.466638922822042 ], [ 126.563727692579562, 33.460677507530399 ], [ 126.560419807710119, 33.459706201269888 ], [ 126.558256234719153, 33.462307155252063 ], [ 126.556038524876428, 33.4672633453036 ], [ 126.553274294143023, 33.469427543360553 ], [ 126.550466376618644, 33.477840199534711 ], [ 126.544324381692348, 33.476825367673804 ], [ 126.543497691086898, 33.484791622260197 ], [ 126.540452549991201, 33.487673387411824 ] ] ] ] } },
{ "type": "Feature", "properties": { "emd_cd": "50110119", "emd_nm": "오라일동" }, "geometry": { "type": "MultiPolygon", "coordinates": [ [ [ [ 126.520537796518909, 33.497915716966119 ], [ 126.521215912469273, 33.492761133470964 ], [ 126.518270224925004, 33.488832118759646 ], [ 126.512139787255293, 33.495090754872201 ], [ 126.511503473086748, 33.498374357634638 ], [ 126.512525307146419, 33.500206794365418 ], [ 126.520537796518909, 33.497915716966119 ] ] ] ] } },
{ "type": "Feature", "properties": { "emd_cd": "50110120", "emd_nm": "오라이동" }, "geometry": { "type": "MultiPolygon", "coordinates": [ [ [ [ 126.518860202194332, 33.477393110823819 ], [ 126.514493783318201, 33.4715828357389 ], [ 126.517173264451628, 33.464251835053865 ], [ 126.517530770051494, 33.451898609684065 ], [ 126.525233596416854, 33.442343280860293 ], [ 126.526843600335241, 33.43698243398611 ], [ 126.532443059314915, 33.431691812151421 ], [ 126.535732868289003, 33.423509525241023 ], [ 126.538634730979794, 33.421243283977006 ], [ 126.536562644522164, 33.410952437088341 ], [ 126.539243385966387, 33.408068632425511 ], [ 126.537836730332288, 33.404042815890705 ], [ 126.539373796567361, 33.402352921301961 ], [ 126.537983305203028, 33.400643869292523 ], [ 126.541246796267544, 33.399142463422095 ], [ 126.539775400436767, 33.393330182975795 ], [ 126.541264078720175, 33.391668328249523 ], [ 126.540387524809503, 33.385341650222493 ], [ 126.535190655982163, 33.381360523304593 ], [ 126.529462534661008, 33.371539915730558 ], [ 126.532389695940623, 33.363081385003056 ], [ 126.529968030300168, 33.362539220097787 ], [ 126.525676079024748, 33.367026608234021 ], [ 126.527559404745233, 33.373995036485283 ], [ 126.522983063764357, 33.376768877209088 ], [ 126.522943471583488, 33.381589844024226 ], [ 126.514546603314386, 33.388560426811495 ], [ 126.50904686030988, 33.397047935547455 ], [ 126.510931241721352, 33.405802510767963 ], [ 126.507496137580333, 33.409991652605989 ], [ 126.508324462310725, 33.415764600017582 ], [ 126.505060418428783, 33.422140450619345 ], [ 126.500067763334854, 33.451905679992251 ], [ 126.502887585974108, 33.461748506561321 ], [ 126.500945036218013, 33.464645809678267 ], [ 126.501985290949307, 33.474046875824151 ], [ 126.500116083353319, 33.478682025336148 ], [ 126.50193610725087, 33.484704587897838 ], [ 126.50799753423783, 33.492120676034546 ], [ 126.510813448919066, 33.500258001335787 ], [ 126.512290151312683, 33.499892240255313 ], [ 126.512139787255293, 33.495090754872201 ], [ 126.518270224925004, 33.488832118759646 ], [ 126.517657855279793, 33.487290004805153 ], [ 126.518800988072215, 33.487091540201185 ], [ 126.51667086110379, 33.483525085894101 ], [ 126.518860202194332, 33.477393110823819 ] ] ] ] } },
{ "type": "Feature", "properties": { "emd_cd": "50110121", "emd_nm": "오라삼동" }, "geometry": { "type": "MultiPolygon", "coordinates": [ [ [ [ 126.50799753423783, 33.492120676034546 ], [ 126.502985489378787, 33.485699793604546 ], [ 126.501605545897078, 33.486258911141547 ], [ 126.501840426859516, 33.493312442723393 ], [ 126.499183321875464, 33.493421966722885 ], [ 126.503257184168262, 33.496337472330239 ], [ 126.499548656670925, 33.498439716229846 ], [ 126.510813448919066, 33.500258001335787 ], [ 126.50799753423783, 33.492120676034546 ] ] ] ] } },
{ "type": "Feature", "properties": { "emd_cd": "50110122", "emd_nm": "노형동" }, "geometry": { "type": "MultiPolygon", "coordinates": [ [ [ [ 126.456384136283503, 33.484390976907811 ], [ 126.477611521925908, 33.495475060091209 ], [ 126.483246420389534, 33.488633884069898 ], [ 126.485027868807904, 33.489142060464424 ], [ 126.487259763427545, 33.481947144663849 ], [ 126.487222322827677, 33.476209258304401 ], [ 126.486006535643014, 33.475871658312549 ], [ 126.488027115379694, 33.466481125915344 ], [ 126.48700954191942, 33.4653880568886 ], [ 126.488930651625367, 33.461491868754109 ], [ 126.48672524148715, 33.456447045263204 ], [ 126.488718318923802, 33.445598252371958 ], [ 126.488716790994005, 33.431696182137365 ], [ 126.493784613255343, 33.419906505838178 ], [ 126.509764022428897, 33.407876036936003 ], [ 126.510931241721352, 33.405802510767963 ], [ 126.50904686030988, 33.397047935547455 ], [ 126.509906367166366, 33.394623462051278 ], [ 126.514546603314386, 33.388560426811495 ], [ 126.522943471583488, 33.381589844024226 ], [ 126.522885185892989, 33.377459887439372 ], [ 126.515679754694844, 33.383749208836662 ], [ 126.509250594065108, 33.385060884360584 ], [ 126.501101943171605, 33.393019443018936 ], [ 126.501357946301397, 33.397775893510364 ], [ 126.487570349135751, 33.415563325687813 ], [ 126.485138044504538, 33.423103442524095 ], [ 126.486660535199945, 33.437917664619022 ], [ 126.479459920036788, 33.455656923997665 ], [ 126.47377472773303, 33.462824469796296 ], [ 126.468420971171895, 33.463116019648837 ], [ 126.461915883314092, 33.468601476251415 ], [ 126.459954478040586, 33.47352283089775 ], [ 126.461564551083868, 33.479390796635677 ], [ 126.456384136283503, 33.484390976907811 ] ] ] ] } },
{ "type": "Feature", "properties": { "emd_cd": "50110123", "emd_nm": "외도일동" }, "geometry": { "type": "MultiPolygon", "coordinates": [ [ [ [ 126.42113779999211, 33.490359547252091 ], [ 126.424450652697104, 33.492426296247658 ], [ 126.435227296174787, 33.492056831371933 ], [ 126.436947197003107, 33.488167225628708 ], [ 126.44093585030059, 33.485049847086849 ], [ 126.443066329077425, 33.477820473584472 ], [ 126.432126329417201, 33.473066680305863 ], [ 126.421921476614301, 33.47424095830965 ], [ 126.419102679358502, 33.479720694731149 ], [ 126.421526232279419, 33.484050773076596 ], [ 126.420097315705618, 33.48664775590003 ], [ 126.42113779999211, 33.490359547252091 ] ] ] ] } },
{ "type": "Feature", "properties": { "emd_cd": "50110124", "emd_nm": "외도이동" }, "geometry": { "type": "MultiPolygon", "coordinates": [ [ [ [ 126.420353426729321, 33.491646723460867 ], [ 126.424493924209628, 33.495030261071854 ], [ 126.42579986171728, 33.494971825187477 ], [ 126.426717726543359, 33.495758063989214 ], [ 126.427950387065124, 33.496018741670781 ], [ 126.426038829946208, 33.494943579311062 ], [ 126.427436361875507, 33.493687788876798 ], [ 126.434680208766224, 33.495331957977065 ], [ 126.437081043874031, 33.493299834176291 ], [ 126.435227296174787, 33.492056831371904 ], [ 126.424450652697104, 33.492426296247658 ], [ 126.42113779999211, 33.490359547252069 ], [ 126.420353426729321, 33.491646723460867 ] ] ] ] } },
{ "type": "Feature", "properties": { "emd_cd": "50110125", "emd_nm": "이호일동" }, "geometry": { "type": "MultiPolygon", "coordinates": [ [ [ [ 126.446535790550129, 33.494949554156896 ], [ 126.447335651959449, 33.498169525478993 ], [ 126.450083826776151, 33.498745804037576 ], [ 126.450481725359779, 33.496964907132323 ], [ 126.454164753283848, 33.497895495132532 ], [ 126.454650369991043, 33.500612750643235 ], [ 126.452026532508413, 33.501852093805056 ], [ 126.453643764644482, 33.504299803947603 ], [ 126.457597883152459, 33.503496418026216 ], [ 126.460456803900627, 33.505492370841246 ], [ 126.464025692172342, 33.501060591873113 ], [ 126.466285750928137, 33.501525158283954 ], [ 126.463460272658892, 33.498909427914228 ], [ 126.462952034703832, 33.495596483101338 ], [ 126.455662594617621, 33.496384814487378 ], [ 126.452703403553073, 33.495211282199001 ], [ 126.450886503709171, 33.491361255696589 ], [ 126.446535790550129, 33.494949554156896 ] ] ] ] } },
{ "type": "Feature", "properties": { "emd_cd": "50110126", "emd_nm": "이호이동" }, "geometry": { "type": "MultiPolygon", "coordinates": [ [ [ [ 126.450892849993636, 33.49136842444063 ], [ 126.452703403553073, 33.495211282199001 ], [ 126.455662594617621, 33.496384814487378 ], [ 126.462952034703832, 33.495596483101338 ], [ 126.464273433989149, 33.499345778938689 ], [ 126.468135223053238, 33.495793315259924 ], [ 126.468395251702262, 33.49332519781079 ], [ 126.471785296941889, 33.492199963754814 ], [ 126.456384136283503, 33.484390976907811 ], [ 126.450892849993636, 33.49136842444063 ] ] ] ] } },
{ "type": "Feature", "properties": { "emd_cd": "50110127", "emd_nm": "도두일동" }, "geometry": { "type": "MultiPolygon", "coordinates": [ [ [ [ 126.463067385693464, 33.502215311105104 ], [ 126.46370948678728, 33.508666894262447 ], [ 126.46390809936527, 33.509072305485297 ], [ 126.464601555732486, 33.509680003693866 ], [ 126.463879554221876, 33.506671895702667 ], [ 126.465928259914961, 33.507226846368397 ], [ 126.466514783587428, 33.50527783804305 ], [ 126.467231689146502, 33.505058681084179 ], [ 126.466235164964985, 33.508656145626915 ], [ 126.464870769207394, 33.508715889423314 ], [ 126.47422701016184, 33.509688323827376 ], [ 126.473308419293943, 33.506915160613573 ], [ 126.476617630134726, 33.507312276173096 ], [ 126.478820927131821, 33.499446034935168 ], [ 126.481564511252657, 33.497192014790656 ], [ 126.470957655123641, 33.492297248637463 ], [ 126.468395251702262, 33.49332519781079 ], [ 126.468135223053238, 33.495793315259924 ], [ 126.464356527640092, 33.499137494300413 ], [ 126.466285750928137, 33.501525158283954 ], [ 126.463067385693464, 33.502215311105104 ] ] ] ] } },
{ "type": "Feature", "properties": { "emd_cd": "50110128", "emd_nm": "도두이동" }, "geometry": { "type": "MultiPolygon", "coordinates": [ [ [ [ 126.483845948384598, 33.51152128863653 ], [ 126.491559355818609, 33.505471356082978 ], [ 126.492280351272854, 33.493853719511421 ], [ 126.482658889469548, 33.495618770361389 ], [ 126.478820927131821, 33.499446034935168 ], [ 126.476617630134726, 33.507312276173096 ], [ 126.473216266307958, 33.507079216797003 ], [ 126.473124760625765, 33.509430734934668 ], [ 126.477086015135725, 33.509333140603431 ], [ 126.478796254510016, 33.510926694028051 ], [ 126.477971373239328, 33.509151464097023 ], [ 126.483845948384598, 33.51152128863653 ] ] ] ] } },
{ "type": "Feature", "properties": { "emd_cd": "50110129", "emd_nm": "도남동" }, "geometry": { "type": "MultiPolygon", "coordinates": [ [ [ [ 126.520537796518909, 33.497915716966119 ], [ 126.525604533069554, 33.497984806585656 ], [ 126.525454173585771, 33.500093891639793 ], [ 126.532290043915253, 33.493019421199151 ], [ 126.532605802689275, 33.490958400946283 ], [ 126.530008152749772, 33.488047718951819 ], [ 126.532762487920166, 33.482174004359273 ], [ 126.530000179774817, 33.477045845448046 ], [ 126.518860202194332, 33.477393110823819 ], [ 126.51666260326482, 33.483697987586929 ], [ 126.518800988072215, 33.487091540201185 ], [ 126.517657855279793, 33.487290004805153 ], [ 126.518640799571514, 33.490785575535547 ], [ 126.521215912469273, 33.492761133470964 ], [ 126.520537796518909, 33.497915716966119 ] ] ] ] } },
{ "type": "Feature", "properties": { "emd_cd": "50110130", "emd_nm": "도련일동" }, "geometry": { "type": "MultiPolygon", "coordinates": [ [ [ [ 126.57310442450715, 33.509609235003936 ], [ 126.577502916349644, 33.508489611288944 ], [ 126.578238273777743, 33.517342282871468 ], [ 126.58628890848918, 33.517145203236723 ], [ 126.584635868231956, 33.512714836060603 ], [ 126.587612672700558, 33.514433757438283 ], [ 126.588722978192919, 33.512382152699551 ], [ 126.591772240199944, 33.512466769538818 ], [ 126.59177863409046, 33.510271212502609 ], [ 126.593719656168105, 33.510057716307415 ], [ 126.596340296870622, 33.512257264620551 ], [ 126.596315786643046, 33.509106830834057 ], [ 126.599512455030549, 33.506338781580226 ], [ 126.598227525417741, 33.502993329631487 ], [ 126.600519881201564, 33.498974348830515 ], [ 126.59506542910546, 33.496987832978533 ], [ 126.593260648663616, 33.494389005012806 ], [ 126.584484059037138, 33.495535503310755 ], [ 126.579118792943689, 33.498185182693653 ], [ 126.57310442450715, 33.509609235003936 ] ] ] ] } },
{ "type": "Feature", "properties": { "emd_cd": "50110131", "emd_nm": "도련이동" }, "geometry": { "type": "MultiPolygon", "coordinates": [ [ [ [ 126.584635868231956, 33.512714836060603 ], [ 126.58628890848918, 33.517145203236723 ], [ 126.591789593720904, 33.519350909660638 ], [ 126.598321784660939, 33.516873274076005 ], [ 126.602256175809799, 33.511507533244377 ], [ 126.607682467250939, 33.509791316391407 ], [ 126.608088982856131, 33.506272715584998 ], [ 126.599219543155314, 33.505483601025283 ], [ 126.598717473259498, 33.50823850266972 ], [ 126.596271384666565, 33.509200550220328 ], [ 126.596340296870622, 33.512257264620551 ], [ 126.593719656168105, 33.510057716307415 ], [ 126.59177863409046, 33.510271212502609 ], [ 126.591772240199944, 33.512466769538818 ], [ 126.588722978192919, 33.512382152699551 ], [ 126.587612672700558, 33.514433757438283 ], [ 126.584635868231956, 33.512714836060603 ] ] ] ] } },
{ "type": "Feature", "properties": { "emd_cd": "50110132", "emd_nm": "용강동" }, "geometry": { "type": "MultiPolygon", "coordinates": [ [ [ [ 126.600568821276951, 33.464790223913695 ], [ 126.602568154357471, 33.460728412019243 ], [ 126.601486819085437, 33.457537330577061 ], [ 126.604170448547819, 33.452705815346469 ], [ 126.603493414041765, 33.446797449085317 ], [ 126.606749087556381, 33.43949614385906 ], [ 126.611571231450355, 33.434328465068234 ], [ 126.609955359450353, 33.430091139543464 ], [ 126.612478402169558, 33.426645170532552 ], [ 126.604966129397056, 33.423416167686334 ], [ 126.605076766333184, 33.421385813177885 ], [ 126.601326608351755, 33.417307590571248 ], [ 126.603114894069577, 33.41506229993022 ], [ 126.599480548100885, 33.413077753879705 ], [ 126.59855538427604, 33.409697244016378 ], [ 126.595613035897102, 33.407743076087719 ], [ 126.596137618101693, 33.406377253805672 ], [ 126.592108085777298, 33.409156777202284 ], [ 126.596869066273243, 33.422461145521353 ], [ 126.589196458995019, 33.442040801232054 ], [ 126.590248433956276, 33.448769799201941 ], [ 126.584641582842593, 33.457862442648931 ], [ 126.584130254576849, 33.47047885936847 ], [ 126.576875083531974, 33.476608242406257 ], [ 126.576093028317615, 33.480526367535113 ], [ 126.577912907625247, 33.479517358665611 ], [ 126.5820031499576, 33.480589392929225 ], [ 126.58238942442766, 33.483081162026942 ], [ 126.585033296462626, 33.483943149595113 ], [ 126.587791858612547, 33.483869095746037 ], [ 126.589928115590098, 33.481239999398198 ], [ 126.593613841710592, 33.481256389405438 ], [ 126.596992460116681, 33.47727306030842 ], [ 126.598464115501685, 33.469792824836297 ], [ 126.600922373879257, 33.468154952829373 ], [ 126.600568821276951, 33.464790223913695 ] ] ] ] } },
{ "type": "Feature", "properties": { "emd_cd": "50110133", "emd_nm": "회천동" }, "geometry": { "type": "MultiPolygon", "coordinates": [ [ [ [ 126.630872498824374, 33.439816291884661 ], [ 126.621243263970712, 33.464084730781089 ], [ 126.620048170835304, 33.470394685453364 ], [ 126.616548853809675, 33.469806517054828 ], [ 126.615995647819929, 33.471128423683119 ], [ 126.622498936873853, 33.474761094670185 ], [ 126.625474314601561, 33.479601111856397 ], [ 126.622975440693324, 33.482789159558905 ], [ 126.610843181817714, 33.482761256217735 ], [ 126.605141445062685, 33.485583317515534 ], [ 126.603259442846266, 33.491852900188597 ], [ 126.59929651978068, 33.494678464431821 ], [ 126.600824691331837, 33.497982411253005 ], [ 126.598189097849669, 33.504657045785848 ], [ 126.608088982856131, 33.506272715584998 ], [ 126.607717969508371, 33.509442748042957 ], [ 126.61052826707369, 33.510088699994263 ], [ 126.612298706356981, 33.51713529516995 ], [ 126.621090593548701, 33.513638206054367 ], [ 126.619448113328019, 33.510567159113265 ], [ 126.620330136682341, 33.499332912253301 ], [ 126.623571177112254, 33.49300972939492 ], [ 126.627846140451837, 33.489607196865272 ], [ 126.636714008638123, 33.476642288500656 ], [ 126.637441207815939, 33.466812145643793 ], [ 126.641149044220427, 33.462540904116018 ], [ 126.639958436009664, 33.444810331306833 ], [ 126.642654775746976, 33.441753642352502 ], [ 126.64224801734872, 33.439672487239037 ], [ 126.633308032770358, 33.436661913397622 ], [ 126.630872498824374, 33.439816291884661 ] ] ] ] } },
{ "type": "Feature", "properties": { "emd_cd": "50110134", "emd_nm": "오등동" }, "geometry": { "type": "MultiPolygon", "coordinates": [ [ [ [ 126.52685141053982, 33.47778217973724 ], [ 126.530000179774817, 33.477045845448046 ], [ 126.53533377913098, 33.471508633260925 ], [ 126.536515442407989, 33.466176377318561 ], [ 126.540628395423511, 33.467025821999144 ], [ 126.543828634280956, 33.46131671569286 ], [ 126.547376235611466, 33.461731002176364 ], [ 126.547172306575419, 33.458480311758329 ], [ 126.544922917349126, 33.458365816638491 ], [ 126.550998260829388, 33.449166561405477 ], [ 126.550763426201769, 33.444820217590525 ], [ 126.554687391689072, 33.442627094131012 ], [ 126.552763374903563, 33.437211028935764 ], [ 126.554859839828254, 33.433654735296784 ], [ 126.554477020536538, 33.423752707134895 ], [ 126.559719625829047, 33.415363831129305 ], [ 126.556142672149093, 33.408311172347588 ], [ 126.557168899372613, 33.402678052417876 ], [ 126.555636425076543, 33.392899227563433 ], [ 126.553956815734381, 33.391132790847116 ], [ 126.551208764642041, 33.379725128670934 ], [ 126.547879233138474, 33.375983106934093 ], [ 126.545499230229396, 33.369187538329712 ], [ 126.532389695940623, 33.363081385003056 ], [ 126.529462534661008, 33.371539915730558 ], [ 126.535190655982163, 33.381360523304593 ], [ 126.540092306478243, 33.384818605000952 ], [ 126.541319236600685, 33.38956279851444 ], [ 126.539775400436767, 33.393330182975795 ], [ 126.541246796267544, 33.399142463422095 ], [ 126.537983305203028, 33.400643869292523 ], [ 126.539373796567361, 33.402352921301961 ], [ 126.537836730332288, 33.404042815890705 ], [ 126.539243385966387, 33.408068632425511 ], [ 126.536982852616291, 33.409169614296196 ], [ 126.536479921330496, 33.41183202721065 ], [ 126.538915185900933, 33.420351646217831 ], [ 126.535228520498038, 33.42430684522396 ], [ 126.532443059314915, 33.431691812151421 ], [ 126.526843600335241, 33.43698243398611 ], [ 126.523795035962422, 33.444509604939604 ], [ 126.517530770051494, 33.451898609684065 ], [ 126.517173264451628, 33.464251835053865 ], [ 126.514484942109348, 33.471293931034957 ], [ 126.518860202194332, 33.477393110823819 ], [ 126.522614247593665, 33.476316227367121 ], [ 126.52685141053982, 33.47778217973724 ] ] ] ] } },
{ "type": "Feature", "properties": { "emd_cd": "50110135", "emd_nm": "월평동" }, "geometry": { "type": "MultiPolygon", "coordinates": [ [ [ [ 126.596137618101693, 33.406377253805672 ], [ 126.592475600307964, 33.401424109943811 ], [ 126.593413266922653, 33.395879135343577 ], [ 126.590814533846086, 33.391382123881797 ], [ 126.578144921352504, 33.386320972167546 ], [ 126.57210618948406, 33.380886245413258 ], [ 126.565434061283185, 33.379198869721421 ], [ 126.563460205460785, 33.380774856755451 ], [ 126.572496414311971, 33.386504220500036 ], [ 126.574994562008072, 33.38979968869824 ], [ 126.585817687470566, 33.395919058597137 ], [ 126.584309567678375, 33.40190020194472 ], [ 126.586511692057229, 33.406952189454159 ], [ 126.585798342732062, 33.416651051506811 ], [ 126.587276015844282, 33.425327362849949 ], [ 126.585356716166771, 33.429810709903776 ], [ 126.585979099298001, 33.433264764539175 ], [ 126.578250065961285, 33.443020438269635 ], [ 126.578777670574269, 33.444630419146137 ], [ 126.577205929414774, 33.44484548535133 ], [ 126.574046448231385, 33.450580361698563 ], [ 126.572945986348657, 33.458186765524921 ], [ 126.569839993556826, 33.461578212920728 ], [ 126.570864990507616, 33.470407186128057 ], [ 126.568501545847042, 33.475703070816643 ], [ 126.571302604807755, 33.481677907138838 ], [ 126.57603887353028, 33.480608722598213 ], [ 126.576875083531974, 33.476608242406257 ], [ 126.584130254576849, 33.47047885936847 ], [ 126.584641582842593, 33.457862442648931 ], [ 126.590035083782169, 33.449414645376677 ], [ 126.589196458995019, 33.442040801232054 ], [ 126.593670388374989, 33.428932681047357 ], [ 126.596715250577333, 33.424486635321465 ], [ 126.596915860023969, 33.420352791264065 ], [ 126.592108085777298, 33.409156777202284 ], [ 126.596137618101693, 33.406377253805672 ] ] ] ] } },
{ "type": "Feature", "properties": { "emd_cd": "50110136", "emd_nm": "영평동" }, "geometry": { "type": "MultiPolygon", "coordinates": [ [ [ [ 126.587791858612547, 33.483869095746037 ], [ 126.582923681429563, 33.48345954433934 ], [ 126.5820031499576, 33.480589392929225 ], [ 126.577912907625247, 33.479517358665611 ], [ 126.571302604807755, 33.481677907138838 ], [ 126.568501545847042, 33.475703070816643 ], [ 126.570864990507616, 33.470407186128057 ], [ 126.569839993556826, 33.461578212920728 ], [ 126.572945986348657, 33.458186765524921 ], [ 126.574046448231385, 33.450580361698563 ], [ 126.577205929414774, 33.44484548535133 ], [ 126.578777670574269, 33.444630419146137 ], [ 126.578250065961285, 33.443020438269635 ], [ 126.585979099298001, 33.433264764539175 ], [ 126.585356716166771, 33.429810709903776 ], [ 126.587276015844282, 33.425327362849949 ], [ 126.585798342732062, 33.416651051506811 ], [ 126.586511692057229, 33.406952189454159 ], [ 126.584309567678375, 33.40190020194472 ], [ 126.585817687470566, 33.395919058597137 ], [ 126.577637694621146, 33.391190722862845 ], [ 126.57705609818322, 33.404015066967439 ], [ 126.567518232225908, 33.430759818382384 ], [ 126.566879148422487, 33.439908402653828 ], [ 126.56973651749361, 33.445376017848133 ], [ 126.567675042731622, 33.455996855980928 ], [ 126.563776039351566, 33.462138623757795 ], [ 126.564851495580584, 33.466638922822042 ], [ 126.560175152118035, 33.474977162557565 ], [ 126.560546341848266, 33.477035161826329 ], [ 126.555578680760235, 33.480879729127381 ], [ 126.555199002512239, 33.483249325180545 ], [ 126.552244447140836, 33.485812049685123 ], [ 126.551791318716155, 33.48993855860536 ], [ 126.552903172342695, 33.490364594588208 ], [ 126.555664885695322, 33.486377343192004 ], [ 126.563756104265352, 33.487170103797851 ], [ 126.564842177015166, 33.487673875535485 ], [ 126.56345287232071, 33.494487493122335 ], [ 126.569765272978387, 33.494312352236804 ], [ 126.578130057207844, 33.498654369543125 ], [ 126.581876114528498, 33.497150847456751 ], [ 126.581673009812178, 33.493865193041998 ], [ 126.588122898319014, 33.486775746570494 ], [ 126.587791858612547, 33.483869095746037 ] ] ] ] } },
{ "type": "Feature", "properties": { "emd_cd": "50110137", "emd_nm": "연동" }, "geometry": { "type": "MultiPolygon", "coordinates": [ [ [ [ 126.502947213925495, 33.485690975418095 ], [ 126.500141287609509, 33.476640386495902 ], [ 126.501985290949307, 33.474046875824151 ], [ 126.500945036218013, 33.464645809678267 ], [ 126.502887585974108, 33.461748506561321 ], [ 126.500067763334854, 33.451905679992251 ], [ 126.505060418428783, 33.422140450619345 ], [ 126.508324462310725, 33.415764600017582 ], [ 126.507495059278327, 33.409982731487482 ], [ 126.493784613255343, 33.419906505838178 ], [ 126.488716790994005, 33.431696182137365 ], [ 126.488718318923802, 33.445598252371958 ], [ 126.48672524148715, 33.456447045263204 ], [ 126.488930651625367, 33.461491868754109 ], [ 126.48700954191942, 33.4653880568886 ], [ 126.488027115379694, 33.466481125915344 ], [ 126.48600686985786, 33.475815202167482 ], [ 126.487222322827677, 33.476209258304401 ], [ 126.487259763427545, 33.481947144663849 ], [ 126.485027868807904, 33.489142060464424 ], [ 126.483246420389534, 33.488633884069898 ], [ 126.477596855877067, 33.495496338649346 ], [ 126.482084265377821, 33.49710651464428 ], [ 126.482658889469548, 33.495618770361389 ], [ 126.492280351272854, 33.493853719511421 ], [ 126.49504436143026, 33.49710925129979 ], [ 126.499548656670925, 33.498439716229846 ], [ 126.502834854743, 33.497241247256483 ], [ 126.50315937044067, 33.496088817993609 ], [ 126.499183321875464, 33.493421966722885 ], [ 126.501840426859516, 33.493312442723393 ], [ 126.501605545897078, 33.486258911141547 ], [ 126.502947213925495, 33.485690975418095 ] ] ] ] } },
{ "type": "Feature", "properties": { "emd_cd": "50110138", "emd_nm": "도평동" }, "geometry": { "type": "MultiPolygon", "coordinates": [ [ [ [ 126.460878920814352, 33.470435272547391 ], [ 126.455866715211442, 33.467247200260601 ], [ 126.450792932844166, 33.469394155572445 ], [ 126.445517075228565, 33.468514058463356 ], [ 126.441898399764625, 33.482492447990055 ], [ 126.446352485213595, 33.484508890950245 ], [ 126.445978262029229, 33.485981983584189 ], [ 126.450965080338108, 33.491290785180134 ], [ 126.461564551083868, 33.479390796635677 ], [ 126.459954478040586, 33.47352283089775 ], [ 126.460878920814352, 33.470435272547391 ] ] ] ] } },
{ "type": "Feature", "properties": { "emd_cd": "50110139", "emd_nm": "해안동" }, "geometry": { "type": "MultiPolygon", "coordinates": [ [ [ [ 126.445517075228565, 33.468514058463356 ], [ 126.450792932844166, 33.469394155572445 ], [ 126.455866715211442, 33.467247200260601 ], [ 126.460878920814352, 33.470435272547391 ], [ 126.467327108412761, 33.463808611674331 ], [ 126.471153220612919, 33.462045843654167 ], [ 126.47377472773303, 33.462824469796296 ], [ 126.47679102986821, 33.459252028350576 ], [ 126.486660535199945, 33.437917664619022 ], [ 126.485138044504538, 33.423103442524095 ], [ 126.488479589046378, 33.413718630360847 ], [ 126.501357946301397, 33.397775893510364 ], [ 126.501101943171605, 33.393019443018936 ], [ 126.509250594065108, 33.385060884360584 ], [ 126.516321661535727, 33.383363361639013 ], [ 126.520262475170014, 33.378775877501994 ], [ 126.527559404745233, 33.373995036485283 ], [ 126.526806251523368, 33.368929330556249 ], [ 126.510411266394215, 33.383305359879202 ], [ 126.503188388226647, 33.383528201656084 ], [ 126.491722480331092, 33.390366023234435 ], [ 126.483482058996643, 33.387997503368126 ], [ 126.476230167376258, 33.388125832708731 ], [ 126.472498617674006, 33.391201552626129 ], [ 126.459327824864772, 33.396076194478709 ], [ 126.457782568824953, 33.403461420015965 ], [ 126.4521746067294, 33.407962622000518 ], [ 126.449530198959977, 33.412679567068622 ], [ 126.44833908078995, 33.42951296164884 ], [ 126.446182310096944, 33.434523174743994 ], [ 126.448837293496851, 33.436447381475773 ], [ 126.450648468940159, 33.441559876375131 ], [ 126.446555570665851, 33.449337444541364 ], [ 126.445955203222027, 33.45476297268484 ], [ 126.447908138322134, 33.460344621693757 ], [ 126.445255378889371, 33.465528789496773 ], [ 126.445517075228565, 33.468514058463356 ] ] ] ] } },
{ "type": "Feature", "properties": { "emd_cd": "50110140", "emd_nm": "내도동" }, "geometry": { "type": "MultiPolygon", "coordinates": [ [ [ [ 126.435141664934036, 33.49191792978052 ], [ 126.437081043874031, 33.493299834176291 ], [ 126.435876304365948, 33.495098808699517 ], [ 126.445161951949373, 33.498650186353167 ], [ 126.447074367958805, 33.497925073581307 ], [ 126.446535790550129, 33.494949554156896 ], [ 126.450960412521326, 33.491287040902215 ], [ 126.445978262029229, 33.485981983584189 ], [ 126.446352485213595, 33.484508890950245 ], [ 126.441898399764625, 33.482492447990055 ], [ 126.435141664934036, 33.49191792978052 ] ] ] ] } },
{ "type": "Feature", "properties": { "emd_cd": "50110250", "emd_nm": "한림읍" }, "geometry": { "type": "MultiPolygon", "coordinates": [ [ [ [ 126.272535425751798, 33.434871955262814 ], [ 126.27810852506127, 33.443679555999616 ], [ 126.278985630289853, 33.442251516182772 ], [ 126.283321781557234, 33.442519195927161 ], [ 126.284675164188243, 33.444684687280002 ], [ 126.28973503788086, 33.442927938187964 ], [ 126.293340925108964, 33.443787669856469 ], [ 126.29447760229948, 33.445540868671145 ], [ 126.292749614965345, 33.446503821610463 ], [ 126.298924949899217, 33.446284546754448 ], [ 126.29880730015266, 33.43991692757313 ], [ 126.301159912970348, 33.436586974388639 ], [ 126.29994777752664, 33.432883841928884 ], [ 126.303548614170595, 33.427571679585135 ], [ 126.302210793022653, 33.416586978103574 ], [ 126.306149711005901, 33.41085040877401 ], [ 126.306419046105518, 33.408022385198038 ], [ 126.308563828369586, 33.407168061496989 ], [ 126.309841456605938, 33.396573985069658 ], [ 126.313669165599151, 33.394974917742324 ], [ 126.316967492583572, 33.390354963658609 ], [ 126.323302790665451, 33.387361480106179 ], [ 126.322990916663514, 33.378608407015626 ], [ 126.333723987008298, 33.366747840980231 ], [ 126.344491163871595, 33.359532101087737 ], [ 126.367700313134279, 33.348370983390538 ], [ 126.375310196821331, 33.346761405934551 ], [ 126.367470311857019, 33.341149175377069 ], [ 126.361215867469696, 33.34203462120329 ], [ 126.351975205825397, 33.340685055537421 ], [ 126.340236640098382, 33.343610190226613 ], [ 126.334802317352555, 33.336479056388498 ], [ 126.322572263424092, 33.325814167928876 ], [ 126.318332583867829, 33.32742602754432 ], [ 126.309319214238556, 33.325453366136443 ], [ 126.305946614416385, 33.326653549585224 ], [ 126.300174384774408, 33.322523318472619 ], [ 126.296322706986288, 33.321992053851318 ], [ 126.291200159982552, 33.327051021789181 ], [ 126.288497656241091, 33.335638817758429 ], [ 126.282141702964523, 33.345281038514521 ], [ 126.278570288288279, 33.34647732209401 ], [ 126.27414666509145, 33.344540642168255 ], [ 126.271661801743392, 33.342182545189573 ], [ 126.27010076551511, 33.337032652729725 ], [ 126.265432323700352, 33.342037734023933 ], [ 126.26363916114542, 33.341656117379394 ], [ 126.259687915424138, 33.344940341169895 ], [ 126.251610620304618, 33.341219710599795 ], [ 126.246279855095594, 33.347725472511023 ], [ 126.237958788868198, 33.34278058518975 ], [ 126.23538676832483, 33.351976362700277 ], [ 126.231649911682226, 33.352933474146219 ], [ 126.230124826089224, 33.351784285701029 ], [ 126.227746818342396, 33.360533647695661 ], [ 126.224653719442429, 33.364301500829036 ], [ 126.2160418145411, 33.367136912313534 ], [ 126.215374533157032, 33.374272236628634 ], [ 126.213011947499965, 33.373865499044676 ], [ 126.216513523863227, 33.378918997633463 ], [ 126.214521316449193, 33.38073404070758 ], [ 126.221521977124283, 33.386513872426306 ], [ 126.222054121504769, 33.390628958190362 ], [ 126.228796807221556, 33.389766382909215 ], [ 126.227458081579044, 33.39143688135038 ], [ 126.227539865208556, 33.391822214171434 ], [ 126.229792589888831, 33.389173267462901 ], [ 126.23457876638156, 33.389323200447599 ], [ 126.238005230845857, 33.393995604789218 ], [ 126.24211406251149, 33.395513734115845 ], [ 126.243235285780145, 33.398846180334559 ], [ 126.250386587746306, 33.401130604527552 ], [ 126.251477010095428, 33.404291777585108 ], [ 126.250196523662467, 33.404799449919381 ], [ 126.252547032669469, 33.405729873064246 ], [ 126.252388509969308, 33.407688940539011 ], [ 126.258912080283338, 33.409030376182145 ], [ 126.253993011692529, 33.412707431791858 ], [ 126.253127983051499, 33.415672868826633 ], [ 126.255863628298542, 33.412665465366587 ], [ 126.260031881731308, 33.416794527188756 ], [ 126.26490760363663, 33.415105040393058 ], [ 126.261791136964519, 33.419951423575917 ], [ 126.260225891440228, 33.419604403879788 ], [ 126.26244943797434, 33.420370885568367 ], [ 126.262081583570207, 33.422463546917463 ], [ 126.258605297625252, 33.422395592826966 ], [ 126.258462875575901, 33.417947137163146 ], [ 126.257701908818618, 33.417159175179549 ], [ 126.2518962317518, 33.417130594852999 ], [ 126.257661294876883, 33.417252110253116 ], [ 126.25775778510635, 33.420467351604913 ], [ 126.258129165578808, 33.421775392103619 ], [ 126.258852136714637, 33.422794442608115 ], [ 126.264217245672725, 33.423688342620927 ], [ 126.262977549490415, 33.423789952989701 ], [ 126.264322765893084, 33.425117048125117 ], [ 126.263826224274339, 33.427951590091553 ], [ 126.261801298389472, 33.428898779840466 ], [ 126.263557132192204, 33.430819235344828 ], [ 126.262225725016094, 33.433996511327152 ], [ 126.263347526317261, 33.435817504318841 ], [ 126.271426926516767, 33.437343656421646 ], [ 126.272388751297299, 33.435857197353222 ], [ 126.272128383755756, 33.435284731710205 ], [ 126.272371871071684, 33.434993933647576 ], [ 126.27245245542359, 33.434916799173187 ], [ 126.272535425751798, 33.434871955262814 ] ] ], [ [ [ 126.221843986657262, 33.407541693946108 ], [ 126.221968187051104, 33.40770330714215 ], [ 126.222062068154798, 33.4075669286728 ], [ 126.221843986657262, 33.407541693946108 ] ] ], [ [ [ 126.222728045237744, 33.406163687819472 ], [ 126.224135594908347, 33.411258419457454 ], [ 126.228392106190597, 33.412031402014897 ], [ 126.231914588768859, 33.40955635940287 ], [ 126.231612625350991, 33.40672187982743 ], [ 126.229259567244483, 33.40492603242555 ], [ 126.222728045237744, 33.406163687819472 ] ] ], [ [ [ 126.222454053655341, 33.409862172510437 ], [ 126.222590997659466, 33.410040607408028 ], [ 126.222639419214886, 33.409984842036415 ], [ 126.222454053655341, 33.409862172510437 ] ] ], [ [ [ 126.272503620716094, 33.434964216474697 ], [ 126.272447519025036, 33.434990194913027 ], [ 126.272487384581623, 33.434992367592741 ], [ 126.272503620716094, 33.434964216474697 ] ] ], [ [ [ 126.291428822644392, 33.446745545355157 ], [ 126.291492665211663, 33.446577531612007 ], [ 126.291311748053175, 33.446605499699231 ], [ 126.291428822644392, 33.446745545355157 ] ] ], [ [ [ 126.291573482359581, 33.446645396387744 ], [ 126.291545040554496, 33.44669372060401 ], [ 126.292927773286706, 33.447202798304168 ], [ 126.291573482359581, 33.446645396387744 ] ] ] ] } },
{ "type": "Feature", "properties": { "emd_cd": "50110253", "emd_nm": "애월읍" }, "geometry": { "type": "MultiPolygon", "coordinates": [ [ [ [ 126.297879323518913, 33.446603720701624 ], [ 126.30634944592984, 33.452177039549397 ], [ 126.310914156013752, 33.460005407445443 ], [ 126.308422659008571, 33.465835781590279 ], [ 126.31087981750315, 33.46616184349471 ], [ 126.310375326516649, 33.467160146287767 ], [ 126.313949768396739, 33.469215666790731 ], [ 126.319056746875646, 33.467054916866708 ], [ 126.327262053504327, 33.470161797013994 ], [ 126.320935942150129, 33.46709431213651 ], [ 126.320655315145686, 33.465096456776365 ], [ 126.327769035634944, 33.468825805456987 ], [ 126.32894002454654, 33.467714536442003 ], [ 126.331899552146083, 33.469140968435063 ], [ 126.334861351975178, 33.466519469826736 ], [ 126.338273309950651, 33.467065263393273 ], [ 126.340523910435067, 33.470387652543849 ], [ 126.34734735029275, 33.473596359285231 ], [ 126.351295200552258, 33.472790023638403 ], [ 126.353775867002355, 33.477659816655219 ], [ 126.35954869106672, 33.479647057548 ], [ 126.364288672933952, 33.478219694193406 ], [ 126.36907666077262, 33.478272772595297 ], [ 126.377325805920535, 33.484296718066652 ], [ 126.380344372429704, 33.484205799546082 ], [ 126.385507572828701, 33.4889841336553 ], [ 126.390644334526272, 33.489346943123138 ], [ 126.392847535899961, 33.485279392682877 ], [ 126.399359879074836, 33.483039738505269 ], [ 126.403561996423193, 33.485882997525458 ], [ 126.405049067698357, 33.484166063623377 ], [ 126.407663841795184, 33.485150288957911 ], [ 126.408626306176814, 33.486205186205517 ], [ 126.408085854846291, 33.485999013776478 ], [ 126.406319249376551, 33.486870904540908 ], [ 126.408471936594282, 33.486623765202346 ], [ 126.408260157637827, 33.488195374344869 ], [ 126.410919664686105, 33.490159982463986 ], [ 126.418218955087696, 33.489048324438578 ], [ 126.420909176977801, 33.490732300218141 ], [ 126.420097315705618, 33.48664775590003 ], [ 126.421526232279419, 33.484050773076596 ], [ 126.419102679358502, 33.479720694731149 ], [ 126.421921476614301, 33.47424095830965 ], [ 126.432126329417201, 33.473066680305863 ], [ 126.443223941163964, 33.477476849374355 ], [ 126.445463401443831, 33.470400363766899 ], [ 126.445255378889371, 33.46552878949678 ], [ 126.447822016556856, 33.461731702214315 ], [ 126.445955203222027, 33.454762972684847 ], [ 126.446555570665851, 33.449337444541364 ], [ 126.450648468940159, 33.441559876375131 ], [ 126.448837293496851, 33.436447381475773 ], [ 126.446182310096916, 33.434523174743994 ], [ 126.44833908078995, 33.42951296164884 ], [ 126.449530198959977, 33.412679567068622 ], [ 126.452174606729429, 33.407962622000511 ], [ 126.457782568824953, 33.403461420015972 ], [ 126.459327824864772, 33.396076194478717 ], [ 126.472498617674006, 33.391201552626129 ], [ 126.476230167376258, 33.388125832708731 ], [ 126.483482058996614, 33.387997503368126 ], [ 126.491722480331092, 33.390366023234442 ], [ 126.503188388226619, 33.383528201656091 ], [ 126.510411266394215, 33.383305359879188 ], [ 126.52131199662881, 33.372766940925402 ], [ 126.524312516655144, 33.371599025052895 ], [ 126.52680625152334, 33.368929330556249 ], [ 126.525676079024748, 33.367026608234021 ], [ 126.530038467928279, 33.362671392790475 ], [ 126.517470975386118, 33.360384828799489 ], [ 126.511103643221915, 33.361039880890758 ], [ 126.506634943526478, 33.357995965180152 ], [ 126.499091408338572, 33.359846759255063 ], [ 126.490448492163878, 33.354954397358753 ], [ 126.487421334201485, 33.355124688792699 ], [ 126.482748315707909, 33.359678461697925 ], [ 126.474681248060804, 33.356016787143624 ], [ 126.472549747582462, 33.358369025551447 ], [ 126.467285540048536, 33.359868081069948 ], [ 126.44558152927624, 33.358886916888572 ], [ 126.437021519407296, 33.354802505440858 ], [ 126.437604320100405, 33.348702262811926 ], [ 126.432748336458559, 33.344931449132375 ], [ 126.432589701421705, 33.341121384965255 ], [ 126.409102749601644, 33.342124515944718 ], [ 126.400687230248508, 33.344716207208975 ], [ 126.391644470911359, 33.343558231564053 ], [ 126.367700313134279, 33.34837098339046 ], [ 126.35473695544438, 33.353927095940264 ], [ 126.334439760223205, 33.366139017648131 ], [ 126.322990916663485, 33.378608407015655 ], [ 126.323302790665451, 33.387361480106193 ], [ 126.316967492583572, 33.390354963658609 ], [ 126.313669165599123, 33.39497491774231 ], [ 126.309841456605938, 33.396573985069651 ], [ 126.308563828369586, 33.407168061496989 ], [ 126.306419046105489, 33.408022385198073 ], [ 126.302126843208313, 33.416860064170045 ], [ 126.303548614170595, 33.427571679585135 ], [ 126.299947777526612, 33.432883841928899 ], [ 126.301159912970348, 33.436586974388618 ], [ 126.29880730015266, 33.439916927573137 ], [ 126.299827170116274, 33.445115217852702 ], [ 126.297879323518913, 33.446603720701624 ] ] ], [ [ [ 126.363542910088611, 33.478546432811576 ], [ 126.363404620439297, 33.478691416686651 ], [ 126.363657628375577, 33.478617139054769 ], [ 126.363542910088611, 33.478546432811576 ] ] ] ] } },
{ "type": "Feature", "properties": { "emd_cd": "50110256", "emd_nm": "구좌읍" }, "geometry": { "type": "MultiPolygon", "coordinates": [ [ [ [ 126.704675894146632, 33.548270529880639 ], [ 126.705721324677341, 33.553152029361009 ], [ 126.71392741406747, 33.555299450652107 ], [ 126.714466031255895, 33.55354254917814 ], [ 126.716316379760258, 33.553425288726224 ], [ 126.719504698425027, 33.557519459114125 ], [ 126.725945017773014, 33.557953191688483 ], [ 126.727558547802644, 33.560032910731707 ], [ 126.730254929211029, 33.560361234351532 ], [ 126.735701496352405, 33.557533886864334 ], [ 126.737722034199905, 33.560448216537822 ], [ 126.740894581551245, 33.561102551423879 ], [ 126.736696879536026, 33.558871793620305 ], [ 126.738366088483929, 33.55467362427131 ], [ 126.743950551220152, 33.557355234876354 ], [ 126.745507020671667, 33.55565357509883 ], [ 126.743994284820502, 33.55787017786065 ], [ 126.742453711381629, 33.556974546540729 ], [ 126.741467355979495, 33.558611883087003 ], [ 126.739351762230854, 33.557579045399947 ], [ 126.741181697480542, 33.558620632573792 ], [ 126.740257620641202, 33.560103710892008 ], [ 126.742370112948763, 33.557732869005974 ], [ 126.74939607409172, 33.558853408785744 ], [ 126.752746686463666, 33.557717797660324 ], [ 126.753800280252889, 33.559237652061476 ], [ 126.757304614315132, 33.557658985769947 ], [ 126.755922995055656, 33.557215089125307 ], [ 126.760192466358347, 33.557144986971352 ], [ 126.762256128918125, 33.559739470578201 ], [ 126.7616630780268, 33.562278747447259 ], [ 126.765770019414376, 33.56573364570869 ], [ 126.768810255461062, 33.563970072861913 ], [ 126.772081181606779, 33.565077184510876 ], [ 126.776512626507042, 33.563939276825039 ], [ 126.774681397914406, 33.561117526506898 ], [ 126.778268478981857, 33.563472554626074 ], [ 126.776597715977061, 33.563926926311822 ], [ 126.783614996162953, 33.564610925972687 ], [ 126.784057133189961, 33.561982571280346 ], [ 126.793416577464995, 33.559527994074806 ], [ 126.794951065749359, 33.556576593638553 ], [ 126.798212995908543, 33.555027999221863 ], [ 126.802440565583595, 33.557854153649764 ], [ 126.809840162652833, 33.555618175254075 ], [ 126.806775215051388, 33.557627422276859 ], [ 126.81271054060413, 33.559269811660982 ], [ 126.814674984033445, 33.560377227961936 ], [ 126.814032758762806, 33.561530184386555 ], [ 126.824827070598801, 33.558136567507162 ], [ 126.826470908537644, 33.558866655157608 ], [ 126.82522307870444, 33.554657524086579 ], [ 126.829059417984666, 33.5505108877243 ], [ 126.827109309414382, 33.547752813555654 ], [ 126.827744567740439, 33.543855780560762 ], [ 126.830924634529524, 33.543199664574189 ], [ 126.831280255595402, 33.539917977033234 ], [ 126.834898985139489, 33.540787603019069 ], [ 126.83673098975764, 33.538046341593017 ], [ 126.840824307972653, 33.536646581795409 ], [ 126.840780224823192, 33.533138738115092 ], [ 126.842584227994337, 33.534171495959029 ], [ 126.844838576495576, 33.532608107015534 ], [ 126.851343535537737, 33.532327006711796 ], [ 126.851689362484038, 33.529606772893572 ], [ 126.85481740146848, 33.529396186225469 ], [ 126.855263410663298, 33.529789691327473 ], [ 126.857480103546379, 33.530567639841948 ], [ 126.85800028348595, 33.530549913612028 ], [ 126.854886888499252, 33.528178132309982 ], [ 126.856508741418821, 33.527437548920496 ], [ 126.85708380896267, 33.529199639595298 ], [ 126.858547468158903, 33.529978835400279 ], [ 126.856436700806015, 33.526650984976087 ], [ 126.860736540340142, 33.524697044496435 ], [ 126.864853619608382, 33.525471964608649 ], [ 126.866380038371105, 33.528902323982322 ], [ 126.881746528589005, 33.529244458792299 ], [ 126.88376938349208, 33.526726652453966 ], [ 126.891666968130309, 33.527794121145 ], [ 126.890930792000461, 33.52687803165913 ], [ 126.900496804723815, 33.521426492984219 ], [ 126.898483280063061, 33.52130511401301 ], [ 126.899997119347518, 33.519523778689518 ], [ 126.900545918317491, 33.521383274352353 ], [ 126.901714007305273, 33.519875261841499 ], [ 126.903678810958269, 33.521027156359203 ], [ 126.904723866216401, 33.519660514886411 ], [ 126.901249674537269, 33.519084096641222 ], [ 126.901171303535619, 33.515189132383696 ], [ 126.898364589726654, 33.513233536978021 ], [ 126.899630066886843, 33.509489758185076 ], [ 126.906546408546248, 33.510633837057739 ], [ 126.911544281388473, 33.508086559887488 ], [ 126.913611220108677, 33.502431533286575 ], [ 126.911395245870779, 33.499166909680355 ], [ 126.912613277195305, 33.49812075065482 ], [ 126.913626703336092, 33.496268448932362 ], [ 126.912573294283845, 33.497724495698542 ], [ 126.910872988438086, 33.496551816220183 ], [ 126.912321053602867, 33.495585943596595 ], [ 126.909383949931808, 33.49616911747556 ], [ 126.910642218793981, 33.488685096521777 ], [ 126.907564725606335, 33.48750792828411 ], [ 126.904459609261067, 33.488591446483532 ], [ 126.901782721194564, 33.482536806731375 ], [ 126.898015787287321, 33.483081067840473 ], [ 126.889480675057285, 33.480876037296269 ], [ 126.887895550784108, 33.478853175958022 ], [ 126.884487579060519, 33.480704047178101 ], [ 126.881455342454444, 33.477104161462982 ], [ 126.87256649265511, 33.474931541016666 ], [ 126.872738894619459, 33.472311966949633 ], [ 126.870356790443282, 33.472796708010939 ], [ 126.866244689697055, 33.468584337942588 ], [ 126.857736644327019, 33.46705804052263 ], [ 126.854692172020805, 33.463313620212872 ], [ 126.846312959049442, 33.462005194908599 ], [ 126.829501110638944, 33.4536417055862 ], [ 126.823939120360819, 33.453022502302716 ], [ 126.822121652313839, 33.446705724836143 ], [ 126.818212880108007, 33.447825209464902 ], [ 126.814424307529322, 33.445243369298929 ], [ 126.806857106089481, 33.444335192353378 ], [ 126.797031293015976, 33.440085023964798 ], [ 126.788562796735093, 33.441355284053593 ], [ 126.7834602001425, 33.434901782690609 ], [ 126.778478156718748, 33.433991881921983 ], [ 126.770030762182643, 33.426259229412061 ], [ 126.761283198017168, 33.421460513204529 ], [ 126.750580175301323, 33.419422756126643 ], [ 126.741404764716847, 33.420269215498145 ], [ 126.733425507735689, 33.424330500436874 ], [ 126.725673749764184, 33.434577432801127 ], [ 126.722266160187601, 33.439679218979727 ], [ 126.720251184010365, 33.450510228557945 ], [ 126.722751840351876, 33.455446189547615 ], [ 126.726680686539751, 33.457139816200652 ], [ 126.724089848426615, 33.466091211992143 ], [ 126.725985220771932, 33.475942077748527 ], [ 126.728771259030282, 33.478492640316482 ], [ 126.730461891773743, 33.483114103755263 ], [ 126.732240279242404, 33.483093896198163 ], [ 126.730038623057212, 33.486645235763042 ], [ 126.732973996050674, 33.491980531614487 ], [ 126.734492998294897, 33.506561422244182 ], [ 126.725706702159911, 33.51234440946326 ], [ 126.713729336035257, 33.525417736027997 ], [ 126.713092716705646, 33.528716010589406 ], [ 126.706273569134737, 33.535048875388583 ], [ 126.705476929459635, 33.540236798291261 ], [ 126.706687743711583, 33.543187712067287 ], [ 126.704675894146632, 33.548270529880639 ] ] ], [ [ [ 126.901201552908802, 33.522368079381884 ], [ 126.902007892944354, 33.522695151831577 ], [ 126.902483853403325, 33.522220923183752 ], [ 126.901201552908802, 33.522368079381884 ] ] ], [ [ [ 126.902374130412682, 33.523885768864076 ], [ 126.902937651035586, 33.523803649717941 ], [ 126.902554023747484, 33.52364308551801 ], [ 126.902374130412682, 33.523885768864076 ] ] ], [ [ [ 126.744297250519239, 33.557118242394985 ], [ 126.744445121950349, 33.557035765474339 ], [ 126.744314759253726, 33.557020438362407 ], [ 126.744297250519239, 33.557118242394985 ] ] ] ] } },
{ "type": "Feature", "properties": { "emd_cd": "50110259", "emd_nm": "조천읍" }, "geometry": { "type": "MultiPolygon", "coordinates": [ [ [ [ 126.559685003790634, 33.373159332593204 ], [ 126.560911015236613, 33.380438554494901 ], [ 126.565434061283185, 33.379198869721421 ], [ 126.57210618948406, 33.380886245413258 ], [ 126.584740833495559, 33.389874341392179 ], [ 126.595799424006046, 33.392405112237832 ], [ 126.597862578442985, 33.39431702287483 ], [ 126.603010979253654, 33.393445796583961 ], [ 126.60653368903867, 33.394981148361936 ], [ 126.611451573825519, 33.403117631916366 ], [ 126.61507413593749, 33.403205796314111 ], [ 126.615388018039766, 33.407563514201527 ], [ 126.622590516913675, 33.419031768462929 ], [ 126.631948469721294, 33.426073349378036 ], [ 126.636736054464279, 33.427282499876831 ], [ 126.642754896999662, 33.441453382873 ], [ 126.639958436009664, 33.444810331306854 ], [ 126.641149044220427, 33.462540904116018 ], [ 126.637441207815939, 33.4668121456438 ], [ 126.636714008638094, 33.476642288500642 ], [ 126.627846140451837, 33.489607196865286 ], [ 126.623571177112254, 33.493009729394927 ], [ 126.620100066673714, 33.499964175913277 ], [ 126.619448113328019, 33.510567159113272 ], [ 126.621090593548701, 33.513638206054367 ], [ 126.600298340776106, 33.520198230493861 ], [ 126.598943090814302, 33.527796242811519 ], [ 126.60164578786258, 33.529331832670962 ], [ 126.600245989261779, 33.531373784253155 ], [ 126.602920937277588, 33.531714707294157 ], [ 126.603091141549214, 33.534778279200751 ], [ 126.604486464549922, 33.535348729418352 ], [ 126.612112046632873, 33.535656128328533 ], [ 126.613164731258252, 33.538131520426518 ], [ 126.619264439474847, 33.537553233801205 ], [ 126.622635481629615, 33.539442937634817 ], [ 126.626162356432445, 33.536213873382643 ], [ 126.627908934508824, 33.540232532030487 ], [ 126.628394634893411, 33.537221143716827 ], [ 126.63531903357628, 33.535707985962304 ], [ 126.633805031467134, 33.538488298942703 ], [ 126.636218535617459, 33.539355246418815 ], [ 126.634829151019659, 33.540695246444194 ], [ 126.636223032878121, 33.540290620513083 ], [ 126.636504297141187, 33.5410645154844 ], [ 126.632694232521658, 33.542185579726109 ], [ 126.634475333019466, 33.542282064843228 ], [ 126.635096994156953, 33.545207363212462 ], [ 126.639277410916961, 33.54579416640594 ], [ 126.640201278950187, 33.548462792433682 ], [ 126.639617041691722, 33.547985265843465 ], [ 126.638541901520838, 33.548945834781463 ], [ 126.640515174391609, 33.548703565579686 ], [ 126.640832483170442, 33.550544455833212 ], [ 126.643827770827073, 33.551822177327836 ], [ 126.644650219358709, 33.555518309909765 ], [ 126.650244794753291, 33.553465279677596 ], [ 126.647807376193356, 33.549125519011909 ], [ 126.651736531435148, 33.547513161277983 ], [ 126.65199657509369, 33.548158024918237 ], [ 126.651039952623123, 33.548885372986092 ], [ 126.652934200808915, 33.55241735414193 ], [ 126.652768045825596, 33.550938357094388 ], [ 126.656196451411319, 33.54975992293533 ], [ 126.654477123455976, 33.547802741126674 ], [ 126.656466403456747, 33.547638943757505 ], [ 126.656625056132995, 33.547962983154228 ], [ 126.655818106721384, 33.548485854226655 ], [ 126.655743008283508, 33.548884858268806 ], [ 126.661062469068625, 33.545301420005615 ], [ 126.662090936478307, 33.546108548263376 ], [ 126.66536861415797, 33.542769619112065 ], [ 126.674516181716029, 33.544719424193957 ], [ 126.674656367409682, 33.549220754692819 ], [ 126.677777643508193, 33.552442243984501 ], [ 126.680474187467851, 33.552301870242658 ], [ 126.684262673273039, 33.54773991389564 ], [ 126.68458772976166, 33.549499256974613 ], [ 126.690248462631445, 33.548719427436744 ], [ 126.690924585287149, 33.551169043704157 ], [ 126.695207849765112, 33.550233194365759 ], [ 126.698005999247314, 33.552625827138421 ], [ 126.705721324677313, 33.553152029361009 ], [ 126.704609733369566, 33.548064114915313 ], [ 126.706687743711583, 33.543187712067279 ], [ 126.705476929459635, 33.540236798291261 ], [ 126.706273569134737, 33.535048875388568 ], [ 126.713092716705631, 33.528716010589406 ], [ 126.713729336035257, 33.525417736027997 ], [ 126.725706702159911, 33.51234440946326 ], [ 126.734492998294925, 33.506561422244182 ], [ 126.732973996050674, 33.491980531614487 ], [ 126.730038623057212, 33.486645235763042 ], [ 126.732240279242404, 33.483093896198156 ], [ 126.730461891773743, 33.483114103755277 ], [ 126.728771259030253, 33.478492640316468 ], [ 126.725985220771932, 33.475942077748542 ], [ 126.724089848426615, 33.466091211992143 ], [ 126.72668068653978, 33.457139816200666 ], [ 126.722751840351876, 33.455446189547615 ], [ 126.720263262508638, 33.452000525024495 ], [ 126.722266160187601, 33.439679218979734 ], [ 126.731825317345411, 33.426721937642284 ], [ 126.717284609744326, 33.421884989160226 ], [ 126.709058276524317, 33.421897174069763 ], [ 126.701421039317083, 33.419886311483943 ], [ 126.687728287536856, 33.413284720194397 ], [ 126.669431805741155, 33.400385401957529 ], [ 126.66046356185889, 33.401958884917647 ], [ 126.654970647286987, 33.399423200586519 ], [ 126.652670447614298, 33.394671681610888 ], [ 126.630779073816342, 33.393086015250525 ], [ 126.626334675530146, 33.390190069265344 ], [ 126.623694627135748, 33.384352070141041 ], [ 126.621226191942327, 33.385166613667018 ], [ 126.617621276045298, 33.383192104716322 ], [ 126.606933946297659, 33.382237503568611 ], [ 126.593224579484399, 33.376153045009858 ], [ 126.591579190621587, 33.373774894917517 ], [ 126.564920965390201, 33.371743282351723 ], [ 126.559685003790634, 33.373159332593204 ] ] ], [ [ [ 126.651661853014858, 33.548022653488587 ], [ 126.651475490906947, 33.548217356635305 ], [ 126.65156681913551, 33.548244499977834 ], [ 126.651661853014858, 33.548022653488587 ] ] ], [ [ [ 126.695072096255359, 33.555528919493227 ], [ 126.696274610978662, 33.555435644014636 ], [ 126.695981877743449, 33.555198264698156 ], [ 126.695072096255359, 33.555528919493227 ] ] ], [ [ [ 126.694586536209357, 33.555715058156878 ], [ 126.694704282586031, 33.555847973319587 ], [ 126.694749712848434, 33.555720484200215 ], [ 126.694586536209357, 33.555715058156878 ] ] ], [ [ [ 126.694127081202524, 33.556404931318269 ], [ 126.694428852357575, 33.555773333633027 ], [ 126.69400516493333, 33.55585921361029 ], [ 126.694127081202524, 33.556404931318269 ] ] ], [ [ [ 126.693452962282009, 33.556713979618678 ], [ 126.693401000674598, 33.557024438077754 ], [ 126.69374609704029, 33.556986419549084 ], [ 126.693452962282009, 33.556713979618678 ] ] ], [ [ [ 126.694971133581561, 33.55759947994364 ], [ 126.695647794642269, 33.556877962660671 ], [ 126.694950479215947, 33.556827832666684 ], [ 126.694971133581561, 33.55759947994364 ] ] ], [ [ [ 126.695987985890213, 33.55812640020752 ], [ 126.696309796184124, 33.55710705691277 ], [ 126.695792327756649, 33.55715405182071 ], [ 126.695987985890213, 33.55812640020752 ] ] ], [ [ [ 126.69529375760105, 33.558110999848509 ], [ 126.695508813031182, 33.558189419393074 ], [ 126.695551506236185, 33.558041069562208 ], [ 126.69529375760105, 33.558110999848509 ] ] ], [ [ [ 126.695455188395556, 33.558509124832888 ], [ 126.695786745800334, 33.559308172457314 ], [ 126.696060412040296, 33.55902147586135 ], [ 126.695455188395556, 33.558509124832888 ] ] ] ] } },
{ "type": "Feature", "properties": { "emd_cd": "50110310", "emd_nm": "한경면" }, "geometry": { "type": "MultiPolygon", "coordinates": [ [ [ [ 126.150774215138014, 33.307690739624029 ], [ 126.150922912832073, 33.30773662944226 ], [ 126.150919902352712, 33.307612045348051 ], [ 126.150774215138014, 33.307690739624029 ] ] ], [ [ [ 126.152430241087316, 33.30844425199038 ], [ 126.15198147817982, 33.307685401544894 ], [ 126.15174399619157, 33.308416354934643 ], [ 126.152430241087316, 33.30844425199038 ] ] ], [ [ [ 126.150989013962771, 33.307994241940747 ], [ 126.150987654481611, 33.308688518957659 ], [ 126.151068228155097, 33.308023724999373 ], [ 126.150989013962771, 33.307994241940747 ] ] ], [ [ [ 126.150918871610287, 33.308823259459281 ], [ 126.150858134268717, 33.30876410526831 ], [ 126.150823351544858, 33.308820892667384 ], [ 126.150918871610287, 33.308823259459281 ] ] ], [ [ [ 126.150707254272717, 33.308816726016005 ], [ 126.150929128966609, 33.308930249040294 ], [ 126.150959714081594, 33.308847935962561 ], [ 126.150707254272717, 33.308816726016005 ] ] ], [ [ [ 126.147905174673269, 33.308825515614252 ], [ 126.147667289511006, 33.309265659739438 ], [ 126.148112829832669, 33.309138512522303 ], [ 126.147905174673269, 33.308825515614252 ] ] ], [ [ [ 126.149626525678656, 33.309143785230873 ], [ 126.149754374332673, 33.309066899496415 ], [ 126.149625985906724, 33.309070085699652 ], [ 126.149626525678656, 33.309143785230873 ] ] ], [ [ [ 126.1481309860865, 33.309277535869299 ], [ 126.148460511094839, 33.3096207877716 ], [ 126.148631146399481, 33.309489227055728 ], [ 126.1481309860865, 33.309277535869299 ] ] ], [ [ [ 126.145005561786348, 33.30986288571696 ], [ 126.145269474428588, 33.309689147053668 ], [ 126.145229629465717, 33.309622957445974 ], [ 126.145005561786348, 33.30986288571696 ] ] ], [ [ [ 126.144934396865963, 33.311620842827018 ], [ 126.151429220326278, 33.31328976626348 ], [ 126.153258427814649, 33.311853710480463 ], [ 126.149774897903299, 33.310038546618912 ], [ 126.144934396865963, 33.311620842827018 ] ] ], [ [ [ 126.159412866644345, 33.310639696582363 ], [ 126.159978361597695, 33.310857861744879 ], [ 126.160149177437006, 33.310695911784819 ], [ 126.159412866644345, 33.310639696582363 ] ] ], [ [ [ 126.160774681287251, 33.310642902897065 ], [ 126.161172454781166, 33.311308865226131 ], [ 126.162101634336011, 33.311327153753751 ], [ 126.160774681287251, 33.310642902897065 ] ] ], [ [ [ 126.164209543834872, 33.31108845930595 ], [ 126.165292161759652, 33.311170228748018 ], [ 126.165294100581789, 33.311115596453078 ], [ 126.164209543834872, 33.31108845930595 ] ] ], [ [ [ 126.162389105157857, 33.311819803007715 ], [ 126.162444899562985, 33.3116090185178 ], [ 126.162309503319506, 33.311831148458673 ], [ 126.162389105157857, 33.311819803007715 ] ] ], [ [ [ 126.159734317782707, 33.311599352757369 ], [ 126.160140457254485, 33.312063545234373 ], [ 126.160351660862602, 33.311900461987975 ], [ 126.159734317782707, 33.311599352757369 ] ] ], [ [ [ 126.161646032468894, 33.29226505629083 ], [ 126.167956874404126, 33.298838907595218 ], [ 126.163703002852884, 33.307965761963843 ], [ 126.163983298484283, 33.310501902459691 ], [ 126.16448207415695, 33.309415628553758 ], [ 126.164620403724427, 33.309685846913489 ], [ 126.165376715173167, 33.310314738335407 ], [ 126.164734629822348, 33.309173304951493 ], [ 126.166201529805605, 33.309921403418677 ], [ 126.166598694276658, 33.315390003072068 ], [ 126.168680524067668, 33.316435245994498 ], [ 126.166823136964425, 33.323324488608023 ], [ 126.162879045291703, 33.324597389834054 ], [ 126.163028830405281, 33.328671951459334 ], [ 126.165203033224586, 33.32900694794634 ], [ 126.16579249133963, 33.331607240814364 ], [ 126.161850090470267, 33.333851240931409 ], [ 126.167299772652882, 33.339093584970868 ], [ 126.16594185523094, 33.341704862704297 ], [ 126.168997808860851, 33.341503843028185 ], [ 126.172001191048153, 33.342689874269553 ], [ 126.169319377445248, 33.343588227162151 ], [ 126.169431627020842, 33.345581256794077 ], [ 126.17234004866873, 33.342939504639126 ], [ 126.175018410965791, 33.34324745704911 ], [ 126.179173329529974, 33.345803656212496 ], [ 126.177822006888903, 33.347762061629965 ], [ 126.177833481294201, 33.348573203904394 ], [ 126.178054520449535, 33.349553457475849 ], [ 126.17903582705884, 33.346094237535929 ], [ 126.18213760610189, 33.345395280161021 ], [ 126.181699092728905, 33.346298643060813 ], [ 126.180525117985582, 33.34661241288255 ], [ 126.181243359990077, 33.347605440283829 ], [ 126.179187489262418, 33.347402549907564 ], [ 126.18112201692108, 33.348767972899608 ], [ 126.180689027731788, 33.349085265332697 ], [ 126.180396026566768, 33.348732494772612 ], [ 126.179450203454252, 33.348859222481757 ], [ 126.179001060550618, 33.349143503206513 ], [ 126.178682638634044, 33.349103689924597 ], [ 126.179015910146376, 33.349188852106117 ], [ 126.180218425647766, 33.348796036388251 ], [ 126.180500466115461, 33.349600131684369 ], [ 126.180773826798458, 33.349275645492227 ], [ 126.181349953699041, 33.349403761635486 ], [ 126.179569059991607, 33.351732513615772 ], [ 126.181946408960812, 33.353995784673302 ], [ 126.181215440890739, 33.358509529286934 ], [ 126.183778942055582, 33.358105494123159 ], [ 126.184511441952154, 33.359767742711135 ], [ 126.187519912314528, 33.358497790039031 ], [ 126.191131114223168, 33.363199278675964 ], [ 126.195704160581059, 33.363723898363268 ], [ 126.197491933681619, 33.365938688677666 ], [ 126.200133435886343, 33.364986217104111 ], [ 126.205669928098743, 33.368810310109787 ], [ 126.206693511816141, 33.372403856897968 ], [ 126.213079492210355, 33.374998660954141 ], [ 126.213014333762288, 33.373852314997173 ], [ 126.215374533157032, 33.374272236628634 ], [ 126.216080510726457, 33.367098181511295 ], [ 126.224049542857017, 33.364682598307006 ], [ 126.227058443838345, 33.361492703501973 ], [ 126.230124826089224, 33.351784285701029 ], [ 126.231649911682226, 33.352933474146219 ], [ 126.23538676832483, 33.351976362700277 ], [ 126.237958788868198, 33.34278058518975 ], [ 126.246279855095594, 33.347725472511023 ], [ 126.251610620304618, 33.341219710599795 ], [ 126.259687915424138, 33.344940341169895 ], [ 126.26363916114542, 33.341656117379394 ], [ 126.265432323700352, 33.342037734023933 ], [ 126.27010076551511, 33.337032652729725 ], [ 126.271661801743392, 33.342182545189573 ], [ 126.27414666509145, 33.344540642168255 ], [ 126.278570288288279, 33.34647732209401 ], [ 126.282141702964523, 33.345281038514543 ], [ 126.288497656241091, 33.335638817758429 ], [ 126.291200159982552, 33.327051021789181 ], [ 126.296322706986288, 33.321992053851318 ], [ 126.292409193921003, 33.310493655873181 ], [ 126.287350121146574, 33.307101368468864 ], [ 126.28635249447855, 33.304337401536827 ], [ 126.27998660676711, 33.301859348276061 ], [ 126.279219788486529, 33.299484288805679 ], [ 126.253028926080759, 33.292805292181306 ], [ 126.246773169710764, 33.288354357057123 ], [ 126.24454826565298, 33.288501820256727 ], [ 126.242754002989457, 33.283164257359786 ], [ 126.244650975454547, 33.272966050668359 ], [ 126.229787557514271, 33.284674477855049 ], [ 126.192617538319112, 33.298229002943529 ], [ 126.191691798280146, 33.293674180799485 ], [ 126.180419658335452, 33.290091885895556 ], [ 126.174651840683609, 33.290724686406001 ], [ 126.17123884353559, 33.288615959236679 ], [ 126.170461431621149, 33.287180215843243 ], [ 126.17206516916535, 33.285528837733928 ], [ 126.168789200484241, 33.28251583887829 ], [ 126.162907462283499, 33.285546637326377 ], [ 126.161646032468894, 33.29226505629083 ] ] ], [ [ [ 126.1707622563179, 33.34244897679433 ], [ 126.170507918110019, 33.342171354377101 ], [ 126.170455657175424, 33.342233836254422 ], [ 126.1707622563179, 33.34244897679433 ] ] ], [ [ [ 126.169103682691073, 33.342547966368123 ], [ 126.169234243754346, 33.342720151424871 ], [ 126.16943998618035, 33.342455228446063 ], [ 126.169103682691073, 33.342547966368123 ] ] ], [ [ [ 126.175262893841747, 33.34375044630368 ], [ 126.174988774894871, 33.343738696232947 ], [ 126.175234168236202, 33.343826853956223 ], [ 126.175262893841747, 33.34375044630368 ] ] ], [ [ [ 126.181313198879721, 33.346180728644214 ], [ 126.181149410565695, 33.345876164184574 ], [ 126.181014175957301, 33.346127201139119 ], [ 126.181313198879721, 33.346180728644214 ] ] ] ] } },
{ "type": "Feature", "properties": { "emd_cd": "50110320", "emd_nm": "추자면" }, "geometry": { "type": "MultiPolygon", "coordinates": [ [ [ [ 126.298771323237489, 33.671191477017445 ], [ 126.299001252330342, 33.671648904395333 ], [ 126.299309322133567, 33.671429973514115 ], [ 126.298771323237489, 33.671191477017445 ] ] ], [ [ [ 126.305555081022661, 33.903116112937163 ], [ 126.303825523958281, 33.904524947495602 ], [ 126.304968062128935, 33.90412525196723 ], [ 126.305555081022661, 33.903116112937163 ] ] ], [ [ [ 126.310123762482192, 33.939880422012749 ], [ 126.311242337396124, 33.940835671935687 ], [ 126.312660457996657, 33.939765351471451 ], [ 126.310822315959555, 33.938896709668079 ], [ 126.311746073697407, 33.939715067788292 ], [ 126.310123762482192, 33.939880422012749 ] ] ], [ [ [ 126.303215522217286, 33.943326375474449 ], [ 126.303172479844562, 33.943110715659223 ], [ 126.30303825174893, 33.94316543330816 ], [ 126.303215522217286, 33.943326375474449 ] ] ], [ [ [ 126.28428431258402, 33.967492436624347 ], [ 126.29538023743325, 33.965617147799797 ], [ 126.300067171328223, 33.962418406636175 ], [ 126.300739951496297, 33.96129127072053 ], [ 126.296416923469579, 33.963747172892198 ], [ 126.294302771337584, 33.961479721109093 ], [ 126.301531168073382, 33.958725457843187 ], [ 126.300333676092109, 33.956640263641425 ], [ 126.302369108676075, 33.95406073368774 ], [ 126.30139975257282, 33.952720885533331 ], [ 126.2973415828626, 33.952930107574517 ], [ 126.286149434601271, 33.960692226698264 ], [ 126.289497403106537, 33.962769899002431 ], [ 126.283399474126895, 33.965749681729015 ], [ 126.28428431258402, 33.967492436624347 ] ] ], [ [ [ 126.282801797938461, 33.961480767081916 ], [ 126.285108060363115, 33.961484535818258 ], [ 126.285295140562766, 33.960569342866044 ], [ 126.283938499692596, 33.960501294713879 ], [ 126.282801797938461, 33.961480767081916 ] ] ], [ [ [ 126.281673101152734, 33.970851958702198 ], [ 126.283283913461887, 33.97055260258746 ], [ 126.284062321457611, 33.968213040949372 ], [ 126.281524633262109, 33.969316495934379 ], [ 126.281673101152734, 33.970851958702198 ] ] ], [ [ [ 126.305962087693658, 33.974250810827876 ], [ 126.308874305693962, 33.974798588653059 ], [ 126.309241046581874, 33.974179748822294 ], [ 126.305962087693658, 33.974250810827876 ] ] ], [ [ [ 126.31122609483657, 33.977296637338426 ], [ 126.312588791108311, 33.976365417103985 ], [ 126.313083636754911, 33.975960750285104 ], [ 126.311586080492077, 33.9761133112588 ], [ 126.31122609483657, 33.977296637338426 ] ] ], [ [ [ 126.293753421122091, 33.984073716666778 ], [ 126.295509742140865, 33.985007006401254 ], [ 126.296303213260657, 33.983763217049912 ], [ 126.29402635818758, 33.982094719450799 ], [ 126.293753421122091, 33.984073716666778 ] ] ], [ [ [ 126.298470665367148, 33.986967749923991 ], [ 126.299702149840073, 33.986304556188109 ], [ 126.297010212203872, 33.986282667164225 ], [ 126.298470665367148, 33.986967749923991 ] ] ], [ [ [ 126.246086252381502, 33.987282512968783 ], [ 126.250503388757991, 33.990111028080428 ], [ 126.252785218677388, 33.987491048919907 ], [ 126.250207854307362, 33.985201868165866 ], [ 126.249598495303246, 33.986844455907125 ], [ 126.246086252381502, 33.987282512968783 ] ] ], [ [ [ 126.300618878971534, 33.99810548804691 ], [ 126.300513941288671, 33.997814444521048 ], [ 126.300097704386914, 33.998155905261271 ], [ 126.300618878971534, 33.99810548804691 ] ] ], [ [ [ 126.311126503349684, 34.013202389627239 ], [ 126.311445923071162, 34.012849170971002 ], [ 126.310918321555931, 34.013101389070215 ], [ 126.311126503349684, 34.013202389627239 ] ] ], [ [ [ 126.312035121344152, 33.867747622606849 ], [ 126.312534655768061, 33.867174009696086 ], [ 126.311961410954709, 33.867153991269539 ], [ 126.312035121344152, 33.867747622606849 ] ] ], [ [ [ 126.344555334549284, 33.902924494772741 ], [ 126.343481571986757, 33.906251966302037 ], [ 126.344827900754026, 33.905681465412997 ], [ 126.344555334549284, 33.902924494772741 ] ] ], [ [ [ 126.320824410388909, 33.915430258381335 ], [ 126.327038032264994, 33.913443028332814 ], [ 126.323666189456404, 33.909222115620061 ], [ 126.323997899035874, 33.912447256102332 ], [ 126.320824410388909, 33.915430258381335 ] ] ], [ [ [ 126.330807440282982, 33.927689007968141 ], [ 126.331099696838592, 33.927650688983434 ], [ 126.330988609053676, 33.927509646464308 ], [ 126.330807440282982, 33.927689007968141 ] ] ], [ [ [ 126.305174991901936, 33.948612707484024 ], [ 126.304527275042247, 33.953125601332488 ], [ 126.310635797242597, 33.952132361779867 ], [ 126.313688700446448, 33.954922837556197 ], [ 126.32611204883365, 33.951016989691425 ], [ 126.331255720560236, 33.953594576110746 ], [ 126.33207368532716, 33.956109488074517 ], [ 126.337217442708194, 33.956888170282241 ], [ 126.341717159338771, 33.954744872650195 ], [ 126.337802839783905, 33.952754890833205 ], [ 126.341837550903051, 33.949714012933441 ], [ 126.341636374308365, 33.946594741307194 ], [ 126.335014674490552, 33.946414946174194 ], [ 126.333965045439555, 33.94403457997975 ], [ 126.330289246186993, 33.944811959261543 ], [ 126.329531306295081, 33.939113381604876 ], [ 126.330104309303991, 33.944449426987724 ], [ 126.328444083071389, 33.945097141967032 ], [ 126.32649140964719, 33.943228781718268 ], [ 126.326637153445844, 33.944898818721157 ], [ 126.324081005142986, 33.940981519449529 ], [ 126.32370862209963, 33.938687106661789 ], [ 126.328221145674945, 33.939480299271985 ], [ 126.324513643758507, 33.937683130387825 ], [ 126.324363561489761, 33.936103108475805 ], [ 126.325186427931314, 33.934514973069831 ], [ 126.329944095033895, 33.93448633036683 ], [ 126.33082354101839, 33.933221945506801 ], [ 126.329310406422266, 33.930613083358033 ], [ 126.321634416060704, 33.930279646204141 ], [ 126.319953266587447, 33.935965794555699 ], [ 126.317310966943865, 33.937706675457498 ], [ 126.318170462154512, 33.938920401357002 ], [ 126.316599005751229, 33.939496148616492 ], [ 126.316819931886101, 33.941439105708945 ], [ 126.312064887980739, 33.944437396320495 ], [ 126.313024858922589, 33.944760883061477 ], [ 126.311370063135513, 33.946981982604676 ], [ 126.305174991901936, 33.948612707484024 ] ] ], [ [ [ 126.33097986895217, 33.957464157597109 ], [ 126.331069458759956, 33.957310865966264 ], [ 126.330849124465928, 33.957355471682469 ], [ 126.33097986895217, 33.957464157597109 ] ] ], [ [ [ 126.330700422597573, 33.957749919448794 ], [ 126.330473367071065, 33.957524566892801 ], [ 126.330451202536665, 33.957719938432241 ], [ 126.330700422597573, 33.957749919448794 ] ] ], [ [ [ 126.315540290471077, 33.97538979398437 ], [ 126.3157602106685, 33.975113707143613 ], [ 126.315380936109847, 33.975289595927336 ], [ 126.315540290471077, 33.97538979398437 ] ] ], [ [ [ 126.347007009388491, 33.984940117165394 ], [ 126.34897132517203, 33.983645084368938 ], [ 126.353255597862471, 33.982230523185144 ], [ 126.351070607473616, 33.980733798102882 ], [ 126.34595913151044, 33.981843723943697 ], [ 126.347007009388491, 33.984940117165394 ] ] ], [ [ [ 126.341348566410957, 33.985243786878549 ], [ 126.341201809428611, 33.98543116198158 ], [ 126.341436061784549, 33.985316764314355 ], [ 126.341348566410957, 33.985243786878549 ] ] ], [ [ [ 126.323452640995171, 33.988246506815052 ], [ 126.323298514397365, 33.985409812002686 ], [ 126.321798198537309, 33.985874067947847 ], [ 126.318422323104301, 33.989168603889837 ], [ 126.323452640995171, 33.988246506815052 ] ] ], [ [ [ 126.320835139823544, 33.993263324538681 ], [ 126.320787580747236, 33.993168601913567 ], [ 126.320743359308366, 33.9932430468671 ], [ 126.320835139823544, 33.993263324538681 ] ] ], [ [ [ 126.330543120828722, 34.01066095409579 ], [ 126.335473655340181, 34.01273212603094 ], [ 126.338996154548198, 34.010683252651702 ], [ 126.344678229638944, 34.010653264394037 ], [ 126.352188468332656, 34.005341822655481 ], [ 126.347126523292701, 34.003859815586566 ], [ 126.343064229957704, 34.007750614428858 ], [ 126.330543120828722, 34.01066095409579 ] ] ], [ [ [ 126.327301607607893, 34.012678003071777 ], [ 126.327771475495013, 34.011202195929613 ], [ 126.327387961524153, 34.010862825353414 ], [ 126.327301607607893, 34.012678003071777 ] ] ], [ [ [ 126.358622999119149, 33.728596252013119 ], [ 126.356845568884864, 33.7305313768654 ], [ 126.359299468475257, 33.729312955839262 ], [ 126.358622999119149, 33.728596252013119 ] ] ], [ [ [ 126.635983361293071, 33.921897539054669 ], [ 126.637153011677754, 33.921229011041007 ], [ 126.642247653927271, 33.921217980572756 ], [ 126.641317548625125, 33.919461749589487 ], [ 126.638100390778348, 33.918652265291797 ], [ 126.63622869011256, 33.91965235324512 ], [ 126.635983361293071, 33.921897539054669 ] ] ], [ [ [ 126.399210113093588, 33.920749934057298 ], [ 126.39982192229516, 33.921361178993045 ], [ 126.399418737148849, 33.920571452333874 ], [ 126.399210113093588, 33.920749934057298 ] ] ], [ [ [ 126.382353032151457, 33.952689972238687 ], [ 126.382843844994824, 33.952926237819668 ], [ 126.382896663018883, 33.952741701878914 ], [ 126.382353032151457, 33.952689972238687 ] ] ], [ [ [ 126.377993705577765, 33.96408483007707 ], [ 126.379378641090014, 33.967199942124132 ], [ 126.380477002570629, 33.96509051442726 ], [ 126.377993705577765, 33.96408483007707 ] ] ], [ [ [ 126.379698147288977, 33.991025753862189 ], [ 126.381067173825429, 33.990912609624289 ], [ 126.381124840905287, 33.990725999678993 ], [ 126.379698147288977, 33.991025753862189 ] ] ], [ [ [ 126.362282062764606, 33.990930736204177 ], [ 126.362428610473899, 33.991168458389772 ], [ 126.362768445336229, 33.991025639020677 ], [ 126.362282062764606, 33.990930736204177 ] ] ], [ [ [ 126.379517951795421, 33.992027933078177 ], [ 126.378777618722282, 33.99098434483291 ], [ 126.37767810091097, 33.992003862694702 ], [ 126.378266162089076, 33.992262627040965 ], [ 126.379517951795421, 33.992027933078177 ] ] ], [ [ [ 126.37095254407177, 33.992392978982409 ], [ 126.37358348728759, 33.992097845375049 ], [ 126.372194116630837, 33.991713341325436 ], [ 126.37095254407177, 33.992392978982409 ] ] ], [ [ [ 126.376389100212378, 33.992563360405818 ], [ 126.376211601066956, 33.992114238095503 ], [ 126.374881626139683, 33.992688179257037 ], [ 126.376389100212378, 33.992563360405818 ] ] ], [ [ [ 126.364168689314695, 33.992557481990112 ], [ 126.363738619809851, 33.99238429217997 ], [ 126.363578205079392, 33.992589446000736 ], [ 126.364168689314695, 33.992557481990112 ] ] ], [ [ [ 126.391433277691519, 33.99532362372689 ], [ 126.393971039371863, 33.994166787109386 ], [ 126.392033907931591, 33.993862658695335 ], [ 126.391433277691519, 33.99532362372689 ] ] ], [ [ [ 126.365238622002991, 33.99697106070613 ], [ 126.365519091331635, 33.99619560151568 ], [ 126.364488347677508, 33.997120975986739 ], [ 126.365238622002991, 33.99697106070613 ] ] ], [ [ [ 126.358149791904111, 34.00672438483187 ], [ 126.360006573972726, 34.005813120902054 ], [ 126.358426708949082, 34.005416280184001 ], [ 126.358149791904111, 34.00672438483187 ] ] ] ] } },
{ "type": "Feature", "properties": { "emd_cd": "50110330", "emd_nm": "우도면" }, "geometry": { "type": "MultiPolygon", "coordinates": [ [ [ [ 126.952502483196142, 33.524726997313088 ], [ 126.957380997920311, 33.522705011162202 ], [ 126.958071288988421, 33.520498279571342 ], [ 126.961559951511447, 33.518444330255655 ], [ 126.959170123269644, 33.518195807256973 ], [ 126.957848402959669, 33.516249241965028 ], [ 126.958802907449723, 33.512450752265998 ], [ 126.965039362900825, 33.513303991187982 ], [ 126.968169785843088, 33.515681897475467 ], [ 126.969884282872059, 33.515046312598606 ], [ 126.965042292245656, 33.513248309324418 ], [ 126.97042798936161, 33.49916458658992 ], [ 126.968609564872452, 33.496992478630006 ], [ 126.96608647974935, 33.49695573096654 ], [ 126.966244770210494, 33.490736439719669 ], [ 126.960833618704811, 33.491376403938354 ], [ 126.95929768860799, 33.493185794055584 ], [ 126.956394404060674, 33.491227027894851 ], [ 126.951554673561077, 33.49262562582804 ], [ 126.949995499200824, 33.491684781241183 ], [ 126.950645315282273, 33.493870070922924 ], [ 126.943582495150267, 33.495042919280607 ], [ 126.944615545046716, 33.497953809255421 ], [ 126.941287074030257, 33.506625704027236 ], [ 126.943558026590324, 33.508041168196719 ], [ 126.944560439483553, 33.51277598122477 ], [ 126.949290831615414, 33.514959747505465 ], [ 126.948476928961824, 33.517369599499979 ], [ 126.949141183781236, 33.518190163958479 ], [ 126.950922659418595, 33.517664278949887 ], [ 126.947817271260888, 33.520184076740442 ], [ 126.94842638908797, 33.522836476855993 ], [ 126.952502483196142, 33.524726997313088 ] ] ] ] } }
]
}
