{
"type": "FeatureCollection",
"name": "50130",
"crs": { "type": "name", "properties": { "name": "urn:ogc:def:crs:OGC:1.3:CRS84" } },
"features": [
{ "type": "Feature", "properties": { "emd_cd": "50130101", "emd_nm": "서귀동" }, "geometry": { "type": "MultiPolygon", "coordinates": [ [ [ [ 126.563424817158023, 33.227152148963803 ], [ 126.567223134549735, 33.227427545929118 ], [ 126.56831814902614, 33.225272300495725 ], [ 126.564589672909648, 33.225551612817242 ], [ 126.563424817158023, 33.227152148963803 ] ] ], [ [ [ 126.567862150058701, 33.227809666696501 ], [ 126.568303661703226, 33.227461398853158 ], [ 126.567803583027541, 33.227788472685013 ], [ 126.567862150058701, 33.227809666696501 ] ] ], [ [ [ 126.558761794799111, 33.236373449186402 ], [ 126.562788194770292, 33.238192759567632 ], [ 126.564074277561375, 33.234975597474005 ], [ 126.558761794799111, 33.236373449186402 ] ] ], [ [ [ 126.554469454267306, 33.252342287825506 ], [ 126.565766997919582, 33.254241331604945 ], [ 126.566475684732808, 33.251534262883226 ], [ 126.571839554114817, 33.248040831249668 ], [ 126.57141435014664, 33.244656113911773 ], [ 126.566204567199932, 33.240793222923216 ], [ 126.570890373379939, 33.235542302918532 ], [ 126.567414346556646, 33.232842218451985 ], [ 126.567297782747033, 33.232948050776123 ], [ 126.570222713373539, 33.235729504250635 ], [ 126.569252260426495, 33.23669242176053 ], [ 126.567368290340383, 33.23535276067166 ], [ 126.568461704030071, 33.237189500103874 ], [ 126.567420976255605, 33.238227354168743 ], [ 126.565595007660761, 33.237635237591974 ], [ 126.561755441065415, 33.239896256613321 ], [ 126.560521022657682, 33.244896722503981 ], [ 126.554869149498671, 33.24627336349694 ], [ 126.554971353411887, 33.249208001009066 ], [ 126.556724593095581, 33.250631267395256 ], [ 126.554469454267306, 33.252342287825506 ] ] ] ] } },
{ "type": "Feature", "properties": { "emd_cd": "50130102", "emd_nm": "법환동" }, "geometry": { "type": "MultiPolygon", "coordinates": [ [ [ [ 126.5142288322524, 33.217440770833932 ], [ 126.51400830368037, 33.217856405647922 ], [ 126.514146458866009, 33.218167142911639 ], [ 126.5142288322524, 33.217440770833932 ] ] ], [ [ [ 126.515719645547961, 33.216774406585664 ], [ 126.51633079552785, 33.220050747714488 ], [ 126.518744692514929, 33.217340604942777 ], [ 126.515719645547961, 33.216774406585664 ] ] ], [ [ [ 126.518139662309764, 33.237454807539656 ], [ 126.518214123143366, 33.236871420178971 ], [ 126.518076605831382, 33.237445257810833 ], [ 126.518139662309764, 33.237454807539656 ] ] ], [ [ [ 126.522517751711035, 33.240973164563378 ], [ 126.520053440307393, 33.241047478243431 ], [ 126.512802080138655, 33.233329830965936 ], [ 126.508177074705188, 33.230874613314121 ], [ 126.505681196527703, 33.231406986558852 ], [ 126.509184971393864, 33.239504809664545 ], [ 126.502574354933714, 33.243077277455328 ], [ 126.501937339995592, 33.245263278615724 ], [ 126.505416698076147, 33.245892495130256 ], [ 126.50819061600933, 33.249536157753155 ], [ 126.509546101369594, 33.255074426345878 ], [ 126.50760949566174, 33.256282050187501 ], [ 126.510333926945933, 33.2571395505718 ], [ 126.51190830977977, 33.255492631266186 ], [ 126.51055146372957, 33.251053101108198 ], [ 126.514357208693724, 33.250133888586312 ], [ 126.513713093374108, 33.248308551734254 ], [ 126.522699497556303, 33.247293652400742 ], [ 126.521178238803671, 33.244740815981885 ], [ 126.522517751711035, 33.240973164563378 ] ] ] ] } },
{ "type": "Feature", "properties": { "emd_cd": "50130103", "emd_nm": "서호동" }, "geometry": { "type": "MultiPolygon", "coordinates": [ [ [ [ 126.512012804470345, 33.25520903122819 ], [ 126.507319509556496, 33.267189936132851 ], [ 126.510275072242422, 33.274750092702703 ], [ 126.507840873891013, 33.282690807474523 ], [ 126.510903732860839, 33.286429472110839 ], [ 126.511205063522425, 33.294722091317013 ], [ 126.51365669731122, 33.303820292832036 ], [ 126.516508764758058, 33.308128950473957 ], [ 126.514321231700492, 33.317823033024645 ], [ 126.520737649150249, 33.329032922298467 ], [ 126.522460779451791, 33.336788149864503 ], [ 126.515985093340973, 33.355988449765533 ], [ 126.51966821261955, 33.36068167009396 ], [ 126.523896387539097, 33.361775313988161 ], [ 126.519906606484554, 33.351907624539535 ], [ 126.522653586998587, 33.347070810441345 ], [ 126.523849021831481, 33.338686049294353 ], [ 126.52280854992371, 33.332969540448936 ], [ 126.524010938644707, 33.329069345522235 ], [ 126.521954954994584, 33.32644571392192 ], [ 126.520761166945505, 33.319915537899654 ], [ 126.524108374263349, 33.312420107766286 ], [ 126.521442823083476, 33.303071742844544 ], [ 126.524812111499543, 33.292721093076956 ], [ 126.522418939156694, 33.281554171390447 ], [ 126.525159480962856, 33.281632212485697 ], [ 126.525111214388545, 33.279590832031509 ], [ 126.522868810149959, 33.275460942207623 ], [ 126.527657789163868, 33.272994737540252 ], [ 126.524504270173679, 33.267956522113984 ], [ 126.525600267580245, 33.26439590486347 ], [ 126.523315943962729, 33.256569560313778 ], [ 126.526575429014372, 33.255642599840122 ], [ 126.526323167713144, 33.25144550551574 ], [ 126.529382444995946, 33.249142303318443 ], [ 126.529331723357203, 33.247015898881742 ], [ 126.52539046206175, 33.243918070050846 ], [ 126.526302515776351, 33.240859798328252 ], [ 126.523008705026456, 33.24103055752699 ], [ 126.521538048195396, 33.243450788767902 ], [ 126.522699497556303, 33.247293652400742 ], [ 126.513713093374108, 33.248308551734254 ], [ 126.514357208693724, 33.250133888586312 ], [ 126.51055146372957, 33.251053101108198 ], [ 126.512012804470345, 33.25520903122819 ] ] ] ] } },
{ "type": "Feature", "properties": { "emd_cd": "50130104", "emd_nm": "호근동" }, "geometry": { "type": "MultiPolygon", "coordinates": [ [ [ [ 126.526302515776351, 33.240859798328252 ], [ 126.52539046206175, 33.243918070050846 ], [ 126.529331723357203, 33.247015898881742 ], [ 126.529382444995946, 33.249142303318443 ], [ 126.526323167713144, 33.25144550551574 ], [ 126.526575429014372, 33.255642599840122 ], [ 126.523315943962729, 33.256569560313778 ], [ 126.525600267580245, 33.26439590486347 ], [ 126.524504270173679, 33.267956522113984 ], [ 126.527657789163868, 33.272994737540252 ], [ 126.522880912436435, 33.275357645025409 ], [ 126.525271991569568, 33.281258200663856 ], [ 126.522418939156694, 33.281554171390447 ], [ 126.524812111499543, 33.292721093076956 ], [ 126.521442823083476, 33.303071742844544 ], [ 126.522988669801379, 33.308763447859761 ], [ 126.524531064779097, 33.303581647113447 ], [ 126.531385589520667, 33.298363914884746 ], [ 126.531146787049209, 33.289330697718555 ], [ 126.532564595250449, 33.284953551222358 ], [ 126.535821696281261, 33.281856229729485 ], [ 126.537825906457954, 33.272022081609251 ], [ 126.54148318820144, 33.266310683965003 ], [ 126.542486835383627, 33.260035909862374 ], [ 126.540743361119112, 33.255275515829425 ], [ 126.544858445696917, 33.255029605094627 ], [ 126.543164846223732, 33.253898870760558 ], [ 126.545104829045229, 33.252367352557087 ], [ 126.5443958724928, 33.245057605976605 ], [ 126.546260107294884, 33.244070983685425 ], [ 126.543418870903878, 33.238900474741712 ], [ 126.539376964293126, 33.242022568306538 ], [ 126.533399757620941, 33.239589268503508 ], [ 126.526302515776351, 33.240859798328252 ] ] ] ] } },
{ "type": "Feature", "properties": { "emd_cd": "50130105", "emd_nm": "동홍동" }, "geometry": { "type": "MultiPolygon", "coordinates": [ [ [ [ 126.577578673435255, 33.245251081897123 ], [ 126.571501714892563, 33.244956387336288 ], [ 126.57195920194431, 33.247882269472171 ], [ 126.566475684732808, 33.251534262883226 ], [ 126.565766997919582, 33.254241331604945 ], [ 126.561096588688756, 33.253313811608415 ], [ 126.558952219937893, 33.26220138259022 ], [ 126.559622494547071, 33.26955437142032 ], [ 126.557604287122743, 33.269992415712274 ], [ 126.558234738254143, 33.27418628206307 ], [ 126.556188213891701, 33.27916020842013 ], [ 126.550377796427227, 33.283587252857885 ], [ 126.544173367829572, 33.292585558663347 ], [ 126.544242262535832, 33.295920467996623 ], [ 126.54064767626339, 33.30223283153174 ], [ 126.540986445291821, 33.30788729033722 ], [ 126.538172997408964, 33.313135891671962 ], [ 126.52667738559137, 33.321576424505359 ], [ 126.528216794556798, 33.335590444278402 ], [ 126.525121007686494, 33.34431878957227 ], [ 126.524891497211655, 33.352484721061657 ], [ 126.529455555165697, 33.361317857098257 ], [ 126.531011212867185, 33.358482880463193 ], [ 126.52970188522761, 33.351589771310032 ], [ 126.537330311752157, 33.339037299944295 ], [ 126.537536103953883, 33.33312230886277 ], [ 126.540459292411825, 33.329626192417116 ], [ 126.540985000378811, 33.320825843171271 ], [ 126.544090392981985, 33.315294999106058 ], [ 126.552433909057385, 33.309542561866103 ], [ 126.558867072675966, 33.298943860137115 ], [ 126.56057799847629, 33.291362746882484 ], [ 126.559348467222165, 33.286563535725435 ], [ 126.567494975562767, 33.274220861327088 ], [ 126.574924992990177, 33.276904083083807 ], [ 126.575555291368033, 33.269974083495825 ], [ 126.582119971377551, 33.265136354056644 ], [ 126.578359564266336, 33.263416320069403 ], [ 126.577044712356397, 33.258766666282575 ], [ 126.578194316486389, 33.258098547473935 ], [ 126.576477072828339, 33.254066300601053 ], [ 126.578133147728764, 33.249705566791043 ], [ 126.577578673435255, 33.245251081897123 ] ] ] ] } },
{ "type": "Feature", "properties": { "emd_cd": "50130106", "emd_nm": "서홍동" }, "geometry": { "type": "MultiPolygon", "coordinates": [ [ [ [ 126.544854094122172, 33.239039100475388 ], [ 126.544941631781597, 33.239151268517119 ], [ 126.545011195839535, 33.239113060317273 ], [ 126.544854094122172, 33.239039100475388 ] ] ], [ [ [ 126.548765382582815, 33.239274885940866 ], [ 126.548835220977978, 33.239437225536335 ], [ 126.549193449794657, 33.239461249157358 ], [ 126.548765382582815, 33.239274885940866 ] ] ], [ [ [ 126.549091912815925, 33.239749671237099 ], [ 126.54917253488378, 33.239826638700031 ], [ 126.549139267404797, 33.239731946093734 ], [ 126.549091912815925, 33.239749671237099 ] ] ], [ [ [ 126.52027661350823, 33.353241564856056 ], [ 126.523520310001487, 33.358295642478851 ], [ 126.523896387539097, 33.361775313988161 ], [ 126.526907708913754, 33.363035367846621 ], [ 126.529522726394916, 33.361740416758444 ], [ 126.524891497211655, 33.352484721061657 ], [ 126.525121007686494, 33.34431878957227 ], [ 126.528216794556798, 33.335590444278402 ], [ 126.52667738559137, 33.321576424505359 ], [ 126.538172997408964, 33.313135891671962 ], [ 126.540986445291821, 33.30788729033722 ], [ 126.54064767626339, 33.30223283153174 ], [ 126.544242262535832, 33.295920467996623 ], [ 126.544173367829572, 33.292585558663347 ], [ 126.550377796427227, 33.283587252857885 ], [ 126.556188213891701, 33.27916020842013 ], [ 126.558234738254143, 33.27418628206307 ], [ 126.557422993858225, 33.270509859268223 ], [ 126.559622494547071, 33.26955437142032 ], [ 126.558952219937893, 33.26220138259022 ], [ 126.561124077032048, 33.253173525772119 ], [ 126.554469454267306, 33.252342287825506 ], [ 126.556733997792392, 33.250390909493703 ], [ 126.554595399723226, 33.247093663061293 ], [ 126.560646323470095, 33.244692524230452 ], [ 126.558708187146792, 33.238801973706003 ], [ 126.559750471465577, 33.237369501996447 ], [ 126.557734256766679, 33.239945888665851 ], [ 126.550962812439437, 33.241779295629321 ], [ 126.547544811934742, 33.238810221631105 ], [ 126.544950996478136, 33.240272998956641 ], [ 126.546260107294884, 33.244070983685425 ], [ 126.5443958724928, 33.245057605976605 ], [ 126.545104829045229, 33.252367352557087 ], [ 126.543164846223732, 33.253898870760558 ], [ 126.544858445696917, 33.255029605094627 ], [ 126.540743361119112, 33.255275515829425 ], [ 126.542413461915359, 33.262307821049284 ], [ 126.537825906457954, 33.272022081609251 ], [ 126.535821696281261, 33.281856229729485 ], [ 126.532564595250449, 33.284953551222358 ], [ 126.531146787049209, 33.289330697718555 ], [ 126.531385589520667, 33.298363914884746 ], [ 126.524531064779097, 33.303581647113447 ], [ 126.522988669801379, 33.308763447859761 ], [ 126.524108374263349, 33.312420107766286 ], [ 126.520761166945505, 33.319915537899654 ], [ 126.521954954994584, 33.32644571392192 ], [ 126.524010938644707, 33.329069345522235 ], [ 126.52280854992371, 33.332969540448936 ], [ 126.523849021831481, 33.338686049294353 ], [ 126.52027661350823, 33.353241564856056 ] ] ] ] } },
{ "type": "Feature", "properties": { "emd_cd": "50130107", "emd_nm": "상효동" }, "geometry": { "type": "MultiPolygon", "coordinates": [ [ [ [ 126.600925624954982, 33.307876596608089 ], [ 126.601540066631884, 33.299722147720253 ], [ 126.605027758089037, 33.296428876335703 ], [ 126.60316047954548, 33.289805489695347 ], [ 126.609470106974072, 33.285686686582913 ], [ 126.614028466385435, 33.285706436941354 ], [ 126.614034734964235, 33.282364633074067 ], [ 126.617669596518809, 33.278863473497452 ], [ 126.612682084404042, 33.276156180627801 ], [ 126.611849545014223, 33.273308957238378 ], [ 126.610506072707082, 33.274648415044489 ], [ 126.602304960135882, 33.272511506574595 ], [ 126.601069387682202, 33.271545897800365 ], [ 126.601980101538274, 33.267181894055383 ], [ 126.595827558647485, 33.261922885892666 ], [ 126.595893228459204, 33.264520206653557 ], [ 126.593332257471985, 33.267402522298354 ], [ 126.595483786616242, 33.27200495712507 ], [ 126.594224856508262, 33.27433733791937 ], [ 126.597476630949544, 33.279211817774652 ], [ 126.595689913535807, 33.280936071844266 ], [ 126.595556607071501, 33.284962195423851 ], [ 126.597079612402666, 33.286700482407319 ], [ 126.595393301877706, 33.288074811730041 ], [ 126.592936277863856, 33.286553615503571 ], [ 126.588019734807588, 33.290881298174341 ], [ 126.589492889936537, 33.298404653462747 ], [ 126.570320324805934, 33.301144371191413 ], [ 126.568209880121628, 33.30379059766927 ], [ 126.556227808155896, 33.306153261427767 ], [ 126.549747252317857, 33.313632406314724 ], [ 126.5462020314055, 33.318764893698464 ], [ 126.54276377939577, 33.334974923016276 ], [ 126.533745227510153, 33.35360491399377 ], [ 126.533547603949756, 33.359672055028248 ], [ 126.535679126643331, 33.361576529355084 ], [ 126.534735675713279, 33.363232749769402 ], [ 126.540682331371599, 33.367179630114315 ], [ 126.559140413180842, 33.358915474046256 ], [ 126.564727418704862, 33.349169739684378 ], [ 126.577285291831402, 33.339222180257671 ], [ 126.586010316954173, 33.335722516784436 ], [ 126.588031858794224, 33.329777479364708 ], [ 126.594872838155212, 33.321250893615407 ], [ 126.595161635148543, 33.31769409044405 ], [ 126.599883631868394, 33.31476389524061 ], [ 126.598978209284837, 33.31138142847027 ], [ 126.600925624954982, 33.307876596608089 ] ] ] ] } },
{ "type": "Feature", "properties": { "emd_cd": "50130108", "emd_nm": "하효동" }, "geometry": { "type": "MultiPolygon", "coordinates": [ [ [ [ 126.611860218375085, 33.242709738363253 ], [ 126.609193843403688, 33.253681513191751 ], [ 126.612848039887368, 33.255826729466925 ], [ 126.612860465642484, 33.259391623324092 ], [ 126.615618002964524, 33.261310007017272 ], [ 126.615016772305594, 33.2636078573628 ], [ 126.616890629234632, 33.263905124855384 ], [ 126.617685673037982, 33.266803379751522 ], [ 126.621511237093458, 33.266674398793931 ], [ 126.624836846879603, 33.262680387470425 ], [ 126.622925801960733, 33.255173845712953 ], [ 126.624015147019833, 33.252384748762495 ], [ 126.619438817805971, 33.249847157394917 ], [ 126.618423531126822, 33.24320213757192 ], [ 126.614171882728087, 33.24134925477334 ], [ 126.613751857778837, 33.243663972182553 ], [ 126.611860218375085, 33.242709738363253 ] ] ] ] } },
{ "type": "Feature", "properties": { "emd_cd": "50130109", "emd_nm": "신효동" }, "geometry": { "type": "MultiPolygon", "coordinates": [ [ [ [ 126.609349943901776, 33.25367334065934 ], [ 126.602711774459237, 33.256179502505056 ], [ 126.596311449999433, 33.252408413208414 ], [ 126.594243723924393, 33.255584244028995 ], [ 126.594022152952334, 33.261338015066748 ], [ 126.601980101538274, 33.267181894055383 ], [ 126.601069387682202, 33.271545897800365 ], [ 126.602304960135882, 33.272511506574595 ], [ 126.610506072707082, 33.274648415044489 ], [ 126.611849545014223, 33.273308957238378 ], [ 126.612682084404042, 33.276156180627801 ], [ 126.619813453690185, 33.278988517809537 ], [ 126.62343539983074, 33.268718866353154 ], [ 126.621511237093458, 33.266674398793931 ], [ 126.617685673037982, 33.266803379751522 ], [ 126.616890629234632, 33.263905124855384 ], [ 126.615016772305594, 33.2636078573628 ], [ 126.615618002964524, 33.261310007017272 ], [ 126.612860465642484, 33.259391623324092 ], [ 126.611956620761205, 33.255066673381187 ], [ 126.609349943901776, 33.25367334065934 ] ] ] ] } },
{ "type": "Feature", "properties": { "emd_cd": "50130110", "emd_nm": "보목동" }, "geometry": { "type": "MultiPolygon", "coordinates": [ [ [ [ 126.60251796297689, 33.228887247480543 ], [ 126.596177631342172, 33.230474179666579 ], [ 126.598545503041635, 33.23217042455903 ], [ 126.60251796297689, 33.228887247480543 ] ] ], [ [ [ 126.609171214434156, 33.253618345911185 ], [ 126.609427742693072, 33.24839693206561 ], [ 126.610867663105026, 33.247840287165651 ], [ 126.611860218375085, 33.242709738363253 ], [ 126.613751857778837, 33.243663972182553 ], [ 126.614166046905979, 33.241295445364059 ], [ 126.607074239033565, 33.239326370141768 ], [ 126.60488492095962, 33.240042996776317 ], [ 126.59828607299859, 33.236137343828915 ], [ 126.59178873236759, 33.239277280907615 ], [ 126.592686856602484, 33.241098045333828 ], [ 126.588547400900339, 33.243872961472924 ], [ 126.589658850288586, 33.246701392476588 ], [ 126.588803135527996, 33.251096219535761 ], [ 126.591246620508898, 33.25434056554721 ], [ 126.590666473006067, 33.255788863995122 ], [ 126.594133443484253, 33.25618665668263 ], [ 126.596311449999433, 33.252408413208414 ], [ 126.602711774459237, 33.256179502505056 ], [ 126.609171214434156, 33.253618345911185 ] ] ] ] } },
{ "type": "Feature", "properties": { "emd_cd": "50130111", "emd_nm": "토평동" }, "geometry": { "type": "MultiPolygon", "coordinates": [ [ [ [ 126.529455555165697, 33.361317857098257 ], [ 126.533331580839999, 33.363425764902317 ], [ 126.535407758803686, 33.362620268440018 ], [ 126.535287301433414, 33.36018142438175 ], [ 126.533547603949756, 33.359672055028248 ], [ 126.533745227510153, 33.35360491399377 ], [ 126.54276377939577, 33.334974923016276 ], [ 126.5462020314055, 33.318764893698429 ], [ 126.555923109654259, 33.30636398673898 ], [ 126.568209880121628, 33.30379059766927 ], [ 126.570320324805934, 33.301144371191413 ], [ 126.589492889936537, 33.298404653462747 ], [ 126.588019734807588, 33.290881298174341 ], [ 126.592936277863856, 33.286553615503571 ], [ 126.595393301877706, 33.288074811730041 ], [ 126.597079612402666, 33.286700482407319 ], [ 126.595556607071501, 33.284962195423851 ], [ 126.595689913535807, 33.280936071844266 ], [ 126.597476630949544, 33.279211817774652 ], [ 126.594224856508262, 33.27433733791937 ], [ 126.595483786616242, 33.27200495712507 ], [ 126.593335487525053, 33.26745111246673 ], [ 126.59591035276199, 33.264463171542381 ], [ 126.593545733879523, 33.26000709587133 ], [ 126.594431870771544, 33.256840663823624 ], [ 126.590666473006067, 33.255788863995122 ], [ 126.591246620508898, 33.25434056554721 ], [ 126.588803135527996, 33.251096219535761 ], [ 126.589658850288586, 33.246701392476588 ], [ 126.588547400900339, 33.243872961472924 ], [ 126.578695669681224, 33.24390501920378 ], [ 126.577333478450583, 33.245513332247668 ], [ 126.578182837921489, 33.249245419123497 ], [ 126.576477072828339, 33.254066300601053 ], [ 126.578223946035422, 33.257116867741594 ], [ 126.577044712356397, 33.258766666282575 ], [ 126.578359564266336, 33.263416320069403 ], [ 126.582119971377551, 33.265136354056644 ], [ 126.575555291368033, 33.269974083495825 ], [ 126.574924992990177, 33.276904083083807 ], [ 126.567494975562767, 33.274220861327088 ], [ 126.559348467222165, 33.286563535725435 ], [ 126.56057799847629, 33.291362746882484 ], [ 126.558867072675966, 33.298943860137115 ], [ 126.552433909057385, 33.309542561866103 ], [ 126.544090392981985, 33.315294999106058 ], [ 126.540985000378811, 33.320825843171271 ], [ 126.540459292411825, 33.329626192417116 ], [ 126.537536103953883, 33.33312230886277 ], [ 126.537330311752157, 33.339037299944295 ], [ 126.52970188522761, 33.351589771310032 ], [ 126.531011212867185, 33.358482880463193 ], [ 126.529455555165697, 33.361317857098257 ] ] ] ] } },
{ "type": "Feature", "properties": { "emd_cd": "50130112", "emd_nm": "중문동" }, "geometry": { "type": "MultiPolygon", "coordinates": [ [ [ [ 126.43641830986283, 33.251582525200618 ], [ 126.430850863580829, 33.250209326734456 ], [ 126.431531279079806, 33.246919543173696 ], [ 126.428819080269705, 33.247121069625869 ], [ 126.428103026573694, 33.240371050468056 ], [ 126.425914051302854, 33.236926969428644 ], [ 126.418621530619433, 33.24272032563529 ], [ 126.419394953776489, 33.246564311568548 ], [ 126.416519482725249, 33.249810508351217 ], [ 126.417090255229425, 33.252903432135319 ], [ 126.422948606065148, 33.257053516707408 ], [ 126.424031240566066, 33.260403745742579 ], [ 126.422944716377671, 33.263262285710482 ], [ 126.424596687623122, 33.265950725992305 ], [ 126.42334945558035, 33.270204546723235 ], [ 126.424712883465915, 33.275532904956478 ], [ 126.420656536672624, 33.281133552119705 ], [ 126.42579986160473, 33.286830442379134 ], [ 126.423514747518567, 33.294308094557692 ], [ 126.428604608369426, 33.302248607691105 ], [ 126.425353840554237, 33.305056572228963 ], [ 126.432533748167742, 33.330648435646019 ], [ 126.436563191538895, 33.333811961311973 ], [ 126.443581346380483, 33.343764152837238 ], [ 126.450118201081438, 33.344810872421114 ], [ 126.455770422566474, 33.348111375961828 ], [ 126.457184871093816, 33.353365821177618 ], [ 126.461898551033784, 33.354790764424799 ], [ 126.463961441612568, 33.359857895687234 ], [ 126.472549747582462, 33.358369025551447 ], [ 126.474681248060776, 33.356016787143595 ], [ 126.483707359695586, 33.359442230505373 ], [ 126.486915591819056, 33.356835936437555 ], [ 126.486698079494246, 33.354147542930875 ], [ 126.479719352005574, 33.355465902491076 ], [ 126.474225570088734, 33.353067889841419 ], [ 126.46972464978225, 33.348265597904344 ], [ 126.468551824991934, 33.3402817592183 ], [ 126.470049349085272, 33.338389161310133 ], [ 126.465884060982049, 33.332204523148995 ], [ 126.459024406006918, 33.313967748912269 ], [ 126.446417363167342, 33.307215439494058 ], [ 126.44577627522068, 33.289034020583252 ], [ 126.443293932012125, 33.287055497370261 ], [ 126.440872864898722, 33.273486998577631 ], [ 126.436888263379217, 33.26873486463063 ], [ 126.437943538347184, 33.263363686718876 ], [ 126.43641830986283, 33.251582525200618 ] ] ] ] } },
{ "type": "Feature", "properties": { "emd_cd": "50130113", "emd_nm": "회수동" }, "geometry": { "type": "MultiPolygon", "coordinates": [ [ [ [ 126.43641830986283, 33.251582525200618 ], [ 126.437943538347184, 33.263363686718876 ], [ 126.436888263379217, 33.26873486463063 ], [ 126.440872864898722, 33.273486998577631 ], [ 126.443293932012125, 33.287055497370261 ], [ 126.44577627522068, 33.289034020583252 ], [ 126.446234686736886, 33.306703085189497 ], [ 126.449484517307695, 33.300154723325932 ], [ 126.448862470879391, 33.295910176326359 ], [ 126.452213963356243, 33.285794201511635 ], [ 126.449799873358657, 33.279675997941396 ], [ 126.450729503525835, 33.275702512756823 ], [ 126.448231604164917, 33.275141285636096 ], [ 126.446955345513985, 33.272433312156942 ], [ 126.44796142525243, 33.261220490086551 ], [ 126.44492850425803, 33.256025723793599 ], [ 126.447101339088988, 33.252021678308886 ], [ 126.445351473240493, 33.250619999901716 ], [ 126.43641830986283, 33.251582525200618 ] ] ] ] } },
{ "type": "Feature", "properties": { "emd_cd": "50130114", "emd_nm": "대포동" }, "geometry": { "type": "MultiPolygon", "coordinates": [ [ [ [ 126.426495102960573, 33.237492844110314 ], [ 126.428819080269705, 33.247121069625869 ], [ 126.431531279079806, 33.246919543173696 ], [ 126.430924008550392, 33.250277977892786 ], [ 126.442411461598269, 33.251864860882769 ], [ 126.445534416764616, 33.250634314844319 ], [ 126.447101339088988, 33.252021678308886 ], [ 126.44492850425803, 33.256025723793599 ], [ 126.44796142525243, 33.261220490086551 ], [ 126.446955345513985, 33.272433312156942 ], [ 126.448231604164917, 33.275141285636096 ], [ 126.450729503525835, 33.275702512756823 ], [ 126.449799873358657, 33.279675997941396 ], [ 126.452213963356243, 33.285794201511635 ], [ 126.448862470879391, 33.295910176326359 ], [ 126.449484517307695, 33.300154723325932 ], [ 126.446234686736886, 33.306703085189497 ], [ 126.459024406006918, 33.313967748912269 ], [ 126.466289371788804, 33.332666928806091 ], [ 126.464949881019777, 33.3204269267179 ], [ 126.459813655398037, 33.301553310809147 ], [ 126.462097937025675, 33.298981274547153 ], [ 126.461250871746145, 33.294206588137875 ], [ 126.454682941380796, 33.289834698683464 ], [ 126.455996048076798, 33.280272099836139 ], [ 126.455272575885914, 33.266642370254267 ], [ 126.453208201812103, 33.265950518780379 ], [ 126.452780934599502, 33.261612039689759 ], [ 126.449113247506517, 33.258067177036665 ], [ 126.453655254912249, 33.251491500731724 ], [ 126.453254319905042, 33.247114368748456 ], [ 126.447131023222383, 33.242416767436922 ], [ 126.44840954585132, 33.239735742925227 ], [ 126.443702267112101, 33.239240386724347 ], [ 126.442299893875401, 33.237388383025667 ], [ 126.440484379814492, 33.238833218613173 ], [ 126.438927244863905, 33.237355734165803 ], [ 126.439202263091914, 33.238898406915901 ], [ 126.437776583440225, 33.238877106358302 ], [ 126.437279413292188, 33.23665581904082 ], [ 126.435234385675798, 33.236785838879044 ], [ 126.433694268187708, 33.233947513433293 ], [ 126.426495102960573, 33.237492844110314 ] ] ] ] } },
{ "type": "Feature", "properties": { "emd_cd": "50130115", "emd_nm": "월평동" }, "geometry": { "type": "MultiPolygon", "coordinates": [ [ [ [ 126.473015520191325, 33.24183506365911 ], [ 126.468474652967288, 33.241423407028499 ], [ 126.467197945102853, 33.236673465903905 ], [ 126.465055505384655, 33.234370933605355 ], [ 126.462836599375237, 33.234685031071074 ], [ 126.462332344379476, 33.237679012316732 ], [ 126.457905628827277, 33.240580819235923 ], [ 126.458684349057208, 33.241943468051311 ], [ 126.45693167519039, 33.242018154584457 ], [ 126.456392584304183, 33.243733473252917 ], [ 126.460304677361307, 33.251862760882887 ], [ 126.459513395395874, 33.254313878170528 ], [ 126.464629695337322, 33.252989024347912 ], [ 126.473015520191325, 33.24183506365911 ] ] ] ] } },
{ "type": "Feature", "properties": { "emd_cd": "50130116", "emd_nm": "강정동" }, "geometry": { "type": "MultiPolygon", "coordinates": [ [ [ [ 126.498373813555048, 33.229426666235796 ], [ 126.49852342694976, 33.23057628501369 ], [ 126.499169213032502, 33.229937070964851 ], [ 126.498373813555048, 33.229426666235796 ] ] ], [ [ [ 126.462923273249473, 33.232842190677523 ], [ 126.467197945102853, 33.236673465903905 ], [ 126.468548140541358, 33.241465800540674 ], [ 126.486840002829751, 33.241646130808604 ], [ 126.479202477574631, 33.24648296951198 ], [ 126.480302418298763, 33.249417394664853 ], [ 126.474531427083335, 33.256807701481726 ], [ 126.479428795070675, 33.260475415684319 ], [ 126.477124947384695, 33.26450665054012 ], [ 126.483720996606422, 33.270874751706423 ], [ 126.487700228150402, 33.281171094898767 ], [ 126.508734097431969, 33.277983678622782 ], [ 126.510275072242422, 33.274750092702703 ], [ 126.507319509556496, 33.267189936132851 ], [ 126.510333926945933, 33.2571395505718 ], [ 126.507300062705255, 33.255641661033167 ], [ 126.509546101369594, 33.255074426345899 ], [ 126.507022526164832, 33.247331694136264 ], [ 126.501937339995592, 33.245263278615724 ], [ 126.502574354933714, 33.243077277455328 ], [ 126.509184971393864, 33.239504809664545 ], [ 126.505668439233673, 33.2313805721843 ], [ 126.491604661864073, 33.233264491993324 ], [ 126.489299895141841, 33.232078235151619 ], [ 126.490848195041394, 33.23129062692697 ], [ 126.491843116117195, 33.227151284847658 ], [ 126.490770337623445, 33.225801300470579 ], [ 126.490479182234495, 33.230249628334334 ], [ 126.488202155233594, 33.229726691637346 ], [ 126.489104691856994, 33.226897142574643 ], [ 126.488132756730209, 33.228916204784639 ], [ 126.479553781416797, 33.226571909167589 ], [ 126.483383399339004, 33.222221337063885 ], [ 126.49073031130952, 33.222978144338882 ], [ 126.49474422562443, 33.222058122301583 ], [ 126.483345599771795, 33.221900381107503 ], [ 126.477934783407576, 33.227668571748772 ], [ 126.475326801876832, 33.227368358579575 ], [ 126.477505640745463, 33.226096062485261 ], [ 126.474919938602028, 33.227398194619184 ], [ 126.471160558748736, 33.22647455664891 ], [ 126.462923273249473, 33.232842190677523 ] ] ] ] } },
{ "type": "Feature", "properties": { "emd_cd": "50130117", "emd_nm": "도순동" }, "geometry": { "type": "MultiPolygon", "coordinates": [ [ [ [ 126.487954810071727, 33.281174337448263 ], [ 126.483720996606422, 33.270874751706423 ], [ 126.477124947384695, 33.26450665054012 ], [ 126.479428795070675, 33.260475415684319 ], [ 126.474531427083335, 33.256807701481726 ], [ 126.480302418298763, 33.249417394664853 ], [ 126.479202477574631, 33.24648296951198 ], [ 126.486972598188203, 33.241946928837969 ], [ 126.473015520191325, 33.24183506365911 ], [ 126.464629695337322, 33.252989024347912 ], [ 126.468585052793713, 33.252960129415285 ], [ 126.466821646160923, 33.254574100616317 ], [ 126.466296275874171, 33.261271698516289 ], [ 126.470806710807125, 33.271764807185477 ], [ 126.473841551215642, 33.273339368061755 ], [ 126.472956158914641, 33.284027465163334 ], [ 126.468585638366733, 33.299476597426818 ], [ 126.472979948498036, 33.303662896690938 ], [ 126.471816928628485, 33.30893854238748 ], [ 126.483459769996855, 33.329268699607745 ], [ 126.48566250160583, 33.339950419039255 ], [ 126.497251555446738, 33.348404454967813 ], [ 126.499956281520696, 33.348675887965292 ], [ 126.506634943526478, 33.357995965180137 ], [ 126.509040062436867, 33.352199319733508 ], [ 126.508329314752146, 33.347246990831124 ], [ 126.497320117460561, 33.337243664597196 ], [ 126.494773164752388, 33.323162182639606 ], [ 126.489194436072637, 33.318343256216437 ], [ 126.486834761442822, 33.314095467348359 ], [ 126.485537652058753, 33.305898046657397 ], [ 126.486544550887587, 33.291447282551985 ], [ 126.488496945176635, 33.289221165633613 ], [ 126.487954810071727, 33.281174337448263 ] ] ] ] } },
{ "type": "Feature", "properties": { "emd_cd": "50130118", "emd_nm": "하원동" }, "geometry": { "type": "MultiPolygon", "coordinates": [ [ [ [ 126.456392584304183, 33.243733473252917 ], [ 126.456507311939873, 33.240451631042966 ], [ 126.452334564344554, 33.241815046499319 ], [ 126.44864489948425, 33.240633730950343 ], [ 126.44705447957638, 33.242276990669538 ], [ 126.451420588859534, 33.244867279682573 ], [ 126.453643119624402, 33.248319041821041 ], [ 126.452343217300935, 33.254365715326742 ], [ 126.450559605026484, 33.254427533128535 ], [ 126.449113247506517, 33.258067177036665 ], [ 126.452780934599502, 33.261612039689759 ], [ 126.453208201812103, 33.265950518780379 ], [ 126.455272575885914, 33.266642370254267 ], [ 126.455996048076798, 33.280272099836139 ], [ 126.454682941380796, 33.289834698683464 ], [ 126.461250871746145, 33.294206588137875 ], [ 126.462097937025675, 33.298981274547153 ], [ 126.459813655398037, 33.301553310809147 ], [ 126.464949881019777, 33.3204269267179 ], [ 126.466289371788804, 33.332666928806091 ], [ 126.470049349085272, 33.338389161310133 ], [ 126.468551824991934, 33.3402817592183 ], [ 126.46972464978225, 33.348265597904344 ], [ 126.474225570088734, 33.353067889841419 ], [ 126.479719352005574, 33.355465902491076 ], [ 126.485484689755083, 33.353667216980632 ], [ 126.499091408338572, 33.359846759255042 ], [ 126.505174310523785, 33.358824430919675 ], [ 126.506634943526478, 33.357995965180137 ], [ 126.505270004692733, 33.354722722827944 ], [ 126.50142923388664, 33.351988232095408 ], [ 126.499956281520696, 33.348675887965292 ], [ 126.497251555446738, 33.348404454967813 ], [ 126.48566250160583, 33.339950419039255 ], [ 126.483459769996855, 33.329268699607745 ], [ 126.471816928628485, 33.30893854238748 ], [ 126.472979948498036, 33.303662896690938 ], [ 126.468585638366733, 33.299476597426818 ], [ 126.472956158914641, 33.284027465163334 ], [ 126.473732693751543, 33.272848236496088 ], [ 126.470806710807125, 33.271764807185477 ], [ 126.466296275874171, 33.261271698516289 ], [ 126.466821646160923, 33.254574100616317 ], [ 126.468585052793713, 33.252960129415285 ], [ 126.459513395395874, 33.254313878170528 ], [ 126.460317950948223, 33.251920314965638 ], [ 126.456392584304183, 33.243733473252917 ] ] ] ] } },
{ "type": "Feature", "properties": { "emd_cd": "50130119", "emd_nm": "색달동" }, "geometry": { "type": "MultiPolygon", "coordinates": [ [ [ [ 126.407605291144662, 33.24498041166347 ], [ 126.408681253179793, 33.245524359170375 ], [ 126.409265287418123, 33.24549952408438 ], [ 126.40884302184925, 33.245271198118743 ], [ 126.407605291144662, 33.24498041166347 ] ] ], [ [ [ 126.397541070948094, 33.281381341179681 ], [ 126.401786296593016, 33.297393210269298 ], [ 126.40542407549809, 33.303764486994027 ], [ 126.413100026266306, 33.304921804561459 ], [ 126.422752530399649, 33.313296030681428 ], [ 126.422609620125428, 33.322309359725026 ], [ 126.426744248355007, 33.328588855865398 ], [ 126.427502373645098, 33.333469260821659 ], [ 126.43319161964466, 33.335994144280782 ], [ 126.434950759334782, 33.338398585453092 ], [ 126.431823790137017, 33.342273111774013 ], [ 126.432748336458559, 33.344931449132353 ], [ 126.43720395657796, 33.347646603578816 ], [ 126.437239294391375, 33.355069991089742 ], [ 126.44558152927624, 33.358886916888572 ], [ 126.463961441612568, 33.359857895687234 ], [ 126.461898551033784, 33.354790764424799 ], [ 126.457184871093816, 33.353365821177618 ], [ 126.455770422566474, 33.348111375961828 ], [ 126.450118201081438, 33.344810872421114 ], [ 126.443581346380483, 33.343764152837238 ], [ 126.436563191538895, 33.333811961311973 ], [ 126.432533748167742, 33.330648435646019 ], [ 126.425353840554237, 33.305056572228963 ], [ 126.428604608369426, 33.302248607691105 ], [ 126.423514747518567, 33.294308094557692 ], [ 126.42579986160473, 33.286830442379134 ], [ 126.420656536672624, 33.281133552119705 ], [ 126.424712883465915, 33.275532904956478 ], [ 126.42334945558035, 33.270204546723235 ], [ 126.424596687623122, 33.265950725992305 ], [ 126.422944716377671, 33.263262285710482 ], [ 126.424031240566066, 33.260403745742579 ], [ 126.422948606065148, 33.257053516707408 ], [ 126.416758085817037, 33.252123739085555 ], [ 126.416684457683388, 33.249099429409689 ], [ 126.419394953776489, 33.246564311568548 ], [ 126.418206308713295, 33.243514121747729 ], [ 126.409935890746112, 33.246027708734523 ], [ 126.407637221192076, 33.245529947068661 ], [ 126.405238630555985, 33.243517342447653 ], [ 126.402395155790003, 33.243978943742192 ], [ 126.400919251156665, 33.241969595851735 ], [ 126.395787553624359, 33.241999122782765 ], [ 126.399847894083237, 33.247064718091629 ], [ 126.399583788493658, 33.250613044021563 ], [ 126.402861472480112, 33.248284230995552 ], [ 126.404544659703305, 33.24975362431541 ], [ 126.402312075400928, 33.25234848323737 ], [ 126.404032014774117, 33.254075705977968 ], [ 126.403450764871451, 33.259144179707782 ], [ 126.400944465531907, 33.262439906107112 ], [ 126.395069066079813, 33.264977042678993 ], [ 126.398142507434585, 33.27570534507683 ], [ 126.397541070948094, 33.281381341179681 ] ] ] ] } },
{ "type": "Feature", "properties": { "emd_cd": "50130120", "emd_nm": "상예동" }, "geometry": { "type": "MultiPolygon", "coordinates": [ [ [ [ 126.368422959259661, 33.277602614736054 ], [ 126.371459681384721, 33.282356290363836 ], [ 126.370902757967784, 33.288097777080452 ], [ 126.379727624331096, 33.302000531102877 ], [ 126.384019860663741, 33.305279995650807 ], [ 126.382703789504276, 33.301739724335945 ], [ 126.385296125371184, 33.298922073487397 ], [ 126.396261025225641, 33.292056597802343 ], [ 126.400743849850002, 33.291334619209486 ], [ 126.397541070948094, 33.281381341179681 ], [ 126.398142507434585, 33.275705345076808 ], [ 126.395069066079813, 33.264977042679007 ], [ 126.400944465531907, 33.262439906107097 ], [ 126.403450764871451, 33.259144179707782 ], [ 126.404032014774117, 33.254075705977989 ], [ 126.402312075400914, 33.25234848323737 ], [ 126.404544659703305, 33.249753624315424 ], [ 126.402861472480112, 33.248284230995559 ], [ 126.399583788493658, 33.25061304402157 ], [ 126.399847894083237, 33.247064718091607 ], [ 126.397066764635397, 33.244943247049363 ], [ 126.397764562315217, 33.243304879540119 ], [ 126.395892854464179, 33.242859859883858 ], [ 126.396718079080273, 33.241148500792768 ], [ 126.394518099219951, 33.239310505633412 ], [ 126.39096392066007, 33.238459327290606 ], [ 126.388446821564713, 33.241172712403987 ], [ 126.391487232107195, 33.244103649223561 ], [ 126.390372702458649, 33.246905174761757 ], [ 126.372455863664925, 33.245509216015932 ], [ 126.371722284531373, 33.25121960876033 ], [ 126.369586269731798, 33.25417759507917 ], [ 126.372940498336831, 33.257893181853383 ], [ 126.371973597828557, 33.26151320279822 ], [ 126.37042184953296, 33.261908333420784 ], [ 126.373785343217833, 33.268942011972747 ], [ 126.37186287099091, 33.271231233597682 ], [ 126.372380595400571, 33.273161328573856 ], [ 126.368422959259661, 33.277602614736054 ] ] ] ] } },
{ "type": "Feature", "properties": { "emd_cd": "50130121", "emd_nm": "하예동" }, "geometry": { "type": "MultiPolygon", "coordinates": [ [ [ [ 126.383821980854506, 33.247170492523431 ], [ 126.390886729903755, 33.246737590653495 ], [ 126.39148723210721, 33.244103649223561 ], [ 126.38842417103173, 33.241478763030685 ], [ 126.390972565399707, 33.238147842640508 ], [ 126.384105867808358, 33.233584871869425 ], [ 126.379925642705814, 33.234721972949949 ], [ 126.378141936903759, 33.232595212893457 ], [ 126.375668351211374, 33.234164405796058 ], [ 126.369265838468706, 33.231772092691891 ], [ 126.368249053189004, 33.235404055166754 ], [ 126.37009522391817, 33.236910779227969 ], [ 126.372455863664925, 33.245509216015925 ], [ 126.374848058790832, 33.246562916020821 ], [ 126.382136038397817, 33.245411784864707 ], [ 126.383821980854506, 33.247170492523431 ] ] ] ] } },
{ "type": "Feature", "properties": { "emd_cd": "50130122", "emd_nm": "영남동" }, "geometry": { "type": "MultiPolygon", "coordinates": [ [ [ [ 126.507940630155531, 33.278260502928703 ], [ 126.487954810071727, 33.281174337448263 ], [ 126.488496945176635, 33.289221165633613 ], [ 126.486544550887587, 33.291447282551985 ], [ 126.485537652058753, 33.305898046657397 ], [ 126.486834761442822, 33.314095467348359 ], [ 126.495129822663415, 33.323961986892193 ], [ 126.497320117460561, 33.337243664597196 ], [ 126.508329314752146, 33.347246990831124 ], [ 126.509040062436867, 33.352199319733508 ], [ 126.506634943526478, 33.357995965180137 ], [ 126.511103643221915, 33.361039880890758 ], [ 126.51966821261955, 33.36068167009396 ], [ 126.515879065990163, 33.354685544377915 ], [ 126.518218595738517, 33.350568923024149 ], [ 126.518824131002646, 33.344966861042245 ], [ 126.521765719871397, 33.340745074887728 ], [ 126.522207032953673, 33.334222563374119 ], [ 126.514321231700492, 33.317823033024645 ], [ 126.516508764758058, 33.308128950473957 ], [ 126.51365669731122, 33.303820292832036 ], [ 126.510903732860839, 33.286429472110839 ], [ 126.507840873891013, 33.282690807474523 ], [ 126.507940630155531, 33.278260502928703 ] ] ] ] } },
{ "type": "Feature", "properties": { "emd_cd": "50130250", "emd_nm": "대정읍" }, "geometry": { "type": "MultiPolygon", "coordinates": [ [ [ [ 126.266021041821773, 33.119279944499738 ], [ 126.269293094307301, 33.122786237351846 ], [ 126.269758933302441, 33.116274679622961 ], [ 126.268398329923428, 33.113891070255974 ], [ 126.265997675176621, 33.115359139687385 ], [ 126.266021041821773, 33.119279944499738 ] ] ], [ [ [ 126.264610504957673, 33.169876260667458 ], [ 126.269835059271031, 33.1744520127207 ], [ 126.27295195041431, 33.174710368115861 ], [ 126.278887548550273, 33.168027975102277 ], [ 126.275145327616087, 33.167709304557697 ], [ 126.275475411450344, 33.16636542637707 ], [ 126.272230686364765, 33.165227975741431 ], [ 126.272875818341788, 33.164816708574264 ], [ 126.275165297432139, 33.165985325742874 ], [ 126.276290968568048, 33.165874602107479 ], [ 126.270979355467787, 33.164040711434708 ], [ 126.264610504957673, 33.169876260667458 ] ] ], [ [ [ 126.239478395512748, 33.225159279603908 ], [ 126.239613514388083, 33.225700621142259 ], [ 126.241086560126803, 33.22515775646508 ], [ 126.239478395512748, 33.225159279603908 ] ] ], [ [ [ 126.239249301878473, 33.226084441377921 ], [ 126.239549315375797, 33.226207436831452 ], [ 126.240403209336961, 33.226295339760689 ], [ 126.239249301878473, 33.226084441377921 ] ] ], [ [ [ 126.228260339472456, 33.239021243668617 ], [ 126.227447309185891, 33.239469226738741 ], [ 126.227473800178743, 33.23950934168159 ], [ 126.228260339472456, 33.239021243668617 ] ] ], [ [ [ 126.169118187355622, 33.276560125788137 ], [ 126.170616552800482, 33.276737970059145 ], [ 126.168996662727025, 33.277590375947355 ], [ 126.170190154642214, 33.278561940362913 ], [ 126.168789200484241, 33.28251583887829 ], [ 126.17206516916535, 33.285528837733928 ], [ 126.170461431621149, 33.287180215843243 ], [ 126.171076566286757, 33.288508793914239 ], [ 126.174651840683609, 33.290724686406001 ], [ 126.180419658335452, 33.290091885895556 ], [ 126.191691798280146, 33.293674180799485 ], [ 126.192006525609415, 33.29835194274257 ], [ 126.229787557514271, 33.284674477855049 ], [ 126.244442540319952, 33.272964177826317 ], [ 126.242754002989457, 33.283164257359786 ], [ 126.24454826565298, 33.288501820256727 ], [ 126.246773169710764, 33.288354357057123 ], [ 126.253028926080759, 33.292805292181306 ], [ 126.277808642732083, 33.298932271686198 ], [ 126.282061021289252, 33.303202946212032 ], [ 126.29342576863084, 33.296522590406745 ], [ 126.293909346424741, 33.28577629364522 ], [ 126.302032778229844, 33.28051554732864 ], [ 126.30464771715728, 33.275113488535851 ], [ 126.295022277689213, 33.266021086219716 ], [ 126.296799776024272, 33.263098358944362 ], [ 126.295435957207573, 33.259015392976416 ], [ 126.296472943703392, 33.258452883331053 ], [ 126.294133994000958, 33.256210377402986 ], [ 126.294339925663692, 33.250476739219849 ], [ 126.285001600561884, 33.23935720348414 ], [ 126.285432888199551, 33.235092391291111 ], [ 126.284100879637265, 33.233069528289086 ], [ 126.289728397562598, 33.226020334116221 ], [ 126.290645612700743, 33.219345084803628 ], [ 126.293700456337035, 33.218001248098375 ], [ 126.294355122786769, 33.213758231293383 ], [ 126.292375092487944, 33.212035747063254 ], [ 126.290403277958006, 33.206460668578707 ], [ 126.291193563685979, 33.20599463653398 ], [ 126.291327671319664, 33.20579398982732 ], [ 126.290149908195389, 33.206473601711828 ], [ 126.289680349855146, 33.205108062896954 ], [ 126.293031544413338, 33.202119056380582 ], [ 126.294274260628455, 33.197302996980511 ], [ 126.288400891237472, 33.195653454756787 ], [ 126.287300391493446, 33.19989672550706 ], [ 126.284228441751168, 33.201215853683166 ], [ 126.27604161609375, 33.20021354147908 ], [ 126.273730710542452, 33.197140882781035 ], [ 126.270263945709672, 33.196025584609721 ], [ 126.264116556483458, 33.198224248736757 ], [ 126.262039121210208, 33.200660439850402 ], [ 126.26421815381434, 33.201391165893149 ], [ 126.263365311816727, 33.203672045239145 ], [ 126.264837567569913, 33.20526127668407 ], [ 126.263366279585625, 33.209859460550099 ], [ 126.260685989586761, 33.211525738483694 ], [ 126.259445460278755, 33.209469300079036 ], [ 126.256043551848251, 33.210476693418556 ], [ 126.256696665980897, 33.207509385393131 ], [ 126.259443010660931, 33.206925764482875 ], [ 126.256552969999163, 33.207492720248311 ], [ 126.252779833591305, 33.214318732772654 ], [ 126.250318168410161, 33.213827263565285 ], [ 126.251782393729897, 33.214452784880663 ], [ 126.249428632165078, 33.216512712756646 ], [ 126.250426108433999, 33.220240285933222 ], [ 126.24738384836931, 33.216997965740184 ], [ 126.249388365137079, 33.215816696590068 ], [ 126.249609896911352, 33.212543447693108 ], [ 126.247145595277317, 33.216926349575658 ], [ 126.247112181340071, 33.220900957563757 ], [ 126.241030418537619, 33.223845113031565 ], [ 126.241581844833874, 33.228739057972589 ], [ 126.238327296849832, 33.229241676064525 ], [ 126.238551721329117, 33.231304731291914 ], [ 126.236571053848763, 33.231719671478068 ], [ 126.237799963758661, 33.232264073087613 ], [ 126.235414841109971, 33.235896221336979 ], [ 126.22923005602307, 33.237384757499825 ], [ 126.228769809828989, 33.241824686801792 ], [ 126.228008853340356, 33.241802872680886 ], [ 126.228037880223454, 33.240946961073817 ], [ 126.227873572030134, 33.240906611460616 ], [ 126.227622815644537, 33.24017220922709 ], [ 126.227249563950352, 33.239742670356108 ], [ 126.227777156862288, 33.240693548637559 ], [ 126.222546149206337, 33.241385589918607 ], [ 126.219633867595959, 33.243490230017294 ], [ 126.212146533472037, 33.243027571161427 ], [ 126.202322475416707, 33.24658421626426 ], [ 126.192826016817293, 33.254709146244799 ], [ 126.183410768748047, 33.259463901157481 ], [ 126.179120277140981, 33.268140314211713 ], [ 126.171778930532568, 33.273585523279223 ], [ 126.172346068431438, 33.275005081546333 ], [ 126.170652695863765, 33.276698009451145 ], [ 126.169118187355622, 33.276560125788137 ] ] ] ] } },
{ "type": "Feature", "properties": { "emd_cd": "50130253", "emd_nm": "남원읍" }, "geometry": { "type": "MultiPolygon", "coordinates": [ [ [ [ 126.653185717491411, 33.225181172193167 ], [ 126.655890652217309, 33.226404826665259 ], [ 126.656528798899757, 33.224294555204182 ], [ 126.653938360555912, 33.224124036316262 ], [ 126.653185717491411, 33.225181172193167 ] ] ], [ [ [ 126.540682331371599, 33.367179630114315 ], [ 126.553716044909237, 33.373676375858075 ], [ 126.55736623916205, 33.372020715283362 ], [ 126.5594520225346, 33.373242389142732 ], [ 126.567206662351012, 33.371631184121902 ], [ 126.591579190621587, 33.373774894917524 ], [ 126.593224579484399, 33.37615304500985 ], [ 126.606933946297659, 33.382237503568611 ], [ 126.617621276045298, 33.383192104716315 ], [ 126.621226191942327, 33.385166613667018 ], [ 126.623694627135748, 33.384352070141041 ], [ 126.62633467553016, 33.390190069265351 ], [ 126.630779073816342, 33.393086015250525 ], [ 126.653418995822875, 33.39505491970268 ], [ 126.667883493982899, 33.386906284819581 ], [ 126.671485912336792, 33.38700252879412 ], [ 126.674203915154834, 33.379006557110387 ], [ 126.678038471386614, 33.37860158234821 ], [ 126.681646826912115, 33.375428270635709 ], [ 126.686342520621906, 33.377290583263374 ], [ 126.69563902201989, 33.374024856804667 ], [ 126.697605320721621, 33.37666668691071 ], [ 126.701870148287171, 33.376363864446539 ], [ 126.712797602608191, 33.373543457751573 ], [ 126.713604800336341, 33.372109212645583 ], [ 126.720743109145715, 33.371253636784139 ], [ 126.730471507744724, 33.365485627286006 ], [ 126.735167866134248, 33.364839534122282 ], [ 126.73765253685454, 33.362114163860213 ], [ 126.737323050506674, 33.359881168200666 ], [ 126.742084127801832, 33.355769753374872 ], [ 126.742378447844715, 33.353014265259425 ], [ 126.747261913806483, 33.350624343761972 ], [ 126.751841403337593, 33.342090369202054 ], [ 126.756081478045942, 33.339865627073877 ], [ 126.758976524017498, 33.333573089759398 ], [ 126.758427934395996, 33.331893721460354 ], [ 126.760008572297238, 33.33162374624748 ], [ 126.759458760030199, 33.327853544516479 ], [ 126.757392897215368, 33.327047322294909 ], [ 126.7586733636861, 33.323249165424265 ], [ 126.761271512769952, 33.323409788375791 ], [ 126.761632194079041, 33.318013185939115 ], [ 126.765452491459172, 33.317154019142933 ], [ 126.769897267299541, 33.310788991442557 ], [ 126.774189262651149, 33.310695560053986 ], [ 126.775712599499585, 33.305860329062554 ], [ 126.773317561934661, 33.302093750260532 ], [ 126.765959505543165, 33.298512754542614 ], [ 126.763344227897903, 33.292323043329418 ], [ 126.759652063418628, 33.291263646923205 ], [ 126.760598175400389, 33.290668515235332 ], [ 126.760709561407495, 33.290327473768514 ], [ 126.759584224281838, 33.291259448649527 ], [ 126.753302428592875, 33.287385624558027 ], [ 126.752827624501521, 33.290259931716214 ], [ 126.751940155333529, 33.289776396409849 ], [ 126.751240707191187, 33.288130611038952 ], [ 126.752926219355018, 33.285615391650552 ], [ 126.752342480573219, 33.284259166204251 ], [ 126.75280800282053, 33.285649741811596 ], [ 126.750816800410576, 33.287820652241365 ], [ 126.750021507751143, 33.287476067483979 ], [ 126.75160329206777, 33.284578509833636 ], [ 126.749579720662254, 33.284912511521767 ], [ 126.743353195463158, 33.278851790616493 ], [ 126.739434776517626, 33.278843209499129 ], [ 126.738904821023468, 33.280307157731222 ], [ 126.737800741521852, 33.279300254218398 ], [ 126.733419746072954, 33.281860882861864 ], [ 126.730775785296956, 33.279321219549082 ], [ 126.723443362357699, 33.278938893517321 ], [ 126.721368568068129, 33.276452018446939 ], [ 126.719209706771267, 33.278270095842494 ], [ 126.719500565954021, 33.276127674374919 ], [ 126.718493293384569, 33.277800017817903 ], [ 126.716722398885807, 33.275820805292149 ], [ 126.713492177495837, 33.27640483664171 ], [ 126.691492759939194, 33.269389390319098 ], [ 126.681109263830507, 33.271181295652916 ], [ 126.677868044417437, 33.270571465201044 ], [ 126.676685643761402, 33.268302546220184 ], [ 126.66888086008467, 33.271473144659993 ], [ 126.665063028572277, 33.271206797008105 ], [ 126.665097338643619, 33.270874712120467 ], [ 126.663255195511624, 33.268298526462416 ], [ 126.661115887209363, 33.267288665182015 ], [ 126.664205341400589, 33.269777738539439 ], [ 126.661165382063402, 33.271312458978599 ], [ 126.662856639567849, 33.273714123373225 ], [ 126.658445381762334, 33.274132183656988 ], [ 126.660133441133908, 33.270926178129969 ], [ 126.65916901602516, 33.269674439904975 ], [ 126.660831088180274, 33.268594488806784 ], [ 126.658280010179098, 33.270096431384253 ], [ 126.65457395858536, 33.268725684732004 ], [ 126.653072773787244, 33.270175940348381 ], [ 126.650480347340434, 33.268072449179854 ], [ 126.6476146260473, 33.268842379995746 ], [ 126.641072198683787, 33.264968642437552 ], [ 126.641088861887098, 33.262875561743549 ], [ 126.641420055740397, 33.263361281072619 ], [ 126.642622892090372, 33.263513236918499 ], [ 126.639273279608787, 33.26059173017525 ], [ 126.640555401785321, 33.258799557078078 ], [ 126.639343545812906, 33.259193572315496 ], [ 126.63951799547759, 33.257891190715434 ], [ 126.631484090241472, 33.254360067997617 ], [ 126.6279626060239, 33.254732521150757 ], [ 126.627066334271959, 33.252197728889442 ], [ 126.624048532496033, 33.25199991765377 ], [ 126.622925801960733, 33.255173845712953 ], [ 126.624836846879603, 33.262680387470425 ], [ 126.621512979297606, 33.266113213656546 ], [ 126.623502510102696, 33.269160849191636 ], [ 126.620723090912875, 33.2782511893353 ], [ 126.615398032010717, 33.280320968921025 ], [ 126.614028466385435, 33.285706436941354 ], [ 126.609470106974072, 33.285686686582913 ], [ 126.60316047954548, 33.289805489695347 ], [ 126.605027758089037, 33.296428876335668 ], [ 126.601540066631884, 33.299722147720253 ], [ 126.601487776625873, 33.307139249823095 ], [ 126.598978209284837, 33.31138142847027 ], [ 126.599883631868394, 33.31476389524061 ], [ 126.595161635148543, 33.31769409044405 ], [ 126.594872838155212, 33.321250893615407 ], [ 126.588031858794224, 33.329777479364708 ], [ 126.586010316954173, 33.335722516784436 ], [ 126.577285291831402, 33.339222180257671 ], [ 126.564727418704862, 33.349169739684378 ], [ 126.559140413180842, 33.358915474046256 ], [ 126.540682331371599, 33.367179630114315 ] ] ] ] } },
{ "type": "Feature", "properties": { "emd_cd": "50130259", "emd_nm": "성산읍" }, "geometry": { "type": "MultiPolygon", "coordinates": [ [ [ [ 126.904186570492698, 33.402153534472134 ], [ 126.903526639676528, 33.401843185195141 ], [ 126.904034190424738, 33.402129630468195 ], [ 126.904103481374563, 33.402207223624501 ], [ 126.904186570492698, 33.402153534472134 ] ] ], [ [ [ 126.904460522562871, 33.401639792448059 ], [ 126.905759054696503, 33.402604003235972 ], [ 126.905323318945008, 33.401882402375328 ], [ 126.904460522562871, 33.401639792448059 ] ] ], [ [ [ 126.800305545443436, 33.382074646132338 ], [ 126.805695393479397, 33.385041396064977 ], [ 126.806296827611121, 33.387881456232044 ], [ 126.807926023497416, 33.388386746326027 ], [ 126.807936936564133, 33.39247621609951 ], [ 126.810529155118942, 33.395498877646553 ], [ 126.815015687029359, 33.410048421395445 ], [ 126.816859856500088, 33.412006051657961 ], [ 126.821707694445806, 33.430616098726247 ], [ 126.820578026799254, 33.431497429989868 ], [ 126.815571573143529, 33.429425185893216 ], [ 126.816008686075335, 33.435491645369062 ], [ 126.812373174945009, 33.44044979766479 ], [ 126.807404055071117, 33.440474791378904 ], [ 126.808107825801955, 33.444547889160198 ], [ 126.814424307529322, 33.445243369298929 ], [ 126.818212880108007, 33.447825209464902 ], [ 126.822121652313839, 33.446705724836143 ], [ 126.823939120360819, 33.453022502302716 ], [ 126.829501110638944, 33.4536417055862 ], [ 126.846312959049442, 33.462005194908599 ], [ 126.854692172020805, 33.463313620212872 ], [ 126.857736644327019, 33.46705804052263 ], [ 126.866244689697055, 33.468584337942588 ], [ 126.870356790443282, 33.472796708010939 ], [ 126.872738894619459, 33.472311966949633 ], [ 126.87256649265511, 33.474931541016666 ], [ 126.881467572172923, 33.477067279695447 ], [ 126.884519948062305, 33.48066804064085 ], [ 126.887941304515849, 33.47882338379361 ], [ 126.889480675057285, 33.480876037296269 ], [ 126.898015787287321, 33.483081067840473 ], [ 126.901817714992134, 33.482533219415309 ], [ 126.902422522603459, 33.480007827652116 ], [ 126.902258655657874, 33.481297719029406 ], [ 126.904886868055044, 33.478998433190554 ], [ 126.902990213439679, 33.4802586095404 ], [ 126.903802580531391, 33.477602362639949 ], [ 126.908173353310417, 33.478176702021322 ], [ 126.906136332820864, 33.478634214081858 ], [ 126.908117160300108, 33.478306589799885 ], [ 126.909525572052047, 33.479760069815903 ], [ 126.910117594755917, 33.47971575147438 ], [ 126.912383739529702, 33.472536748726547 ], [ 126.917072558698038, 33.471930045336002 ], [ 126.920491775644777, 33.469262167445784 ], [ 126.927022427380976, 33.473458310435156 ], [ 126.927562200307875, 33.475696927829468 ], [ 126.927523879676642, 33.473932051454604 ], [ 126.926733012762199, 33.472911998849341 ], [ 126.925445573285742, 33.472010721823438 ], [ 126.926070663080466, 33.471054185277282 ], [ 126.924574570431915, 33.469902982512927 ], [ 126.925962584166498, 33.468896940449532 ], [ 126.921678772219323, 33.468660015009803 ], [ 126.920924164687776, 33.465290031495442 ], [ 126.914858713598889, 33.462697465753138 ], [ 126.91668550813678, 33.461679894475942 ], [ 126.922050340782832, 33.463088441621984 ], [ 126.921261508716682, 33.459108138074384 ], [ 126.923358746907169, 33.455105576236008 ], [ 126.928520076989443, 33.45799291914259 ], [ 126.927763206886993, 33.460304460929031 ], [ 126.931876492713243, 33.464253893155345 ], [ 126.927794968685404, 33.468674335225415 ], [ 126.929684370280114, 33.471980354756802 ], [ 126.928209712310419, 33.473129246058086 ], [ 126.9352191593822, 33.473528691102722 ], [ 126.93552314253391, 33.475113268738234 ], [ 126.934824262340001, 33.47137731502216 ], [ 126.935779317728048, 33.473608501203351 ], [ 126.935914879951568, 33.478249749686519 ], [ 126.935898657151839, 33.473540727590105 ], [ 126.934519098702864, 33.470593124581896 ], [ 126.936285942528357, 33.468450445347237 ], [ 126.93604117175235, 33.46423511394908 ], [ 126.938535510887021, 33.463196473159805 ], [ 126.938683715109661, 33.461322028535143 ], [ 126.94374574519999, 33.460396776765783 ], [ 126.945275133251073, 33.456956362048558 ], [ 126.94094737111898, 33.456388318196332 ], [ 126.935625919628833, 33.460648054263281 ], [ 126.931838589154893, 33.460259019039611 ], [ 126.924727703083832, 33.453514633926929 ], [ 126.920790082124981, 33.445079997243667 ], [ 126.923911508001595, 33.435236912234373 ], [ 126.930999975647381, 33.432897987168346 ], [ 126.935007858383415, 33.42935904018276 ], [ 126.930567967824999, 33.42333921570205 ], [ 126.929139897300217, 33.423565147795735 ], [ 126.923322099693308, 33.427574839477167 ], [ 126.9261052642008, 33.430153335289525 ], [ 126.923660081305826, 33.434521336687901 ], [ 126.916276519587598, 33.434693504425326 ], [ 126.916091216291747, 33.428995670260335 ], [ 126.918585765113946, 33.428984683352212 ], [ 126.917775702576535, 33.427479370026894 ], [ 126.919645344445996, 33.427417250556083 ], [ 126.916408376787828, 33.427433297495234 ], [ 126.913865823664466, 33.424266506092529 ], [ 126.913780334208141, 33.421737534096067 ], [ 126.911214669856278, 33.419682519124315 ], [ 126.910743582320364, 33.414519490404992 ], [ 126.908226242370716, 33.412206612557064 ], [ 126.907569594202172, 33.407097144457659 ], [ 126.902866304727823, 33.403448203356646 ], [ 126.904266124434898, 33.402485084253044 ], [ 126.902744235175135, 33.401960352787334 ], [ 126.902789936444108, 33.401765378931692 ], [ 126.906274348213302, 33.397894508663398 ], [ 126.905549176354128, 33.391645711051531 ], [ 126.89112299637145, 33.387869498411916 ], [ 126.88029887925984, 33.382746327888952 ], [ 126.88223809511662, 33.381947487020803 ], [ 126.880605062443294, 33.381752899998901 ], [ 126.880772386835943, 33.379413834902962 ], [ 126.870773860926633, 33.372138943542105 ], [ 126.872493148881674, 33.3694064016114 ], [ 126.871703365016018, 33.366161698686142 ], [ 126.867156457638515, 33.364142045794821 ], [ 126.868178691481333, 33.354723127833672 ], [ 126.86307958792888, 33.348703101317248 ], [ 126.859397928421672, 33.347332440753419 ], [ 126.85717705015, 33.343279850430733 ], [ 126.859034746019574, 33.341865381915618 ], [ 126.859127955989635, 33.341329618327705 ], [ 126.856596856061714, 33.34302892127198 ], [ 126.855237460035696, 33.339759416577678 ], [ 126.858285124839227, 33.340922433277953 ], [ 126.855631335743041, 33.338853613101001 ], [ 126.853053184655053, 33.339161756750414 ], [ 126.849553940932608, 33.336780598914494 ], [ 126.849148405612951, 33.33955454059771 ], [ 126.837069334922802, 33.357822946512549 ], [ 126.825042565125855, 33.363125816308546 ], [ 126.815267050022371, 33.371910295925936 ], [ 126.807917504257304, 33.37315310316756 ], [ 126.802925430781741, 33.377486427067701 ], [ 126.800305545443436, 33.382074646132338 ] ] ], [ [ [ 126.93468315879575, 33.426694344668121 ], [ 126.934759071820167, 33.426736544780653 ], [ 126.934848870897042, 33.426660145366121 ], [ 126.93468315879575, 33.426694344668121 ] ] ], [ [ [ 126.940323835099235, 33.455296022750389 ], [ 126.940652965587574, 33.455118666961397 ], [ 126.94066065371203, 33.455091315972673 ], [ 126.940323835099235, 33.455296022750389 ] ] ], [ [ [ 126.947465004489743, 33.457183041525276 ], [ 126.947800465755009, 33.457298682703765 ], [ 126.947839163868352, 33.457233774723107 ], [ 126.947465004489743, 33.457183041525276 ] ] ], [ [ [ 126.904943905325936, 33.478985287119016 ], [ 126.906082214821808, 33.478644450769202 ], [ 126.904912847002024, 33.478895273952944 ], [ 126.904943905325936, 33.478985287119016 ] ] ] ] } },
{ "type": "Feature", "properties": { "emd_cd": "50130310", "emd_nm": "안덕면" }, "geometry": { "type": "MultiPolygon", "coordinates": [ [ [ [ 126.314213804358289, 33.207690296590265 ], [ 126.314317303962426, 33.208361716039427 ], [ 126.314495493352339, 33.208157545701127 ], [ 126.314213804358289, 33.207690296590265 ] ] ], [ [ [ 126.316426696229087, 33.20889419812292 ], [ 126.316507811853967, 33.208981172698365 ], [ 126.316530550777188, 33.208964545784625 ], [ 126.316426696229087, 33.20889419812292 ] ] ], [ [ [ 126.315932564749218, 33.209245903240252 ], [ 126.316114274077179, 33.20926423296104 ], [ 126.31604638347622, 33.209162084619258 ], [ 126.315932564749218, 33.209245903240252 ] ] ], [ [ [ 126.314014368194591, 33.208765906115957 ], [ 126.313500765431883, 33.211374104844516 ], [ 126.315633273947014, 33.209665994779648 ], [ 126.314014368194591, 33.208765906115957 ] ] ], [ [ [ 126.282061021289252, 33.303202946212032 ], [ 126.28635249447855, 33.304337401536827 ], [ 126.287350121146574, 33.307101368468864 ], [ 126.292409193921003, 33.310493655873181 ], [ 126.296322706986288, 33.321992053851318 ], [ 126.300174384774408, 33.322523318472619 ], [ 126.305946614416385, 33.326653549585224 ], [ 126.309319214238556, 33.325453366136443 ], [ 126.318332583867829, 33.32742602754432 ], [ 126.322572263424092, 33.325814167928876 ], [ 126.334802317352555, 33.336479056388498 ], [ 126.340236640098382, 33.343610190226613 ], [ 126.351975205825397, 33.340685055537421 ], [ 126.361215867469696, 33.34203462120329 ], [ 126.367470311857019, 33.341149175377069 ], [ 126.375923720289208, 33.346893615441729 ], [ 126.391644470911359, 33.343558231564053 ], [ 126.400687230248508, 33.344716207208982 ], [ 126.409102749601644, 33.342124515944711 ], [ 126.432589701421719, 33.341121384965263 ], [ 126.434950759334782, 33.338398585453092 ], [ 126.43319161964466, 33.335994144280782 ], [ 126.427502373645098, 33.333469260821659 ], [ 126.426744248355007, 33.328588855865398 ], [ 126.422609620125428, 33.322309359725026 ], [ 126.422752530399649, 33.313296030681428 ], [ 126.413100026266306, 33.304921804561459 ], [ 126.40542407549809, 33.303764486994027 ], [ 126.401786296593016, 33.297393210269298 ], [ 126.400743849850002, 33.291334619209493 ], [ 126.396261025225641, 33.292056597802343 ], [ 126.385296125371184, 33.298922073487397 ], [ 126.382703746685337, 33.301739706090615 ], [ 126.382644169794347, 33.30272632791862 ], [ 126.384067807094354, 33.304950209258237 ], [ 126.384019860663756, 33.3052799956508 ], [ 126.379727624331096, 33.302000531102884 ], [ 126.370902757967784, 33.288097777080473 ], [ 126.371459681384749, 33.282356290363843 ], [ 126.368422959259632, 33.277602614736161 ], [ 126.3723805954006, 33.273161328573849 ], [ 126.37186287099091, 33.271231233597689 ], [ 126.373785343217861, 33.268942011972754 ], [ 126.37042184953296, 33.261908333420784 ], [ 126.371973597828571, 33.261513202798206 ], [ 126.372940498336817, 33.257893181853383 ], [ 126.369586269731798, 33.25417759507917 ], [ 126.371722284531373, 33.25121960876033 ], [ 126.372560806818555, 33.245005220422129 ], [ 126.367317629522432, 33.231923893206208 ], [ 126.364958035212879, 33.232346515015017 ], [ 126.361817923524086, 33.237243474212541 ], [ 126.361776684624829, 33.235529055192458 ], [ 126.357399701622981, 33.237275085062649 ], [ 126.350763378566072, 33.235175629826443 ], [ 126.346591686463654, 33.237125160838374 ], [ 126.33728053050811, 33.236781913550992 ], [ 126.336921615237273, 33.235051151121532 ], [ 126.33366634998437, 33.234139636129569 ], [ 126.335535227145044, 33.234786192487739 ], [ 126.33275028069076, 33.236930243434593 ], [ 126.334479202739075, 33.237419011280181 ], [ 126.333790558423445, 33.239134605399464 ], [ 126.33584042391999, 33.238349914689636 ], [ 126.33605011617756, 33.239407899360003 ], [ 126.330976059879987, 33.241256618150395 ], [ 126.330486387964712, 33.239596001242802 ], [ 126.328555517568347, 33.239585482712798 ], [ 126.328249192698152, 33.235889283243615 ], [ 126.32821487087719, 33.241365299752928 ], [ 126.326802962674222, 33.241410206207405 ], [ 126.314974865773294, 33.236654466031879 ], [ 126.315371098852864, 33.231591875505309 ], [ 126.313780197998071, 33.23324812956681 ], [ 126.310838149368905, 33.232763960368459 ], [ 126.30866892051489, 33.227408940875556 ], [ 126.306352575435355, 33.226138082827326 ], [ 126.306502681425314, 33.226886422035761 ], [ 126.308591903250687, 33.227466413688383 ], [ 126.308694684161495, 33.227979805735366 ], [ 126.301241570204979, 33.226909591507557 ], [ 126.296998448001432, 33.223680867885413 ], [ 126.293700456337035, 33.218001248098375 ], [ 126.291607793139519, 33.218202651341429 ], [ 126.289728397562598, 33.226020334116221 ], [ 126.284346325100131, 33.231835050813523 ], [ 126.285001600561884, 33.23935720348414 ], [ 126.294339925663692, 33.250476739219849 ], [ 126.294133994000958, 33.256210377402986 ], [ 126.296472943703392, 33.258452883331053 ], [ 126.295435957207573, 33.259015392976416 ], [ 126.296799776024272, 33.263098358944362 ], [ 126.295022277689213, 33.266021086219716 ], [ 126.30464771715728, 33.275113488535851 ], [ 126.302032778229844, 33.28051554732864 ], [ 126.293909346424741, 33.28577629364522 ], [ 126.29342576863084, 33.296522590406745 ], [ 126.283405348781315, 33.301396094796729 ], [ 126.282061021289252, 33.303202946212032 ] ] ] ] } },
{ "type": "Feature", "properties": { "emd_cd": "50130320", "emd_nm": "표선면" }, "geometry": { "type": "MultiPolygon", "coordinates": [ [ [ [ 126.775999258699585, 33.307055999570224 ], [ 126.773941724282082, 33.310885864152233 ], [ 126.769897267299541, 33.310788991442557 ], [ 126.765452491459172, 33.317154019142933 ], [ 126.761632194079041, 33.318013185939115 ], [ 126.761271512769952, 33.323409788375791 ], [ 126.7586733636861, 33.323249165424265 ], [ 126.757392897215368, 33.327047322294909 ], [ 126.759458760030199, 33.327853544516479 ], [ 126.760008572297238, 33.33162374624748 ], [ 126.758427934395996, 33.331893721460354 ], [ 126.758976524017498, 33.333573089759398 ], [ 126.756081478045942, 33.339865627073877 ], [ 126.751841403337593, 33.342090369202054 ], [ 126.747261913806483, 33.350624343761972 ], [ 126.742378447844715, 33.353014265259425 ], [ 126.742084127801832, 33.355769753374872 ], [ 126.737323050506674, 33.359881168200666 ], [ 126.73765253685454, 33.362114163860213 ], [ 126.735167866134248, 33.364839534122282 ], [ 126.730471507744724, 33.365485627286006 ], [ 126.720743109145715, 33.371253636784139 ], [ 126.713604800336341, 33.372109212645583 ], [ 126.712797602608191, 33.373543457751573 ], [ 126.701870148287171, 33.376363864446581 ], [ 126.697605320721621, 33.37666668691071 ], [ 126.69563902201989, 33.374024856804667 ], [ 126.686342520621906, 33.377290583263374 ], [ 126.681646826912115, 33.375428270635709 ], [ 126.678038471386614, 33.37860158234821 ], [ 126.674203915154834, 33.379006557110387 ], [ 126.671485912336792, 33.38700252879412 ], [ 126.667883493982899, 33.386906284819581 ], [ 126.655423429311554, 33.393085989412938 ], [ 126.653418995822875, 33.39505491970268 ], [ 126.654587004664222, 33.398981062224131 ], [ 126.661722403323878, 33.402191624697643 ], [ 126.669431805741183, 33.400385401957543 ], [ 126.687728287536856, 33.41328472019439 ], [ 126.701421039317083, 33.419886311483928 ], [ 126.709058276524317, 33.421897174069763 ], [ 126.71728460974434, 33.421884989160226 ], [ 126.731825317345383, 33.426721937642284 ], [ 126.734269436174699, 33.423730686514205 ], [ 126.741404764716847, 33.420269215498145 ], [ 126.750580175301323, 33.419422756126643 ], [ 126.761283198017168, 33.421460513204529 ], [ 126.770030762182643, 33.426259229412061 ], [ 126.778478156718748, 33.433991881921983 ], [ 126.7834602001425, 33.434901782690609 ], [ 126.788562796735093, 33.441355284053593 ], [ 126.797031293015976, 33.440085023964798 ], [ 126.808107825801955, 33.444547889160198 ], [ 126.807404055071117, 33.440474791378904 ], [ 126.812373174945009, 33.44044979766479 ], [ 126.816008686075335, 33.435491645369062 ], [ 126.815571573143529, 33.429425185893216 ], [ 126.820578026799254, 33.431497429989868 ], [ 126.821707694445806, 33.430616098726247 ], [ 126.816859856500088, 33.412006051657961 ], [ 126.815015687029359, 33.410048421395445 ], [ 126.810529155118942, 33.395498877646553 ], [ 126.807936936564133, 33.39247621609951 ], [ 126.807926023497416, 33.388386746326027 ], [ 126.806296827611121, 33.387881456232044 ], [ 126.805695393479397, 33.385041396064977 ], [ 126.800305545443436, 33.382074646132338 ], [ 126.807917504257304, 33.37315310316761 ], [ 126.815267050022371, 33.371910295925936 ], [ 126.824078039735298, 33.36375902926742 ], [ 126.837069334922802, 33.357822946512549 ], [ 126.839902560598631, 33.354356624305844 ], [ 126.849553940932608, 33.336780598914494 ], [ 126.841522959269966, 33.330239452814787 ], [ 126.837307254132583, 33.329902556372524 ], [ 126.836740116291082, 33.327338110184229 ], [ 126.842256417064846, 33.325464778952366 ], [ 126.845817506181277, 33.327478757044346 ], [ 126.844672532460805, 33.325828607667134 ], [ 126.845638720039744, 33.32534249431135 ], [ 126.846822504002702, 33.327708122218212 ], [ 126.846979187942907, 33.324977296105779 ], [ 126.845570244963611, 33.324018507662018 ], [ 126.847052781812707, 33.320898201157817 ], [ 126.837006338433625, 33.314570511983888 ], [ 126.837505156580818, 33.312502046580079 ], [ 126.831106864585905, 33.309764861618895 ], [ 126.828835128071233, 33.306434941468346 ], [ 126.82251132338601, 33.306014318586726 ], [ 126.816343238377399, 33.307996531718459 ], [ 126.808217034248827, 33.303008873231128 ], [ 126.804776475610055, 33.302811576358941 ], [ 126.806238358278378, 33.303723342431006 ], [ 126.805971761319753, 33.30587968737337 ], [ 126.80331065699437, 33.304467287203586 ], [ 126.80334184196623, 33.30283600502576 ], [ 126.793714288741043, 33.304981654219041 ], [ 126.791803045208127, 33.303625798736867 ], [ 126.788691299357126, 33.303747534013411 ], [ 126.786216724237136, 33.306428111059667 ], [ 126.775999258699585, 33.307055999570224 ] ] ] ] } }
]
}
