{
"type": "FeatureCollection",
"name": "48129",
"crs": { "type": "name", "properties": { "name": "urn:ogc:def:crs:OGC:1.3:CRS84" } },
"features": [
{ "type": "Feature", "properties": { "emd_cd": "48129101", "emd_nm": "동상동" }, "geometry": { "type": "MultiPolygon", "coordinates": [ [ [ [ 128.655997637811765, 35.154894444820648 ], [ 128.656025245811634, 35.15385426619666 ], [ 128.647961923238825, 35.153777949990079 ], [ 128.650457421438404, 35.155180818413051 ], [ 128.655997637811765, 35.154894444820648 ] ] ] ] } },
{ "type": "Feature", "properties": { "emd_cd": "48129102", "emd_nm": "도천동" }, "geometry": { "type": "MultiPolygon", "coordinates": [ [ [ [ 128.656025245811634, 35.15385426619666 ], [ 128.655241481168559, 35.151667570560733 ], [ 128.65281501140592, 35.151623829709635 ], [ 128.652773298766078, 35.153213475524964 ], [ 128.647978333480239, 35.153206262472537 ], [ 128.656025245811634, 35.15385426619666 ] ] ] ] } },
{ "type": "Feature", "properties": { "emd_cd": "48129103", "emd_nm": "도만동" }, "geometry": { "type": "MultiPolygon", "coordinates": [ [ [ [ 128.65614507164608, 35.148667992357986 ], [ 128.653122105090063, 35.147589211810448 ], [ 128.65281501140592, 35.151623829709635 ], [ 128.655925541612817, 35.151680843959262 ], [ 128.65614507164608, 35.148667992357986 ] ] ] ] } },
{ "type": "Feature", "properties": { "emd_cd": "48129104", "emd_nm": "신흥동" }, "geometry": { "type": "MultiPolygon", "coordinates": [ [ [ [ 128.655297111279367, 35.144335255737971 ], [ 128.655958238034742, 35.147642235981827 ], [ 128.657214009815249, 35.147975559960805 ], [ 128.657831549547609, 35.144090243036175 ], [ 128.655297111279367, 35.144335255737971 ] ] ] ] } },
{ "type": "Feature", "properties": { "emd_cd": "48129105", "emd_nm": "현동" }, "geometry": { "type": "MultiPolygon", "coordinates": [ [ [ [ 128.623979389656398, 35.150377508907006 ], [ 128.625839421332131, 35.155646475122353 ], [ 128.628685007334212, 35.158395101811088 ], [ 128.625118903922925, 35.163072134898648 ], [ 128.629001935394001, 35.168849387120929 ], [ 128.638205764324226, 35.17663869501164 ], [ 128.646723238670859, 35.176433506221152 ], [ 128.649329253762232, 35.177962816580397 ], [ 128.651619338495749, 35.173015585751401 ], [ 128.660280408778704, 35.163623711529624 ], [ 128.65829952979081, 35.163809609070881 ], [ 128.655997637811765, 35.154894444820648 ], [ 128.647952189845398, 35.154186215134757 ], [ 128.652773298766078, 35.153213475524964 ], [ 128.653122105090063, 35.147589211810448 ], [ 128.655958238034742, 35.147642235981827 ], [ 128.655285121107596, 35.141335341956768 ], [ 128.656571853920184, 35.142981021511631 ], [ 128.658596519646551, 35.143258379640862 ], [ 128.658915614011136, 35.136994656979475 ], [ 128.656201167211378, 35.136622844596737 ], [ 128.656229069405782, 35.132655933451296 ], [ 128.65399309876679, 35.135613455095566 ], [ 128.644455789143137, 35.135617709894206 ], [ 128.642137295385396, 35.1454141237461 ], [ 128.643222352571456, 35.14793993793544 ], [ 128.644570653778942, 35.145859749263785 ], [ 128.647028888111777, 35.146527077018291 ], [ 128.647061482220693, 35.150470762465652 ], [ 128.639893208367766, 35.149600118409737 ], [ 128.639927698570375, 35.148240615170366 ], [ 128.639728595705776, 35.149597554054495 ], [ 128.638908997730368, 35.148221843271749 ], [ 128.638707502400166, 35.149582423741613 ], [ 128.634663141656176, 35.14949579841408 ], [ 128.637173167209767, 35.145974221491315 ], [ 128.630515965832075, 35.148344174783773 ], [ 128.631005668924587, 35.146656578099567 ], [ 128.628714799172656, 35.145761281710804 ], [ 128.630700947880825, 35.146647002285199 ], [ 128.629500884137798, 35.148569790069885 ], [ 128.625489913809872, 35.147523663269624 ], [ 128.623979389656398, 35.150377508907006 ] ] ] ] } },
{ "type": "Feature", "properties": { "emd_cd": "48129106", "emd_nm": "비봉동" }, "geometry": { "type": "MultiPolygon", "coordinates": [ [ [ [ 128.625310391709064, 35.12725863708075 ], [ 128.626437390459557, 35.129220381791903 ], [ 128.626699432225848, 35.127589400556559 ], [ 128.625310391709064, 35.12725863708075 ] ] ], [ [ [ 128.624459703428073, 35.152247519911782 ], [ 128.627075424763547, 35.144631207610971 ], [ 128.624504230485854, 35.142909715582185 ], [ 128.627576708396532, 35.142079714692635 ], [ 128.624974278596028, 35.141535390562716 ], [ 128.623726517994754, 35.13918048662682 ], [ 128.624853294596591, 35.138777357399313 ], [ 128.623157128724642, 35.138105877139331 ], [ 128.624152618261917, 35.137455130744513 ], [ 128.618753624567034, 35.135871897568542 ], [ 128.621068179136898, 35.135130457739102 ], [ 128.619472120046623, 35.134264007136601 ], [ 128.622448000373396, 35.134399926011632 ], [ 128.621374301044199, 35.13289280198115 ], [ 128.623678853090297, 35.132588039542533 ], [ 128.62868349565565, 35.132650269523779 ], [ 128.632744613479218, 35.13589672585497 ], [ 128.628727314469131, 35.132566659611378 ], [ 128.620815070384936, 35.132525233253581 ], [ 128.619314498337729, 35.133074771115311 ], [ 128.616225935405652, 35.13901671806255 ], [ 128.615552059155988, 35.135785473938988 ], [ 128.614933359846276, 35.139807134677596 ], [ 128.611067691241004, 35.137439721737479 ], [ 128.607009837071274, 35.137895799805158 ], [ 128.610364975567109, 35.143634738235235 ], [ 128.61504562542757, 35.144664600867877 ], [ 128.615028095258566, 35.14708044265619 ], [ 128.610034555421606, 35.148459877384916 ], [ 128.611229534892345, 35.149796727950758 ], [ 128.609873658697836, 35.15099279819124 ], [ 128.612931480702287, 35.151815125800269 ], [ 128.614565733999797, 35.154764755141898 ], [ 128.618137075003659, 35.154747640550866 ], [ 128.619195248750572, 35.15844863993663 ], [ 128.625118903922953, 35.163072134898648 ], [ 128.628685007334184, 35.158395101811081 ], [ 128.624459703428073, 35.152247519911782 ] ] ] ] } },
{ "type": "Feature", "properties": { "emd_cd": "48129107", "emd_nm": "태평동" }, "geometry": { "type": "MultiPolygon", "coordinates": [ [ [ [ 128.658090016101852, 35.145953979448961 ], [ 128.658246464015434, 35.1470007024121 ], [ 128.66900834017784, 35.145925014330089 ], [ 128.671307785985732, 35.143397193759213 ], [ 128.658090016101852, 35.145953979448961 ] ] ] ] } },
{ "type": "Feature", "properties": { "emd_cd": "48129108", "emd_nm": "충의동" }, "geometry": { "type": "MultiPolygon", "coordinates": [ [ [ [ 128.658090016101852, 35.145953979448961 ], [ 128.667338350554417, 35.144469010681448 ], [ 128.658008703629633, 35.145368131885924 ], [ 128.658090016101852, 35.145953979448961 ] ] ] ] } },
{ "type": "Feature", "properties": { "emd_cd": "48129109", "emd_nm": "무송동" }, "geometry": { "type": "MultiPolygon", "coordinates": [ [ [ [ 128.664286684451326, 35.144763169933974 ], [ 128.667288076786861, 35.144128999230468 ], [ 128.664239971262646, 35.144422283851817 ], [ 128.664286684451326, 35.144763169933974 ] ] ] ] } },
{ "type": "Feature", "properties": { "emd_cd": "48129110", "emd_nm": "인의동" }, "geometry": { "type": "MultiPolygon", "coordinates": [ [ [ [ 128.662346158740121, 35.144949545273967 ], [ 128.658534303543263, 35.140486644774604 ], [ 128.658596519646551, 35.143258379640862 ], [ 128.655285121107596, 35.141335341956768 ], [ 128.655297111279367, 35.144335255737971 ], [ 128.662346158740121, 35.144949545273967 ] ] ] ] } },
{ "type": "Feature", "properties": { "emd_cd": "48129111", "emd_nm": "숭인동" }, "geometry": { "type": "MultiPolygon", "coordinates": [ [ [ [ 128.661557194813099, 35.145027762698263 ], [ 128.660666665573871, 35.14451959441304 ], [ 128.657926577118815, 35.144780416109256 ], [ 128.658008703629633, 35.145368131885924 ], [ 128.661557194813099, 35.145027762698263 ] ] ] ] } },
{ "type": "Feature", "properties": { "emd_cd": "48129112", "emd_nm": "대영동" }, "geometry": { "type": "MultiPolygon", "coordinates": [ [ [ [ 128.660666665573871, 35.14451959441304 ], [ 128.65932007866013, 35.143759845545276 ], [ 128.657846626121284, 35.144197537636998 ], [ 128.657926577118815, 35.144780416109256 ], [ 128.660666665573871, 35.14451959441304 ] ] ] ] } },
{ "type": "Feature", "properties": { "emd_cd": "48129113", "emd_nm": "남빈동" }, "geometry": { "type": "MultiPolygon", "coordinates": [ [ [ [ 128.659358690859705, 35.144051767226209 ], [ 128.657804824131517, 35.143906057128056 ], [ 128.657846626121284, 35.144197537636998 ], [ 128.659358690859705, 35.144051767226209 ] ] ] ] } },
{ "type": "Feature", "properties": { "emd_cd": "48129114", "emd_nm": "앵곡동" }, "geometry": { "type": "MultiPolygon", "coordinates": [ [ [ [ 128.659417191521385, 35.138534349269278 ], [ 128.658478471187209, 35.140466143263993 ], [ 128.66264501564882, 35.141879600756937 ], [ 128.664003162186759, 35.140423216952719 ], [ 128.659417191521385, 35.138534349269278 ] ] ] ] } },
{ "type": "Feature", "properties": { "emd_cd": "48129115", "emd_nm": "제황산동" }, "geometry": { "type": "MultiPolygon", "coordinates": [ [ [ [ 128.668323431681245, 35.150545147143525 ], [ 128.675254038425322, 35.152043335054834 ], [ 128.678604790078509, 35.146456951372102 ], [ 128.671307785985732, 35.143397193759213 ], [ 128.669013650943953, 35.145922442018424 ], [ 128.663262355610044, 35.146196196264953 ], [ 128.661415821868303, 35.148191389566101 ], [ 128.663822684247123, 35.150613055434611 ], [ 128.668126491966945, 35.148344794492111 ], [ 128.668323431681245, 35.150545147143525 ] ] ] ] } },
{ "type": "Feature", "properties": { "emd_cd": "48129116", "emd_nm": "속천동" }, "geometry": { "type": "MultiPolygon", "coordinates": [ [ [ [ 128.669300614206406, 35.14134889312988 ], [ 128.669146422383562, 35.144045821605822 ], [ 128.67315607876597, 35.143828509277441 ], [ 128.670827495306838, 35.142476369756842 ], [ 128.671224191249735, 35.141223309316281 ], [ 128.669300614206406, 35.14134889312988 ] ] ] ] } },
{ "type": "Feature", "properties": { "emd_cd": "48129117", "emd_nm": "대죽동" }, "geometry": { "type": "MultiPolygon", "coordinates": [ [ [ [ 128.658510684381895, 35.140937957180149 ], [ 128.66223938674645, 35.144959882415947 ], [ 128.668180722118421, 35.144899787820947 ], [ 128.669300614206406, 35.14134889312988 ], [ 128.672412126096617, 35.141962584912342 ], [ 128.673300417714017, 35.139607955717722 ], [ 128.675013395375686, 35.140294635420986 ], [ 128.675281856014266, 35.142413960918759 ], [ 128.675073806830397, 35.140252073991391 ], [ 128.672716415219213, 35.138822826891271 ], [ 128.673139188299899, 35.137613879153605 ], [ 128.65991239874495, 35.138161927741976 ], [ 128.664003162186759, 35.140423216952719 ], [ 128.66264501564882, 35.141879600756937 ], [ 128.658510684381895, 35.140937957180149 ] ] ] ] } },
{ "type": "Feature", "properties": { "emd_cd": "48129118", "emd_nm": "안곡동" }, "geometry": { "type": "MultiPolygon", "coordinates": [ [ [ [ 128.669229363722593, 35.05646261481354 ], [ 128.668641266763387, 35.056608439323377 ], [ 128.669012201242822, 35.05700076596969 ], [ 128.669229363722593, 35.05646261481354 ] ] ], [ [ [ 128.669914083217208, 35.057627546429067 ], [ 128.664756183725046, 35.058380574664064 ], [ 128.662530371540299, 35.060012535277551 ], [ 128.668677281012407, 35.061046732771246 ], [ 128.672986047832097, 35.057908754513143 ], [ 128.669932945426581, 35.055884240370048 ], [ 128.669229363722593, 35.05646261481354 ], [ 128.669914083217208, 35.057627546429067 ] ] ], [ [ [ 128.678424342623089, 35.098303740021549 ], [ 128.678582477925545, 35.098087429320493 ], [ 128.678281084886663, 35.09818481153328 ], [ 128.678424342623089, 35.098303740021549 ] ] ], [ [ [ 128.679564501372141, 35.09830523962134 ], [ 128.679027782841814, 35.098171214740184 ], [ 128.679005793198058, 35.098243688657 ], [ 128.679564501372141, 35.09830523962134 ] ] ], [ [ [ 128.670568132831505, 35.099508712036624 ], [ 128.672896808811515, 35.099109080933175 ], [ 128.670517564360267, 35.098343594586972 ], [ 128.670568132831505, 35.099508712036624 ] ] ], [ [ [ 128.644613107803337, 35.103116570417903 ], [ 128.649100660980935, 35.102158904595207 ], [ 128.648350582456942, 35.104938789847168 ], [ 128.649745613488619, 35.105734245163873 ], [ 128.661579656964534, 35.10510040394621 ], [ 128.655940815445177, 35.104232737878888 ], [ 128.654078796019888, 35.101518945442145 ], [ 128.655826230653986, 35.10042576011206 ], [ 128.660212846863487, 35.101739826713143 ], [ 128.660543238694999, 35.100609974985851 ], [ 128.658012621667183, 35.099312322942204 ], [ 128.661047983425192, 35.09469280921995 ], [ 128.653380083515998, 35.099898417957128 ], [ 128.646197073796401, 35.09922941971633 ], [ 128.644613107803337, 35.103116570417903 ] ] ], [ [ [ 128.667703310893501, 35.111893206818422 ], [ 128.668665119584773, 35.112181887282411 ], [ 128.667968124895793, 35.111702847825782 ], [ 128.667703310893501, 35.111893206818422 ] ] ], [ [ [ 128.668919862194997, 35.116692794509092 ], [ 128.669202919399225, 35.116116323957577 ], [ 128.668559831017944, 35.116671796328021 ], [ 128.668919862194997, 35.116692794509092 ] ] ], [ [ [ 128.651253393863556, 35.120083631475119 ], [ 128.654302878241083, 35.119975758006518 ], [ 128.65257998207997, 35.118572990137565 ], [ 128.651253393863556, 35.120083631475119 ] ] ], [ [ [ 128.659417191521385, 35.138534349269278 ], [ 128.672944034039489, 35.137891390798679 ], [ 128.673270087734636, 35.133986015160893 ], [ 128.677487936472886, 35.127250570686137 ], [ 128.677151341422814, 35.124786564468231 ], [ 128.670707459541546, 35.123329040634502 ], [ 128.670780868358378, 35.120941640239401 ], [ 128.665983527212319, 35.118768225345747 ], [ 128.666137143587548, 35.120724889741204 ], [ 128.668169504207668, 35.121563734398805 ], [ 128.66629503934621, 35.121815182377425 ], [ 128.666933282033341, 35.123408846967351 ], [ 128.66574716525983, 35.123881609732756 ], [ 128.664300222422639, 35.1214367780887 ], [ 128.662173561193242, 35.121854580929501 ], [ 128.665178292146891, 35.125418096112831 ], [ 128.661359921083914, 35.126527331564006 ], [ 128.663649905113374, 35.130201030250532 ], [ 128.659005490276655, 35.13464906737326 ], [ 128.659417191521385, 35.138534349269278 ] ] ] ] } },
{ "type": "Feature", "properties": { "emd_cd": "48129119", "emd_nm": "수송동" }, "geometry": { "type": "MultiPolygon", "coordinates": [ [ [ [ 128.655219776534921, 35.152358673178021 ], [ 128.657180906758043, 35.15187523289309 ], [ 128.656010626865168, 35.14866569832639 ], [ 128.655219776534921, 35.152358673178021 ] ] ] ] } },
{ "type": "Feature", "properties": { "emd_cd": "48129120", "emd_nm": "회현동" }, "geometry": { "type": "MultiPolygon", "coordinates": [ [ [ [ 128.656717304711691, 35.151728238616847 ], [ 128.657325138693807, 35.149916304220483 ], [ 128.656993661742717, 35.148366552910062 ], [ 128.656717304711691, 35.151728238616847 ] ] ] ] } },
{ "type": "Feature", "properties": { "emd_cd": "48129121", "emd_nm": "익선동" }, "geometry": { "type": "MultiPolygon", "coordinates": [ [ [ [ 128.657450956632516, 35.151596202527216 ], [ 128.657644197701359, 35.148237352815009 ], [ 128.657319768968108, 35.14805310613464 ], [ 128.657450956632516, 35.151596202527216 ] ] ] ] } },
{ "type": "Feature", "properties": { "emd_cd": "48129122", "emd_nm": "창선동" }, "geometry": { "type": "MultiPolygon", "coordinates": [ [ [ [ 128.658037668932138, 35.150999234536279 ], [ 128.658495465138117, 35.14872101435283 ], [ 128.657644197701359, 35.148237352815009 ], [ 128.658037668932138, 35.150999234536279 ] ] ] ] } },
{ "type": "Feature", "properties": { "emd_cd": "48129123", "emd_nm": "대천동" }, "geometry": { "type": "MultiPolygon", "coordinates": [ [ [ [ 128.659625912650057, 35.149362527162211 ], [ 128.658544928220152, 35.148749114238797 ], [ 128.658495465138117, 35.14872101435283 ], [ 128.658728160771631, 35.150288752603984 ], [ 128.659625912650057, 35.149362527162211 ] ] ] ] } },
{ "type": "Feature", "properties": { "emd_cd": "48129124", "emd_nm": "광화동" }, "geometry": { "type": "MultiPolygon", "coordinates": [ [ [ [ 128.657437987222636, 35.147939465920146 ], [ 128.659625912650057, 35.149362527162211 ], [ 128.661362890293049, 35.147561827359887 ], [ 128.660311219032536, 35.147421235084266 ], [ 128.657437987222636, 35.147939465920146 ] ] ] ] } },
{ "type": "Feature", "properties": { "emd_cd": "48129125", "emd_nm": "통신동" }, "geometry": { "type": "MultiPolygon", "coordinates": [ [ [ [ 128.660864739007764, 35.148078218664359 ], [ 128.659625912650057, 35.149362527162211 ], [ 128.661173275282579, 35.15024754707693 ], [ 128.661042055238624, 35.149309421878051 ], [ 128.660864739007764, 35.148078218664359 ] ] ] ] } },
{ "type": "Feature", "properties": { "emd_cd": "48129126", "emd_nm": "중앙동" }, "geometry": { "type": "MultiPolygon", "coordinates": [ [ [ [ 128.662530830781122, 35.150207383587919 ], [ 128.661580124180915, 35.149347743329912 ], [ 128.661197215275848, 35.147733574506617 ], [ 128.661173275282579, 35.15024754707693 ], [ 128.662530830781122, 35.150207383587919 ] ] ] ] } },
{ "type": "Feature", "properties": { "emd_cd": "48129127", "emd_nm": "부흥동" }, "geometry": { "type": "MultiPolygon", "coordinates": [ [ [ [ 128.661667779637156, 35.147841605798092 ], [ 128.662619760658913, 35.146263553021903 ], [ 128.661197215275848, 35.147733574506617 ], [ 128.661667779637156, 35.147841605798092 ] ] ] ] } },
{ "type": "Feature", "properties": { "emd_cd": "48129128", "emd_nm": "중평동" }, "geometry": { "type": "MultiPolygon", "coordinates": [ [ [ [ 128.660311219032536, 35.147421235084266 ], [ 128.661994805075039, 35.146911038623024 ], [ 128.657437987222636, 35.147939465920146 ], [ 128.660311219032536, 35.147421235084266 ] ] ] ] } },
{ "type": "Feature", "properties": { "emd_cd": "48129129", "emd_nm": "근화동" }, "geometry": { "type": "MultiPolygon", "coordinates": [ [ [ [ 128.658287116814563, 35.147281723698363 ], [ 128.662619760658913, 35.146263553021903 ], [ 128.658246464015434, 35.1470007024121 ], [ 128.658287116814563, 35.147281723698363 ] ] ] ] } },
{ "type": "Feature", "properties": { "emd_cd": "48129130", "emd_nm": "송죽동" }, "geometry": { "type": "MultiPolygon", "coordinates": [ [ [ [ 128.656002549761808, 35.147642488493396 ], [ 128.656674647916503, 35.148678423574175 ], [ 128.658287116814563, 35.147281723698363 ], [ 128.658213013823712, 35.146768509681344 ], [ 128.656002549761808, 35.147642488493396 ] ] ] ] } },
{ "type": "Feature", "properties": { "emd_cd": "48129131", "emd_nm": "화천동" }, "geometry": { "type": "MultiPolygon", "coordinates": [ [ [ [ 128.657706481839966, 35.151821715484964 ], [ 128.656803210651134, 35.152478433719445 ], [ 128.666155925053658, 35.151596057467813 ], [ 128.657706481839966, 35.151821715484964 ] ] ] ] } },
{ "type": "Feature", "properties": { "emd_cd": "48129132", "emd_nm": "송학동" }, "geometry": { "type": "MultiPolygon", "coordinates": [ [ [ [ 128.657180906758043, 35.15187523289309 ], [ 128.665501412141055, 35.151063421076593 ], [ 128.666071011628674, 35.151013883227492 ], [ 128.661777348682705, 35.150740433043076 ], [ 128.657180906758043, 35.15187523289309 ] ] ] ] } },
{ "type": "Feature", "properties": { "emd_cd": "48129133", "emd_nm": "대흥동" }, "geometry": { "type": "MultiPolygon", "coordinates": [ [ [ [ 128.661777348682705, 35.150740433043076 ], [ 128.665460367067737, 35.149795340584831 ], [ 128.657816503028101, 35.151210425006219 ], [ 128.661777348682705, 35.150740433043076 ] ] ] ] } },
{ "type": "Feature", "properties": { "emd_cd": "48129134", "emd_nm": "평안동" }, "geometry": { "type": "MultiPolygon", "coordinates": [ [ [ [ 128.660615097918424, 35.15039031176245 ], [ 128.659625912650057, 35.149362527162211 ], [ 128.658422848710956, 35.150604244882125 ], [ 128.660615097918424, 35.15039031176245 ] ] ] ] } },
{ "type": "Feature", "properties": { "emd_cd": "48129135", "emd_nm": "충무동" }, "geometry": { "type": "MultiPolygon", "coordinates": [ [ [ [ 128.656041307188389, 35.15328686685951 ], [ 128.674986926020495, 35.152703558495752 ], [ 128.675254038425322, 35.152043335054834 ], [ 128.668317152647347, 35.150505172983095 ], [ 128.656041307188389, 35.15328686685951 ] ] ] ] } },
{ "type": "Feature", "properties": { "emd_cd": "48129136", "emd_nm": "인사동" }, "geometry": { "type": "MultiPolygon", "coordinates": [ [ [ [ 128.668126491966945, 35.148344794492111 ], [ 128.666030683644806, 35.15071628969568 ], [ 128.668747048796888, 35.150497448679509 ], [ 128.668126491966945, 35.148344794492111 ] ] ] ] } },
{ "type": "Feature", "properties": { "emd_cd": "48129137", "emd_nm": "여좌동" }, "geometry": { "type": "MultiPolygon", "coordinates": [ [ [ [ 128.67541271327039, 35.153833259428566 ], [ 128.66842686358882, 35.152086291132171 ], [ 128.656041307188389, 35.15328686685951 ], [ 128.65829952979081, 35.163809609070888 ], [ 128.660655093181958, 35.163588432623833 ], [ 128.660861435602754, 35.164988528287331 ], [ 128.664778102949498, 35.164125013340943 ], [ 128.670894013028374, 35.157694084183362 ], [ 128.669314654234029, 35.158677554912664 ], [ 128.668917917855481, 35.156370461471674 ], [ 128.671831311746985, 35.153898634833638 ], [ 128.67541271327039, 35.153833259428566 ] ] ] ] } },
{ "type": "Feature", "properties": { "emd_cd": "48129138", "emd_nm": "태백동" }, "geometry": { "type": "MultiPolygon", "coordinates": [ [ [ [ 128.660280408778704, 35.163623711529631 ], [ 128.651370256118014, 35.17336535511722 ], [ 128.649329253762232, 35.177962816580397 ], [ 128.650204491341071, 35.178959777004181 ], [ 128.669767434093075, 35.180688911707719 ], [ 128.679123229121672, 35.17344404237307 ], [ 128.673378426735724, 35.168860768452383 ], [ 128.679870298424248, 35.158856653900685 ], [ 128.676080878828913, 35.156645593177601 ], [ 128.67541271327039, 35.153833259428566 ], [ 128.671831311746985, 35.153898634833638 ], [ 128.668917917855481, 35.156370461471674 ], [ 128.669314654234029, 35.158677554912664 ], [ 128.670894013028374, 35.157694084183362 ], [ 128.664778102949498, 35.164125013340943 ], [ 128.660861435602754, 35.164988528287331 ], [ 128.660280408778704, 35.163623711529631 ] ] ] ] } },
{ "type": "Feature", "properties": { "emd_cd": "48129139", "emd_nm": "경화동" }, "geometry": { "type": "MultiPolygon", "coordinates": [ [ [ [ 128.69108370334817, 35.169433842907139 ], [ 128.693369074990329, 35.165302013302423 ], [ 128.693806731472421, 35.159699746723113 ], [ 128.691622552768251, 35.156143291869022 ], [ 128.692639735457675, 35.153691869422261 ], [ 128.689920229855773, 35.152168898278511 ], [ 128.690209557479363, 35.147812235988745 ], [ 128.678604790078509, 35.146456951372102 ], [ 128.674974388372164, 35.152652508245552 ], [ 128.676080878828913, 35.156645593177601 ], [ 128.679870298424248, 35.158856653900692 ], [ 128.673378426735752, 35.168860768452376 ], [ 128.679123229121672, 35.173444042373056 ], [ 128.69108370334817, 35.169433842907139 ] ] ] ] } },
{ "type": "Feature", "properties": { "emd_cd": "48129140", "emd_nm": "석동" }, "geometry": { "type": "MultiPolygon", "coordinates": [ [ [ [ 128.69108370334817, 35.169433842907139 ], [ 128.710934705408988, 35.166942967527341 ], [ 128.706941955530795, 35.158219836750341 ], [ 128.709949221036993, 35.157140115014585 ], [ 128.709147772225691, 35.156107038210337 ], [ 128.710850096159447, 35.154755679990281 ], [ 128.70569828560582, 35.152561763749688 ], [ 128.706839231496957, 35.15039318553729 ], [ 128.702989819623781, 35.148995412849573 ], [ 128.701609497761439, 35.149975146503181 ], [ 128.699398019332705, 35.153202767981369 ], [ 128.700824548914028, 35.15504572174158 ], [ 128.6977810796445, 35.15709089730138 ], [ 128.696343376057968, 35.154539931855247 ], [ 128.693861265626509, 35.154431263217248 ], [ 128.694503697369299, 35.157918696586137 ], [ 128.69296466912644, 35.156997041673598 ], [ 128.692066090661854, 35.157357760762942 ], [ 128.693795308564773, 35.159562018385877 ], [ 128.693369074990329, 35.165302013302423 ], [ 128.69108370334817, 35.169433842907139 ] ] ] ] } },
{ "type": "Feature", "properties": { "emd_cd": "48129141", "emd_nm": "이동" }, "geometry": { "type": "MultiPolygon", "coordinates": [ [ [ [ 128.703781919009174, 35.149231442339079 ], [ 128.70066474048798, 35.147270866006053 ], [ 128.690998142456891, 35.147883004887461 ], [ 128.689881209286455, 35.151968923231976 ], [ 128.690538296558827, 35.153640094247358 ], [ 128.692639735457675, 35.153691869422261 ], [ 128.692007178363696, 35.157217855869021 ], [ 128.694503697369299, 35.157918696586137 ], [ 128.693861265626509, 35.154431263217248 ], [ 128.696343376057968, 35.154539931855247 ], [ 128.697679152151636, 35.157070370430347 ], [ 128.698928013884426, 35.156497711689688 ], [ 128.700824548914028, 35.15504572174158 ], [ 128.699398019332705, 35.153202767981369 ], [ 128.70023392799169, 35.151398539515938 ], [ 128.703781919009174, 35.149231442339079 ] ] ] ] } },
{ "type": "Feature", "properties": { "emd_cd": "48129142", "emd_nm": "자은동" }, "geometry": { "type": "MultiPolygon", "coordinates": [ [ [ [ 128.704909098794815, 35.144441992164325 ], [ 128.702971320204057, 35.147356437865668 ], [ 128.706839231496957, 35.15039318553729 ], [ 128.70569828560582, 35.152561763749688 ], [ 128.710850096159447, 35.154755679990281 ], [ 128.709147772225691, 35.156107038210337 ], [ 128.709949221036993, 35.157140115014585 ], [ 128.706941955530795, 35.158219836750341 ], [ 128.710934705408988, 35.166942967527341 ], [ 128.729860233441315, 35.158458276341534 ], [ 128.738449030254827, 35.156565680277005 ], [ 128.738854004708628, 35.146323230936325 ], [ 128.731046719303862, 35.138966335267384 ], [ 128.723636325351237, 35.138997608881603 ], [ 128.719709442691027, 35.140567680741086 ], [ 128.71358052545898, 35.138062421854045 ], [ 128.710176488953181, 35.139970513825915 ], [ 128.709912756239873, 35.138858834597443 ], [ 128.703811985489835, 35.138551453545311 ], [ 128.704909098794815, 35.144441992164325 ] ] ] ] } },
{ "type": "Feature", "properties": { "emd_cd": "48129143", "emd_nm": "덕산동" }, "geometry": { "type": "MultiPolygon", "coordinates": [ [ [ [ 128.681289164253656, 35.132690223516256 ], [ 128.682482083684988, 35.133009662874663 ], [ 128.683238943553334, 35.132027914103638 ], [ 128.682287188514238, 35.131358869112184 ], [ 128.681289164253656, 35.132690223516256 ] ] ], [ [ [ 128.69399423428527, 35.133720691156604 ], [ 128.69441239165559, 35.133431316685524 ], [ 128.693873533062003, 35.133617828807793 ], [ 128.69399423428527, 35.133720691156604 ] ] ], [ [ [ 128.687636191159385, 35.141633785390226 ], [ 128.691869786611932, 35.147934655875567 ], [ 128.70066474048798, 35.147270866006053 ], [ 128.703729943382541, 35.14893063248433 ], [ 128.703031565476323, 35.146647338778628 ], [ 128.704977197206347, 35.145272142778857 ], [ 128.701047906402323, 35.143964337928949 ], [ 128.701293780725251, 35.139335865856367 ], [ 128.696094404097693, 35.137111910704377 ], [ 128.696311646688258, 35.138780196959566 ], [ 128.693699492610477, 35.139298720951231 ], [ 128.692006870198924, 35.141721927202205 ], [ 128.68898881867463, 35.140258191720179 ], [ 128.693089660041096, 35.134224756111593 ], [ 128.687636191159385, 35.141633785390226 ] ] ] ] } },
{ "type": "Feature", "properties": { "emd_cd": "48129144", "emd_nm": "풍호동" }, "geometry": { "type": "MultiPolygon", "coordinates": [ [ [ [ 128.731046719303862, 35.138966335267384 ], [ 128.723803195932135, 35.133338996420477 ], [ 128.715179597223226, 35.13343808600176 ], [ 128.712012306728326, 35.132578197590533 ], [ 128.710998897855177, 35.130176050049705 ], [ 128.703821034417786, 35.130875251301156 ], [ 128.703073246726092, 35.133194329876837 ], [ 128.699073818336274, 35.132670303779243 ], [ 128.696488722607143, 35.137256624413233 ], [ 128.701293780725251, 35.13933586585636 ], [ 128.701047906402323, 35.143964337928942 ], [ 128.704300559000615, 35.144433606251511 ], [ 128.703811985489835, 35.138551453545311 ], [ 128.709912756239873, 35.138858834597443 ], [ 128.710176488953181, 35.139970513825915 ], [ 128.71358052545898, 35.138062421854045 ], [ 128.719709442691027, 35.140567680741086 ], [ 128.723636325351237, 35.138997608881603 ], [ 128.731046719303862, 35.138966335267384 ] ] ] ] } },
{ "type": "Feature", "properties": { "emd_cd": "48129145", "emd_nm": "장천동" }, "geometry": { "type": "MultiPolygon", "coordinates": [ [ [ [ 128.693389767323282, 35.132940818673482 ], [ 128.69859059756169, 35.134393388797434 ], [ 128.699073818336274, 35.132670303779243 ], [ 128.703123452431868, 35.133176904078994 ], [ 128.703821034417786, 35.130875251301156 ], [ 128.710998897855177, 35.130176050049705 ], [ 128.712012306728326, 35.132578197590533 ], [ 128.723402860721137, 35.133218973626178 ], [ 128.7279386421651, 35.135520124303824 ], [ 128.729350324480038, 35.132633339913639 ], [ 128.72518934178359, 35.126196781575999 ], [ 128.714530495992534, 35.119873989716019 ], [ 128.705247384212441, 35.123040014139065 ], [ 128.704365458314498, 35.124673195683549 ], [ 128.699785375744881, 35.124385312323319 ], [ 128.698795030928011, 35.127418402795975 ], [ 128.697545815722293, 35.127130809483724 ], [ 128.69861266224467, 35.127422607326245 ], [ 128.693389767323282, 35.132940818673482 ] ] ] ] } },
{ "type": "Feature", "properties": { "emd_cd": "48129146", "emd_nm": "행암동" }, "geometry": { "type": "MultiPolygon", "coordinates": [ [ [ [ 128.687948276719936, 35.104055711665509 ], [ 128.688292555149928, 35.108999867084897 ], [ 128.692409377396388, 35.108363714892306 ], [ 128.695484671441108, 35.109769187572383 ], [ 128.693994237822807, 35.111659981450295 ], [ 128.697607057865667, 35.112852932789529 ], [ 128.698105835694491, 35.115438995789951 ], [ 128.70061985330446, 35.115744826238029 ], [ 128.698847001035176, 35.117189246703923 ], [ 128.70033182802544, 35.118453698991452 ], [ 128.699785375744881, 35.124385312323319 ], [ 128.704365458314498, 35.124673195683549 ], [ 128.705247384212441, 35.123040014139065 ], [ 128.714530495992534, 35.119873989716019 ], [ 128.694370815546591, 35.101161397200073 ], [ 128.689106114076367, 35.101321137313114 ], [ 128.690016986410598, 35.102226515896227 ], [ 128.687948276719936, 35.104055711665509 ] ] ], [ [ [ 128.694867591364158, 35.112687514533448 ], [ 128.69505465674078, 35.112674088495233 ], [ 128.694969099284464, 35.112600078090672 ], [ 128.694867591364158, 35.112687514533448 ] ] ] ] } },
{ "type": "Feature", "properties": { "emd_cd": "48129147", "emd_nm": "북부동" }, "geometry": { "type": "MultiPolygon", "coordinates": [ [ [ [ 128.757328686158331, 35.121601962491198 ], [ 128.754750777060877, 35.115330662632076 ], [ 128.750739590114307, 35.114909539623667 ], [ 128.751259913188733, 35.11397195738094 ], [ 128.748090392217478, 35.112385626414408 ], [ 128.744307892968777, 35.113023162241369 ], [ 128.741027747941047, 35.117114719317556 ], [ 128.733907766402552, 35.116974702113147 ], [ 128.72518934178359, 35.126196781575999 ], [ 128.729153101270953, 35.131572659338353 ], [ 128.728141885983632, 35.136527279234663 ], [ 128.73829205048915, 35.145476758364175 ], [ 128.746307115855188, 35.139988469174057 ], [ 128.749339048987849, 35.130491820466197 ], [ 128.754655088817515, 35.127837205392694 ], [ 128.757328686158331, 35.121601962491198 ] ] ] ] } },
{ "type": "Feature", "properties": { "emd_cd": "48129148", "emd_nm": "성내동" }, "geometry": { "type": "MultiPolygon", "coordinates": [ [ [ [ 128.765916432577654, 35.112279819615182 ], [ 128.752754059914821, 35.111792336241749 ], [ 128.748797882954989, 35.110513771764474 ], [ 128.748495734556855, 35.113512351366545 ], [ 128.754750777060877, 35.115330662632076 ], [ 128.757328686158331, 35.121601962491198 ], [ 128.764975998913116, 35.117697257521804 ], [ 128.765916432577654, 35.112279819615182 ] ] ] ] } },
{ "type": "Feature", "properties": { "emd_cd": "48129149", "emd_nm": "서중동" }, "geometry": { "type": "MultiPolygon", "coordinates": [ [ [ [ 128.746486674272631, 35.107881632661005 ], [ 128.740900436442416, 35.107073495881252 ], [ 128.736972213296241, 35.111123181097419 ], [ 128.732900490265848, 35.107167755449353 ], [ 128.727306644907088, 35.106347952170367 ], [ 128.726877648507326, 35.108598009198801 ], [ 128.733078032450891, 35.117943612715735 ], [ 128.741027747941047, 35.117114719317556 ], [ 128.744307892968777, 35.113023162241369 ], [ 128.748622793755345, 35.112684600951994 ], [ 128.748910161023048, 35.1103290557392 ], [ 128.747100709122918, 35.110053360210387 ], [ 128.746486674272631, 35.107881632661005 ] ] ] ] } },
{ "type": "Feature", "properties": { "emd_cd": "48129150", "emd_nm": "남문동" }, "geometry": { "type": "MultiPolygon", "coordinates": [ [ [ [ 128.74600105942946, 35.103722348135499 ], [ 128.747169271695753, 35.110107702767053 ], [ 128.752754059914821, 35.111792336241749 ], [ 128.756225071835729, 35.110351805038285 ], [ 128.765916432577654, 35.112279819615182 ], [ 128.773000784280811, 35.106218379062426 ], [ 128.773425460474868, 35.103752469392823 ], [ 128.771844889209717, 35.099125313966702 ], [ 128.769684895105542, 35.103529420326986 ], [ 128.762850548932818, 35.105185926237773 ], [ 128.762657909617957, 35.101907135583531 ], [ 128.764483775873174, 35.101181606509392 ], [ 128.765376233942163, 35.097494119833719 ], [ 128.784089072364253, 35.097530187297146 ], [ 128.784103416843493, 35.092330613055267 ], [ 128.779128763672759, 35.086347990527408 ], [ 128.779181774163618, 35.082894601735944 ], [ 128.764987151057028, 35.0830164201478 ], [ 128.764953800547659, 35.095810156653386 ], [ 128.757353200790675, 35.094108647393888 ], [ 128.759436257662912, 35.097397430153521 ], [ 128.756819589559342, 35.098977854742422 ], [ 128.750563120059354, 35.098733493918331 ], [ 128.747467357616244, 35.102446848495539 ], [ 128.747310260790357, 35.10495012898452 ], [ 128.74600105942946, 35.103722348135499 ] ] ] ] } },
{ "type": "Feature", "properties": { "emd_cd": "48129151", "emd_nm": "제덕동" }, "geometry": { "type": "MultiPolygon", "coordinates": [ [ [ [ 128.726835306688912, 35.10603151789438 ], [ 128.732900490265848, 35.107167755449353 ], [ 128.736972213296241, 35.111123181097419 ], [ 128.740900436442416, 35.107073495881252 ], [ 128.746486674272631, 35.107881632661005 ], [ 128.74600105942946, 35.103722348135499 ], [ 128.747310260790357, 35.10495012898452 ], [ 128.75030999959418, 35.098870508661271 ], [ 128.756819589559342, 35.098977854742422 ], [ 128.759655245686929, 35.097195096686427 ], [ 128.757353200790675, 35.094108647393888 ], [ 128.764953800547659, 35.095810156653386 ], [ 128.764979078847489, 35.087991237089227 ], [ 128.736736770668216, 35.087889534554542 ], [ 128.735330404669156, 35.088785178133591 ], [ 128.735991967690836, 35.091086417569841 ], [ 128.739553565865577, 35.096424453924364 ], [ 128.743470085153717, 35.098071469932627 ], [ 128.743317500789857, 35.099904089879324 ], [ 128.739886607553132, 35.100245771716317 ], [ 128.738269259903575, 35.09944263000623 ], [ 128.738433916862164, 35.098099878364529 ], [ 128.736831322351975, 35.097758264209716 ], [ 128.735621777068303, 35.101764717897595 ], [ 128.730207780028081, 35.101700322934235 ], [ 128.726835306688912, 35.10603151789438 ] ] ], [ [ [ 128.739444852411168, 35.099351371169064 ], [ 128.739674854927443, 35.099998954846193 ], [ 128.739964397647469, 35.099827690064089 ], [ 128.739444852411168, 35.099351371169064 ] ] ] ] } },
{ "type": "Feature", "properties": { "emd_cd": "48129152", "emd_nm": "수도동" }, "geometry": { "type": "MultiPolygon", "coordinates": [ [ [ [ 128.73681202920713, 35.087889806961734 ], [ 128.764979078847489, 35.087991237089227 ], [ 128.764982802014117, 35.078382119452428 ], [ 128.756596173668896, 35.076955402701643 ], [ 128.751241974314837, 35.082422345195006 ], [ 128.749220742162663, 35.082553831902217 ], [ 128.746265196682515, 35.081678140059545 ], [ 128.746127269789241, 35.07734393847732 ], [ 128.73996572736803, 35.076065044186464 ], [ 128.738713105038357, 35.077151726196391 ], [ 128.744140866541159, 35.081643032612334 ], [ 128.743760510074821, 35.084338085893748 ], [ 128.746238250665897, 35.08543667856582 ], [ 128.743493344724754, 35.085955104150138 ], [ 128.740354747122694, 35.083991078107154 ], [ 128.741303966137167, 35.081384482021932 ], [ 128.73681202920713, 35.087889806961734 ] ] ] ] } },
{ "type": "Feature", "properties": { "emd_cd": "48129153", "emd_nm": "연도동" }, "geometry": { "type": "MultiPolygon", "coordinates": [ [ [ [ 128.761995550435074, 35.061569626641699 ], [ 128.762942304780324, 35.065620584369533 ], [ 128.768560829903691, 35.06589034603779 ], [ 128.766463280622901, 35.066905413063978 ], [ 128.764425200290958, 35.073343455526064 ], [ 128.765027218245251, 35.083016453189153 ], [ 128.774352344291032, 35.083057274964865 ], [ 128.774992835145611, 35.071668419080957 ], [ 128.772800947332456, 35.071650128844659 ], [ 128.772819656703263, 35.06493236230223 ], [ 128.770195044250897, 35.064044002992922 ], [ 128.772000348695883, 35.062403292363001 ], [ 128.771915351547335, 35.061668427171142 ], [ 128.77823731217029, 35.058706332359549 ], [ 128.771761832982207, 35.061605852140573 ], [ 128.770088556734436, 35.064018922231 ], [ 128.763575988183419, 35.060922255148519 ], [ 128.761995550435074, 35.061569626641699 ] ], [ [ 128.766621155363737, 35.07811153095345 ], [ 128.767896145171505, 35.07289809030469 ], [ 128.766523279119866, 35.067017406860806 ], [ 128.772697197087467, 35.064980949476045 ], [ 128.772745800700193, 35.07164966433826 ], [ 128.767723775645663, 35.071607606704873 ], [ 128.768272198635401, 35.073140839418834 ], [ 128.768188917348425, 35.075849317948055 ], [ 128.766621155363737, 35.07811153095345 ] ], [ [ 128.768600252268584, 35.065859703140184 ], [ 128.769332420855392, 35.065087941015982 ], [ 128.770283508324923, 35.064854960048336 ], [ 128.768600252268584, 35.065859703140184 ] ] ], [ [ [ 128.775892470236357, 35.082172215050676 ], [ 128.779181774163618, 35.082894601735951 ], [ 128.77918314500613, 35.082178893959323 ], [ 128.775892470236357, 35.082172215050676 ] ] ] ] } },
{ "type": "Feature", "properties": { "emd_cd": "48129154", "emd_nm": "명동" }, "geometry": { "type": "MultiPolygon", "coordinates": [ [ [ [ 128.711803599007112, 35.065292512110354 ], [ 128.709999801145841, 35.064283953839812 ], [ 128.709647613205647, 35.064899334593072 ], [ 128.70979228119819, 35.065413604867381 ], [ 128.711803599007112, 35.065292512110354 ] ] ], [ [ [ 128.713956048098368, 35.07685889288355 ], [ 128.715126838499913, 35.076362063451171 ], [ 128.714166912204945, 35.075768390951723 ], [ 128.713956048098368, 35.07685889288355 ] ] ], [ [ [ 128.692846624279071, 35.077061746982032 ], [ 128.696774407499134, 35.079816227448241 ], [ 128.697617247552955, 35.079170523326731 ], [ 128.69724486423334, 35.077208071049242 ], [ 128.696260813457059, 35.07825533532197 ], [ 128.692846624279071, 35.077061746982032 ] ] ], [ [ [ 128.694356269721226, 35.080568301087148 ], [ 128.694382299388678, 35.080352039997578 ], [ 128.694278390158701, 35.080283273334906 ], [ 128.694356269721226, 35.080568301087148 ] ] ], [ [ [ 128.708196564918808, 35.082162335367578 ], [ 128.712507958707107, 35.082398249155844 ], [ 128.7139208686676, 35.080630032320819 ], [ 128.708778795177437, 35.08035357996846 ], [ 128.708196564918808, 35.082162335367578 ] ] ], [ [ [ 128.718779488831103, 35.094380843328011 ], [ 128.718832687472059, 35.094378082965335 ], [ 128.719125752936918, 35.094368850637821 ], [ 128.718842487562284, 35.094303022426523 ], [ 128.718779488831103, 35.094380843328011 ] ] ], [ [ [ 128.718390219715076, 35.084741232136984 ], [ 128.720169845504785, 35.085579484375025 ], [ 128.721687703685205, 35.08849793757318 ], [ 128.721062481554526, 35.089200962141128 ], [ 128.721115342689018, 35.089391992793203 ], [ 128.721273631644436, 35.089474382515483 ], [ 128.728447048611429, 35.088298159564673 ], [ 128.722797259003869, 35.087872314760538 ], [ 128.722044162447361, 35.086048415151751 ], [ 128.723911508569415, 35.084262785969024 ], [ 128.722755479551353, 35.083825660193249 ], [ 128.718390219715076, 35.084741232136984 ] ] ], [ [ [ 128.719150643505088, 35.089602572389921 ], [ 128.719550533019799, 35.09296602284639 ], [ 128.72267890117277, 35.091231382492573 ], [ 128.719150643505088, 35.089602572389921 ] ] ], [ [ [ 128.72813662209947, 35.093492233993274 ], [ 128.728220977434205, 35.093906716832699 ], [ 128.728325509335747, 35.093802457480791 ], [ 128.72813662209947, 35.093492233993274 ] ] ], [ [ [ 128.721649040633878, 35.095506565017907 ], [ 128.722112264054658, 35.09526532908022 ], [ 128.721496185791779, 35.095197649322991 ], [ 128.721649040633878, 35.095506565017907 ] ] ], [ [ [ 128.714409853694718, 35.095310770615775 ], [ 128.715034166656608, 35.102797791449497 ], [ 128.718836772951391, 35.103117232435721 ], [ 128.722680430805354, 35.100681533518447 ], [ 128.728186755684533, 35.102774145434324 ], [ 128.730835152491466, 35.101424033614933 ], [ 128.733370854830298, 35.10234652086686 ], [ 128.735621777068303, 35.101764717897595 ], [ 128.737620002924842, 35.097519589702138 ], [ 128.735030991422832, 35.096654472376393 ], [ 128.736407404422067, 35.095016046517401 ], [ 128.733631266242014, 35.091894607130357 ], [ 128.728749261198061, 35.090219002157518 ], [ 128.730701666453143, 35.093539892207161 ], [ 128.72939178593532, 35.094498911574092 ], [ 128.726255328635347, 35.09337733726484 ], [ 128.724435094670127, 35.097636468498727 ], [ 128.718756949207204, 35.094400719879822 ], [ 128.717556114398434, 35.096286635230349 ], [ 128.714409853694718, 35.095310770615775 ] ] ] ] } },
{ "type": "Feature", "properties": { "emd_cd": "48129155", "emd_nm": "죽곡동" }, "geometry": { "type": "MultiPolygon", "coordinates": [ [ [ [ 128.714555480943318, 35.103903015630678 ], [ 128.716479916889142, 35.10432374750571 ], [ 128.720362738594758, 35.111670675951686 ], [ 128.719148986601255, 35.112931821763539 ], [ 128.72288675213855, 35.120282676130081 ], [ 128.722666826046265, 35.124360829012247 ], [ 128.72518934178359, 35.126196781575999 ], [ 128.733018074430788, 35.118454162306165 ], [ 128.730409192781622, 35.112542162793169 ], [ 128.727184137912246, 35.109763385007192 ], [ 128.726357868024991, 35.10569392204188 ], [ 128.728186755684533, 35.102774145434324 ], [ 128.722680430805354, 35.10068153351844 ], [ 128.714555480943318, 35.103903015630678 ] ] ] ] } },
{ "type": "Feature", "properties": { "emd_cd": "48129156", "emd_nm": "원포동" }, "geometry": { "type": "MultiPolygon", "coordinates": [ [ [ [ 128.691710778680999, 35.09957246633553 ], [ 128.716202687941802, 35.121967605969665 ], [ 128.723259700609105, 35.123806071956885 ], [ 128.719148986601255, 35.112931821763539 ], [ 128.720362738594758, 35.111670675951686 ], [ 128.716122664723542, 35.104297786465217 ], [ 128.713791072362909, 35.104760984299418 ], [ 128.71464537976081, 35.10642268091344 ], [ 128.713445392550483, 35.106839419157097 ], [ 128.711985113464436, 35.106758605109647 ], [ 128.710342320673504, 35.103562057624288 ], [ 128.706216846034124, 35.105556200997718 ], [ 128.703839554665706, 35.104697946891726 ], [ 128.7035937269263, 35.106026973991767 ], [ 128.700228785507448, 35.103357083129161 ], [ 128.702943502355737, 35.100474696142697 ], [ 128.701256112585412, 35.098968666753706 ], [ 128.698278380019701, 35.098155965500005 ], [ 128.696132998811976, 35.100229235422617 ], [ 128.695554150111775, 35.09709019722434 ], [ 128.691710778680999, 35.09957246633553 ] ] ] ] } },
{ "type": "Feature", "properties": { "emd_cd": "48129157", "emd_nm": "남양동" }, "geometry": { "type": "MultiPolygon", "coordinates": [ [ [ [ 128.764927833305961, 35.116800149323211 ], [ 128.766110593530868, 35.118230005060205 ], [ 128.770931356284734, 35.117641351042337 ], [ 128.779687582622614, 35.125412990602257 ], [ 128.78720457281716, 35.122459787511787 ], [ 128.79108317084598, 35.118557233592114 ], [ 128.789487521717319, 35.113395658361952 ], [ 128.784340611427467, 35.113939120422245 ], [ 128.782595596657956, 35.112524669901042 ], [ 128.783478578985381, 35.111326036653736 ], [ 128.781230480222092, 35.110253664145446 ], [ 128.779286806970958, 35.102970458870146 ], [ 128.772554854354922, 35.099138400928659 ], [ 128.773000784280811, 35.106218379062426 ], [ 128.7663359981253, 35.111495766069169 ], [ 128.764927833305961, 35.116800149323211 ] ] ] ] } },
{ "type": "Feature", "properties": { "emd_cd": "48129158", "emd_nm": "마천동" }, "geometry": { "type": "MultiPolygon", "coordinates": [ [ [ [ 128.792772329798908, 35.157284771297675 ], [ 128.794635243695836, 35.155896068026337 ], [ 128.794789456350401, 35.153282387007565 ], [ 128.801764305066058, 35.146605606052489 ], [ 128.802460285363793, 35.14370767643198 ], [ 128.800531349652147, 35.138544059864969 ], [ 128.796296698994269, 35.133997067211581 ], [ 128.797255493917788, 35.127683352445658 ], [ 128.793796413802625, 35.126296046033232 ], [ 128.789657635658529, 35.120742430877534 ], [ 128.782387113188292, 35.124415237409956 ], [ 128.781435345020725, 35.126696500065449 ], [ 128.783441769182275, 35.135439638687394 ], [ 128.786330623290894, 35.136416282285879 ], [ 128.784277205258064, 35.144575063497221 ], [ 128.788781651078352, 35.150514614893169 ], [ 128.788393982488657, 35.15697717266498 ], [ 128.792772329798908, 35.157284771297675 ] ] ] ] } },
{ "type": "Feature", "properties": { "emd_cd": "48129159", "emd_nm": "소사동" }, "geometry": { "type": "MultiPolygon", "coordinates": [ [ [ [ 128.75567151192152, 35.164854724676538 ], [ 128.758610399950641, 35.157587343412636 ], [ 128.766539794538176, 35.153684000159245 ], [ 128.768963724759914, 35.142587713009725 ], [ 128.776704501617758, 35.139470068418042 ], [ 128.782477845298189, 35.131809264289686 ], [ 128.781564394830184, 35.12542022225125 ], [ 128.772557054455916, 35.120259831757892 ], [ 128.770931356284734, 35.117641351042337 ], [ 128.764975998913116, 35.117697257521804 ], [ 128.757328686158331, 35.121601962491198 ], [ 128.754655088817515, 35.127837205392694 ], [ 128.749339048987849, 35.130491820466197 ], [ 128.746307115855188, 35.139988469174057 ], [ 128.73829205048915, 35.145476758364175 ], [ 128.73834891982969, 35.157695956895907 ], [ 128.740996294141894, 35.167153409955731 ], [ 128.746300918625394, 35.166149027979294 ], [ 128.750882766095998, 35.167388213396258 ], [ 128.75567151192152, 35.164854724676538 ] ] ] ] } },
{ "type": "Feature", "properties": { "emd_cd": "48129160", "emd_nm": "대장동" }, "geometry": { "type": "MultiPolygon", "coordinates": [ [ [ [ 128.788393982488657, 35.15697717266498 ], [ 128.788781651078352, 35.150514614893169 ], [ 128.784277205258064, 35.144575063497221 ], [ 128.786330623290894, 35.136416282285879 ], [ 128.783520545536646, 35.135560985755895 ], [ 128.782477845298189, 35.131809264289686 ], [ 128.776704501617758, 35.139470068418042 ], [ 128.768963724759914, 35.142587713009725 ], [ 128.766539794538176, 35.153684000159245 ], [ 128.758610399950641, 35.157587343412636 ], [ 128.75567151192152, 35.164854724676538 ], [ 128.756969149961435, 35.168192998555206 ], [ 128.763146378048049, 35.168779629005662 ], [ 128.766759129877698, 35.165193615135067 ], [ 128.777336020792944, 35.159742982560026 ], [ 128.788393982488657, 35.15697717266498 ] ] ] ] } },
{ "type": "Feature", "properties": { "emd_cd": "48129161", "emd_nm": "두동" }, "geometry": { "type": "MultiPolygon", "coordinates": [ [ [ [ 128.787790299779289, 35.121688510212188 ], [ 128.79048405686396, 35.120763512462098 ], [ 128.793796413802625, 35.126296046033232 ], [ 128.797255493917788, 35.127683352445658 ], [ 128.796296698994269, 35.133997067211581 ], [ 128.802132345374673, 35.14190160483556 ], [ 128.806587909074892, 35.142566092113512 ], [ 128.80754217766895, 35.139152303175301 ], [ 128.815365038840099, 35.132662888961953 ], [ 128.826547644960158, 35.12958283543697 ], [ 128.823555999984194, 35.121808391539822 ], [ 128.820786699937145, 35.121201232745804 ], [ 128.817807104101945, 35.117920710586517 ], [ 128.816778956166416, 35.115336617444036 ], [ 128.818063960971614, 35.113947507718414 ], [ 128.815320066953007, 35.113233631225562 ], [ 128.807626983501223, 35.115635842664332 ], [ 128.800792571837377, 35.113167174897818 ], [ 128.799794564979806, 35.10888428228639 ], [ 128.79378739402739, 35.108435251971478 ], [ 128.789997826396586, 35.104503122218375 ], [ 128.788598218945793, 35.10807657952904 ], [ 128.79108317084598, 35.118557233592114 ], [ 128.787790299779289, 35.121688510212188 ] ] ] ] } },
{ "type": "Feature", "properties": { "emd_cd": "48129162", "emd_nm": "청안동" }, "geometry": { "type": "MultiPolygon", "coordinates": [ [ [ [ 128.80634736750622, 35.101168352874346 ], [ 128.796921880188989, 35.100435886989786 ], [ 128.792887484417918, 35.098440403134063 ], [ 128.788466008203159, 35.098691111431599 ], [ 128.791665671005717, 35.101716810277978 ], [ 128.790280996158657, 35.105560777132283 ], [ 128.79378739402739, 35.1084352519715 ], [ 128.805537409356589, 35.109140760614828 ], [ 128.808851691480697, 35.105202344937915 ], [ 128.806495489819781, 35.104138938864189 ], [ 128.80634736750622, 35.101168352874346 ] ] ] ] } },
{ "type": "Feature", "properties": { "emd_cd": "48129163", "emd_nm": "안골동" }, "geometry": { "type": "MultiPolygon", "coordinates": [ [ [ [ 128.79628452588392, 35.082963496761572 ], [ 128.791947806854694, 35.078832555739403 ], [ 128.782704603836834, 35.082687383113672 ], [ 128.78490381059413, 35.079571075605799 ], [ 128.784869278371332, 35.077535010671888 ], [ 128.781390015986631, 35.077526765304391 ], [ 128.784681691324522, 35.077715110851429 ], [ 128.78247501715768, 35.08263649242587 ], [ 128.782467349933455, 35.085341742787797 ], [ 128.789441065975268, 35.093941513312529 ], [ 128.790138097024197, 35.092630525760768 ], [ 128.79187348901047, 35.095056076075529 ], [ 128.79761087693845, 35.092459988279515 ], [ 128.802041069759355, 35.095899239342486 ], [ 128.802784588397458, 35.09846019418994 ], [ 128.801226892595594, 35.100517947910994 ], [ 128.80634736750622, 35.101168352874346 ], [ 128.808459048369457, 35.099933711159608 ], [ 128.810792930350004, 35.097931574205674 ], [ 128.81197078031289, 35.09384344094692 ], [ 128.807859423473531, 35.089623965550921 ], [ 128.798247437592693, 35.089371804681512 ], [ 128.79628452588392, 35.082963496761572 ] ] ] ] } },
{ "type": "Feature", "properties": { "emd_cd": "48129164", "emd_nm": "용원동" }, "geometry": { "type": "MultiPolygon", "coordinates": [ [ [ [ 128.796021781096329, 35.083730915442437 ], [ 128.797918009144269, 35.088998331076425 ], [ 128.799772752603388, 35.089850099529407 ], [ 128.808282114024252, 35.089317923454622 ], [ 128.818589803779304, 35.090895489114978 ], [ 128.823271764798392, 35.094236908742829 ], [ 128.82865581054628, 35.089932809715364 ], [ 128.826432229208592, 35.086214017059426 ], [ 128.821537700293902, 35.085846399566485 ], [ 128.821544940935723, 35.084446320496383 ], [ 128.818446919887577, 35.084366331501748 ], [ 128.818527492623588, 35.083001426072052 ], [ 128.811502911208862, 35.082988825683771 ], [ 128.811514896439832, 35.077580382455487 ], [ 128.797292109223264, 35.077557006967155 ], [ 128.796021781096329, 35.083730915442437 ] ] ], [ [ [ 128.80059301360285, 35.110946586712835 ], [ 128.800792571837377, 35.113167174897832 ], [ 128.807626983501223, 35.115635842664354 ], [ 128.815320066952978, 35.113233631225562 ], [ 128.824608935650531, 35.113884968773533 ], [ 128.830966800487062, 35.109158036863178 ], [ 128.830855446105176, 35.10728326482279 ], [ 128.835537281587534, 35.102132907188597 ], [ 128.823638150893146, 35.101979035349586 ], [ 128.820348130154599, 35.096418077156265 ], [ 128.822190431340601, 35.095396144877647 ], [ 128.819887100473636, 35.093090005346667 ], [ 128.821128033629662, 35.092717160028869 ], [ 128.807859423473531, 35.089623965550921 ], [ 128.812146742901746, 35.09423235652929 ], [ 128.810792930350004, 35.097931574205674 ], [ 128.80634736750622, 35.101168352874346 ], [ 128.806495489819781, 35.104138938864189 ], [ 128.808851691480697, 35.105202344937915 ], [ 128.805537409356589, 35.109140760614828 ], [ 128.804152849807423, 35.10847045389761 ], [ 128.80059301360285, 35.110946586712835 ] ] ] ] } },
{ "type": "Feature", "properties": { "emd_cd": "48129165", "emd_nm": "가주동" }, "geometry": { "type": "MultiPolygon", "coordinates": [ [ [ [ 128.835537281587534, 35.102132907188604 ], [ 128.826917804901541, 35.112828170222301 ], [ 128.823518687219888, 35.114043202876474 ], [ 128.820185782768334, 35.112938705137722 ], [ 128.816778956166416, 35.115336617444036 ], [ 128.820786699937145, 35.121201232745804 ], [ 128.823555999984194, 35.121808391539822 ], [ 128.826700198004374, 35.128589461248005 ], [ 128.829780694794607, 35.128269833655537 ], [ 128.832941436952325, 35.130026328947025 ], [ 128.8381869953717, 35.123088493007749 ], [ 128.835991099643536, 35.118866603099171 ], [ 128.838485501711233, 35.115202157763285 ], [ 128.842772523731611, 35.11351805448372 ], [ 128.843270951048254, 35.11055523799795 ], [ 128.841697176224699, 35.105981495744629 ], [ 128.835537281587534, 35.102132907188604 ] ] ] ] } }
]
}
