{
"type": "FeatureCollection",
"name": "48125",
"crs": { "type": "name", "properties": { "name": "urn:ogc:def:crs:OGC:1.3:CRS84" } },
"features": [
{ "type": "Feature", "properties": { "emd_cd": "48125101", "emd_nm": "가포동" }, "geometry": { "type": "MultiPolygon", "coordinates": [ [ [ [ 128.555953715524936, 35.168962101207804 ], [ 128.559672560485893, 35.169523448071956 ], [ 128.560270821363105, 35.16786883067445 ], [ 128.568863138431823, 35.174641619758411 ], [ 128.576944475377218, 35.174486630968403 ], [ 128.579529438988317, 35.172867463644309 ], [ 128.575927288671636, 35.170797013507801 ], [ 128.579737856439664, 35.172737305063677 ], [ 128.58575839569869, 35.165232166303717 ], [ 128.582600017398676, 35.163570419214615 ], [ 128.590779875143681, 35.157919132862119 ], [ 128.589171465682057, 35.156196387639845 ], [ 128.58525423359626, 35.156168574534867 ], [ 128.58422668015163, 35.157544940364133 ], [ 128.582883368693331, 35.156494230913367 ], [ 128.591138500914013, 35.152948549525512 ], [ 128.591143747770559, 35.149904957194863 ], [ 128.588424855438063, 35.148965862528485 ], [ 128.584069065955504, 35.151194015698209 ], [ 128.58183018081337, 35.14997536734117 ], [ 128.569975077626168, 35.150491057117222 ], [ 128.560740844806674, 35.161964964013691 ], [ 128.561271547913634, 35.164841716322208 ], [ 128.557069928585662, 35.166010520371856 ], [ 128.555953715524936, 35.168962101207804 ] ] ] ] } },
{ "type": "Feature", "properties": { "emd_cd": "48125102", "emd_nm": "교방동" }, "geometry": { "type": "MultiPolygon", "coordinates": [ [ [ [ 128.564563665496735, 35.217840453437184 ], [ 128.570428877598573, 35.210528872412667 ], [ 128.568624060665144, 35.210853298010363 ], [ 128.566531691234957, 35.208668346790688 ], [ 128.558899986614392, 35.208888167339637 ], [ 128.552731584883617, 35.205296679803354 ], [ 128.541777067473419, 35.205666098160627 ], [ 128.539200287293653, 35.204428170961442 ], [ 128.536216682101212, 35.206769985652898 ], [ 128.536207878762013, 35.209738273016889 ], [ 128.544129152296762, 35.214279804632184 ], [ 128.551469284362639, 35.212165321710181 ], [ 128.557509714062746, 35.213914167240411 ], [ 128.559170432260203, 35.215941981057881 ], [ 128.561284346274704, 35.215830211971678 ], [ 128.560882110739925, 35.216934509868032 ], [ 128.564464559981076, 35.215832465532131 ], [ 128.564563665496735, 35.217840453437184 ] ] ] ] } },
{ "type": "Feature", "properties": { "emd_cd": "48125103", "emd_nm": "교원동" }, "geometry": { "type": "MultiPolygon", "coordinates": [ [ [ [ 128.565991296200622, 35.216790715969836 ], [ 128.569634223163973, 35.215918387738341 ], [ 128.571877577996872, 35.210930203926488 ], [ 128.570055851212516, 35.213325569186289 ], [ 128.567730557503324, 35.213456843636664 ], [ 128.566405718787564, 35.215163542464751 ], [ 128.567529474097597, 35.216164941277427 ], [ 128.565991296200622, 35.216790715969836 ] ] ] ] } },
{ "type": "Feature", "properties": { "emd_cd": "48125104", "emd_nm": "남성동" }, "geometry": { "type": "MultiPolygon", "coordinates": [ [ [ [ 128.574408892942216, 35.205144916101204 ], [ 128.579792528530476, 35.20205430224074 ], [ 128.577125750296432, 35.2002993615869 ], [ 128.574769383907011, 35.203331447185001 ], [ 128.574408892942216, 35.205144916101204 ] ] ] ] } },
{ "type": "Feature", "properties": { "emd_cd": "48125105", "emd_nm": "대내동" }, "geometry": { "type": "MultiPolygon", "coordinates": [ [ [ [ 128.556150226115278, 35.184509569627444 ], [ 128.558460975396201, 35.181679400069108 ], [ 128.557596697392086, 35.181275039667128 ], [ 128.556150226115278, 35.184509569627444 ] ] ] ] } },
{ "type": "Feature", "properties": { "emd_cd": "48125106", "emd_nm": "대성동1가" }, "geometry": { "type": "MultiPolygon", "coordinates": [ [ [ [ 128.561246794888575, 35.193215752800654 ], [ 128.561037861139283, 35.191173879286453 ], [ 128.560141370250307, 35.191302743720058 ], [ 128.561246794888575, 35.193215752800654 ] ] ] ] } },
{ "type": "Feature", "properties": { "emd_cd": "48125107", "emd_nm": "대성동2가" }, "geometry": { "type": "MultiPolygon", "coordinates": [ [ [ [ 128.562043606058182, 35.192836144189741 ], [ 128.562194550269936, 35.194516719086884 ], [ 128.563670983533399, 35.194352576735511 ], [ 128.562043606058182, 35.192836144189741 ] ] ] ] } },
{ "type": "Feature", "properties": { "emd_cd": "48125108", "emd_nm": "대외동" }, "geometry": { "type": "MultiPolygon", "coordinates": [ [ [ [ 128.558302557592981, 35.183210318585353 ], [ 128.557895313022129, 35.185819394169485 ], [ 128.558732219099369, 35.185846368581885 ], [ 128.559185019189499, 35.183942846917667 ], [ 128.558302557592981, 35.183210318585353 ] ] ] ] } },
{ "type": "Feature", "properties": { "emd_cd": "48125109", "emd_nm": "대창동" }, "geometry": { "type": "MultiPolygon", "coordinates": [ [ [ [ 128.554397020888302, 35.187623700929876 ], [ 128.5568767699734, 35.185794532587231 ], [ 128.552618089387749, 35.185599559013184 ], [ 128.554397020888302, 35.187623700929876 ] ] ] ] } },
{ "type": "Feature", "properties": { "emd_cd": "48125110", "emd_nm": "덕동동" }, "geometry": { "type": "MultiPolygon", "coordinates": [ [ [ [ 128.599650375550169, 35.137821410806943 ], [ 128.59989615122015, 35.138178907860308 ], [ 128.600084767627436, 35.138208682318741 ], [ 128.599650375550169, 35.137821410806943 ] ] ], [ [ [ 128.561081391801878, 35.134659812504289 ], [ 128.560813940246703, 35.138573076293184 ], [ 128.561803593956455, 35.137688309598772 ], [ 128.567078567995225, 35.140235650528581 ], [ 128.568287724472356, 35.147303856279621 ], [ 128.571880699097932, 35.151250876325214 ], [ 128.586575524624692, 35.150721393072864 ], [ 128.588424855438063, 35.148965862528485 ], [ 128.585191475132348, 35.146443262971658 ], [ 128.591097001319241, 35.146602941759383 ], [ 128.597699781834905, 35.141898478217271 ], [ 128.59006205434477, 35.13447530246092 ], [ 128.587596790219578, 35.136784246139818 ], [ 128.586858449996527, 35.135092222308032 ], [ 128.588636273109898, 35.132750145323392 ], [ 128.586983248008409, 35.130423623926141 ], [ 128.585032920801723, 35.134592672904311 ], [ 128.58103901179706, 35.136496354905489 ], [ 128.579927322553573, 35.139433607540553 ], [ 128.577388271535284, 35.137869344889943 ], [ 128.579345399634491, 35.13718047892867 ], [ 128.575004423878056, 35.137432911533693 ], [ 128.574924988616573, 35.133139501279558 ], [ 128.567556287440112, 35.132677715055046 ], [ 128.561081391801878, 35.134659812504289 ] ] ] ] } },
{ "type": "Feature", "properties": { "emd_cd": "48125111", "emd_nm": "동성동" }, "geometry": { "type": "MultiPolygon", "coordinates": [ [ [ [ 128.581066866662127, 35.202891931627427 ], [ 128.579792528530476, 35.20205430224074 ], [ 128.575443491436573, 35.206228644469086 ], [ 128.578312387469367, 35.206344520395248 ], [ 128.581066866662127, 35.202891931627427 ] ] ] ] } },
{ "type": "Feature", "properties": { "emd_cd": "48125112", "emd_nm": "두월동1가" }, "geometry": { "type": "MultiPolygon", "coordinates": [ [ [ [ 128.56216878289743, 35.188212266280239 ], [ 128.561258077491772, 35.187139418776631 ], [ 128.560517782943293, 35.187397439224839 ], [ 128.561100597425792, 35.188544759205435 ], [ 128.56216878289743, 35.188212266280239 ] ] ] ] } },
{ "type": "Feature", "properties": { "emd_cd": "48125113", "emd_nm": "두월동2가" }, "geometry": { "type": "MultiPolygon", "coordinates": [ [ [ [ 128.559707888718663, 35.18647007203694 ], [ 128.561258077491772, 35.187139418776631 ], [ 128.559750226823752, 35.185913593712471 ], [ 128.559707888718663, 35.18647007203694 ] ] ] ] } },
{ "type": "Feature", "properties": { "emd_cd": "48125114", "emd_nm": "두월동3가" }, "geometry": { "type": "MultiPolygon", "coordinates": [ [ [ [ 128.559554458449441, 35.185903640903867 ], [ 128.56020657792152, 35.185016474747975 ], [ 128.55953304090977, 35.184745049796639 ], [ 128.559554458449441, 35.185903640903867 ] ] ] ] } },
{ "type": "Feature", "properties": { "emd_cd": "48125115", "emd_nm": "문화동" }, "geometry": { "type": "MultiPolygon", "coordinates": [ [ [ [ 128.559107899449032, 35.189179460620032 ], [ 128.557402189277923, 35.185807384184606 ], [ 128.554397020888302, 35.187623700929876 ], [ 128.556981900954753, 35.18987458866669 ], [ 128.559107899449032, 35.189179460620032 ] ] ] ] } },
{ "type": "Feature", "properties": { "emd_cd": "48125116", "emd_nm": "반월동" }, "geometry": { "type": "MultiPolygon", "coordinates": [ [ [ [ 128.560869447987955, 35.191174934260317 ], [ 128.561615882016213, 35.189647232638769 ], [ 128.561055010951549, 35.188559005915387 ], [ 128.558848357631973, 35.1902036350589 ], [ 128.560869447987955, 35.191174934260317 ] ] ] ] } },
{ "type": "Feature", "properties": { "emd_cd": "48125117", "emd_nm": "부림동" }, "geometry": { "type": "MultiPolygon", "coordinates": [ [ [ [ 128.572938162312994, 35.207468223079132 ], [ 128.57374842185277, 35.20513697885125 ], [ 128.570095718546668, 35.20393481330575 ], [ 128.572938162312994, 35.207468223079132 ] ] ] ] } },
{ "type": "Feature", "properties": { "emd_cd": "48125118", "emd_nm": "산호동" }, "geometry": { "type": "MultiPolygon", "coordinates": [ [ [ [ 128.584737211958895, 35.222411602822078 ], [ 128.589439885836242, 35.218578218169831 ], [ 128.589495073444368, 35.215046249445471 ], [ 128.584871333021482, 35.206601105063818 ], [ 128.579670156542903, 35.209436714525914 ], [ 128.575860901884539, 35.215316041142103 ], [ 128.576806115172104, 35.214699320133484 ], [ 128.57876409862476, 35.220154885729997 ], [ 128.584737211958895, 35.222411602822078 ] ] ] ] } },
{ "type": "Feature", "properties": { "emd_cd": "48125119", "emd_nm": "상남동" }, "geometry": { "type": "MultiPolygon", "coordinates": [ [ [ [ 128.569514698986268, 35.21603567614234 ], [ 128.576554134340114, 35.214806731961446 ], [ 128.579670156542903, 35.209436714525914 ], [ 128.571876326674186, 35.21093424649824 ], [ 128.569514698986268, 35.21603567614234 ] ] ] ] } },
{ "type": "Feature", "properties": { "emd_cd": "48125120", "emd_nm": "서성동" }, "geometry": { "type": "MultiPolygon", "coordinates": [ [ [ [ 128.573136053365971, 35.204664152919825 ], [ 128.57384133344604, 35.203400911878504 ], [ 128.567746525466532, 35.201020620216241 ], [ 128.568095226845685, 35.202639972004988 ], [ 128.573136053365971, 35.204664152919825 ] ] ] ] } },
{ "type": "Feature", "properties": { "emd_cd": "48125121", "emd_nm": "성호동" }, "geometry": { "type": "MultiPolygon", "coordinates": [ [ [ [ 128.570248130192311, 35.212001602077038 ], [ 128.572451149037903, 35.209062896546293 ], [ 128.571584790389693, 35.207243175085011 ], [ 128.566531691234957, 35.208668346790688 ], [ 128.568624060665144, 35.210853298010363 ], [ 128.570428877598573, 35.210528872412667 ], [ 128.570248130192311, 35.212001602077038 ] ] ] ] } },
{ "type": "Feature", "properties": { "emd_cd": "48125122", "emd_nm": "수성동" }, "geometry": { "type": "MultiPolygon", "coordinates": [ [ [ [ 128.574408892942216, 35.205144916101204 ], [ 128.57533454745294, 35.202710061361422 ], [ 128.57511784927479, 35.202567914463756 ], [ 128.57343902736423, 35.203187847013119 ], [ 128.574408892942216, 35.205144916101204 ] ] ] ] } },
{ "type": "Feature", "properties": { "emd_cd": "48125123", "emd_nm": "신월동" }, "geometry": { "type": "MultiPolygon", "coordinates": [ [ [ [ 128.561349061076129, 35.193275135246544 ], [ 128.560185476921873, 35.1909816844395 ], [ 128.557516995915051, 35.190061362121511 ], [ 128.552860360712373, 35.193395552243757 ], [ 128.557572789818522, 35.195087218083437 ], [ 128.561349061076129, 35.193275135246544 ] ] ] ] } },
{ "type": "Feature", "properties": { "emd_cd": "48125124", "emd_nm": "신창동" }, "geometry": { "type": "MultiPolygon", "coordinates": [ [ [ [ 128.559784357032811, 35.188956143163288 ], [ 128.559750226823752, 35.185913593712471 ], [ 128.558576805542401, 35.185841275703829 ], [ 128.559784357032811, 35.188956143163288 ] ] ] ] } },
{ "type": "Feature", "properties": { "emd_cd": "48125125", "emd_nm": "신포동1가" }, "geometry": { "type": "MultiPolygon", "coordinates": [ [ [ [ 128.568848291369051, 35.200680771791689 ], [ 128.575924167048157, 35.199509672301161 ], [ 128.576303792978734, 35.197417866978085 ], [ 128.577385768257841, 35.198505703068562 ], [ 128.572697454193531, 35.193505861724269 ], [ 128.570348776969695, 35.193116356246954 ], [ 128.569168881205059, 35.193844905094018 ], [ 128.570248547476808, 35.196963698169668 ], [ 128.568848291369051, 35.200680771791689 ] ] ] ] } },
{ "type": "Feature", "properties": { "emd_cd": "48125126", "emd_nm": "신포동2가" }, "geometry": { "type": "MultiPolygon", "coordinates": [ [ [ [ 128.57511784927479, 35.202567914463756 ], [ 128.577125750296432, 35.2002993615869 ], [ 128.574958945952915, 35.19887550979513 ], [ 128.573526925956713, 35.200346006752078 ], [ 128.568867728849199, 35.200684716986757 ], [ 128.571014559862363, 35.202563305125835 ], [ 128.57511784927479, 35.202567914463756 ] ] ] ] } },
{ "type": "Feature", "properties": { "emd_cd": "48125127", "emd_nm": "신흥동" }, "geometry": { "type": "MultiPolygon", "coordinates": [ [ [ [ 128.566096854273724, 35.196683120915544 ], [ 128.565689150556722, 35.195296753654127 ], [ 128.563610193498675, 35.191874705612442 ], [ 128.563258842666812, 35.192084547098361 ], [ 128.566096854273724, 35.196683120915544 ] ] ] ] } },
{ "type": "Feature", "properties": { "emd_cd": "48125128", "emd_nm": "완월동" }, "geometry": { "type": "MultiPolygon", "coordinates": [ [ [ [ 128.538701833516029, 35.203689026535208 ], [ 128.54999126617227, 35.205189871114548 ], [ 128.55386027031372, 35.201218944251551 ], [ 128.558328121923182, 35.199823191805514 ], [ 128.566170901963943, 35.201482257896323 ], [ 128.562827674186877, 35.196577044810617 ], [ 128.563621639936031, 35.194548809553297 ], [ 128.56134939027632, 35.193275172496449 ], [ 128.55757272486963, 35.195087046590686 ], [ 128.546896490947034, 35.190677307398047 ], [ 128.541138475559308, 35.191050726488811 ], [ 128.538920722622578, 35.194032860898851 ], [ 128.538701833516029, 35.203689026535208 ] ] ] ] } },
{ "type": "Feature", "properties": { "emd_cd": "48125129", "emd_nm": "월남동1가" }, "geometry": { "type": "MultiPolygon", "coordinates": [ [ [ [ 128.56216878289743, 35.188212266280239 ], [ 128.564721092199761, 35.187072501391505 ], [ 128.565766539266633, 35.185295773068788 ], [ 128.56339303330742, 35.185047554588017 ], [ 128.561258077491772, 35.187139418776631 ], [ 128.56216878289743, 35.188212266280239 ] ] ] ] } },
{ "type": "Feature", "properties": { "emd_cd": "48125130", "emd_nm": "월남동2가" }, "geometry": { "type": "MultiPolygon", "coordinates": [ [ [ [ 128.56344380637961, 35.185029972743109 ], [ 128.560564794452489, 35.185791743559101 ], [ 128.561258077491772, 35.187139418776631 ], [ 128.563003881014851, 35.186550847132978 ], [ 128.56344380637961, 35.185029972743109 ] ] ] ] } },
{ "type": "Feature", "properties": { "emd_cd": "48125131", "emd_nm": "월남동3가" }, "geometry": { "type": "MultiPolygon", "coordinates": [ [ [ [ 128.560564794452489, 35.185791743559101 ], [ 128.561452771659077, 35.18543649969066 ], [ 128.559684099228491, 35.183840166511828 ], [ 128.560564794452489, 35.185791743559101 ] ] ] ] } },
{ "type": "Feature", "properties": { "emd_cd": "48125132", "emd_nm": "월남동4가" }, "geometry": { "type": "MultiPolygon", "coordinates": [ [ [ [ 128.558563020214706, 35.182426256058925 ], [ 128.560333959665911, 35.18337589190623 ], [ 128.55883652631573, 35.181452715207264 ], [ 128.558563020214706, 35.182426256058925 ] ] ] ] } },
{ "type": "Feature", "properties": { "emd_cd": "48125133", "emd_nm": "월남동5가" }, "geometry": { "type": "MultiPolygon", "coordinates": [ [ [ [ 128.558392367635065, 35.18073516400537 ], [ 128.55883652631573, 35.181452715207264 ], [ 128.561228203717576, 35.180631897936209 ], [ 128.558392367635065, 35.18073516400537 ] ] ] ] } },
{ "type": "Feature", "properties": { "emd_cd": "48125134", "emd_nm": "월영동" }, "geometry": { "type": "MultiPolygon", "coordinates": [ [ [ [ 128.578557137725937, 35.178872929863076 ], [ 128.579722791032168, 35.180323037372865 ], [ 128.582561176235259, 35.180079148645774 ], [ 128.584046016198045, 35.177204209584325 ], [ 128.578557137725937, 35.178872929863076 ] ] ], [ [ [ 128.540201450262202, 35.189967346772612 ], [ 128.546906337759822, 35.190661886359095 ], [ 128.552860360712373, 35.193395552243757 ], [ 128.560559037867847, 35.188735964632066 ], [ 128.556981900954753, 35.18987458866669 ], [ 128.552490138747345, 35.18508274218491 ], [ 128.557596697392086, 35.181275039667128 ], [ 128.558435547623191, 35.175888358673461 ], [ 128.559895621364319, 35.178189410803668 ], [ 128.563839876908816, 35.177705920812592 ], [ 128.565753213603386, 35.175855779440795 ], [ 128.56845635005152, 35.177887005037704 ], [ 128.57038176498574, 35.174965045303665 ], [ 128.563254622118251, 35.171236203529972 ], [ 128.560270821363105, 35.16786883067445 ], [ 128.559672560485893, 35.169523448071949 ], [ 128.551731074668055, 35.17002695028561 ], [ 128.547234772012757, 35.17671613433528 ], [ 128.544681204733564, 35.185278259800093 ], [ 128.540201450262202, 35.189967346772612 ] ] ] ] } },
{ "type": "Feature", "properties": { "emd_cd": "48125135", "emd_nm": "월포동" }, "geometry": { "type": "MultiPolygon", "coordinates": [ [ [ [ 128.568146310912027, 35.19472647609156 ], [ 128.570370791274684, 35.19306866351269 ], [ 128.564774092910852, 35.187063525833246 ], [ 128.562267043152218, 35.188182580887307 ], [ 128.566096919600852, 35.193245848668411 ], [ 128.568146310912027, 35.19472647609156 ] ] ] ] } },
{ "type": "Feature", "properties": { "emd_cd": "48125136", "emd_nm": "예곡동" }, "geometry": { "type": "MultiPolygon", "coordinates": [ [ [ [ 128.540201450262202, 35.189967346772612 ], [ 128.544681204733564, 35.185278259800093 ], [ 128.550477419520746, 35.170677972721222 ], [ 128.555752555970685, 35.169195359335099 ], [ 128.557069928585662, 35.166010520371863 ], [ 128.561271547913634, 35.164841716322201 ], [ 128.560740844806702, 35.161964964013691 ], [ 128.553553214274615, 35.160135167780531 ], [ 128.549107577687977, 35.163731937647135 ], [ 128.540732078130759, 35.161073048855258 ], [ 128.538605700484709, 35.161699130846017 ], [ 128.522760319245691, 35.174140184176373 ], [ 128.521184924417781, 35.178362647721237 ], [ 128.528738067607236, 35.186370948908753 ], [ 128.540201450262202, 35.189967346772612 ] ] ] ] } },
{ "type": "Feature", "properties": { "emd_cd": "48125137", "emd_nm": "오동동" }, "geometry": { "type": "MultiPolygon", "coordinates": [ [ [ [ 128.575919911544929, 35.199506592790456 ], [ 128.581066866662127, 35.202891931627427 ], [ 128.57659041372122, 35.206868406684897 ], [ 128.576227821102577, 35.209405611988956 ], [ 128.581050450134143, 35.209124819880152 ], [ 128.584871333021482, 35.206601105063818 ], [ 128.58530756462676, 35.20532884928582 ], [ 128.583348981170843, 35.204043732173425 ], [ 128.584616499641527, 35.203433099211168 ], [ 128.58058117556925, 35.202220873256309 ], [ 128.578110244006467, 35.200114444897579 ], [ 128.57925181065346, 35.199896538003344 ], [ 128.578224000156439, 35.199220216813373 ], [ 128.575919911544929, 35.199506592790456 ] ] ] ] } },
{ "type": "Feature", "properties": { "emd_cd": "48125138", "emd_nm": "우산동" }, "geometry": { "type": "MultiPolygon", "coordinates": [ [ [ [ 128.558547230455474, 35.151391005458891 ], [ 128.552397957695888, 35.150743037451882 ], [ 128.549535628731149, 35.15392647141789 ], [ 128.546202627435889, 35.151740299368264 ], [ 128.537744014149297, 35.155515456881133 ], [ 128.540739385496863, 35.161079322961108 ], [ 128.54824282041568, 35.163715672568564 ], [ 128.553553225250027, 35.160135167821139 ], [ 128.561994477395189, 35.161800479088541 ], [ 128.563973896799979, 35.157247362911797 ], [ 128.558901063485337, 35.155848926105179 ], [ 128.558547230455474, 35.151391005458891 ] ] ] ] } },
{ "type": "Feature", "properties": { "emd_cd": "48125139", "emd_nm": "유록동" }, "geometry": { "type": "MultiPolygon", "coordinates": [ [ [ [ 128.556946065290418, 35.184815343676249 ], [ 128.554924553688494, 35.185240985156163 ], [ 128.556917639217716, 35.185795574913229 ], [ 128.556946065290418, 35.184815343676249 ] ] ] ] } },
{ "type": "Feature", "properties": { "emd_cd": "48125140", "emd_nm": "자산동" }, "geometry": { "type": "MultiPolygon", "coordinates": [ [ [ [ 128.558899986614392, 35.208888167339637 ], [ 128.568108296942853, 35.2080662623395 ], [ 128.569010007186534, 35.203212888832802 ], [ 128.567553765526753, 35.201873048024311 ], [ 128.558328121923182, 35.199823191805514 ], [ 128.553860160505025, 35.201218943845724 ], [ 128.550057062684175, 35.205161084273058 ], [ 128.558899986614392, 35.208888167339637 ] ] ] ] } },
{ "type": "Feature", "properties": { "emd_cd": "48125141", "emd_nm": "장군동1가" }, "geometry": { "type": "MultiPolygon", "coordinates": [ [ [ [ 128.561290530534905, 35.191977487189632 ], [ 128.563610193498675, 35.191874705612442 ], [ 128.561615882016213, 35.189647232638769 ], [ 128.561290530534905, 35.191977487189632 ] ] ] ] } },
{ "type": "Feature", "properties": { "emd_cd": "48125142", "emd_nm": "장군동2가" }, "geometry": { "type": "MultiPolygon", "coordinates": [ [ [ [ 128.564623502737703, 35.194660407836579 ], [ 128.563258842666812, 35.192084547098361 ], [ 128.562043606058182, 35.192836144189741 ], [ 128.563433068017758, 35.194257895951218 ], [ 128.564623502737703, 35.194660407836579 ] ] ] ] } },
{ "type": "Feature", "properties": { "emd_cd": "48125143", "emd_nm": "장군동3가" }, "geometry": { "type": "MultiPolygon", "coordinates": [ [ [ [ 128.565517760561761, 35.196322151055689 ], [ 128.564623502737703, 35.194660407836579 ], [ 128.563483927667306, 35.19444417972916 ], [ 128.562839592565922, 35.196541466997729 ], [ 128.565517760561761, 35.196322151055689 ] ] ] ] } },
{ "type": "Feature", "properties": { "emd_cd": "48125144", "emd_nm": "장군동4가" }, "geometry": { "type": "MultiPolygon", "coordinates": [ [ [ [ 128.565962570871505, 35.199483941047589 ], [ 128.56609641288162, 35.196681469875422 ], [ 128.56284118383212, 35.196541635001957 ], [ 128.564447930589239, 35.199864078312046 ], [ 128.565962570871505, 35.199483941047589 ] ] ] ] } },
{ "type": "Feature", "properties": { "emd_cd": "48125145", "emd_nm": "장군동5" }, "geometry": { "type": "MultiPolygon", "coordinates": [ [ [ [ 128.566869379163023, 35.201570979594216 ], [ 128.566676055863411, 35.199817287443381 ], [ 128.565967944443685, 35.199481148189086 ], [ 128.565370281627821, 35.200665882213734 ], [ 128.566869379163023, 35.201570979594216 ] ] ] ] } },
{ "type": "Feature", "properties": { "emd_cd": "48125146", "emd_nm": "중성동" }, "geometry": { "type": "MultiPolygon", "coordinates": [ [ [ [ 128.576227821102577, 35.209405611988956 ], [ 128.576609767846719, 35.206751651969391 ], [ 128.575443491436573, 35.206228644469086 ], [ 128.572290593836385, 35.210928108151244 ], [ 128.576227821102577, 35.209405611988956 ] ] ] ] } },
{ "type": "Feature", "properties": { "emd_cd": "48125147", "emd_nm": "중앙동1가" }, "geometry": { "type": "MultiPolygon", "coordinates": [ [ [ [ 128.563604883163265, 35.191867836221846 ], [ 128.562267043152218, 35.188182580887307 ], [ 128.561055010951549, 35.188559005915387 ], [ 128.563604883163265, 35.191867836221846 ] ] ] ] } },
{ "type": "Feature", "properties": { "emd_cd": "48125148", "emd_nm": "중앙동2가" }, "geometry": { "type": "MultiPolygon", "coordinates": [ [ [ [ 128.569795927907535, 35.196160685667699 ], [ 128.569168881205059, 35.193844905094018 ], [ 128.568146310912027, 35.19472647609156 ], [ 128.563604883163265, 35.191867836221846 ], [ 128.566098392667897, 35.196682910123798 ], [ 128.569795927907535, 35.196160685667699 ] ] ] ] } },
{ "type": "Feature", "properties": { "emd_cd": "48125149", "emd_nm": "중앙동3가" }, "geometry": { "type": "MultiPolygon", "coordinates": [ [ [ [ 128.567553765526753, 35.201873048024311 ], [ 128.570120688433576, 35.19775757639232 ], [ 128.569795927907535, 35.196160685667699 ], [ 128.566098392667897, 35.196682910123798 ], [ 128.567553765526753, 35.201873048024311 ] ] ] ] } },
{ "type": "Feature", "properties": { "emd_cd": "48125150", "emd_nm": "창동" }, "geometry": { "type": "MultiPolygon", "coordinates": [ [ [ [ 128.573037665576408, 35.20846851187428 ], [ 128.575918442778146, 35.205047585465913 ], [ 128.574408892942216, 35.205144916101204 ], [ 128.573037665576408, 35.20846851187428 ] ] ] ] } },
{ "type": "Feature", "properties": { "emd_cd": "48125151", "emd_nm": "창포동1가" }, "geometry": { "type": "MultiPolygon", "coordinates": [ [ [ [ 128.561000580748839, 35.184543059287712 ], [ 128.563410815264945, 35.184960296857128 ], [ 128.563044825710193, 35.18381263655219 ], [ 128.561000580748839, 35.184543059287712 ] ] ] ] } },
{ "type": "Feature", "properties": { "emd_cd": "48125152", "emd_nm": "창포동2가" }, "geometry": { "type": "MultiPolygon", "coordinates": [ [ [ [ 128.562890081129694, 35.183865571053005 ], [ 128.562306782542976, 35.18270963122265 ], [ 128.55986283850288, 35.183544925603165 ], [ 128.561000580748839, 35.184543059287712 ], [ 128.562890081129694, 35.183865571053005 ] ] ] ] } },
{ "type": "Feature", "properties": { "emd_cd": "48125153", "emd_nm": "창포동3가" }, "geometry": { "type": "MultiPolygon", "coordinates": [ [ [ [ 128.562306782542976, 35.18270963122265 ], [ 128.561228203717576, 35.180631897936209 ], [ 128.558884538354363, 35.181466284583514 ], [ 128.560333959665911, 35.18337589190623 ], [ 128.562306782542976, 35.18270963122265 ] ] ] ] } },
{ "type": "Feature", "properties": { "emd_cd": "48125154", "emd_nm": "청계동" }, "geometry": { "type": "MultiPolygon", "coordinates": [ [ [ [ 128.558042534362244, 35.183690179042642 ], [ 128.556150226115278, 35.184509569627444 ], [ 128.556917639217716, 35.185795574913229 ], [ 128.557895313022129, 35.185819394169485 ], [ 128.558042534362244, 35.183690179042642 ] ] ] ] } },
{ "type": "Feature", "properties": { "emd_cd": "48125155", "emd_nm": "추산동" }, "geometry": { "type": "MultiPolygon", "coordinates": [ [ [ [ 128.571876326674186, 35.21093424649824 ], [ 128.57284659094006, 35.20725576879493 ], [ 128.569010007186534, 35.203212888832802 ], [ 128.568305157806662, 35.207719383290708 ], [ 128.571584790389693, 35.207243175085011 ], [ 128.571876326674186, 35.21093424649824 ] ] ] ] } },
{ "type": "Feature", "properties": { "emd_cd": "48125156", "emd_nm": "평화동" }, "geometry": { "type": "MultiPolygon", "coordinates": [ [ [ [ 128.559784357032811, 35.188956143163288 ], [ 128.558576805542401, 35.185841275703829 ], [ 128.557402189277923, 35.185807384184606 ], [ 128.558710865272417, 35.188787684041827 ], [ 128.559784357032811, 35.188956143163288 ] ] ] ] } },
{ "type": "Feature", "properties": { "emd_cd": "48125157", "emd_nm": "화영동" }, "geometry": { "type": "MultiPolygon", "coordinates": [ [ [ [ 128.552490138747345, 35.18508274218491 ], [ 128.556150226115278, 35.184509569627444 ], [ 128.556158526171998, 35.18316291386931 ], [ 128.552490138747345, 35.18508274218491 ] ] ] ] } },
{ "type": "Feature", "properties": { "emd_cd": "48125158", "emd_nm": "해운동" }, "geometry": { "type": "MultiPolygon", "coordinates": [ [ [ [ 128.558435547623191, 35.175888358673461 ], [ 128.55765112285772, 35.181298277397019 ], [ 128.561189307656861, 35.18055245643226 ], [ 128.563942822082026, 35.185234569200126 ], [ 128.56845635005152, 35.177887005037704 ], [ 128.565753213603386, 35.175855779440795 ], [ 128.563839876908816, 35.177705920812592 ], [ 128.559895621364319, 35.178189410803668 ], [ 128.558435547623191, 35.175888358673461 ] ] ] ] } },
{ "type": "Feature", "properties": { "emd_cd": "48125159", "emd_nm": "현동" }, "geometry": { "type": "MultiPolygon", "coordinates": [ [ [ [ 128.53074002052594, 35.149556694917187 ], [ 128.533043283664284, 35.153239749377754 ], [ 128.537744014149297, 35.155515456881133 ], [ 128.546202627435889, 35.151740299368264 ], [ 128.549535628731149, 35.15392647141789 ], [ 128.552397957695888, 35.150743037451882 ], [ 128.557614540244543, 35.151036833685069 ], [ 128.558901063485337, 35.155848926105179 ], [ 128.563836527190688, 35.157276818606377 ], [ 128.566451382571842, 35.156092643998811 ], [ 128.569975077626168, 35.1504910571172 ], [ 128.567078567995225, 35.140235650528581 ], [ 128.561840611545165, 35.137591044073503 ], [ 128.560813940295191, 35.138573067279864 ], [ 128.561186124913348, 35.133380988380061 ], [ 128.555414358993943, 35.132879141745441 ], [ 128.553583322595131, 35.128894939819212 ], [ 128.548374582310487, 35.126372893092693 ], [ 128.544951597757318, 35.130702069208304 ], [ 128.537285750546317, 35.135922285068744 ], [ 128.537185976271104, 35.140393536071066 ], [ 128.535282532826244, 35.143171789886388 ], [ 128.532052913347258, 35.144044284403897 ], [ 128.532515062453058, 35.146838842671016 ], [ 128.53074002052594, 35.149556694917187 ] ] ] ] } },
{ "type": "Feature", "properties": { "emd_cd": "48125160", "emd_nm": "홍문동" }, "geometry": { "type": "MultiPolygon", "coordinates": [ [ [ [ 128.559851583665363, 35.184750898519518 ], [ 128.558872960888692, 35.182364664468835 ], [ 128.558563020214706, 35.182426256058925 ], [ 128.558732219099369, 35.185846368581885 ], [ 128.559851583665363, 35.184750898519518 ] ] ] ] } },
{ "type": "Feature", "properties": { "emd_cd": "48125310", "emd_nm": "구산면" }, "geometry": { "type": "MultiPolygon", "coordinates": [ [ [ [ 128.542528725257, 35.069254067970846 ], [ 128.553980614235087, 35.069521417859789 ], [ 128.558574223107627, 35.067835455085728 ], [ 128.558995312954607, 35.065766370217567 ], [ 128.561550758118727, 35.066827704177783 ], [ 128.563537298101551, 35.064216837407095 ], [ 128.560062758322914, 35.063907607409888 ], [ 128.56319972869241, 35.059864453403229 ], [ 128.561764693502909, 35.059108301107322 ], [ 128.564281041093949, 35.059170160539772 ], [ 128.564993949898934, 35.056788122128829 ], [ 128.567129846417146, 35.05749577555445 ], [ 128.567937555781327, 35.053998974348737 ], [ 128.56497437894609, 35.054392908579153 ], [ 128.562418011315714, 35.05218093684838 ], [ 128.555194661538849, 35.053836569617573 ], [ 128.550915253194688, 35.05771737343008 ], [ 128.549349881862526, 35.06193500914042 ], [ 128.542892224165001, 35.066584626275962 ], [ 128.542528725257, 35.069254067970846 ] ] ], [ [ [ 128.552798510146175, 35.072655790072538 ], [ 128.561776028958349, 35.073398330634348 ], [ 128.563175231618715, 35.072728898491818 ], [ 128.555251335235113, 35.071934043138853 ], [ 128.552798510146175, 35.072655790072538 ] ] ], [ [ [ 128.547728779328168, 35.074892815465248 ], [ 128.55000498269618, 35.074633578273115 ], [ 128.547265716889314, 35.073814770736973 ], [ 128.547728779328168, 35.074892815465248 ] ] ], [ [ [ 128.553326522793526, 35.0786437874985 ], [ 128.55462276241056, 35.077958228879467 ], [ 128.553125115284672, 35.078481015129817 ], [ 128.553326522793526, 35.0786437874985 ] ] ], [ [ [ 128.542792630507137, 35.078931774286247 ], [ 128.54327989010153, 35.085190410841257 ], [ 128.546991640792157, 35.085208657956969 ], [ 128.544976977911062, 35.084310930194 ], [ 128.544088746861291, 35.078797661412295 ], [ 128.542792630507137, 35.078931774286247 ] ] ], [ [ [ 128.547048244727506, 35.081599675529453 ], [ 128.547879445333677, 35.083480673789303 ], [ 128.547586135123964, 35.080975958527318 ], [ 128.547048244727506, 35.081599675529453 ] ] ], [ [ [ 128.556875700222179, 35.083237123912618 ], [ 128.558503005651573, 35.082580995168371 ], [ 128.556012829338414, 35.082999614011406 ], [ 128.556875700222179, 35.083237123912618 ] ] ], [ [ [ 128.544774247890444, 35.10442332656153 ], [ 128.544435323655762, 35.104582328219912 ], [ 128.544763150171235, 35.104596029155026 ], [ 128.544774247890444, 35.10442332656153 ] ] ], [ [ [ 128.53982478858569, 35.108039154443944 ], [ 128.539373743636361, 35.107873065594056 ], [ 128.53933506803213, 35.107958654860759 ], [ 128.53982478858569, 35.108039154443944 ] ] ], [ [ [ 128.536710338562386, 35.110346039545817 ], [ 128.539255713903259, 35.108101820688972 ], [ 128.538491607130823, 35.106907244949888 ], [ 128.536030752602613, 35.108971835775471 ], [ 128.536710338562386, 35.110346039545817 ] ] ], [ [ [ 128.569698203764943, 35.061667086493877 ], [ 128.574803628431511, 35.063130012707489 ], [ 128.575612724546687, 35.060505180574296 ], [ 128.570499433937158, 35.057089487805285 ], [ 128.569805928325081, 35.058882633553516 ], [ 128.571448911554995, 35.059811840633593 ], [ 128.569698203764943, 35.061667086493877 ] ] ], [ [ [ 128.631586636615936, 35.061198176454774 ], [ 128.635439722131281, 35.065722104205911 ], [ 128.637176949424457, 35.065918809779426 ], [ 128.637102910849421, 35.063849806187378 ], [ 128.638235010705444, 35.064735410166818 ], [ 128.639862259835098, 35.06311607797717 ], [ 128.633958794195394, 35.059991483121365 ], [ 128.631586636615936, 35.061198176454774 ] ] ], [ [ [ 128.570511669294774, 35.065812208650591 ], [ 128.573031343069061, 35.066434446104921 ], [ 128.572826900824396, 35.064442591593227 ], [ 128.570511669294774, 35.065812208650591 ] ] ], [ [ [ 128.574168618740373, 35.065514265381566 ], [ 128.575337577807346, 35.067890730625798 ], [ 128.576652342469998, 35.065763940029726 ], [ 128.574168618740373, 35.065514265381566 ] ] ], [ [ [ 128.638310345151638, 35.067469000448767 ], [ 128.639514942590552, 35.068031661666517 ], [ 128.638293439975342, 35.066815461903609 ], [ 128.638310345151638, 35.067469000448767 ] ] ], [ [ [ 128.561754574233646, 35.081461551165255 ], [ 128.56268729417252, 35.081565772905805 ], [ 128.562853227218227, 35.081443031298846 ], [ 128.561754574233646, 35.081461551165255 ] ] ], [ [ [ 128.562424540079093, 35.083634879661716 ], [ 128.563027083799369, 35.082932026575889 ], [ 128.562049989983137, 35.083394960996742 ], [ 128.562424540079093, 35.083634879661716 ] ] ], [ [ [ 128.520115918132291, 35.123713083657954 ], [ 128.521766190352679, 35.131701665616283 ], [ 128.525394428310108, 35.135971154297785 ], [ 128.537085714959545, 35.138372564209618 ], [ 128.537285750546317, 35.135922285068744 ], [ 128.544951597757318, 35.130702069208304 ], [ 128.548374582310487, 35.126372893092693 ], [ 128.553583322595131, 35.128894939819212 ], [ 128.555415347577338, 35.132878938072963 ], [ 128.560875865691798, 35.133094556722448 ], [ 128.561441591994736, 35.134534264735294 ], [ 128.571710319917202, 35.132693370778078 ], [ 128.575152778102961, 35.13018766707961 ], [ 128.579165632681907, 35.129878858982643 ], [ 128.579651271520646, 35.128294478173757 ], [ 128.582463205111395, 35.12862945621201 ], [ 128.582379859945803, 35.127352061137195 ], [ 128.591015636824636, 35.129189189641771 ], [ 128.594080120543339, 35.132583138166559 ], [ 128.595633458910726, 35.132666622265269 ], [ 128.594845833572606, 35.131175824377841 ], [ 128.595260050996473, 35.12976114467105 ], [ 128.595645872736299, 35.132667907692742 ], [ 128.59900849343839, 35.132814249847186 ], [ 128.600247804891467, 35.129557276811305 ], [ 128.59843839227176, 35.126698458710038 ], [ 128.599125215584962, 35.124152923057771 ], [ 128.585790173159268, 35.12033410301617 ], [ 128.587487068988139, 35.118051311042819 ], [ 128.59061185963418, 35.120155523125177 ], [ 128.59541904872296, 35.119065281388323 ], [ 128.595551339376527, 35.117739860489145 ], [ 128.597432392214756, 35.119684567811547 ], [ 128.5994904499602, 35.11913088466769 ], [ 128.601152288604794, 35.102346378488193 ], [ 128.606820695872926, 35.099842071636424 ], [ 128.609415901688465, 35.096479405723315 ], [ 128.617491764005536, 35.093557526373239 ], [ 128.615411989358762, 35.091884005987893 ], [ 128.61159147058919, 35.092947148955922 ], [ 128.612033845266069, 35.091532041176421 ], [ 128.614698930729617, 35.091386428661423 ], [ 128.616454897404168, 35.089273021511246 ], [ 128.62138303385828, 35.090199443384201 ], [ 128.62729244727629, 35.08377883307022 ], [ 128.61120726759853, 35.080250995540986 ], [ 128.603222646735247, 35.081186738341316 ], [ 128.601952515170638, 35.080565643983405 ], [ 128.606979755741435, 35.077318184851705 ], [ 128.602637544069978, 35.076393287070957 ], [ 128.60281368501083, 35.074434354188071 ], [ 128.605679153368499, 35.072465918277345 ], [ 128.606752128874291, 35.075091968007413 ], [ 128.611133791298499, 35.075150881538811 ], [ 128.61174723519099, 35.07236320561961 ], [ 128.607334529548837, 35.070755576680554 ], [ 128.612531238847396, 35.069365225677373 ], [ 128.624249403961983, 35.073943199214014 ], [ 128.630627290456204, 35.071353152926314 ], [ 128.635422543577533, 35.071287216873529 ], [ 128.636206292736148, 35.070106433442156 ], [ 128.627721929076671, 35.066388403528691 ], [ 128.630448640444712, 35.066375474190878 ], [ 128.619462774104733, 35.064583487451507 ], [ 128.616810061487087, 35.062334751069507 ], [ 128.612974972827175, 35.062536135737275 ], [ 128.608299843208982, 35.0602552208234 ], [ 128.607185075714739, 35.05782813607501 ], [ 128.605918009454058, 35.059160868008782 ], [ 128.601614313911881, 35.056358160441192 ], [ 128.59980654262165, 35.057661409652098 ], [ 128.589756685460173, 35.05754035337376 ], [ 128.581105818578521, 35.054322282236136 ], [ 128.573193187378848, 35.054671613833719 ], [ 128.572528950506751, 35.055643342225743 ], [ 128.57825773130682, 35.060495732859977 ], [ 128.584535652667938, 35.061011127713492 ], [ 128.585509798399272, 35.062670840519374 ], [ 128.588369000913133, 35.062788674278167 ], [ 128.588755230325916, 35.064723787483551 ], [ 128.591297511297626, 35.063258440376138 ], [ 128.589450625732837, 35.066102349397163 ], [ 128.592135981415936, 35.067325041515112 ], [ 128.593400441737032, 35.066108407906093 ], [ 128.59497013977699, 35.065463742256433 ], [ 128.593463606656826, 35.068358886169698 ], [ 128.597276246777284, 35.06831664836745 ], [ 128.596064380959461, 35.070373313600797 ], [ 128.59336845351018, 35.069564370467084 ], [ 128.591090454078113, 35.072280830922139 ], [ 128.587773579086388, 35.072902598518688 ], [ 128.585811684273892, 35.072537790461851 ], [ 128.587669173873792, 35.069773621219703 ], [ 128.581059992441965, 35.064643580064498 ], [ 128.579726908506103, 35.066461423305626 ], [ 128.58083946861737, 35.068799935802417 ], [ 128.577982790458407, 35.067061755636921 ], [ 128.569037319475882, 35.070029986716733 ], [ 128.568488636329022, 35.067244314960419 ], [ 128.563607726006154, 35.066858752656238 ], [ 128.561369693695099, 35.069245918054918 ], [ 128.566168348418614, 35.070545605687336 ], [ 128.565964203419668, 35.073326467496223 ], [ 128.562910511456607, 35.075753577684779 ], [ 128.564657076787228, 35.078671087200334 ], [ 128.562944152696588, 35.080520180460717 ], [ 128.564189680075856, 35.082406549948189 ], [ 128.569923596933421, 35.082549689635677 ], [ 128.570208241904453, 35.084158390697475 ], [ 128.578218915159795, 35.08820736808115 ], [ 128.578362453959585, 35.087556448961969 ], [ 128.585605623516443, 35.086588439792109 ], [ 128.582945621262553, 35.087404491691728 ], [ 128.583214532149185, 35.091272179188223 ], [ 128.576625976000116, 35.090282905742235 ], [ 128.569670440091897, 35.093273359441952 ], [ 128.550454256927281, 35.096771078411457 ], [ 128.548474040787028, 35.096618516125027 ], [ 128.548507003486691, 35.094074699977554 ], [ 128.546449932886844, 35.092988770906288 ], [ 128.5459745517459, 35.095099600373338 ], [ 128.547576466432702, 35.096612149330909 ], [ 128.545426788994035, 35.099445279571867 ], [ 128.547818598635388, 35.099013822374587 ], [ 128.548386172071048, 35.100425274992375 ], [ 128.541431740996984, 35.101475307051587 ], [ 128.543924246211787, 35.103874920410547 ], [ 128.547410316470689, 35.104026553786753 ], [ 128.548893341862424, 35.107276655231288 ], [ 128.544101531911878, 35.110781215313651 ], [ 128.539506113127146, 35.108170340385989 ], [ 128.541062947298286, 35.110061305863042 ], [ 128.538991269486473, 35.110915979453651 ], [ 128.540064365031725, 35.11273540929502 ], [ 128.538753547110758, 35.114477603094244 ], [ 128.541459381208796, 35.118119598664748 ], [ 128.539496731479204, 35.117337802767544 ], [ 128.53770095438469, 35.120691832014657 ], [ 128.535277987280267, 35.117162799313611 ], [ 128.528481872448424, 35.125040965634412 ], [ 128.5217133239845, 35.122631640267912 ], [ 128.520115918132291, 35.123713083657954 ] ] ], [ [ [ 128.582508826937499, 35.128541047108463 ], [ 128.582562633427585, 35.128450466973561 ], [ 128.582560283496122, 35.128440156405333 ], [ 128.582508826937499, 35.128541047108463 ] ] ] ] } },
{ "type": "Feature", "properties": { "emd_cd": "48125320", "emd_nm": "진동면" }, "geometry": { "type": "MultiPolygon", "coordinates": [ [ [ [ 128.494948143419009, 35.072143874458561 ], [ 128.496572130980979, 35.072627498326391 ], [ 128.497330777733566, 35.070112543781519 ], [ 128.495556679979956, 35.069552572148076 ], [ 128.494948143419009, 35.072143874458561 ] ] ], [ [ [ 128.500448250414564, 35.075818326209323 ], [ 128.500976131492536, 35.075235255187593 ], [ 128.500206150489049, 35.075800137103094 ], [ 128.500448250414564, 35.075818326209323 ] ] ], [ [ [ 128.488113311532118, 35.078686390487682 ], [ 128.488496686097761, 35.083833970676217 ], [ 128.492386094412609, 35.082684664315408 ], [ 128.495196030886035, 35.07983850995705 ], [ 128.490954563312556, 35.077026269969572 ], [ 128.488113311532118, 35.078686390487682 ] ] ], [ [ [ 128.489646711468623, 35.087040645266391 ], [ 128.489511728405319, 35.08900547661397 ], [ 128.490122251256025, 35.089209054143431 ], [ 128.489646711468623, 35.087040645266391 ] ] ], [ [ [ 128.488678416410693, 35.092492986087073 ], [ 128.493525959317481, 35.09358419421315 ], [ 128.49302346531988, 35.088813750296048 ], [ 128.4951930096274, 35.084921316544957 ], [ 128.488678416410693, 35.092492986087073 ] ] ], [ [ [ 128.487569047061584, 35.091356821969157 ], [ 128.487950493569514, 35.091210796188555 ], [ 128.48736264525067, 35.091132141243591 ], [ 128.487569047061584, 35.091356821969157 ] ] ], [ [ [ 128.510159590076341, 35.092111536105307 ], [ 128.510917456047537, 35.090683335214543 ], [ 128.510556804306134, 35.090565204577423 ], [ 128.510159590076341, 35.092111536105307 ] ] ], [ [ [ 128.514744768424748, 35.096001916435775 ], [ 128.521921969887075, 35.096064239882807 ], [ 128.5184068562005, 35.093338457384014 ], [ 128.51938344015764, 35.091303859008249 ], [ 128.517582705563314, 35.090850426827323 ], [ 128.517231806142632, 35.088996968221245 ], [ 128.515559081547906, 35.090443125797293 ], [ 128.514744768424748, 35.096001916435775 ] ] ], [ [ [ 128.510291983805956, 35.09502407534103 ], [ 128.513413019364748, 35.096323836243762 ], [ 128.513998058313462, 35.09578497181996 ], [ 128.510291983805956, 35.09502407534103 ] ] ], [ [ [ 128.523789704543987, 35.101633412579005 ], [ 128.525052621867871, 35.102375047901923 ], [ 128.524560295516352, 35.100714406658923 ], [ 128.523789704543987, 35.101633412579005 ] ] ], [ [ [ 128.465400197285675, 35.102095388495492 ], [ 128.470199742886649, 35.105507724910403 ], [ 128.46774215513986, 35.109321925339536 ], [ 128.470815042122013, 35.112259335899999 ], [ 128.470409891261966, 35.11437903029087 ], [ 128.480004230609438, 35.113992879034299 ], [ 128.478192637795217, 35.116335980462374 ], [ 128.478508669624006, 35.121423481175853 ], [ 128.48287363261764, 35.123144870069176 ], [ 128.483882911028019, 35.122194926477462 ], [ 128.485201708816874, 35.126356493533208 ], [ 128.489655828775369, 35.12582493764689 ], [ 128.493917819387747, 35.127991355450376 ], [ 128.492995103244425, 35.133836330284396 ], [ 128.499183805967078, 35.141805934966399 ], [ 128.499952383735689, 35.146961902830981 ], [ 128.496465291887318, 35.150077665946704 ], [ 128.49614496808249, 35.153794727034601 ], [ 128.492814693105089, 35.154978742476317 ], [ 128.492327564569507, 35.15725650062457 ], [ 128.495605426344525, 35.168448796824492 ], [ 128.503147650665625, 35.177424577957879 ], [ 128.506747164200902, 35.178540796736726 ], [ 128.509657032088967, 35.177064396145312 ], [ 128.512766757034626, 35.178245407588605 ], [ 128.517929821232912, 35.177050469040879 ], [ 128.521184924417781, 35.178362647721237 ], [ 128.525811072257454, 35.170963809730949 ], [ 128.540732078130759, 35.161073048855258 ], [ 128.539644566392951, 35.157257958515117 ], [ 128.533047427244497, 35.153229102475173 ], [ 128.530677566717117, 35.149533819504072 ], [ 128.53254594522511, 35.146654717902855 ], [ 128.532052913347258, 35.144044284403897 ], [ 128.535390790652201, 35.143089823118103 ], [ 128.537085714959545, 35.138372564209618 ], [ 128.525394428310108, 35.135971154297785 ], [ 128.521766190352679, 35.131701665616283 ], [ 128.520179172386975, 35.125554476139449 ], [ 128.5217133239845, 35.122631640267912 ], [ 128.528481872448424, 35.125040965634412 ], [ 128.534528628992234, 35.119218339692964 ], [ 128.535277987280267, 35.117162799313611 ], [ 128.533560107684337, 35.115922790286106 ], [ 128.534997376741671, 35.11445695377261 ], [ 128.528928437070391, 35.109649121658634 ], [ 128.530697781379814, 35.108824777635036 ], [ 128.528962790501168, 35.105764282899827 ], [ 128.527794061961629, 35.106371804256057 ], [ 128.526561113241087, 35.104548097014565 ], [ 128.524046425607423, 35.106225652612643 ], [ 128.520311421573979, 35.105485128728013 ], [ 128.520114084042746, 35.103529204001774 ], [ 128.520857632574177, 35.103731514618211 ], [ 128.521362498464271, 35.103739310390537 ], [ 128.519851419742224, 35.103259377666035 ], [ 128.517779993739964, 35.09796692420867 ], [ 128.51576262558072, 35.101142835705126 ], [ 128.51327510788218, 35.098690405634166 ], [ 128.511890389742149, 35.100210768048292 ], [ 128.50991251890656, 35.098721429286691 ], [ 128.508612175516106, 35.099361744957193 ], [ 128.506995845241363, 35.098531310369161 ], [ 128.506039139495726, 35.09867210853902 ], [ 128.504930447086167, 35.098249986110368 ], [ 128.504582699444853, 35.098285823582195 ], [ 128.505660762637604, 35.09949360504951 ], [ 128.500068777316642, 35.102923537613414 ], [ 128.49833212277909, 35.101611664376129 ], [ 128.495775865274169, 35.101117004720173 ], [ 128.49491526732109, 35.101218239814131 ], [ 128.499114082784217, 35.10225061187932 ], [ 128.4967894525129, 35.104165209004691 ], [ 128.495075616690343, 35.102636825769039 ], [ 128.49676455811948, 35.104401394636781 ], [ 128.495993090341926, 35.10679935327385 ], [ 128.48755822891556, 35.108086564193712 ], [ 128.487387008064502, 35.109535002158744 ], [ 128.486037517155609, 35.108584558673918 ], [ 128.485150330867782, 35.110793471850741 ], [ 128.486687009211749, 35.111648473788151 ], [ 128.483925276294343, 35.11283247349013 ], [ 128.484496562816588, 35.109903865892669 ], [ 128.48294935942107, 35.110125453599949 ], [ 128.486458868562551, 35.105959696960682 ], [ 128.485454069287925, 35.102030600878791 ], [ 128.483102362848769, 35.100149202928598 ], [ 128.482258996776864, 35.100469071616899 ], [ 128.482101002569436, 35.100082751885893 ], [ 128.481763906476743, 35.100036014683738 ], [ 128.480921265083936, 35.098943594954484 ], [ 128.480608672902861, 35.098867927216986 ], [ 128.481118345908811, 35.10247226594678 ], [ 128.479683926504435, 35.102376877100227 ], [ 128.479983241718571, 35.100605577022357 ], [ 128.477228315064423, 35.097928952299867 ], [ 128.477701496073223, 35.099681457161289 ], [ 128.470843075598168, 35.098377444183782 ], [ 128.467313738448325, 35.099547945964915 ], [ 128.465400197285675, 35.102095388495492 ] ] ] ] } },
{ "type": "Feature", "properties": { "emd_cd": "48125330", "emd_nm": "진북면" }, "geometry": { "type": "MultiPolygon", "coordinates": [ [ [ [ 128.503147650665625, 35.177424577957879 ], [ 128.495605426344525, 35.168448796824492 ], [ 128.492327564569507, 35.15725650062457 ], [ 128.492814693105089, 35.154978742476317 ], [ 128.49614496808249, 35.153794727034601 ], [ 128.496465291887318, 35.150077665946704 ], [ 128.499952383735689, 35.146961902830981 ], [ 128.499183805967078, 35.141805934966399 ], [ 128.492995103244425, 35.133836330284396 ], [ 128.493917819387747, 35.127991355450376 ], [ 128.489655828775369, 35.12582493764689 ], [ 128.485201708816874, 35.126356493533208 ], [ 128.483882911028019, 35.122194926477462 ], [ 128.48287363261764, 35.123144870069176 ], [ 128.478363020174839, 35.121259853011949 ], [ 128.478192637795217, 35.116335980462374 ], [ 128.480004230609438, 35.113992879034299 ], [ 128.47163983961741, 35.114934072050822 ], [ 128.46774215513986, 35.109321925339536 ], [ 128.461094043956223, 35.111721305599801 ], [ 128.459054331338535, 35.109572368882127 ], [ 128.456789450598023, 35.109806579774876 ], [ 128.453195592738979, 35.113356727146531 ], [ 128.451574884859923, 35.113105590426287 ], [ 128.449764411311094, 35.118491721338302 ], [ 128.446193509843368, 35.121570641644901 ], [ 128.43590162402927, 35.123503769124675 ], [ 128.429054695407871, 35.122612504841598 ], [ 128.421315408365587, 35.12475039593933 ], [ 128.415174737996523, 35.133529058806111 ], [ 128.413686507356829, 35.140084793965393 ], [ 128.416751085355543, 35.145226205188884 ], [ 128.420619758569529, 35.146122057725194 ], [ 128.421437717173831, 35.150224498978481 ], [ 128.418820518051064, 35.157329933550699 ], [ 128.415771798962481, 35.160414949424904 ], [ 128.4196085103911, 35.169197652768069 ], [ 128.430270716216882, 35.16431332759587 ], [ 128.437060729671288, 35.164992102649279 ], [ 128.444670582231538, 35.169960343641627 ], [ 128.445359108256014, 35.180582324769908 ], [ 128.457577785053076, 35.183944837439292 ], [ 128.457929743881948, 35.185621498824524 ], [ 128.465489442890231, 35.188964337823464 ], [ 128.479045168628176, 35.188015498801519 ], [ 128.487063562393331, 35.180431862664342 ], [ 128.497672551199798, 35.180744300128225 ], [ 128.503147650665625, 35.177424577957879 ] ] ] ] } },
{ "type": "Feature", "properties": { "emd_cd": "48125340", "emd_nm": "진전면" }, "geometry": { "type": "MultiPolygon", "coordinates": [ [ [ [ 128.348144179853819, 35.130805594571648 ], [ 128.356958721676364, 35.13691636562428 ], [ 128.358111496436152, 35.139591706022195 ], [ 128.363421184141373, 35.141062891367824 ], [ 128.358550502548923, 35.146896208099903 ], [ 128.3621924978967, 35.15218438702135 ], [ 128.360453256598305, 35.15720069081933 ], [ 128.362457801916094, 35.159970719122484 ], [ 128.361182459338039, 35.162238038052543 ], [ 128.362038371878555, 35.16617582268379 ], [ 128.365245309591984, 35.17201890589304 ], [ 128.36437479886871, 35.178836435492855 ], [ 128.367430469832385, 35.184231929131052 ], [ 128.367225485014188, 35.194267527921838 ], [ 128.37408633987377, 35.193063255526312 ], [ 128.376368638406348, 35.19551945866214 ], [ 128.376304840054445, 35.198641574842505 ], [ 128.390393006943697, 35.207215105034599 ], [ 128.400871456394157, 35.20482435334722 ], [ 128.407160474726538, 35.194035469399488 ], [ 128.403140005406101, 35.185026464785246 ], [ 128.405798786834339, 35.17960852973701 ], [ 128.411647451627829, 35.177606727161972 ], [ 128.416813512611299, 35.170197156073037 ], [ 128.4196085103911, 35.169197652768069 ], [ 128.415771798962481, 35.160414949424904 ], [ 128.418820518051064, 35.157329933550699 ], [ 128.421437717173831, 35.150224498978481 ], [ 128.420619758569529, 35.146122057725194 ], [ 128.416751085355543, 35.145226205188884 ], [ 128.413686507356829, 35.140084793965393 ], [ 128.415174737996523, 35.133529058806111 ], [ 128.421315408365587, 35.12475039593933 ], [ 128.430485914968244, 35.122429954084659 ], [ 128.443590224951777, 35.122750394840097 ], [ 128.448486957594042, 35.119789762146382 ], [ 128.450756010573684, 35.114043259039697 ], [ 128.456789450598023, 35.109806579774876 ], [ 128.459054331338535, 35.109572368882127 ], [ 128.461094043956223, 35.111721305599801 ], [ 128.46728864215811, 35.109912096411051 ], [ 128.470199742886649, 35.105507724910403 ], [ 128.468104631210622, 35.105052881488213 ], [ 128.466603365649661, 35.102294149515899 ], [ 128.463071597568529, 35.10223971598846 ], [ 128.458755494479362, 35.106334693277887 ], [ 128.45826635220817, 35.104119122520935 ], [ 128.4506814839566, 35.106256588331142 ], [ 128.450336638284767, 35.104619253446778 ], [ 128.452531197039349, 35.103118718744533 ], [ 128.450810374239722, 35.100715598021075 ], [ 128.448438282793177, 35.101514295381996 ], [ 128.446616047504165, 35.097590643562725 ], [ 128.454648865214295, 35.091829321205807 ], [ 128.460911342191849, 35.090693536573575 ], [ 128.460885053555586, 35.089497280664297 ], [ 128.461808692729704, 35.09035946313827 ], [ 128.461244823967746, 35.088860870952097 ], [ 128.465914674360647, 35.085056847473695 ], [ 128.479057805859355, 35.081635236622375 ], [ 128.479268961889375, 35.078399365392677 ], [ 128.473907240780164, 35.075622354297693 ], [ 128.470940282692368, 35.081375383422049 ], [ 128.46831047390819, 35.081643857065664 ], [ 128.4653017917189, 35.079544519889822 ], [ 128.464704817046766, 35.073915205115668 ], [ 128.461387581567891, 35.0716649415467 ], [ 128.452545643705349, 35.074973501055076 ], [ 128.450684059962356, 35.072608824824982 ], [ 128.446163840510167, 35.071774248257512 ], [ 128.439155160291307, 35.072512905925748 ], [ 128.440485613907271, 35.07017182489912 ], [ 128.438815356639793, 35.066832244023793 ], [ 128.435315110320431, 35.066840186959837 ], [ 128.433627648653726, 35.060942969003172 ], [ 128.429560082079234, 35.059248784786774 ], [ 128.431542638010228, 35.059443856686364 ], [ 128.431992169205472, 35.057586896253142 ], [ 128.427376121967285, 35.055062628224576 ], [ 128.423206149181595, 35.056489454238417 ], [ 128.422633925650729, 35.058324839684488 ], [ 128.427692152201331, 35.071499329022679 ], [ 128.425092619435503, 35.075819417339851 ], [ 128.425758793211372, 35.081022415072283 ], [ 128.42813019901908, 35.083134409344588 ], [ 128.427099634983051, 35.086474742975469 ], [ 128.419968793886682, 35.088121130347901 ], [ 128.416995014629407, 35.091496377289069 ], [ 128.411073647780285, 35.092652606983322 ], [ 128.399747556902526, 35.090443940390841 ], [ 128.399115107840373, 35.0888970342207 ], [ 128.401042936621309, 35.085814895612053 ], [ 128.39956451482098, 35.083561549300256 ], [ 128.393043050618246, 35.08721539864144 ], [ 128.39046900971303, 35.091355733834163 ], [ 128.389938011396737, 35.098690572322383 ], [ 128.386014153342103, 35.102972573958773 ], [ 128.379555574233677, 35.104308510099827 ], [ 128.371923664228149, 35.111147957352877 ], [ 128.366006268360337, 35.108946002216712 ], [ 128.360707280238103, 35.109885858103546 ], [ 128.356912702688305, 35.10796952567518 ], [ 128.350118874138872, 35.111829964782252 ], [ 128.353684101981429, 35.118449079943382 ], [ 128.351683703471963, 35.123588753573252 ], [ 128.348286891863012, 35.127079622027168 ], [ 128.348144179853819, 35.130805594571648 ] ] ] ] } }
]
}
