{
"type": "FeatureCollection",
"name": "48121",
"crs": { "type": "name", "properties": { "name": "urn:ogc:def:crs:OGC:1.3:CRS84" } },
"features": [
{ "type": "Feature", "properties": { "emd_cd": "48121101", "emd_nm": "북동" }, "geometry": { "type": "MultiPolygon", "coordinates": [ [ [ [ 128.623682750383665, 35.265376060874658 ], [ 128.620444621641042, 35.264697597572336 ], [ 128.619633591265853, 35.267375864944817 ], [ 128.622179394549249, 35.267309475223179 ], [ 128.623682750383665, 35.265376060874658 ] ] ] ] } },
{ "type": "Feature", "properties": { "emd_cd": "48121102", "emd_nm": "중동" }, "geometry": { "type": "MultiPolygon", "coordinates": [ [ [ [ 128.632094660097493, 35.25974760512598 ], [ 128.634329501879336, 35.25433893742693 ], [ 128.62968555271766, 35.25274518135501 ], [ 128.629185751677511, 35.250006669693647 ], [ 128.623319681506501, 35.2508907839172 ], [ 128.622748999850103, 35.249753299749308 ], [ 128.620414360763561, 35.251204692246624 ], [ 128.62643830453365, 35.261104210668279 ], [ 128.632094660097493, 35.25974760512598 ] ] ] ] } },
{ "type": "Feature", "properties": { "emd_cd": "48121103", "emd_nm": "서상동" }, "geometry": { "type": "MultiPolygon", "coordinates": [ [ [ [ 128.61435054691006, 35.26171549515751 ], [ 128.618227374360259, 35.263777978836984 ], [ 128.619569483334658, 35.267238299626243 ], [ 128.620444621641042, 35.264697597572336 ], [ 128.623709307065525, 35.265379640948197 ], [ 128.623653436109606, 35.26140850043123 ], [ 128.626413743253579, 35.260548489592423 ], [ 128.621055947420558, 35.253744147046689 ], [ 128.61538172924628, 35.257641032154602 ], [ 128.618283773376305, 35.26151084582537 ], [ 128.61435054691006, 35.26171549515751 ] ] ] ] } },
{ "type": "Feature", "properties": { "emd_cd": "48121104", "emd_nm": "소답동" }, "geometry": { "type": "MultiPolygon", "coordinates": [ [ [ [ 128.6138700677499, 35.27035297312581 ], [ 128.616024835999781, 35.276698800197181 ], [ 128.620189638919015, 35.27682831258938 ], [ 128.623654711237862, 35.273649037808724 ], [ 128.629173657065081, 35.272205987103725 ], [ 128.634630245926246, 35.264898415958918 ], [ 128.633109982773703, 35.261694966424827 ], [ 128.623653436109578, 35.261408500431237 ], [ 128.622575567285764, 35.267044273494328 ], [ 128.6138700677499, 35.27035297312581 ] ] ] ] } },
{ "type": "Feature", "properties": { "emd_cd": "48121105", "emd_nm": "도계동" }, "geometry": { "type": "MultiPolygon", "coordinates": [ [ [ [ 128.629348502177606, 35.250186923418134 ], [ 128.62968555271766, 35.25274518135501 ], [ 128.634329501879336, 35.25433893742693 ], [ 128.632094660056566, 35.259747614139144 ], [ 128.629613298050486, 35.261382776666927 ], [ 128.633109982773732, 35.261694966424805 ], [ 128.634851004780415, 35.267844108747241 ], [ 128.652315020819429, 35.26739991689503 ], [ 128.664234714340665, 35.264127818441374 ], [ 128.663427954554095, 35.261187497202094 ], [ 128.647078474835638, 35.260008243429205 ], [ 128.643093556243571, 35.25750595104698 ], [ 128.643698081417739, 35.254911922980142 ], [ 128.63606281654296, 35.25126586299227 ], [ 128.633808393222267, 35.248283052217644 ], [ 128.629348502177606, 35.250186923418134 ] ] ] ] } },
{ "type": "Feature", "properties": { "emd_cd": "48121106", "emd_nm": "동정동" }, "geometry": { "type": "MultiPolygon", "coordinates": [ [ [ [ 128.612527719208231, 35.277347455255928 ], [ 128.616425351427466, 35.276275422494258 ], [ 128.613886445408781, 35.270230264238094 ], [ 128.619569483334658, 35.267238299626243 ], [ 128.618227374360259, 35.263777978836984 ], [ 128.611132804449937, 35.260716811953493 ], [ 128.606735361508811, 35.25649480185578 ], [ 128.604360229688751, 35.258113784878702 ], [ 128.599868930768025, 35.271940653001764 ], [ 128.603629563160268, 35.271663685531607 ], [ 128.603107725243632, 35.275494552536379 ], [ 128.612527719208231, 35.277347455255928 ] ] ] ] } },
{ "type": "Feature", "properties": { "emd_cd": "48121107", "emd_nm": "소계동" }, "geometry": { "type": "MultiPolygon", "coordinates": [ [ [ [ 128.604666194901398, 35.249518796946802 ], [ 128.604004913228039, 35.249820890595792 ], [ 128.603948424193419, 35.249911226071006 ], [ 128.604666194901398, 35.249518796946802 ] ] ], [ [ [ 128.603664693682276, 35.25022299372359 ], [ 128.603572795210681, 35.250321360690677 ], [ 128.60377283970729, 35.250095999619681 ], [ 128.603664693682276, 35.25022299372359 ] ] ], [ [ [ 128.594260794999656, 35.271481312614469 ], [ 128.599868930768025, 35.271940653001764 ], [ 128.604360229688751, 35.258113784878702 ], [ 128.606709921583587, 35.256540416476156 ], [ 128.607066623054948, 35.253883510945748 ], [ 128.605246723617341, 35.254783929713135 ], [ 128.603032665794757, 35.253520598803576 ], [ 128.603556647771057, 35.250351916911193 ], [ 128.596280425323584, 35.259126897713962 ], [ 128.589599247702154, 35.260949118736043 ], [ 128.585057520145995, 35.264473042246202 ], [ 128.58608964381915, 35.272094420468314 ], [ 128.591650313909213, 35.273241585624987 ], [ 128.594260794999656, 35.271481312614469 ] ] ] ] } },
{ "type": "Feature", "properties": { "emd_cd": "48121108", "emd_nm": "용동" }, "geometry": { "type": "MultiPolygon", "coordinates": [ [ [ [ 128.691181759046231, 35.239701082706283 ], [ 128.691224216850628, 35.239179992479215 ], [ 128.690977240337048, 35.239123656536961 ], [ 128.691181759046231, 35.239701082706283 ] ] ], [ [ [ 128.691250696203667, 35.242165870044907 ], [ 128.695224907508305, 35.246938587231917 ], [ 128.704590033792812, 35.250476784105196 ], [ 128.720507446430133, 35.24291621755934 ], [ 128.723280985546609, 35.244447454229153 ], [ 128.726419184729423, 35.238636697062127 ], [ 128.718023444688015, 35.235310846595567 ], [ 128.711713031850934, 35.236690180723471 ], [ 128.702967224753849, 35.233407749815839 ], [ 128.699354041442064, 35.234186422721571 ], [ 128.694754090749399, 35.232471035719023 ], [ 128.693604379800689, 35.234914875771288 ], [ 128.697810068107231, 35.234971096732309 ], [ 128.698914861170493, 35.236656600352404 ], [ 128.702223353577921, 35.235579521029614 ], [ 128.703185361877644, 35.236139589950547 ], [ 128.701682420950704, 35.238327700141227 ], [ 128.703748242030372, 35.239751614125254 ], [ 128.691926207352765, 35.239362057265716 ], [ 128.69317763017068, 35.241250616606656 ], [ 128.691250696203667, 35.242165870044907 ] ] ] ] } },
{ "type": "Feature", "properties": { "emd_cd": "48121112", "emd_nm": "덕정동" }, "geometry": { "type": "MultiPolygon", "coordinates": [ [ [ [ 128.640742740984678, 35.229853889434359 ], [ 128.640929778567681, 35.229939226474244 ], [ 128.64058903474205, 35.229782874585794 ], [ 128.640742740984678, 35.229853889434359 ] ] ], [ [ [ 128.641203807930395, 35.230267895069645 ], [ 128.641308848676175, 35.230357016473761 ], [ 128.641138082971906, 35.230168813632375 ], [ 128.641203807930395, 35.230267895069645 ] ] ], [ [ [ 128.641656985299107, 35.230740705841455 ], [ 128.641870588582236, 35.231184429398617 ], [ 128.642227210032786, 35.231369171873091 ], [ 128.641656985299107, 35.230740705841455 ] ] ] ] } },
{ "type": "Feature", "properties": { "emd_cd": "48121113", "emd_nm": "지귀동" }, "geometry": { "type": "MultiPolygon", "coordinates": [ [ [ [ 128.652687071442671, 35.250871029345433 ], [ 128.662477999861352, 35.251131103484745 ], [ 128.662334036220216, 35.24933681599402 ], [ 128.657802203237139, 35.248431899990422 ], [ 128.652687071442671, 35.250871029345433 ] ] ] ] } },
{ "type": "Feature", "properties": { "emd_cd": "48121114", "emd_nm": "서곡동" }, "geometry": { "type": "MultiPolygon", "coordinates": [ [ [ [ 128.649282378202827, 35.253107523585413 ], [ 128.658130558464677, 35.253669836530278 ], [ 128.659679129220422, 35.251763514137807 ], [ 128.652687071442671, 35.250871029345433 ], [ 128.649282378202827, 35.253107523585413 ] ] ] ] } },
{ "type": "Feature", "properties": { "emd_cd": "48121116", "emd_nm": "봉림동" }, "geometry": { "type": "MultiPolygon", "coordinates": [ [ [ [ 128.65788564890039, 35.256264761758167 ], [ 128.660525588931051, 35.260743821557654 ], [ 128.663427954554066, 35.261187497202094 ], [ 128.664234714340665, 35.264127818441381 ], [ 128.669107912112281, 35.263697339141991 ], [ 128.681874964236528, 35.260290891804985 ], [ 128.684295098091496, 35.251934682124208 ], [ 128.682209349228089, 35.249764359103359 ], [ 128.679364779712188, 35.250844411478894 ], [ 128.675452544436951, 35.249280402324544 ], [ 128.662334036220187, 35.24933681599402 ], [ 128.662477999861352, 35.251131103484731 ], [ 128.658130558464677, 35.25366983653025 ], [ 128.65788564890039, 35.256264761758167 ] ] ] ] } },
{ "type": "Feature", "properties": { "emd_cd": "48121117", "emd_nm": "퇴촌동" }, "geometry": { "type": "MultiPolygon", "coordinates": [ [ [ [ 128.682209349228117, 35.249764359103352 ], [ 128.684295098091496, 35.251934682124187 ], [ 128.683178839557655, 35.257883300817632 ], [ 128.691679944450271, 35.263441073292682 ], [ 128.694779368277921, 35.259427704768328 ], [ 128.701759146761333, 35.255570662135888 ], [ 128.704590033792812, 35.250476784105196 ], [ 128.695224907508305, 35.246938587231917 ], [ 128.691255994267635, 35.242251781151815 ], [ 128.692914948244578, 35.240462682282626 ], [ 128.690148265019701, 35.23899597100278 ], [ 128.690572108909777, 35.243834452739549 ], [ 128.690079054646077, 35.242502269674283 ], [ 128.685848587576231, 35.244296602836371 ], [ 128.687352495345522, 35.246430465706489 ], [ 128.686397215635395, 35.248601737982931 ], [ 128.682209349228117, 35.249764359103352 ] ] ] ] } },
{ "type": "Feature", "properties": { "emd_cd": "48121118", "emd_nm": "명곡동" }, "geometry": { "type": "MultiPolygon", "coordinates": [ [ [ [ 128.63728700480732, 35.242876999026109 ], [ 128.63815758349304, 35.242315423550316 ], [ 128.638229870094477, 35.241700658557598 ], [ 128.646669577972688, 35.239578353473846 ], [ 128.645175951336455, 35.23823022589815 ], [ 128.639175702924263, 35.240302941975493 ], [ 128.63728700480732, 35.242876999026109 ] ] ], [ [ [ 128.63972036042253, 35.242273603989346 ], [ 128.639725529467455, 35.242895947235361 ], [ 128.639842703837019, 35.243002240435899 ], [ 128.63972036042253, 35.242273603989346 ] ] ], [ [ [ 128.639957212547102, 35.243174521415355 ], [ 128.634074522704168, 35.24574189543727 ], [ 128.633808393222267, 35.248283052217644 ], [ 128.63606281654296, 35.25126586299227 ], [ 128.639979924346591, 35.247836209364948 ], [ 128.639957212547102, 35.243174521415355 ] ] ], [ [ [ 128.63890775804856, 35.252232871206232 ], [ 128.638155035057963, 35.252363407736965 ], [ 128.638475594111839, 35.252741893715374 ], [ 128.63890775804856, 35.252232871206232 ] ] ], [ [ [ 128.645976069536658, 35.253027003597111 ], [ 128.643093556243571, 35.25750595104698 ], [ 128.647078474835638, 35.260008243429205 ], [ 128.66052558893108, 35.260743821557639 ], [ 128.657845415308486, 35.253286770932952 ], [ 128.645976069536658, 35.253027003597111 ] ] ] ] } },
{ "type": "Feature", "properties": { "emd_cd": "48121119", "emd_nm": "반계동" }, "geometry": { "type": "MultiPolygon", "coordinates": [ [ [ [ 128.62080300755764, 35.250855512366499 ], [ 128.629185751677483, 35.250006669693661 ], [ 128.628902029538267, 35.247923505087137 ], [ 128.627770191412395, 35.247121432793357 ], [ 128.62080300755764, 35.250855512366499 ] ] ] ] } },
{ "type": "Feature", "properties": { "emd_cd": "48121120", "emd_nm": "사화동" }, "geometry": { "type": "MultiPolygon", "coordinates": [ [ [ [ 128.640929778567681, 35.229939226474237 ], [ 128.641158310087974, 35.232762213197091 ], [ 128.642899463097649, 35.231793072247619 ], [ 128.640929778567681, 35.229939226474237 ] ] ], [ [ [ 128.644571574348276, 35.232171708024623 ], [ 128.641635522322701, 35.234574447462386 ], [ 128.644966462408831, 35.232505943030382 ], [ 128.644571574348276, 35.232171708024623 ] ] ], [ [ [ 128.62780936264852, 35.247183394347076 ], [ 128.629348502177606, 35.250186923418141 ], [ 128.634055811028162, 35.248258313737239 ], [ 128.634074522704168, 35.24574189543727 ], [ 128.636705232539271, 35.243957067184041 ], [ 128.63584136543102, 35.242887341853205 ], [ 128.645175951336455, 35.238230225898164 ], [ 128.64430424151081, 35.237135939215527 ], [ 128.638565715953519, 35.238591026250454 ], [ 128.635188148955535, 35.241200949480543 ], [ 128.635557966326559, 35.242568403905295 ], [ 128.62780936264852, 35.247183394347076 ] ] ] ] } },
{ "type": "Feature", "properties": { "emd_cd": "48121121", "emd_nm": "차용동" }, "geometry": { "type": "MultiPolygon", "coordinates": [ [ [ [ 128.629832244238685, 35.237244972217596 ], [ 128.63473768263475, 35.236005901855137 ], [ 128.639984356051798, 35.233688569803014 ], [ 128.641649111567148, 35.23146421373319 ], [ 128.640153848548238, 35.230014437372887 ], [ 128.637501364237721, 35.233280665826321 ], [ 128.636570822846238, 35.228831293194226 ], [ 128.63409734073872, 35.225287230441367 ], [ 128.632298883615903, 35.224573118397572 ], [ 128.632746679690513, 35.227754523177879 ], [ 128.624659765858155, 35.231115112611008 ], [ 128.625467898432703, 35.234720496404719 ], [ 128.629832244238685, 35.237244972217596 ] ], [ [ 128.632943194598539, 35.236019921226607 ], [ 128.634904870595392, 35.226947871039812 ], [ 128.637195542758121, 35.23359710703869 ], [ 128.632943194598539, 35.236019921226607 ] ] ], [ [ [ 128.641635522322701, 35.234574447462393 ], [ 128.639577964864685, 35.235074838913576 ], [ 128.637914237774936, 35.236029724345528 ], [ 128.641635522322701, 35.234574447462393 ] ] ] ] } },
{ "type": "Feature", "properties": { "emd_cd": "48121122", "emd_nm": "내리동" }, "geometry": { "type": "MultiPolygon", "coordinates": [ [ [ [ 128.632956506942008, 35.220778545601881 ], [ 128.632910079561185, 35.220763739495204 ], [ 128.632988162291781, 35.220829558612763 ], [ 128.632956506942008, 35.220778545601881 ] ] ], [ [ [ 128.621649837530526, 35.233911849634723 ], [ 128.624172962017411, 35.230926866339757 ], [ 128.632746679690513, 35.227754523177879 ], [ 128.631833535983304, 35.225066993347944 ], [ 128.63409734073872, 35.225287230441367 ], [ 128.632573716666485, 35.220010240821864 ], [ 128.626951187666293, 35.217131154731241 ], [ 128.624836696049044, 35.219473883824399 ], [ 128.620026367319468, 35.220079370511129 ], [ 128.618451521213984, 35.21882291652927 ], [ 128.611852684530135, 35.222290062129844 ], [ 128.611771780265002, 35.225235249300034 ], [ 128.614431543911365, 35.227706407832763 ], [ 128.615924555135933, 35.234409929174831 ], [ 128.621649837530526, 35.233911849634723 ] ] ] ] } },
{ "type": "Feature", "properties": { "emd_cd": "48121124", "emd_nm": "명서동" }, "geometry": { "type": "MultiPolygon", "coordinates": [ [ [ [ 128.635713597288259, 35.243049565944062 ], [ 128.639832923108031, 35.24302012978459 ], [ 128.639979924346591, 35.247836209364948 ], [ 128.636184219262475, 35.251018966185363 ], [ 128.643698081417739, 35.254911922980142 ], [ 128.645976069536658, 35.253027003597111 ], [ 128.648966857185229, 35.253490069112303 ], [ 128.653756367182126, 35.24997974647551 ], [ 128.648271416375621, 35.243567082321285 ], [ 128.650959027366923, 35.241496862337947 ], [ 128.644032214190474, 35.233006558591661 ], [ 128.646056307500089, 35.235972331330686 ], [ 128.64430424151081, 35.23713593921552 ], [ 128.646423396653745, 35.239994364914217 ], [ 128.638229870094477, 35.241700658557598 ], [ 128.635713597288259, 35.243049565944062 ] ], [ [ 128.639666575833218, 35.242267269088657 ], [ 128.639772730569064, 35.242987060173498 ], [ 128.639655596101164, 35.242686267624265 ], [ 128.639666575833218, 35.242267269088657 ] ] ] ] } },
{ "type": "Feature", "properties": { "emd_cd": "48121125", "emd_nm": "사림동" }, "geometry": { "type": "MultiPolygon", "coordinates": [ [ [ [ 128.673783480922481, 35.244595874301162 ], [ 128.680585273503652, 35.25043520167506 ], [ 128.68638065742968, 35.248621614430036 ], [ 128.687352495345493, 35.246430465706474 ], [ 128.685848587576231, 35.244296602836386 ], [ 128.690079054646077, 35.24250226967429 ], [ 128.690124843691081, 35.243256446873112 ], [ 128.690572108909777, 35.243834452739549 ], [ 128.690148265019701, 35.238995971002794 ], [ 128.701362659881681, 35.240319651016016 ], [ 128.703907425735309, 35.239212464015267 ], [ 128.701682420917592, 35.238327709154497 ], [ 128.703185361877644, 35.236139589950547 ], [ 128.702223353577921, 35.235579521029614 ], [ 128.698914861170493, 35.236656600352404 ], [ 128.697810068107231, 35.234971096732309 ], [ 128.693604379800689, 35.234914875771288 ], [ 128.694281166775795, 35.232209710002607 ], [ 128.681957017637501, 35.241968332814366 ], [ 128.673783480922481, 35.244595874301162 ] ] ] ] } },
{ "type": "Feature", "properties": { "emd_cd": "48121127", "emd_nm": "봉곡동" }, "geometry": { "type": "MultiPolygon", "coordinates": [ [ [ [ 128.680066702886052, 35.250477450470235 ], [ 128.673780198998429, 35.24459235020101 ], [ 128.665547645767845, 35.245976950800326 ], [ 128.651140444849744, 35.241387875057306 ], [ 128.648271416375621, 35.243567082321285 ], [ 128.653756367182126, 35.24997974647551 ], [ 128.658562938226311, 35.248389261132772 ], [ 128.664500292821003, 35.250183912056976 ], [ 128.675452544436951, 35.249280402324544 ], [ 128.680066702886052, 35.250477450470235 ] ] ] ] } },
{ "type": "Feature", "properties": { "emd_cd": "48121129", "emd_nm": "팔용동" }, "geometry": { "type": "MultiPolygon", "coordinates": [ [ [ [ 128.632943194598539, 35.236019921226621 ], [ 128.637195542758121, 35.23359710703869 ], [ 128.634904870595392, 35.226947871039798 ], [ 128.634658301418909, 35.233140038901041 ], [ 128.632943194598539, 35.236019921226621 ] ] ], [ [ [ 128.602848976948877, 35.252640526666823 ], [ 128.605246723617313, 35.254783929713128 ], [ 128.607066623054948, 35.253883510945748 ], [ 128.605905883793497, 35.255640784313862 ], [ 128.611213560785245, 35.260765564101938 ], [ 128.618283773376305, 35.261510845825363 ], [ 128.61538172924628, 35.257641032154581 ], [ 128.621055947420558, 35.25374414704671 ], [ 128.621196522596392, 35.250394869426756 ], [ 128.635482189129164, 35.242625067169229 ], [ 128.635188148955535, 35.241200949480543 ], [ 128.638502838378656, 35.238623916806063 ], [ 128.646056307500089, 35.235972331330686 ], [ 128.643736415736811, 35.233373070277523 ], [ 128.638297493193562, 35.236482444758565 ], [ 128.643746716950403, 35.232680521548033 ], [ 128.632912399288188, 35.2207656934496 ], [ 128.637501364237721, 35.233280665826342 ], [ 128.640636942238672, 35.229757617662237 ], [ 128.642899463097649, 35.231793072247619 ], [ 128.624696318069283, 35.24035222733967 ], [ 128.616725267793981, 35.24162625036054 ], [ 128.604610961961271, 35.249556742298147 ], [ 128.602848976948877, 35.252640526666823 ] ] ] ] } },
{ "type": "Feature", "properties": { "emd_cd": "48121250", "emd_nm": "동읍" }, "geometry": { "type": "MultiPolygon", "coordinates": [ [ [ [ 128.696810179614147, 35.310346363436643 ], [ 128.692240895229389, 35.308129199423384 ], [ 128.693242356173272, 35.306191195322363 ], [ 128.691578431482924, 35.305721623801446 ], [ 128.693032433211357, 35.304872881496593 ], [ 128.692123860119978, 35.3040263856157 ], [ 128.694491005395918, 35.303819044702244 ], [ 128.69420598336805, 35.302291550528174 ], [ 128.695792210419484, 35.302856854226903 ], [ 128.702498927954821, 35.297632059395951 ], [ 128.703921686725806, 35.289266872395729 ], [ 128.706597491505249, 35.287526624975371 ], [ 128.70492925511104, 35.282189788534438 ], [ 128.71145607199341, 35.269715125029983 ], [ 128.7112393711447, 35.263341823753606 ], [ 128.713795528843434, 35.256707486068628 ], [ 128.718789396054746, 35.249904710319441 ], [ 128.719402130129225, 35.243706789138834 ], [ 128.704590033792812, 35.250476784105196 ], [ 128.701759146761333, 35.255570662135888 ], [ 128.694779368277921, 35.259427704768328 ], [ 128.691679944450271, 35.263441073292682 ], [ 128.683178839557655, 35.257883300817632 ], [ 128.681282449563184, 35.260747203917326 ], [ 128.673942335600088, 35.261375756641449 ], [ 128.671805985339688, 35.263173445474941 ], [ 128.652315020819429, 35.26739991689503 ], [ 128.636004461053631, 35.267961805672542 ], [ 128.633798941472321, 35.266520788954438 ], [ 128.628573488542912, 35.272666278843609 ], [ 128.623654711237862, 35.273649037808717 ], [ 128.633048454080438, 35.282364554614183 ], [ 128.640822688012008, 35.283967415541127 ], [ 128.642839719146394, 35.291858163614108 ], [ 128.638907308436501, 35.296366587877863 ], [ 128.639947760892113, 35.298689738914952 ], [ 128.638705010392158, 35.299768873842126 ], [ 128.640865391671326, 35.304384696081748 ], [ 128.644505432041967, 35.307170310281251 ], [ 128.644647319451622, 35.310528135114808 ], [ 128.642700430598978, 35.313170553323253 ], [ 128.647725402180043, 35.31577655032175 ], [ 128.646398129525807, 35.320605937301082 ], [ 128.647404280828965, 35.322313833619084 ], [ 128.644583876041452, 35.328295518973036 ], [ 128.640178399573728, 35.330433309829658 ], [ 128.642131511770515, 35.332263994053726 ], [ 128.641703131969166, 35.335991736372215 ], [ 128.643761954449587, 35.33910754252382 ], [ 128.643182387298936, 35.344687378696314 ], [ 128.645666267967272, 35.349759273468372 ], [ 128.643084891823634, 35.35321588206088 ], [ 128.642214280948025, 35.358546018620544 ], [ 128.638811170367461, 35.360402100398723 ], [ 128.639174395495246, 35.368543860135276 ], [ 128.641996070397454, 35.370960597020947 ], [ 128.641960212629328, 35.372813427366125 ], [ 128.650732952453581, 35.374900734235815 ], [ 128.659491268765493, 35.374019055833578 ], [ 128.671667136903608, 35.377431314214803 ], [ 128.672375948809105, 35.370219206049761 ], [ 128.670682957008012, 35.366913351467055 ], [ 128.677437523139304, 35.355977871782613 ], [ 128.681416824046408, 35.355471169049984 ], [ 128.683455850147226, 35.357232819267701 ], [ 128.691173014314415, 35.35297378067483 ], [ 128.691861810573243, 35.350498894702589 ], [ 128.690487199969539, 35.348861269473169 ], [ 128.692507651859302, 35.347188277871894 ], [ 128.691810202281175, 35.344868616029416 ], [ 128.688421591064753, 35.345546760144835 ], [ 128.687975444706609, 35.339640739255778 ], [ 128.692935089192702, 35.336570816457737 ], [ 128.686561363964785, 35.331106275146261 ], [ 128.685080078258977, 35.327908653547894 ], [ 128.679389934000397, 35.324282643105079 ], [ 128.676249018409806, 35.318592990441211 ], [ 128.678764427649071, 35.316392118596859 ], [ 128.677556027160563, 35.314677899478049 ], [ 128.678864962569008, 35.315538334621124 ], [ 128.678896425027574, 35.312721023381179 ], [ 128.683042243076869, 35.312217099334731 ], [ 128.685142538825005, 35.314832683486941 ], [ 128.691504440971812, 35.315140816379973 ], [ 128.696810179614147, 35.310346363436643 ] ] ] ] } },
{ "type": "Feature", "properties": { "emd_cd": "48121310", "emd_nm": "북면" }, "geometry": { "type": "MultiPolygon", "coordinates": [ [ [ [ 128.559292527904347, 35.352688249533273 ], [ 128.5618029764357, 35.354864478988851 ], [ 128.561288122266149, 35.356979320379786 ], [ 128.571053183898016, 35.35778782517464 ], [ 128.571490362248909, 35.361500434674831 ], [ 128.577206762436418, 35.36593667833899 ], [ 128.574066913688142, 35.372087394197969 ], [ 128.576607257608771, 35.377603481850706 ], [ 128.576390832545911, 35.380803998039703 ], [ 128.585114618379095, 35.385183406618431 ], [ 128.593375446239065, 35.391668594815677 ], [ 128.601518207839689, 35.393377591398142 ], [ 128.624070213192141, 35.374175727714785 ], [ 128.641960212629328, 35.372813427366125 ], [ 128.641996070397454, 35.370960597020947 ], [ 128.639174395495246, 35.368543860135276 ], [ 128.638811170367461, 35.360402100398723 ], [ 128.642214280948025, 35.358546018620544 ], [ 128.643084891823634, 35.35321588206088 ], [ 128.645666267967272, 35.349759273468372 ], [ 128.643182387298936, 35.344687378696314 ], [ 128.643761954449587, 35.33910754252382 ], [ 128.641703131969166, 35.335991736372215 ], [ 128.642131511770515, 35.332263994053726 ], [ 128.640178399573728, 35.330433309829658 ], [ 128.644583876041452, 35.328295518973036 ], [ 128.647404280828965, 35.322313833619084 ], [ 128.646398129525807, 35.320605937301082 ], [ 128.647725402180043, 35.31577655032175 ], [ 128.642700430598978, 35.313170553323253 ], [ 128.644647319451622, 35.310528135114808 ], [ 128.644505432041967, 35.307170310281251 ], [ 128.640865391671326, 35.304384696081748 ], [ 128.638705010392158, 35.299768873842126 ], [ 128.639947760892113, 35.298689738914952 ], [ 128.638907308436501, 35.296366587877863 ], [ 128.642839719146394, 35.291858163614108 ], [ 128.640822688012008, 35.283967415541127 ], [ 128.633048454080438, 35.282364554614183 ], [ 128.623844609749, 35.274540055751082 ], [ 128.620189638919044, 35.276828312589373 ], [ 128.613630883267859, 35.276484709623176 ], [ 128.61140126450087, 35.277859047423064 ], [ 128.603107725243632, 35.275494552536379 ], [ 128.603629563160268, 35.271663685531607 ], [ 128.601739562725271, 35.27140817568543 ], [ 128.593456453706324, 35.271144840413079 ], [ 128.589437690150703, 35.277885311642187 ], [ 128.582797583810333, 35.278832104004046 ], [ 128.581411901164273, 35.287294920448488 ], [ 128.5769114643156, 35.290616627278261 ], [ 128.572690415670309, 35.300392034665947 ], [ 128.582660765637655, 35.308517189495127 ], [ 128.578144811101055, 35.312862857837608 ], [ 128.57550541626108, 35.312884478879674 ], [ 128.572033113816502, 35.315698298594057 ], [ 128.57154465502839, 35.321837075881767 ], [ 128.564759807407398, 35.327350591325882 ], [ 128.568153702104183, 35.330738923919895 ], [ 128.570161688773595, 35.335920466353805 ], [ 128.565703825862755, 35.339457429446476 ], [ 128.564664553918362, 35.341099235511088 ], [ 128.565899987458863, 35.34240266464716 ], [ 128.562263497568154, 35.347122051756102 ], [ 128.564931157674408, 35.349595304509755 ], [ 128.559292527904347, 35.352688249533273 ] ] ] ] } },
{ "type": "Feature", "properties": { "emd_cd": "48121320", "emd_nm": "대산면" }, "geometry": { "type": "MultiPolygon", "coordinates": [ [ [ [ 128.671667136903608, 35.377431314214803 ], [ 128.689369617615256, 35.377552813391958 ], [ 128.703520010364173, 35.371112283509468 ], [ 128.714533266342329, 35.368533343111686 ], [ 128.743290674808236, 35.34824625794748 ], [ 128.753580216225231, 35.348215976931485 ], [ 128.764116628391889, 35.345507010606482 ], [ 128.753593810386491, 35.33480214466924 ], [ 128.752256762906313, 35.335025746303401 ], [ 128.753049952530091, 35.337761180440268 ], [ 128.750221739394448, 35.34016793188222 ], [ 128.749823561910148, 35.332488900113553 ], [ 128.741613120867839, 35.331489116022389 ], [ 128.742606926148994, 35.321513071864359 ], [ 128.738992227575295, 35.317160276075398 ], [ 128.732575905874342, 35.316028452481163 ], [ 128.722164231417054, 35.321519087693886 ], [ 128.717878477244227, 35.32560067719578 ], [ 128.713304161331422, 35.322172059940982 ], [ 128.713700564420492, 35.318586866662642 ], [ 128.711448772361052, 35.314751476199959 ], [ 128.715023865800561, 35.31074561542011 ], [ 128.711386153407915, 35.309168183019146 ], [ 128.69557338101265, 35.310443523496659 ], [ 128.693116774574435, 35.31400224405408 ], [ 128.690035942606443, 35.315364277410552 ], [ 128.684824353873609, 35.314717355260285 ], [ 128.683283913768634, 35.312248614845778 ], [ 128.678896425027574, 35.312721023381179 ], [ 128.679274177114905, 35.315275255598017 ], [ 128.677556027160563, 35.314677899478049 ], [ 128.678764427649071, 35.316392118596859 ], [ 128.676268772695636, 35.318649764027242 ], [ 128.679389934000397, 35.324282643105079 ], [ 128.685080078258977, 35.327908653547894 ], [ 128.686561363964785, 35.331106275146261 ], [ 128.692935089192702, 35.336570816457737 ], [ 128.687975444706609, 35.339640739255778 ], [ 128.688421591064753, 35.345546760144835 ], [ 128.691810202281175, 35.344868616029416 ], [ 128.692507651859302, 35.347188277871894 ], [ 128.690487199969539, 35.348861269473169 ], [ 128.691861810573243, 35.350498894702589 ], [ 128.691173014314415, 35.35297378067483 ], [ 128.683455850147226, 35.357232819267701 ], [ 128.681416824046408, 35.355471169049984 ], [ 128.677437523139304, 35.355977871782613 ], [ 128.670682957008012, 35.366913351467055 ], [ 128.672375948809105, 35.370219206049761 ], [ 128.671667136903608, 35.377431314214803 ] ] ] ] } }
]
}
