{
"type": "FeatureCollection",
"name": "48123",
"crs": { "type": "name", "properties": { "name": "urn:ogc:def:crs:OGC:1.3:CRS84" } },
"features": [
{ "type": "Feature", "properties": { "emd_cd": "48123101", "emd_nm": "토월동" }, "geometry": { "type": "MultiPolygon", "coordinates": [ [ [ [ 128.694754090749399, 35.232471035719023 ], [ 128.699354041442064, 35.234186422721571 ], [ 128.702967224753849, 35.233407749815839 ], [ 128.711713031850934, 35.236690180723471 ], [ 128.717316734013991, 35.235212196698079 ], [ 128.726181251965585, 35.236641283874185 ], [ 128.724257304368535, 35.2287028345851 ], [ 128.72019159539056, 35.224980904616096 ], [ 128.717081873309866, 35.227242577912705 ], [ 128.711792837057828, 35.227617669810691 ], [ 128.706500319586922, 35.226491762431543 ], [ 128.703917367024928, 35.224095346979077 ], [ 128.704077474026803, 35.230788601127607 ], [ 128.700962402833966, 35.23043455118578 ], [ 128.697386238308269, 35.232365720151606 ], [ 128.695615582096963, 35.230938026078334 ], [ 128.694754090749399, 35.232471035719023 ] ] ] ] } },
{ "type": "Feature", "properties": { "emd_cd": "48123102", "emd_nm": "사파정동" }, "geometry": { "type": "MultiPolygon", "coordinates": [ [ [ [ 128.696408063260208, 35.213403185950611 ], [ 128.696330333609865, 35.213477738453619 ], [ 128.696376100120688, 35.213474500775312 ], [ 128.696408063260208, 35.213403185950611 ] ] ], [ [ [ 128.694754722780516, 35.214174272298948 ], [ 128.695405175113507, 35.214686249168061 ], [ 128.696076569312112, 35.213693565180343 ], [ 128.694754722780516, 35.214174272298948 ] ] ], [ [ [ 128.694638065722387, 35.216920357672947 ], [ 128.695567769198931, 35.217719135743152 ], [ 128.696847459824909, 35.216303378941973 ], [ 128.695655000419833, 35.217742250169117 ], [ 128.697128339074965, 35.218706161798522 ], [ 128.698847731291039, 35.2144472485299 ], [ 128.696091208099034, 35.214603218951972 ], [ 128.694638065722387, 35.216920357672947 ] ] ], [ [ [ 128.70253801008127, 35.217429096109846 ], [ 128.698433134436272, 35.216561085442081 ], [ 128.697434393479739, 35.218515034966892 ], [ 128.707132435103716, 35.219016798791372 ], [ 128.703352636062988, 35.224437224615492 ], [ 128.707957298931262, 35.227072269621914 ], [ 128.714169842467896, 35.227720786621383 ], [ 128.719663098482556, 35.225799274536712 ], [ 128.723148373213036, 35.215785969599914 ], [ 128.714984962293443, 35.215714238845017 ], [ 128.707958210018063, 35.217952470370534 ], [ 128.704549402747432, 35.217157278777869 ], [ 128.704619349109464, 35.214262347057605 ], [ 128.703269093835701, 35.216861637988551 ], [ 128.701056209659328, 35.216276370748538 ], [ 128.701114233657762, 35.21695335966276 ], [ 128.702619555631856, 35.217175930090214 ], [ 128.70253801008127, 35.217429096109846 ] ], [ [ 128.708125090179124, 35.223885056178318 ], [ 128.707626627387356, 35.221693452304805 ], [ 128.708688016231491, 35.221696149627107 ], [ 128.708125090179124, 35.223885056178318 ] ] ] ] } },
{ "type": "Feature", "properties": { "emd_cd": "48123103", "emd_nm": "가음정동" }, "geometry": { "type": "MultiPolygon", "coordinates": [ [ [ [ 128.679549825684916, 35.205141469022337 ], [ 128.68357721146819, 35.209882852146876 ], [ 128.681267436873668, 35.211201857654991 ], [ 128.683467477977246, 35.216397691604456 ], [ 128.686264468887686, 35.214690471894116 ], [ 128.683774297381177, 35.210320655797496 ], [ 128.692781442564495, 35.205181632533481 ], [ 128.687379553314599, 35.200347680031456 ], [ 128.679549825684916, 35.205141469022337 ] ] ], [ [ [ 128.686061464311706, 35.211860629602548 ], [ 128.685944998726484, 35.213917640278943 ], [ 128.696485190837251, 35.213231142656802 ], [ 128.696252704559811, 35.21115690956676 ], [ 128.686061464311706, 35.211860629602548 ] ] ] ] } },
{ "type": "Feature", "properties": { "emd_cd": "48123104", "emd_nm": "외동" }, "geometry": { "type": "MultiPolygon", "coordinates": [ [ [ [ 128.66702989888762, 35.211981900668391 ], [ 128.671240575336668, 35.216931637488436 ], [ 128.668054645997188, 35.21893331227065 ], [ 128.669432862564435, 35.220712984346676 ], [ 128.668467950900151, 35.218999238019045 ], [ 128.683577550336082, 35.20988325864068 ], [ 128.679367608344421, 35.204929628506498 ], [ 128.66702989888762, 35.211981900668391 ] ] ], [ [ [ 128.678853423264798, 35.213202280142902 ], [ 128.680105130275166, 35.214618047572579 ], [ 128.681342252079446, 35.213985418598782 ], [ 128.681079651143762, 35.212363930479547 ], [ 128.678853423264798, 35.213202280142902 ] ] ], [ [ [ 128.681434151639451, 35.213625674473107 ], [ 128.681652010207614, 35.214171012231233 ], [ 128.681883590460728, 35.214772133775256 ], [ 128.681814377665631, 35.214317683707186 ], [ 128.681434151639451, 35.213625674473107 ] ] ], [ [ [ 128.67238721767805, 35.224608865165777 ], [ 128.672182323391951, 35.225994073509042 ], [ 128.673006242953761, 35.226297953993083 ], [ 128.67238721767805, 35.224608865165777 ] ] ] ] } },
{ "type": "Feature", "properties": { "emd_cd": "48123105", "emd_nm": "대방동" }, "geometry": { "type": "MultiPolygon", "coordinates": [ [ [ [ 128.707958210018063, 35.217952470370534 ], [ 128.723148373213036, 35.215785969599914 ], [ 128.722517815380002, 35.214403525813516 ], [ 128.727997388601864, 35.206952951046723 ], [ 128.727752399231974, 35.202499204446511 ], [ 128.724913807515321, 35.201838820972469 ], [ 128.718258874306713, 35.206045439451209 ], [ 128.714464432951019, 35.206430312880862 ], [ 128.711620402011192, 35.20577844745165 ], [ 128.711309046495359, 35.204043127786868 ], [ 128.705768057280466, 35.202839410127268 ], [ 128.70715170181947, 35.205174026572202 ], [ 128.704911536525657, 35.21503618968341 ], [ 128.70389289681404, 35.216368804322379 ], [ 128.707958210018063, 35.217952470370534 ] ] ], [ [ [ 128.725455919741421, 35.210570273354065 ], [ 128.725477157535778, 35.210551456630739 ], [ 128.725455983576495, 35.210551408372361 ], [ 128.725455919741421, 35.210570273354065 ] ] ], [ [ [ 128.725357882649803, 35.21072509903501 ], [ 128.725383461528963, 35.210724877936592 ], [ 128.72537408887419, 35.210713265286373 ], [ 128.725357882649803, 35.21072509903501 ] ] ], [ [ [ 128.696601340290897, 35.211921874207157 ], [ 128.696094727814682, 35.212158398998632 ], [ 128.696322024213686, 35.212730892000067 ], [ 128.696601340290897, 35.211921874207157 ] ] ], [ [ [ 128.701194671259145, 35.216342944816297 ], [ 128.704093343696428, 35.215253425714693 ], [ 128.698847731291039, 35.2144472485299 ], [ 128.701194671259145, 35.216342944816297 ] ] ], [ [ [ 128.700333594413365, 35.21610632227253 ], [ 128.700194925369459, 35.216684855425939 ], [ 128.700626852268329, 35.216282993239957 ], [ 128.700333594413365, 35.21610632227253 ] ] ] ] } },
{ "type": "Feature", "properties": { "emd_cd": "48123106", "emd_nm": "남산동" }, "geometry": { "type": "MultiPolygon", "coordinates": [ [ [ [ 128.687566488861563, 35.200566109736798 ], [ 128.691581405054649, 35.20530354813036 ], [ 128.701877799417446, 35.200026126733704 ], [ 128.706521518921789, 35.205337538570156 ], [ 128.705768057280466, 35.202839410127268 ], [ 128.707513327162275, 35.203266560609762 ], [ 128.707905719918585, 35.201950007986554 ], [ 128.706976857461484, 35.199470559864181 ], [ 128.70485927726196, 35.198837939138706 ], [ 128.705908395924581, 35.197495453455836 ], [ 128.702188074470683, 35.199350614787363 ], [ 128.701442333285712, 35.198432192038553 ], [ 128.703823918351162, 35.197238467905123 ], [ 128.70105633653543, 35.197931078869189 ], [ 128.694407695383489, 35.190089194259684 ], [ 128.692484054908277, 35.196065091013473 ], [ 128.687566488861563, 35.200566109736798 ] ] ], [ [ [ 128.711979740710575, 35.205870216518498 ], [ 128.718258874306713, 35.206045439451209 ], [ 128.721100897341756, 35.203925329710522 ], [ 128.713495235194159, 35.203833528423772 ], [ 128.712952814020241, 35.202634792078257 ], [ 128.711979740710575, 35.205870216518498 ] ] ] ] } },
{ "type": "Feature", "properties": { "emd_cd": "48123107", "emd_nm": "삼정자동" }, "geometry": { "type": "MultiPolygon", "coordinates": [ [ [ [ 128.709111910923326, 35.197166170396798 ], [ 128.710841566318066, 35.19769067981786 ], [ 128.711707413003069, 35.196726602111603 ], [ 128.711037377087962, 35.196171751365164 ], [ 128.709111910923326, 35.197166170396798 ] ] ], [ [ [ 128.705799364795524, 35.197420817341012 ], [ 128.712100526546408, 35.195237437239413 ], [ 128.71349296482029, 35.20290556169131 ], [ 128.713084840497032, 35.194646645164632 ], [ 128.716959552126468, 35.193887564266497 ], [ 128.710621961122314, 35.194791965974915 ], [ 128.705799364795524, 35.197420817341012 ] ] ], [ [ [ 128.725905842985611, 35.201793355950812 ], [ 128.71995290851271, 35.196127327761552 ], [ 128.714246251693169, 35.202965946931961 ], [ 128.720323576318123, 35.204111340913741 ], [ 128.725905842985611, 35.201793355950812 ] ] ] ] } },
{ "type": "Feature", "properties": { "emd_cd": "48123108", "emd_nm": "천선동" }, "geometry": { "type": "MultiPolygon", "coordinates": [ [ [ [ 128.693385300995487, 35.187491460094343 ], [ 128.694142860839264, 35.188608989894924 ], [ 128.696468877409274, 35.185833187281901 ], [ 128.693385300995487, 35.187491460094343 ] ] ] ] } },
{ "type": "Feature", "properties": { "emd_cd": "48123109", "emd_nm": "불모산동" }, "geometry": { "type": "MultiPolygon", "coordinates": [ [ [ [ 128.721043547668131, 35.187529308088536 ], [ 128.721780647943007, 35.186781704218326 ], [ 128.725733790519712, 35.190329897740618 ], [ 128.717810109555103, 35.193606518432027 ], [ 128.726789616732958, 35.1902757370571 ], [ 128.725968970449173, 35.192989351579442 ], [ 128.71995290851271, 35.196127327761552 ], [ 128.727752399231946, 35.202499204446511 ], [ 128.727997388601864, 35.206952951046723 ], [ 128.733446663545266, 35.205552203692534 ], [ 128.745426362758309, 35.206107050670894 ], [ 128.747125384071239, 35.202940346957043 ], [ 128.750691070544434, 35.201446735525359 ], [ 128.75053410438872, 35.194565406049648 ], [ 128.746220844375728, 35.191800768396021 ], [ 128.743650589196761, 35.18507377734575 ], [ 128.742753229367992, 35.174726992810577 ], [ 128.7404505569001, 35.170133037770427 ], [ 128.735895394215191, 35.170793292749607 ], [ 128.730546908606101, 35.176522560944541 ], [ 128.722046214236713, 35.179845408785503 ], [ 128.721043547668131, 35.187529308088536 ] ] ] ] } },
{ "type": "Feature", "properties": { "emd_cd": "48123110", "emd_nm": "안민동" }, "geometry": { "type": "MultiPolygon", "coordinates": [ [ [ [ 128.697867303606245, 35.168815264346144 ], [ 128.689140382795358, 35.169748269014953 ], [ 128.675047564307022, 35.17594395142121 ], [ 128.681892451937074, 35.187334675745767 ], [ 128.685799386986787, 35.190997795946778 ], [ 128.693558108494699, 35.18704208252192 ], [ 128.694337574055083, 35.183401457512289 ], [ 128.692726531751902, 35.176202147922545 ], [ 128.697867303606245, 35.168815264346144 ] ] ], [ [ [ 128.692955634315979, 35.187707032187454 ], [ 128.693451805828062, 35.187944591845323 ], [ 128.694208341647027, 35.187141854196369 ], [ 128.692955634315979, 35.187707032187454 ] ] ] ] } },
{ "type": "Feature", "properties": { "emd_cd": "48123111", "emd_nm": "내동" }, "geometry": { "type": "MultiPolygon", "coordinates": [ [ [ [ 128.650621244092605, 35.219128893165355 ], [ 128.656152785928811, 35.22555999275464 ], [ 128.66082916175526, 35.222886958472721 ], [ 128.663423174800528, 35.224072658783442 ], [ 128.667919547055533, 35.221554255485856 ], [ 128.666814491237687, 35.219993960001752 ], [ 128.668134320832394, 35.22141045218531 ], [ 128.669432862564435, 35.220712984346676 ], [ 128.668054645997188, 35.21893331227065 ], [ 128.671240575336668, 35.216931637488436 ], [ 128.667029909833218, 35.211981909712016 ], [ 128.656467235381797, 35.217988459917414 ], [ 128.650621244092605, 35.219128893165355 ] ] ], [ [ [ 128.667984853376737, 35.221767359054091 ], [ 128.668591761373079, 35.223814053331886 ], [ 128.668932347514613, 35.223851953190767 ], [ 128.667984853376737, 35.221767359054091 ] ] ], [ [ [ 128.671562356883157, 35.223928902642555 ], [ 128.671558904646702, 35.224662575211902 ], [ 128.671990726926339, 35.224429808215966 ], [ 128.671562356883157, 35.223928902642555 ] ] ], [ [ [ 128.663232590844785, 35.22825478458256 ], [ 128.668802933894654, 35.230228062909653 ], [ 128.671018937102019, 35.229418401485965 ], [ 128.672989991209448, 35.226282992724869 ], [ 128.669671612449378, 35.224805841653442 ], [ 128.670791648653903, 35.228362077916437 ], [ 128.669755382095502, 35.229037798610463 ], [ 128.664943920772487, 35.227033920925152 ], [ 128.663210144870874, 35.227011594404466 ], [ 128.663232590844785, 35.22825478458256 ] ] ] ] } },
{ "type": "Feature", "properties": { "emd_cd": "48123112", "emd_nm": "남지동" }, "geometry": { "type": "MultiPolygon", "coordinates": [ [ [ [ 128.667409313232099, 35.180768312245988 ], [ 128.671302813072629, 35.184700095952351 ], [ 128.67380336867302, 35.195486914280892 ], [ 128.685799386986787, 35.190997795946778 ], [ 128.681892451937074, 35.187334675745767 ], [ 128.675047564307022, 35.17594395142121 ], [ 128.669767434093075, 35.180688911707719 ], [ 128.667409313232099, 35.180768312245988 ] ] ] ] } },
{ "type": "Feature", "properties": { "emd_cd": "48123113", "emd_nm": "상복동" }, "geometry": { "type": "MultiPolygon", "coordinates": [ [ [ [ 128.67380336867302, 35.195486914280892 ], [ 128.671302813072629, 35.184700095952351 ], [ 128.667409313232099, 35.180768312245988 ], [ 128.6544557859647, 35.180208928968199 ], [ 128.653056762134241, 35.181786550557121 ], [ 128.653942274056305, 35.196212461911955 ], [ 128.659542660055195, 35.200601198943495 ], [ 128.658335938502802, 35.202967282230397 ], [ 128.67380336867302, 35.195486914280892 ] ] ] ] } },
{ "type": "Feature", "properties": { "emd_cd": "48123114", "emd_nm": "완암동" }, "geometry": { "type": "MultiPolygon", "coordinates": [ [ [ [ 128.648653345042561, 35.185243103195205 ], [ 128.650893511478529, 35.192340037078338 ], [ 128.650416709920705, 35.198999425193961 ], [ 128.652440902378601, 35.203439441979832 ], [ 128.656612411080914, 35.201535524538038 ], [ 128.653837675450063, 35.204988604182056 ], [ 128.656328781522518, 35.20427342925742 ], [ 128.659542660055195, 35.200601198943495 ], [ 128.653942274056305, 35.196212461911955 ], [ 128.653899252217315, 35.183641534074084 ], [ 128.650906772487247, 35.1829418852654 ], [ 128.648653345042561, 35.185243103195205 ] ] ] ] } },
{ "type": "Feature", "properties": { "emd_cd": "48123115", "emd_nm": "창곡동" }, "geometry": { "type": "MultiPolygon", "coordinates": [ [ [ [ 128.652338994231854, 35.203059709953919 ], [ 128.650416709920705, 35.198999425193961 ], [ 128.650893511478529, 35.192340037078338 ], [ 128.648653345042561, 35.185243103195205 ], [ 128.644683452970668, 35.187101613333965 ], [ 128.644112479944539, 35.1925309547849 ], [ 128.639649423489232, 35.19371602365544 ], [ 128.638676309627527, 35.197648360475959 ], [ 128.645403732945397, 35.200826703783513 ], [ 128.646631238654919, 35.208432796263686 ], [ 128.643701720419784, 35.209653652039471 ], [ 128.643595503910717, 35.211194650105661 ], [ 128.646808138234377, 35.210882953844809 ], [ 128.648047941373335, 35.209236582549138 ], [ 128.647177345573198, 35.20558569452519 ], [ 128.652338994231854, 35.203059709953919 ] ] ], [ [ [ 128.646326190296747, 35.215865507019309 ], [ 128.646558911745103, 35.214298216793352 ], [ 128.646705804607564, 35.213251198795255 ], [ 128.646326190296747, 35.215865507019309 ] ] ] ] } },
{ "type": "Feature", "properties": { "emd_cd": "48123116", "emd_nm": "월림동" }, "geometry": { "type": "MultiPolygon", "coordinates": [ [ [ [ 128.646631238654919, 35.208432796263686 ], [ 128.64393651802493, 35.207935595010646 ], [ 128.641641158993252, 35.209778259381046 ], [ 128.643455348950653, 35.211106273921871 ], [ 128.646631238654919, 35.208432796263686 ] ] ] ] } },
{ "type": "Feature", "properties": { "emd_cd": "48123117", "emd_nm": "적현동" }, "geometry": { "type": "MultiPolygon", "coordinates": [ [ [ [ 128.597134436469617, 35.19806164274619 ], [ 128.597248415015599, 35.198150534956724 ], [ 128.597149701277885, 35.198016987160713 ], [ 128.597134436469617, 35.19806164274619 ] ] ], [ [ [ 128.590461949781854, 35.199186770725795 ], [ 128.591094008722905, 35.197963720767831 ], [ 128.602140417543893, 35.196739668741685 ], [ 128.605899631409187, 35.198182885375722 ], [ 128.606974104281022, 35.200270562681965 ], [ 128.61174611031376, 35.200311178058897 ], [ 128.612545074734527, 35.200936077889715 ], [ 128.611974898690193, 35.201917068501352 ], [ 128.610321619816517, 35.201976807974113 ], [ 128.609668976828516, 35.201820370648761 ], [ 128.609686850371418, 35.201185397260872 ], [ 128.609036622171772, 35.200804710538193 ], [ 128.604796903596338, 35.200179806777641 ], [ 128.609646791533805, 35.201180760957619 ], [ 128.609496725447684, 35.203317599369647 ], [ 128.610440912617406, 35.204372724229657 ], [ 128.609925391087444, 35.205892792709385 ], [ 128.612781938975729, 35.211646553999813 ], [ 128.617168332850383, 35.208294019841802 ], [ 128.617213159236314, 35.205804558978507 ], [ 128.620498354886934, 35.20621025757282 ], [ 128.621778242814571, 35.203213008083324 ], [ 128.618645668961875, 35.196958413710561 ], [ 128.611517473734409, 35.192711918278775 ], [ 128.606570720459899, 35.195307306060521 ], [ 128.60459547865355, 35.194040782078055 ], [ 128.596415977547224, 35.194228250537122 ], [ 128.592468557311179, 35.195841141061543 ], [ 128.591177510720939, 35.194623297907825 ], [ 128.590461949781854, 35.199186770725795 ] ] ] ] } },
{ "type": "Feature", "properties": { "emd_cd": "48123118", "emd_nm": "양곡동" }, "geometry": { "type": "MultiPolygon", "coordinates": [ [ [ [ 128.612781938975729, 35.211646553999813 ], [ 128.622680432984851, 35.212124130308212 ], [ 128.620724336798958, 35.211603330289392 ], [ 128.626075843840226, 35.209659892421136 ], [ 128.624258771514661, 35.209529410254234 ], [ 128.627078097633472, 35.204991252837694 ], [ 128.627298955065044, 35.198737702322312 ], [ 128.624312580728343, 35.196108145869545 ], [ 128.630771523605716, 35.196102939169855 ], [ 128.628230796395485, 35.206777213931048 ], [ 128.629003999389653, 35.210343768145876 ], [ 128.63328783816533, 35.211523293955501 ], [ 128.634796933947257, 35.207959282568439 ], [ 128.631456021245185, 35.205503871078164 ], [ 128.632768878060631, 35.204020751142714 ], [ 128.638284715387357, 35.206579473180049 ], [ 128.646228957846745, 35.20580634099877 ], [ 128.643928379553898, 35.207988389614151 ], [ 128.64675935255687, 35.207691060735335 ], [ 128.645043129140561, 35.200257589685961 ], [ 128.642019777365903, 35.200123953570554 ], [ 128.638540651127499, 35.196856556640832 ], [ 128.639649423489232, 35.19371602365544 ], [ 128.644112479944539, 35.1925309547849 ], [ 128.644683452970668, 35.187101613333965 ], [ 128.652757893440082, 35.182791727905119 ], [ 128.6544557859647, 35.180208928968199 ], [ 128.646723238670859, 35.176433506221152 ], [ 128.637686446700229, 35.176357782441421 ], [ 128.636061499308028, 35.181407676074869 ], [ 128.62806824460867, 35.185434531508484 ], [ 128.625283586499535, 35.189162600590706 ], [ 128.6256872850972, 35.192918112585545 ], [ 128.623402910122138, 35.192430713908024 ], [ 128.61981379721729, 35.194440197140565 ], [ 128.618645668961875, 35.196958413710561 ], [ 128.621773685820955, 35.203151594393873 ], [ 128.621156099748816, 35.205152410586173 ], [ 128.617213159236314, 35.205804558978507 ], [ 128.617168332850383, 35.208294019841802 ], [ 128.612781938975729, 35.211646553999813 ] ] ] ] } },
{ "type": "Feature", "properties": { "emd_cd": "48123119", "emd_nm": "반송동" }, "geometry": { "type": "MultiPolygon", "coordinates": [ [ [ [ 128.679807303386752, 35.232959736494138 ], [ 128.678244184531962, 35.233633263115664 ], [ 128.679985995914819, 35.23464927557756 ], [ 128.679807303386752, 35.232959736494138 ] ] ], [ [ [ 128.666437738104065, 35.242632482555692 ], [ 128.669288177136423, 35.240924732280213 ], [ 128.668445040360865, 35.24415803686658 ], [ 128.671383349987053, 35.243657442405556 ], [ 128.671966772811885, 35.24103107402599 ], [ 128.677891559782552, 35.240906808119796 ], [ 128.679077515768341, 35.239638941465273 ], [ 128.675175472236958, 35.239591081078231 ], [ 128.671592045504354, 35.236881680932925 ], [ 128.669410273011493, 35.238786282592159 ], [ 128.669551005777748, 35.240614951387478 ], [ 128.666479824128913, 35.241027587343652 ], [ 128.666437738104065, 35.242632482555692 ] ] ], [ [ [ 128.666244372870892, 35.24335310720636 ], [ 128.666534371102244, 35.243614784010227 ], [ 128.666763286430836, 35.243512187040949 ], [ 128.666244372870892, 35.24335310720636 ] ] ] ] } },
{ "type": "Feature", "properties": { "emd_cd": "48123120", "emd_nm": "귀산동" }, "geometry": { "type": "MultiPolygon", "coordinates": [ [ [ [ 128.629001935394001, 35.168849387120929 ], [ 128.62651051991827, 35.164131476998925 ], [ 128.619195248750572, 35.158448639936644 ], [ 128.618137075003659, 35.154747640550866 ], [ 128.614565733999797, 35.154764755141898 ], [ 128.612931480702287, 35.151815125800283 ], [ 128.609660641832988, 35.150915828485594 ], [ 128.608274976833684, 35.152726936739541 ], [ 128.609885969908134, 35.154585398278144 ], [ 128.607630637263412, 35.157170358130784 ], [ 128.610919603306314, 35.163158922103477 ], [ 128.608098343770905, 35.163819442541296 ], [ 128.605232190890774, 35.16038293764035 ], [ 128.598213038626682, 35.165314458254926 ], [ 128.603975597303787, 35.16409543721263 ], [ 128.605906756439992, 35.170067680176167 ], [ 128.611775762761368, 35.173116502690725 ], [ 128.615224508467463, 35.172212905801615 ], [ 128.619698299149974, 35.174179014230482 ], [ 128.629001935394001, 35.168849387120929 ] ] ] ] } },
{ "type": "Feature", "properties": { "emd_cd": "48123121", "emd_nm": "귀곡동" }, "geometry": { "type": "MultiPolygon", "coordinates": [ [ [ [ 128.595209655926396, 35.169549206623508 ], [ 128.595456120038762, 35.169973124532639 ], [ 128.595527909274438, 35.169659417333854 ], [ 128.595209655926396, 35.169549206623508 ] ] ], [ [ [ 128.598149161026697, 35.165320230580868 ], [ 128.600696395995215, 35.168079430044891 ], [ 128.594237775568644, 35.172173852965308 ], [ 128.591471254872005, 35.178207083968978 ], [ 128.593759244895551, 35.179518807806673 ], [ 128.592081409213534, 35.181847359982648 ], [ 128.592411374686293, 35.191323033599915 ], [ 128.58988345111635, 35.194493918256875 ], [ 128.590976985770254, 35.195078165662643 ], [ 128.596597417368798, 35.189618958787378 ], [ 128.596515092425307, 35.18721092586501 ], [ 128.602003286508562, 35.189041390193999 ], [ 128.602349448332035, 35.184464427256991 ], [ 128.60438149689719, 35.183682907232622 ], [ 128.609489096330719, 35.185644498870332 ], [ 128.629524138921568, 35.185328415640321 ], [ 128.636061499308028, 35.181407676074869 ], [ 128.637126949751803, 35.179124189104172 ], [ 128.637686446700229, 35.176357782441421 ], [ 128.629001935394001, 35.168849387120929 ], [ 128.619698299149974, 35.174179014230482 ], [ 128.615224508467463, 35.172212905801615 ], [ 128.611775762761368, 35.173116502690725 ], [ 128.605906756439992, 35.170067680176167 ], [ 128.603975597303787, 35.16409543721263 ], [ 128.598149161026697, 35.165320230580868 ] ] ] ] } },
{ "type": "Feature", "properties": { "emd_cd": "48123122", "emd_nm": "귀현동" }, "geometry": { "type": "MultiPolygon", "coordinates": [ [ [ [ 128.591177510720939, 35.194623297907825 ], [ 128.592468557311179, 35.195841141061543 ], [ 128.596415977547224, 35.194228250537122 ], [ 128.60459547865355, 35.194040782078055 ], [ 128.606570720459899, 35.195307306060521 ], [ 128.611517473734409, 35.192711918278775 ], [ 128.618645668961875, 35.196958413710561 ], [ 128.62035404933377, 35.19400447651028 ], [ 128.6256872850972, 35.192918112585545 ], [ 128.625283586499535, 35.189162600590706 ], [ 128.62806824460867, 35.185434531508484 ], [ 128.609489096330719, 35.185644498870332 ], [ 128.60438149689719, 35.183682907232622 ], [ 128.602349448332035, 35.184464427256991 ], [ 128.602003286508562, 35.189041390193999 ], [ 128.596515092425307, 35.18721092586501 ], [ 128.595767408109396, 35.19078062630517 ], [ 128.591177510720939, 35.194623297907825 ] ] ] ] } },
{ "type": "Feature", "properties": { "emd_cd": "48123123", "emd_nm": "신촌동" }, "geometry": { "type": "MultiPolygon", "coordinates": [ [ [ [ 128.589258446523019, 35.195276518964285 ], [ 128.590976985770254, 35.195078165662643 ], [ 128.589883330654231, 35.194493854753539 ], [ 128.589258446523019, 35.195276518964285 ] ] ], [ [ [ 128.589322053249617, 35.199399218859135 ], [ 128.608415955246244, 35.211862798750396 ], [ 128.612960230605182, 35.212065933861503 ], [ 128.609925391087444, 35.205892792709385 ], [ 128.610440912617406, 35.204372724229657 ], [ 128.609496725447684, 35.203317599369647 ], [ 128.609332083949852, 35.201681068576519 ], [ 128.609646791533805, 35.201180760957619 ], [ 128.604796903596338, 35.200179806777641 ], [ 128.609036622171772, 35.200804710538193 ], [ 128.609686850371418, 35.201185397260872 ], [ 128.609668976828516, 35.201820370648761 ], [ 128.610321619816517, 35.201976807974113 ], [ 128.611974898690193, 35.201917068501352 ], [ 128.61174611031376, 35.200311178058897 ], [ 128.606974104281022, 35.200270562681965 ], [ 128.605899631409187, 35.198182885375722 ], [ 128.602140417543893, 35.196739668741685 ], [ 128.591094008722905, 35.197963720767831 ], [ 128.589322053249617, 35.199399218859135 ] ], [ [ 128.597134436469617, 35.19806164274619 ], [ 128.597248415015599, 35.198150534956724 ], [ 128.597219017941228, 35.198188563590207 ], [ 128.597134436469617, 35.19806164274619 ] ] ], [ [ [ 128.626075843840226, 35.209659892421136 ], [ 128.620724336798958, 35.211603330289392 ], [ 128.627510751451609, 35.213620136211127 ], [ 128.633102450568288, 35.219207467932137 ], [ 128.646759152582064, 35.22078232598917 ], [ 128.650873575048195, 35.218864449698557 ], [ 128.647986337001441, 35.215393104759009 ], [ 128.646205567967741, 35.215917250676846 ], [ 128.647019018277234, 35.211561380049936 ], [ 128.654217365640989, 35.205406690621807 ], [ 128.651515148237451, 35.202836935813039 ], [ 128.650965814918663, 35.204240666716217 ], [ 128.648691951086363, 35.204149635620318 ], [ 128.647086321867278, 35.205807275574152 ], [ 128.647981966057131, 35.209407554785962 ], [ 128.64391122491358, 35.211250564569006 ], [ 128.641672234651594, 35.209604933610436 ], [ 128.646342048491732, 35.205836507109858 ], [ 128.638284715387357, 35.206579473180049 ], [ 128.632768878060631, 35.204020751142714 ], [ 128.631456021245185, 35.205503871078164 ], [ 128.634796933947257, 35.207959282568439 ], [ 128.63328783816533, 35.211523293955501 ], [ 128.629003999389653, 35.210343768145876 ], [ 128.628230796395485, 35.206777213931048 ], [ 128.630771523605716, 35.196102939169855 ], [ 128.624312580728343, 35.196108145869545 ], [ 128.627298955065044, 35.198737702322312 ], [ 128.627078097633472, 35.204991252837694 ], [ 128.624258771514661, 35.209529410254234 ], [ 128.624306096931747, 35.209958686060375 ], [ 128.625356756078872, 35.209629268916814 ], [ 128.625873036872804, 35.209604462031031 ], [ 128.626075843840226, 35.209659892421136 ] ] ] ] } },
{ "type": "Feature", "properties": { "emd_cd": "48123124", "emd_nm": "반지동" }, "geometry": { "type": "MultiPolygon", "coordinates": [ [ [ [ 128.649627033733452, 35.239864372047727 ], [ 128.655465116013261, 35.243449864082265 ], [ 128.665547645767845, 35.245976950800326 ], [ 128.669620099926618, 35.245936537578807 ], [ 128.678947747684731, 35.242918835056891 ], [ 128.67264687668748, 35.244595676327151 ], [ 128.665677522494747, 35.243842584579049 ], [ 128.666153631397037, 35.239319820944068 ], [ 128.663869499794941, 35.236025301105222 ], [ 128.6523773395582, 35.241124923017168 ], [ 128.649627033733452, 35.239864372047727 ] ] ] ] } },
{ "type": "Feature", "properties": { "emd_cd": "48123125", "emd_nm": "중앙동" }, "geometry": { "type": "MultiPolygon", "coordinates": [ [ [ [ 128.656605634293385, 35.225852362090379 ], [ 128.664043443260823, 35.236254996384844 ], [ 128.682222074285676, 35.226361083247724 ], [ 128.673565330974242, 35.2161576638767 ], [ 128.668467950900151, 35.218999238019045 ], [ 128.669899434792541, 35.220450170053766 ], [ 128.668134320832394, 35.22141045218531 ], [ 128.666814491237687, 35.219993960001752 ], [ 128.667919547055533, 35.221554255485856 ], [ 128.656605634293385, 35.225852362090379 ] ], [ [ 128.6710254586377, 35.229516818518242 ], [ 128.660236590747246, 35.230048911708508 ], [ 128.658962610039481, 35.228313679491414 ], [ 128.664943920772487, 35.227033920925152 ], [ 128.669755382095502, 35.229037798610463 ], [ 128.670747523835701, 35.227251723163448 ], [ 128.669002647259191, 35.225114734568074 ], [ 128.67238721767805, 35.224608865165777 ], [ 128.672920190490458, 35.226856587351733 ], [ 128.6710254586377, 35.229516818518242 ] ], [ [ 128.668066497603348, 35.221845072141363 ], [ 128.668591761373079, 35.223814053331886 ], [ 128.667286439287068, 35.222196517555894 ], [ 128.668066497603348, 35.221845072141363 ] ], [ [ 128.671562356883157, 35.223928902642555 ], [ 128.671480735869977, 35.224492702917999 ], [ 128.670866840970007, 35.224326001830299 ], [ 128.671562356883157, 35.223928902642555 ] ] ] ] } },
{ "type": "Feature", "properties": { "emd_cd": "48123126", "emd_nm": "반림동" }, "geometry": { "type": "MultiPolygon", "coordinates": [ [ [ [ 128.66421640420657, 35.236483426797712 ], [ 128.666270942605195, 35.239832646526857 ], [ 128.665677522494747, 35.243842584579049 ], [ 128.6689344249111, 35.243828591502542 ], [ 128.669704012850815, 35.241114432524533 ], [ 128.66749218628533, 35.240861726351447 ], [ 128.666540081401138, 35.242645384495155 ], [ 128.666479824128913, 35.241027587343652 ], [ 128.668654399153837, 35.240198451094884 ], [ 128.669551005777748, 35.240614951387478 ], [ 128.669410273011493, 35.238786282592159 ], [ 128.671592045504354, 35.236881680932925 ], [ 128.675362555818083, 35.239649360979826 ], [ 128.679473726443433, 35.239238720216818 ], [ 128.673148870970692, 35.231644808124564 ], [ 128.66421640420657, 35.236483426797712 ] ] ], [ [ [ 128.678773392656808, 35.24258469514983 ], [ 128.681225352002826, 35.242180467128968 ], [ 128.681714035073128, 35.24190162314698 ], [ 128.678773392656808, 35.24258469514983 ] ] ] ] } },
{ "type": "Feature", "properties": { "emd_cd": "48123127", "emd_nm": "상남동" }, "geometry": { "type": "MultiPolygon", "coordinates": [ [ [ [ 128.695589602162471, 35.214972981523829 ], [ 128.690901536959018, 35.213063344302221 ], [ 128.685944998726484, 35.213917640278929 ], [ 128.685763196507139, 35.212281230000286 ], [ 128.6840567913614, 35.210172584887431 ], [ 128.686264468887686, 35.214690471894116 ], [ 128.683670921433389, 35.216360639759145 ], [ 128.681421406067926, 35.211659479679824 ], [ 128.678633858283149, 35.213074001836723 ], [ 128.673565330974242, 35.2161576638767 ], [ 128.682222074285676, 35.226361083247738 ], [ 128.689619066187845, 35.222082588267867 ], [ 128.695589602162471, 35.214972981523829 ] ], [ [ 128.681342252079446, 35.213985418598774 ], [ 128.678810467999114, 35.213155503210452 ], [ 128.68107965114379, 35.21236393047954 ], [ 128.681342252079446, 35.213985418598774 ] ] ] ] } },
{ "type": "Feature", "properties": { "emd_cd": "48123128", "emd_nm": "성주동" }, "geometry": { "type": "MultiPolygon", "coordinates": [ [ [ [ 128.681347391269384, 35.193531781504433 ], [ 128.687379553314599, 35.200347680031456 ], [ 128.692484054908249, 35.19606509101348 ], [ 128.694407695383489, 35.190089194259691 ], [ 128.70105633653543, 35.197931078869189 ], [ 128.703823918351134, 35.197238467905116 ], [ 128.701442333285712, 35.198432192038531 ], [ 128.702188074470655, 35.199350614787363 ], [ 128.710217838152175, 35.194928450131236 ], [ 128.716959552126468, 35.193887564266497 ], [ 128.713084840497032, 35.194646645164632 ], [ 128.713495235194159, 35.203833528423779 ], [ 128.717581009607954, 35.197896288918216 ], [ 128.725968970449173, 35.192989351579442 ], [ 128.726805130982342, 35.190337757865457 ], [ 128.718332371656714, 35.193589983858544 ], [ 128.717178284494736, 35.193850843241712 ], [ 128.725733790519712, 35.190329897740618 ], [ 128.721780647943007, 35.186781704218326 ], [ 128.718835055589523, 35.187992362016907 ], [ 128.715385529879455, 35.185993098346124 ], [ 128.714167298385775, 35.187300142967622 ], [ 128.714839189820054, 35.187562133836877 ], [ 128.715329467093994, 35.188456257400901 ], [ 128.712169019382429, 35.190256761859018 ], [ 128.708524830773626, 35.189652844328442 ], [ 128.708658510260932, 35.184708270196424 ], [ 128.703735343176987, 35.183320201176045 ], [ 128.697011027273504, 35.185482223659896 ], [ 128.698280893324466, 35.183582034122587 ], [ 128.681347391269384, 35.193531781504433 ] ] ], [ [ [ 128.704959406092797, 35.198948247555322 ], [ 128.707036743505313, 35.199544696875876 ], [ 128.707454001678144, 35.203301118363477 ], [ 128.711957118476477, 35.20487366323858 ], [ 128.712930771804366, 35.203536066193642 ], [ 128.712100526546408, 35.195237437239413 ], [ 128.704959406092797, 35.198948247555322 ] ], [ [ 128.711070077176146, 35.196177868787252 ], [ 128.710250749608718, 35.197555437938924 ], [ 128.708980654629727, 35.197081757969372 ], [ 128.711070077176146, 35.196177868787252 ] ] ] ] } },
{ "type": "Feature", "properties": { "emd_cd": "48123129", "emd_nm": "웅남동" }, "geometry": { "type": "MultiPolygon", "coordinates": [ [ [ [ 128.652476088767685, 35.203469819485434 ], [ 128.653932289797666, 35.204932731103995 ], [ 128.656725190850182, 35.201651785398496 ], [ 128.653498505378906, 35.203480179507061 ], [ 128.652476088767685, 35.203469819485434 ] ] ], [ [ [ 128.662942214751212, 35.200407216568152 ], [ 128.648657094538493, 35.209269094564704 ], [ 128.647019018277234, 35.211561380049936 ], [ 128.646091057466236, 35.214621868174873 ], [ 128.646205567967741, 35.215917250676846 ], [ 128.647986337001441, 35.215393104759009 ], [ 128.650906796752508, 35.218903573927506 ], [ 128.656467235381797, 35.217988459917414 ], [ 128.667278137609088, 35.211840083828136 ], [ 128.65979189331145, 35.203258602564745 ], [ 128.662942214751212, 35.200407216568152 ] ], [ [ 128.646326190296747, 35.215865507019309 ], [ 128.646694057768372, 35.214739729083171 ], [ 128.646470976575728, 35.214390436611211 ], [ 128.646705804607564, 35.213251198795255 ], [ 128.64681450862156, 35.214696637293322 ], [ 128.646326190296747, 35.215865507019309 ] ] ] ] } },
{ "type": "Feature", "properties": { "emd_cd": "48123130", "emd_nm": "사파동" }, "geometry": { "type": "MultiPolygon", "coordinates": [ [ [ [ 128.708688016231491, 35.221696149627107 ], [ 128.707633144259745, 35.223883863313468 ], [ 128.708125090179124, 35.223885056178318 ], [ 128.708688016231491, 35.221696149627107 ] ] ], [ [ [ 128.696347030720688, 35.218220715724627 ], [ 128.696847459824909, 35.216303378941973 ], [ 128.695567769198931, 35.217719135743152 ], [ 128.694636392811702, 35.216927113499452 ], [ 128.698101807811724, 35.214100402244242 ], [ 128.69646332804524, 35.213673556696087 ], [ 128.691720437580614, 35.22028259551125 ], [ 128.697620393239191, 35.226813339981916 ], [ 128.694281166775824, 35.232209710002614 ], [ 128.695615582096963, 35.230938026078341 ], [ 128.697386238308269, 35.232365720151599 ], [ 128.700962402833994, 35.230434551185795 ], [ 128.704077474026803, 35.2307886011276 ], [ 128.703142101643778, 35.224812033528892 ], [ 128.707132435103716, 35.219016798791372 ], [ 128.698341697241204, 35.219383318984946 ], [ 128.698433134436272, 35.216561085442081 ], [ 128.700333594413365, 35.21610632227253 ], [ 128.701383586495979, 35.217419300336779 ], [ 128.702669277931136, 35.217244644941772 ], [ 128.699885618690899, 35.21538602628474 ], [ 128.698021869053065, 35.215394710043306 ], [ 128.698387316219026, 35.217127464336947 ], [ 128.696347030720688, 35.218220715724627 ] ] ] ] } },
{ "type": "Feature", "properties": { "emd_cd": "48123131", "emd_nm": "가음동" }, "geometry": { "type": "MultiPolygon", "coordinates": [ [ [ [ 128.684037405616948, 35.210229507949961 ], [ 128.685462674465072, 35.212231196784899 ], [ 128.696296231597671, 35.211132520763172 ], [ 128.695589602162471, 35.214972981523829 ], [ 128.70505945747604, 35.203163964637362 ], [ 128.701642800165985, 35.200087467593036 ], [ 128.684037405616948, 35.210229507949961 ] ] ] ] } },
{ "type": "Feature", "properties": { "emd_cd": "48123132", "emd_nm": "성산동" }, "geometry": { "type": "MultiPolygon", "coordinates": [ [ [ [ 128.667278137609088, 35.211840083828136 ], [ 128.687379553314599, 35.200347680031449 ], [ 128.681187273703927, 35.193342886937629 ], [ 128.669122119968506, 35.196957493101976 ], [ 128.65979189331145, 35.203258602564745 ], [ 128.667278137609088, 35.211840083828136 ] ] ] ] } },
{ "type": "Feature", "properties": { "emd_cd": "48123133", "emd_nm": "남양동" }, "geometry": { "type": "MultiPolygon", "coordinates": [ [ [ [ 128.704194013557128, 35.215039721202352 ], [ 128.70660648168851, 35.206183007914341 ], [ 128.70505945747604, 35.203163964637355 ], [ 128.69646332804524, 35.213673556696087 ], [ 128.704194013557128, 35.215039721202352 ] ] ] ] } },
{ "type": "Feature", "properties": { "emd_cd": "48123134", "emd_nm": "용지동" }, "geometry": { "type": "MultiPolygon", "coordinates": [ [ [ [ 128.677883426728329, 35.23268254030382 ], [ 128.680920403849996, 35.234964716254353 ], [ 128.684599555516343, 35.232863736025713 ], [ 128.682125107249817, 35.230055510391708 ], [ 128.677883426728329, 35.23268254030382 ] ] ] ] } },
{ "type": "Feature", "properties": { "emd_cd": "48123135", "emd_nm": "용호동" }, "geometry": { "type": "MultiPolygon", "coordinates": [ [ [ [ 128.673113862441284, 35.231990737299668 ], [ 128.68172503191937, 35.241955011401473 ], [ 128.690539218649491, 35.236157938645576 ], [ 128.682222074285676, 35.226361083247738 ], [ 128.673113862441284, 35.231990737299668 ] ], [ [ 128.680920403849996, 35.234964716254353 ], [ 128.677741850966584, 35.232308169118475 ], [ 128.682219341694065, 35.230059905081831 ], [ 128.684599555516343, 35.232863736025713 ], [ 128.680920403849996, 35.234964716254353 ] ] ] ] } },
{ "type": "Feature", "properties": { "emd_cd": "48123136", "emd_nm": "신월동" }, "geometry": { "type": "MultiPolygon", "coordinates": [ [ [ [ 128.690539218649491, 35.236157938645576 ], [ 128.697620393239191, 35.226813339981916 ], [ 128.691720437580614, 35.22028259551125 ], [ 128.682222074285676, 35.226361083247738 ], [ 128.690539218649491, 35.236157938645576 ] ] ] ] } },
{ "type": "Feature", "properties": { "emd_cd": "48123137", "emd_nm": "대원동" }, "geometry": { "type": "MultiPolygon", "coordinates": [ [ [ [ 128.633094853401616, 35.219551936875639 ], [ 128.64372440768895, 35.232655028876692 ], [ 128.656152785928811, 35.22555999275464 ], [ 128.650828150091996, 35.219415487813329 ], [ 128.644159671841095, 35.221129342053686 ], [ 128.633094853401616, 35.219551936875639 ] ] ], [ [ [ 128.656576005310058, 35.22613887663033 ], [ 128.657764917572223, 35.227552484281276 ], [ 128.656601052078344, 35.230547028476089 ], [ 128.657788876805995, 35.230511729811404 ], [ 128.657818353489063, 35.228530679228747 ], [ 128.658275935627387, 35.228306732512429 ], [ 128.658515979669517, 35.231537856868698 ], [ 128.659559912091112, 35.230232380975245 ], [ 128.66389215562404, 35.23601396235469 ], [ 128.657956222788869, 35.227459648460204 ], [ 128.656576005310058, 35.22613887663033 ] ] ], [ [ [ 128.648513765030117, 35.23849984142754 ], [ 128.6523773395582, 35.241124923017153 ], [ 128.659840666691679, 35.237484045046621 ], [ 128.655588804920939, 35.237189699383549 ], [ 128.65052669640616, 35.239387084569763 ], [ 128.652118699700026, 35.238687023816084 ], [ 128.649840923947721, 35.238294341047173 ], [ 128.651516799338594, 35.23592424456178 ], [ 128.655267216893975, 35.236350725154935 ], [ 128.657499107103575, 35.233951325522803 ], [ 128.651957506429881, 35.22850578955596 ], [ 128.644032214190474, 35.233006558591661 ], [ 128.648513765030117, 35.23849984142754 ] ] ] ] } },
{ "type": "Feature", "properties": { "emd_cd": "48123138", "emd_nm": "두대동" }, "geometry": { "type": "MultiPolygon", "coordinates": [ [ [ [ 128.668802933894654, 35.230228062909653 ], [ 128.670044168255913, 35.229968843926898 ], [ 128.671037886239503, 35.22941566806594 ], [ 128.668802933894654, 35.230228062909653 ] ] ], [ [ [ 128.659945725170019, 35.229651340106109 ], [ 128.663232665928916, 35.230497416022544 ], [ 128.668630191075891, 35.230255637807154 ], [ 128.664652005074601, 35.229048846825847 ], [ 128.659945725170019, 35.229651340106109 ] ] ], [ [ [ 128.645627631380506, 35.231792928664113 ], [ 128.645850154873926, 35.232000511769201 ], [ 128.646396937340114, 35.231687693808894 ], [ 128.645627631380506, 35.231792928664113 ] ] ], [ [ [ 128.649875537004789, 35.238420088028711 ], [ 128.652809038591897, 35.239269971176292 ], [ 128.658582011835023, 35.236887802720439 ], [ 128.659840295249325, 35.237483548262496 ], [ 128.658867344607842, 35.238475145509234 ], [ 128.663705591615326, 35.236107334377856 ], [ 128.659552904673177, 35.230234749733562 ], [ 128.658509322911783, 35.231540397813468 ], [ 128.658725911608343, 35.229352956782762 ], [ 128.656918555151918, 35.231406980496274 ], [ 128.65374629747302, 35.231103758843055 ], [ 128.657234385442479, 35.233007863192455 ], [ 128.656915971315613, 35.234969982219731 ], [ 128.655052246263182, 35.236389237270416 ], [ 128.651516799338594, 35.23592424456178 ], [ 128.649875537004789, 35.238420088028711 ] ] ] ] } },
{ "type": "Feature", "properties": { "emd_cd": "48123139", "emd_nm": "삼동동" }, "geometry": { "type": "MultiPolygon", "coordinates": [ [ [ [ 128.648536210182158, 35.229923269589669 ], [ 128.652362039632663, 35.228565904287066 ], [ 128.65374629747302, 35.231103758843055 ], [ 128.656918533372249, 35.23140693536736 ], [ 128.657764917572223, 35.227552484281276 ], [ 128.656421105851109, 35.225956265544717 ], [ 128.660828277943352, 35.222882917982325 ], [ 128.648536210182158, 35.229923269589669 ] ] ], [ [ [ 128.659145328715624, 35.228544443381146 ], [ 128.6603700701761, 35.229668219706944 ], [ 128.664274979122865, 35.229099840677243 ], [ 128.662847504457289, 35.227462341099219 ], [ 128.659145328715624, 35.228544443381146 ] ] ], [ [ [ 128.657804837514789, 35.229990810214986 ], [ 128.658725911646201, 35.229352947769435 ], [ 128.658275935627387, 35.228306732512429 ], [ 128.657818353489063, 35.228530679228747 ], [ 128.657804837514789, 35.229990810214986 ] ] ] ] } },
{ "type": "Feature", "properties": { "emd_cd": "48123140", "emd_nm": "덕정동" }, "geometry": { "type": "MultiPolygon", "coordinates": [ [ [ [ 128.648530531399814, 35.229913013827087 ], [ 128.644883933282358, 35.232407138640696 ], [ 128.648821936491885, 35.230244293752605 ], [ 128.648530531399814, 35.229913013827087 ] ] ] ] } },
{ "type": "Feature", "properties": { "emd_cd": "48123141", "emd_nm": "퇴촌동" }, "geometry": { "type": "MultiPolygon", "coordinates": [ [ [ [ 128.671966772811885, 35.24103107402599 ], [ 128.671365856085998, 35.24365813379665 ], [ 128.671563951586535, 35.243738983012619 ], [ 128.671759727789237, 35.243795759879404 ], [ 128.672284065241882, 35.243866680049784 ], [ 128.67264687668748, 35.244595676327151 ], [ 128.681599930464643, 35.24166589220777 ], [ 128.679341063295851, 35.239448108685202 ], [ 128.677891559782552, 35.240906808119796 ], [ 128.671966772811885, 35.24103107402599 ] ] ] ] } }
]
}
