{
"type": "FeatureCollection",
"name": "48170",
"crs": { "type": "name", "properties": { "name": "urn:ogc:def:crs:OGC:1.3:CRS84" } },
"features": [
{ "type": "Feature", "properties": { "emd_cd": "48170101", "emd_nm": "망경동" }, "geometry": { "type": "MultiPolygon", "coordinates": [ [ [ [ 128.073018550042889, 35.176007562962468 ], [ 128.078378537585564, 35.187694638965418 ], [ 128.084488404298781, 35.189664639261068 ], [ 128.087934568563071, 35.177566110256173 ], [ 128.086080577806854, 35.176761337690635 ], [ 128.085877759242635, 35.17469540057548 ], [ 128.073018550042889, 35.176007562962468 ] ] ] ] } },
{ "type": "Feature", "properties": { "emd_cd": "48170102", "emd_nm": "주약동" }, "geometry": { "type": "MultiPolygon", "coordinates": [ [ [ [ 128.066199338077212, 35.168020437471661 ], [ 128.072252336125302, 35.173226808276858 ], [ 128.073018550042889, 35.176007562962468 ], [ 128.081186984559935, 35.175515633733298 ], [ 128.083672201661642, 35.173983590058228 ], [ 128.085877759242635, 35.17469540057548 ], [ 128.086861754659878, 35.1773112080743 ], [ 128.091058827171992, 35.178852877060407 ], [ 128.09991091129956, 35.175370088437241 ], [ 128.099295834583444, 35.173431233612121 ], [ 128.101878537245682, 35.169030398969909 ], [ 128.100967662352048, 35.166665293660003 ], [ 128.095481195237454, 35.167118200878065 ], [ 128.093756037898117, 35.164638864310213 ], [ 128.089385535892632, 35.163847943476263 ], [ 128.088745154222408, 35.162344097859027 ], [ 128.076120052833204, 35.163590168731922 ], [ 128.073680093513474, 35.167085144862774 ], [ 128.068728145347819, 35.16625366658355 ], [ 128.066199338077212, 35.168020437471661 ] ] ] ] } },
{ "type": "Feature", "properties": { "emd_cd": "48170103", "emd_nm": "강남동" }, "geometry": { "type": "MultiPolygon", "coordinates": [ [ [ [ 128.091058827171992, 35.178852877060407 ], [ 128.087934568563071, 35.177566110256173 ], [ 128.084488404298781, 35.189664639261068 ], [ 128.086303854160775, 35.190014388821581 ], [ 128.086627739680949, 35.187930038206154 ], [ 128.088157055667182, 35.18757261013355 ], [ 128.087516473515336, 35.186046489610604 ], [ 128.091058827171992, 35.178852877060407 ] ] ] ] } },
{ "type": "Feature", "properties": { "emd_cd": "48170104", "emd_nm": "칠암동" }, "geometry": { "type": "MultiPolygon", "coordinates": [ [ [ [ 128.100393041723237, 35.177220730669127 ], [ 128.099925483549185, 35.175367610118698 ], [ 128.091939405359398, 35.177539212146918 ], [ 128.086303854160775, 35.190014388821581 ], [ 128.091519002058902, 35.190277254227532 ], [ 128.100393041723237, 35.177220730669127 ] ] ] ] } },
{ "type": "Feature", "properties": { "emd_cd": "48170105", "emd_nm": "본성동" }, "geometry": { "type": "MultiPolygon", "coordinates": [ [ [ [ 128.080142139496132, 35.188291477174964 ], [ 128.079628121258651, 35.19162027971722 ], [ 128.083210471443607, 35.192727877336338 ], [ 128.085220395077869, 35.190420863268336 ], [ 128.080142139496132, 35.188291477174964 ] ] ] ] } },
{ "type": "Feature", "properties": { "emd_cd": "48170106", "emd_nm": "동성동" }, "geometry": { "type": "MultiPolygon", "coordinates": [ [ [ [ 128.086303854160775, 35.190014388821581 ], [ 128.084141508666278, 35.190276913839256 ], [ 128.083210471443607, 35.192727877336338 ], [ 128.086064087955265, 35.193613927423662 ], [ 128.086303854160775, 35.190014388821581 ] ] ] ] } },
{ "type": "Feature", "properties": { "emd_cd": "48170107", "emd_nm": "남성동" }, "geometry": { "type": "MultiPolygon", "coordinates": [ [ [ [ 128.077492303440607, 35.186222782126791 ], [ 128.0731421010139, 35.187622457227505 ], [ 128.079628121258651, 35.19162027971722 ], [ 128.080142139496132, 35.188291477174964 ], [ 128.077492303440607, 35.186222782126791 ] ] ] ] } },
{ "type": "Feature", "properties": { "emd_cd": "48170108", "emd_nm": "인사동" }, "geometry": { "type": "MultiPolygon", "coordinates": [ [ [ [ 128.0731421010139, 35.187622457227505 ], [ 128.067656541161995, 35.193087523890341 ], [ 128.069585005238423, 35.193759414700708 ], [ 128.071090971173163, 35.191965255592919 ], [ 128.078657116161367, 35.194107504460654 ], [ 128.079628121258651, 35.19162027971722 ], [ 128.0731421010139, 35.187622457227505 ] ] ] ] } },
{ "type": "Feature", "properties": { "emd_cd": "48170109", "emd_nm": "대안동" }, "geometry": { "type": "MultiPolygon", "coordinates": [ [ [ [ 128.086064087955265, 35.193613927423662 ], [ 128.083210471443607, 35.192727877336338 ], [ 128.082189341479562, 35.195553102486144 ], [ 128.084983860163192, 35.196363064687866 ], [ 128.086064087955265, 35.193613927423662 ] ] ] ] } },
{ "type": "Feature", "properties": { "emd_cd": "48170110", "emd_nm": "평안동" }, "geometry": { "type": "MultiPolygon", "coordinates": [ [ [ [ 128.084513763570271, 35.196226824286093 ], [ 128.082189341479562, 35.195553102486144 ], [ 128.081252731893102, 35.198300383285137 ], [ 128.083460456566115, 35.198894193859992 ], [ 128.084513763570271, 35.196226824286093 ] ] ] ] } },
{ "type": "Feature", "properties": { "emd_cd": "48170111", "emd_nm": "중안동" }, "geometry": { "type": "MultiPolygon", "coordinates": [ [ [ [ 128.079628121258651, 35.19162027971722 ], [ 128.078505482722761, 35.194471803128174 ], [ 128.082189341479562, 35.195553102486144 ], [ 128.083210471443607, 35.192727877336338 ], [ 128.079628121258651, 35.19162027971722 ] ] ] ] } },
{ "type": "Feature", "properties": { "emd_cd": "48170112", "emd_nm": "계동" }, "geometry": { "type": "MultiPolygon", "coordinates": [ [ [ [ 128.079599724079827, 35.197206527955615 ], [ 128.081252731893102, 35.198300383285137 ], [ 128.082189341479562, 35.195553102486144 ], [ 128.080385833631084, 35.195040776199278 ], [ 128.079599724079827, 35.197206527955615 ] ] ] ] } },
{ "type": "Feature", "properties": { "emd_cd": "48170113", "emd_nm": "봉곡동" }, "geometry": { "type": "MultiPolygon", "coordinates": [ [ [ [ 128.067917551484527, 35.193311889161038 ], [ 128.078574575615505, 35.197152590788029 ], [ 128.080385833631084, 35.195040776199278 ], [ 128.071090971173163, 35.191965255592919 ], [ 128.069585005238423, 35.193759414700708 ], [ 128.067917551484527, 35.193311889161038 ] ] ] ] } },
{ "type": "Feature", "properties": { "emd_cd": "48170114", "emd_nm": "상봉동" }, "geometry": { "type": "MultiPolygon", "coordinates": [ [ [ [ 128.082333017338897, 35.198583459793895 ], [ 128.068035777995618, 35.194265313045847 ], [ 128.068298004728859, 35.197520527380917 ], [ 128.062353100222509, 35.200072934378376 ], [ 128.062007308345414, 35.206150165056592 ], [ 128.065514885690249, 35.209428540322484 ], [ 128.068197421788597, 35.207353049270893 ], [ 128.070203461589415, 35.20838538521334 ], [ 128.072184526665126, 35.212805311374574 ], [ 128.082547578425107, 35.209281057091005 ], [ 128.081372122825428, 35.204862704504905 ], [ 128.082333017338897, 35.198583459793895 ] ] ] ] } },
{ "type": "Feature", "properties": { "emd_cd": "48170115", "emd_nm": "봉래동" }, "geometry": { "type": "MultiPolygon", "coordinates": [ [ [ [ 128.082333017338897, 35.198583459793895 ], [ 128.081653171907845, 35.20551169096354 ], [ 128.083659042401791, 35.203008031952592 ], [ 128.089753347704885, 35.200500063756884 ], [ 128.088387876425685, 35.198906173826437 ], [ 128.082333017338897, 35.198583459793895 ] ] ] ] } },
{ "type": "Feature", "properties": { "emd_cd": "48170116", "emd_nm": "수정동" }, "geometry": { "type": "MultiPolygon", "coordinates": [ [ [ [ 128.087844872430196, 35.195863157153717 ], [ 128.086832939259011, 35.195744945984174 ], [ 128.087849473519128, 35.196024932054115 ], [ 128.087844872430196, 35.195863157153717 ] ] ], [ [ [ 128.084983860163192, 35.196363064687866 ], [ 128.083460456566115, 35.198894193859992 ], [ 128.087104693988351, 35.199148056573847 ], [ 128.088228102159206, 35.196177639784004 ], [ 128.084983860163192, 35.196363064687866 ] ] ] ] } },
{ "type": "Feature", "properties": { "emd_cd": "48170117", "emd_nm": "장대동" }, "geometry": { "type": "MultiPolygon", "coordinates": [ [ [ [ 128.090971145896873, 35.190469307284708 ], [ 128.086303854160775, 35.190014388821581 ], [ 128.085369976618153, 35.195386811513565 ], [ 128.088228102159206, 35.196177639784004 ], [ 128.089078158730786, 35.195866154793293 ], [ 128.090971145896873, 35.190469307284708 ] ], [ [ 128.086832939259011, 35.195744945984174 ], [ 128.087844872430196, 35.195863157153717 ], [ 128.087849473519128, 35.196024932054115 ], [ 128.086832939259011, 35.195744945984174 ] ] ] ] } },
{ "type": "Feature", "properties": { "emd_cd": "48170118", "emd_nm": "옥봉동" }, "geometry": { "type": "MultiPolygon", "coordinates": [ [ [ [ 128.09921479227404, 35.199336338742008 ], [ 128.100039116487579, 35.192601558843464 ], [ 128.097291773672481, 35.191219710172 ], [ 128.094858222746694, 35.186676668808907 ], [ 128.089890351298777, 35.190661322494364 ], [ 128.089858637655283, 35.19468106721127 ], [ 128.086786020101414, 35.19847603066188 ], [ 128.089706122811293, 35.199819849951957 ], [ 128.088359159824137, 35.201484875699911 ], [ 128.096841269882674, 35.201442795474108 ], [ 128.09921479227404, 35.199336338742008 ] ] ] ] } },
{ "type": "Feature", "properties": { "emd_cd": "48170119", "emd_nm": "상대동" }, "geometry": { "type": "MultiPolygon", "coordinates": [ [ [ [ 128.131906471855189, 35.178894259227548 ], [ 128.100393041723322, 35.177220730669127 ], [ 128.094858222746694, 35.186676668808907 ], [ 128.099247735158684, 35.192134239177307 ], [ 128.106198785208903, 35.187525231702672 ], [ 128.110522159328184, 35.186680593335922 ], [ 128.119510769594086, 35.188731750509362 ], [ 128.119794753847344, 35.184487003754356 ], [ 128.130358586004036, 35.186000713788417 ], [ 128.131906471855189, 35.178894259227548 ] ] ] ] } },
{ "type": "Feature", "properties": { "emd_cd": "48170120", "emd_nm": "하대동" }, "geometry": { "type": "MultiPolygon", "coordinates": [ [ [ [ 128.098238017024784, 35.191646827359818 ], [ 128.100039116487579, 35.192601558843464 ], [ 128.099204027438788, 35.196427204245033 ], [ 128.108811097693263, 35.198296192708263 ], [ 128.115099799611528, 35.196167264754386 ], [ 128.130313509831382, 35.194874745634415 ], [ 128.132759082722117, 35.191701721625037 ], [ 128.128906752786719, 35.184904232112231 ], [ 128.119794753847344, 35.184487003754356 ], [ 128.119510769594086, 35.188731750509362 ], [ 128.110522159328184, 35.186680593335922 ], [ 128.106198785208903, 35.187525231702672 ], [ 128.102402356153021, 35.191151140081438 ], [ 128.098238017024784, 35.191646827359818 ] ] ] ] } },
{ "type": "Feature", "properties": { "emd_cd": "48170121", "emd_nm": "상평동" }, "geometry": { "type": "MultiPolygon", "coordinates": [ [ [ [ 128.101878537245682, 35.169030398969909 ], [ 128.099295834583444, 35.173431233612121 ], [ 128.10060146416896, 35.178042350792346 ], [ 128.131906471854961, 35.178894259227548 ], [ 128.130091004393449, 35.173935172791118 ], [ 128.122505749714378, 35.168050265445473 ], [ 128.112324144486848, 35.166317029371314 ], [ 128.101878537245682, 35.169030398969909 ] ] ] ] } },
{ "type": "Feature", "properties": { "emd_cd": "48170122", "emd_nm": "초전동" }, "geometry": { "type": "MultiPolygon", "coordinates": [ [ [ [ 128.09916924911343, 35.199347896717882 ], [ 128.105757055095324, 35.201898608997077 ], [ 128.105436936156337, 35.206514936267332 ], [ 128.107153623026818, 35.209385718857583 ], [ 128.10345226871982, 35.211974538297234 ], [ 128.104557108294728, 35.21451513680676 ], [ 128.110014918070988, 35.215754014854305 ], [ 128.110440727849721, 35.218168260173869 ], [ 128.119012011444397, 35.213838898436279 ], [ 128.126816023836369, 35.215680220394269 ], [ 128.130313509831382, 35.194874745634415 ], [ 128.115099799611528, 35.196167264754386 ], [ 128.109378077838983, 35.198278315598223 ], [ 128.100239308611151, 35.196137921863212 ], [ 128.09916924911343, 35.199347896717882 ] ] ] ] } },
{ "type": "Feature", "properties": { "emd_cd": "48170123", "emd_nm": "장재동" }, "geometry": { "type": "MultiPolygon", "coordinates": [ [ [ [ 128.105757055095324, 35.201898608997077 ], [ 128.098285566945009, 35.199619102295152 ], [ 128.096841269882674, 35.201442795474108 ], [ 128.088712316969577, 35.20126855588525 ], [ 128.083659042401933, 35.2030080319525 ], [ 128.081653171908044, 35.205511690963526 ], [ 128.083869508593835, 35.210611102168976 ], [ 128.093402459159734, 35.209632819736619 ], [ 128.097134018193998, 35.212123367230106 ], [ 128.095644844418501, 35.214683777485433 ], [ 128.092537991853419, 35.215726840570483 ], [ 128.089688102046466, 35.222317862986188 ], [ 128.084839571294907, 35.224815930446006 ], [ 128.085582788517769, 35.230900718636263 ], [ 128.089957131410159, 35.228976721945585 ], [ 128.094695490250587, 35.229083033466615 ], [ 128.096499657013595, 35.2262867287576 ], [ 128.100748216331766, 35.226223371308947 ], [ 128.10201367247646, 35.220448889705828 ], [ 128.104070698719539, 35.219078924609121 ], [ 128.108890781402181, 35.219729050743531 ], [ 128.110516758356482, 35.21817073948877 ], [ 128.110014918070988, 35.215754014854305 ], [ 128.104557108294728, 35.21451513680676 ], [ 128.10345226871982, 35.211974538297234 ], [ 128.107153623026818, 35.209385718857583 ], [ 128.105436936156337, 35.206514936267332 ], [ 128.105757055095324, 35.201898608997077 ] ] ] ] } },
{ "type": "Feature", "properties": { "emd_cd": "48170124", "emd_nm": "하촌동" }, "geometry": { "type": "MultiPolygon", "coordinates": [ [ [ [ 128.072458767278874, 35.212810921967531 ], [ 128.071496374850994, 35.218546756909682 ], [ 128.069643737687045, 35.220688164618174 ], [ 128.073067936478878, 35.225353310184445 ], [ 128.077660713306642, 35.226950316931003 ], [ 128.081259637882965, 35.224732349702265 ], [ 128.087887042751049, 35.223813838574962 ], [ 128.09253799185322, 35.215726840570476 ], [ 128.095644844418388, 35.214683777485483 ], [ 128.097134018193856, 35.212123367230163 ], [ 128.093402459159535, 35.209632819736669 ], [ 128.083869508593608, 35.210611102169047 ], [ 128.08310177457335, 35.207692379413196 ], [ 128.082376832822433, 35.209364889715431 ], [ 128.072458767278874, 35.212810921967531 ] ] ] ] } },
{ "type": "Feature", "properties": { "emd_cd": "48170125", "emd_nm": "신안동" }, "geometry": { "type": "MultiPolygon", "coordinates": [ [ [ [ 128.051208650500769, 35.17932830559257 ], [ 128.051448542217628, 35.181243082043409 ], [ 128.054730294512495, 35.182328438334871 ], [ 128.063209674105281, 35.184205827518419 ], [ 128.066493758572108, 35.183372048824111 ], [ 128.066159741640064, 35.187392828967653 ], [ 128.065044381534079, 35.185153963873638 ], [ 128.06314778141504, 35.189628529095344 ], [ 128.069426360938479, 35.191471157034385 ], [ 128.073318711990964, 35.18749075030204 ], [ 128.077492303440692, 35.186222782126677 ], [ 128.07225233612553, 35.173226808276816 ], [ 128.067613619349942, 35.168924675062414 ], [ 128.066416537184239, 35.169997521145021 ], [ 128.069943077146576, 35.174448376889821 ], [ 128.062924049708528, 35.177932286216567 ], [ 128.058752421823698, 35.176844943353714 ], [ 128.056994635516247, 35.17772790136712 ], [ 128.057193193147356, 35.179409420045232 ], [ 128.051208650500769, 35.17932830559257 ] ] ] ] } },
{ "type": "Feature", "properties": { "emd_cd": "48170126", "emd_nm": "평거동" }, "geometry": { "type": "MultiPolygon", "coordinates": [ [ [ [ 128.049852487606813, 35.182581913313882 ], [ 128.051392674958947, 35.178936399481088 ], [ 128.057193193147356, 35.179409420045232 ], [ 128.057899829447962, 35.177002415651813 ], [ 128.062924049708528, 35.177932286216567 ], [ 128.069943077146576, 35.174448376889821 ], [ 128.066416537184239, 35.169997521145021 ], [ 128.067613619349942, 35.168924675062414 ], [ 128.048316705760101, 35.159315054029335 ], [ 128.042936213158811, 35.159098193089946 ], [ 128.035499450589896, 35.162123587428439 ], [ 128.036299624761682, 35.164413760209079 ], [ 128.039760397553863, 35.16493383932297 ], [ 128.040261690303737, 35.167909069685116 ], [ 128.049014757272744, 35.167308700550379 ], [ 128.046157683818478, 35.170687986089106 ], [ 128.046966135735175, 35.174149658736489 ], [ 128.045454941775375, 35.176815893879905 ], [ 128.046163466210515, 35.181513114768769 ], [ 128.049852487606813, 35.182581913313882 ] ] ] ] } },
{ "type": "Feature", "properties": { "emd_cd": "48170127", "emd_nm": "이현동" }, "geometry": { "type": "MultiPolygon", "coordinates": [ [ [ [ 128.037974022151928, 35.205874863846617 ], [ 128.040758005591499, 35.20668135371082 ], [ 128.040433503614338, 35.210816731150942 ], [ 128.042486050538855, 35.211585098666603 ], [ 128.048646158153161, 35.207000608281056 ], [ 128.048145271415592, 35.21252778614361 ], [ 128.055089599070016, 35.206085183140054 ], [ 128.056349213773643, 35.200404070931107 ], [ 128.055518964627993, 35.196204129079192 ], [ 128.061837616797646, 35.19399814721654 ], [ 128.067836993959816, 35.194166989148158 ], [ 128.069426360938479, 35.191471157034385 ], [ 128.06314778141504, 35.189628529095344 ], [ 128.065044381534079, 35.185153963873638 ], [ 128.06510962928968, 35.186842126414554 ], [ 128.066159741640064, 35.187392828967653 ], [ 128.066493758572108, 35.183372048824111 ], [ 128.063209674105281, 35.184205827518419 ], [ 128.050813474966333, 35.181717334618156 ], [ 128.050083972585355, 35.183754883933616 ], [ 128.05365894188796, 35.186755123254287 ], [ 128.043630429368847, 35.19413876705562 ], [ 128.037974022151928, 35.205874863846617 ] ] ] ] } },
{ "type": "Feature", "properties": { "emd_cd": "48170128", "emd_nm": "유곡동" }, "geometry": { "type": "MultiPolygon", "coordinates": [ [ [ [ 128.067917551484527, 35.193311889161038 ], [ 128.055399937429542, 35.196316196233724 ], [ 128.056357368602278, 35.200199645988995 ], [ 128.055089599069902, 35.206085183140104 ], [ 128.047493470752585, 35.213936483763987 ], [ 128.049948487720201, 35.214032692657241 ], [ 128.049317441725634, 35.21310302913222 ], [ 128.05418959356075, 35.209395194981411 ], [ 128.060311968105111, 35.211419907916131 ], [ 128.064327475620843, 35.210793388752627 ], [ 128.065514885690249, 35.209428540322484 ], [ 128.061909423404217, 35.205939202780826 ], [ 128.062353100222509, 35.200072934378376 ], [ 128.068298004728859, 35.197520527380917 ], [ 128.067917551484527, 35.193311889161038 ] ] ] ] } },
{ "type": "Feature", "properties": { "emd_cd": "48170129", "emd_nm": "판문동" }, "geometry": { "type": "MultiPolygon", "coordinates": [ [ [ [ 128.039760397553863, 35.16493383932297 ], [ 128.034737055913354, 35.164399634106246 ], [ 128.028457299829711, 35.171996529950945 ], [ 128.027476791365501, 35.178317637353778 ], [ 128.029080558227889, 35.179105277898451 ], [ 128.026835619983473, 35.183304172999861 ], [ 128.027474699567478, 35.186600904659876 ], [ 128.02527188232682, 35.187675445133003 ], [ 128.025476958455585, 35.191440627473952 ], [ 128.020712391239528, 35.193538257352714 ], [ 128.021106970893072, 35.197416594054062 ], [ 128.019591334521294, 35.200207875413263 ], [ 128.022337411243825, 35.207459331874226 ], [ 128.028021989920717, 35.207208294423879 ], [ 128.031962406381098, 35.205278571617143 ], [ 128.034741454012902, 35.209533693935747 ], [ 128.040433503614338, 35.210816731150942 ], [ 128.041479289778437, 35.207930532569897 ], [ 128.037974022151928, 35.205874863846617 ], [ 128.039577125435187, 35.201102308981334 ], [ 128.041610321900038, 35.199842914082403 ], [ 128.043630429368847, 35.19413876705562 ], [ 128.05365894188796, 35.186755123254287 ], [ 128.049852487606813, 35.182581913313882 ], [ 128.046163466210515, 35.181513114768769 ], [ 128.045454941775375, 35.176815893879905 ], [ 128.046966135735175, 35.174149658736489 ], [ 128.045730972067958, 35.172510332853797 ], [ 128.049014757272744, 35.167308700550379 ], [ 128.040261690303737, 35.167909069685116 ], [ 128.039760397553863, 35.16493383932297 ] ] ] ] } },
{ "type": "Feature", "properties": { "emd_cd": "48170130", "emd_nm": "귀곡동" }, "geometry": { "type": "MultiPolygon", "coordinates": [ [ [ [ 128.030881560892993, 35.16840581940366 ], [ 128.022567007808306, 35.162019785023844 ], [ 128.021278824303295, 35.152392640467191 ], [ 128.016734231229066, 35.152186660529928 ], [ 128.003382880399499, 35.165682200429565 ], [ 127.998758371859054, 35.177336865169259 ], [ 128.000418580490873, 35.179267069689672 ], [ 127.999099130519539, 35.180646610137011 ], [ 128.018016861023028, 35.18585581627466 ], [ 128.022332530319858, 35.185359434867678 ], [ 128.027476791365416, 35.178317637353821 ], [ 128.028057296486423, 35.172879735515103 ], [ 128.030881560892993, 35.16840581940366 ] ] ] ] } },
{ "type": "Feature", "properties": { "emd_cd": "48170131", "emd_nm": "가좌동" }, "geometry": { "type": "MultiPolygon", "coordinates": [ [ [ [ 128.088715572973115, 35.162841419219262 ], [ 128.093756037898203, 35.164638864310206 ], [ 128.095481195237653, 35.167118200877972 ], [ 128.10096766235219, 35.166665293659975 ], [ 128.101878537245824, 35.169030398969895 ], [ 128.111542026549415, 35.166895006530787 ], [ 128.112055562749532, 35.165572760203816 ], [ 128.108163031859817, 35.163656727271615 ], [ 128.11109672418084, 35.16382843738873 ], [ 128.111634404738112, 35.158413413266935 ], [ 128.114101889980986, 35.156550079814082 ], [ 128.121172320476461, 35.155313787238356 ], [ 128.129822188068601, 35.156121397936694 ], [ 128.132605566959853, 35.150217153229221 ], [ 128.12951490866422, 35.144200030743306 ], [ 128.126057678148442, 35.14283358747727 ], [ 128.124200438738256, 35.146143418292077 ], [ 128.121634217070095, 35.146222939968929 ], [ 128.119971683423813, 35.144104065410446 ], [ 128.117476726840465, 35.146733961686209 ], [ 128.109818751968533, 35.147007062051934 ], [ 128.106904877516172, 35.143199187331149 ], [ 128.100942493524059, 35.143085354944247 ], [ 128.094530757234878, 35.146388056034894 ], [ 128.095836746874284, 35.150748964180366 ], [ 128.091944805902131, 35.154039248054325 ], [ 128.088715572973115, 35.162841419219262 ] ] ] ] } },
{ "type": "Feature", "properties": { "emd_cd": "48170132", "emd_nm": "호탄동" }, "geometry": { "type": "MultiPolygon", "coordinates": [ [ [ [ 128.140034005457181, 35.166821957383689 ], [ 128.140567475362047, 35.16517050349831 ], [ 128.135743677580223, 35.164644577116974 ], [ 128.133543096011948, 35.162306168813068 ], [ 128.131773250977687, 35.164696619016816 ], [ 128.129275057966339, 35.163980759743453 ], [ 128.127521473244428, 35.160831343958463 ], [ 128.129822188068601, 35.156121397936694 ], [ 128.126481586189016, 35.155109374326756 ], [ 128.114101889980986, 35.156550079814082 ], [ 128.110883538282025, 35.159186824407399 ], [ 128.110919431838596, 35.161277938186423 ], [ 128.111709588749619, 35.161507234320581 ], [ 128.11209437051258, 35.160369351736527 ], [ 128.112265629410899, 35.160415674657337 ], [ 128.11109672418084, 35.16382843738873 ], [ 128.108163031859817, 35.163656727271615 ], [ 128.112324144486962, 35.166317029371243 ], [ 128.122505749714549, 35.168050265445416 ], [ 128.130091004393705, 35.173935172791118 ], [ 128.131493232133749, 35.17395060511047 ], [ 128.125575653669216, 35.169337643521658 ], [ 128.127566378780074, 35.167024420763212 ], [ 128.12634635019603, 35.163738790135156 ], [ 128.140034005457181, 35.166821957383689 ] ] ] ] } },
{ "type": "Feature", "properties": { "emd_cd": "48170137", "emd_nm": "충무공동" }, "geometry": { "type": "MultiPolygon", "coordinates": [ [ [ [ 128.131493232133749, 35.17395060511047 ], [ 128.133269996257468, 35.178345358625791 ], [ 128.132435853135462, 35.186040719590665 ], [ 128.141412789141611, 35.183509653245174 ], [ 128.151598653852233, 35.184603086393466 ], [ 128.158694548973841, 35.173068718649191 ], [ 128.15594364821186, 35.171693847362917 ], [ 128.15134261334137, 35.172179616678626 ], [ 128.138611401453204, 35.166326752590138 ], [ 128.12634635019603, 35.163738790135156 ], [ 128.127566378780074, 35.167024420763212 ], [ 128.125575653669216, 35.169337643521658 ], [ 128.131493232133749, 35.17395060511047 ] ] ] ] } },
{ "type": "Feature", "properties": { "emd_cd": "48170250", "emd_nm": "문산읍" }, "geometry": { "type": "MultiPolygon", "coordinates": [ [ [ [ 128.129821549955153, 35.14487134188586 ], [ 128.132605566959853, 35.150217153229221 ], [ 128.127521473244428, 35.160831343958463 ], [ 128.129275057966339, 35.163980759743453 ], [ 128.131773250977687, 35.164696619016816 ], [ 128.133543096011948, 35.162306168813068 ], [ 128.135743677580223, 35.164644577116974 ], [ 128.139660581378109, 35.164565561565375 ], [ 128.140034005457181, 35.166821957383689 ], [ 128.150895953296725, 35.17201510012751 ], [ 128.158333388585135, 35.172316397563584 ], [ 128.155898457710549, 35.17594209942623 ], [ 128.156623447058394, 35.177920172373987 ], [ 128.153871884614006, 35.180409436754879 ], [ 128.167287286656006, 35.175843916781595 ], [ 128.174428984646312, 35.176903582056418 ], [ 128.176003744839988, 35.182283478622878 ], [ 128.181168490078591, 35.183761705327932 ], [ 128.182017935936216, 35.186656040873416 ], [ 128.188473551356225, 35.188312574212787 ], [ 128.191235110280871, 35.193008045474784 ], [ 128.20069296353563, 35.190513363052716 ], [ 128.201937893401464, 35.177169086451961 ], [ 128.215686138934302, 35.17307184138523 ], [ 128.217071097326908, 35.166322981745829 ], [ 128.214551492554023, 35.160780399769465 ], [ 128.215740505894928, 35.158516819737748 ], [ 128.221133258449612, 35.157307227234526 ], [ 128.222404110493358, 35.15128976133424 ], [ 128.226079171912147, 35.149929019743283 ], [ 128.228384062955087, 35.146919626551657 ], [ 128.228935840137609, 35.142033424995567 ], [ 128.234751805220014, 35.138559083649362 ], [ 128.244615962410364, 35.135781090140128 ], [ 128.247639302939206, 35.126198027078132 ], [ 128.242485837427807, 35.125430983962623 ], [ 128.237151674088267, 35.130825740333513 ], [ 128.228768757967032, 35.13237920189497 ], [ 128.227167969773831, 35.136519775716813 ], [ 128.224441736942026, 35.135833558735015 ], [ 128.21152696070547, 35.143728326150679 ], [ 128.206949617232624, 35.143352400757763 ], [ 128.206883314900182, 35.141343915463366 ], [ 128.204208664969627, 35.140982186302438 ], [ 128.199033884290827, 35.136526857125254 ], [ 128.195946429208561, 35.137185328177274 ], [ 128.191979379777962, 35.13270927448719 ], [ 128.190612266123196, 35.135994453540121 ], [ 128.184463600558246, 35.137722537557657 ], [ 128.18250529594286, 35.141664728564329 ], [ 128.183760272841937, 35.144291113743364 ], [ 128.179632154240323, 35.146054933212469 ], [ 128.172509469746672, 35.141669133849632 ], [ 128.171481637258239, 35.139167346804413 ], [ 128.169452091882135, 35.139394733203432 ], [ 128.170219695820407, 35.135578757379776 ], [ 128.163783009336584, 35.134803986857911 ], [ 128.163289570383398, 35.13272906702597 ], [ 128.159422257184133, 35.132075406360514 ], [ 128.155970329910616, 35.134974310044335 ], [ 128.150834861951608, 35.136248955184911 ], [ 128.148389727424529, 35.139120287376578 ], [ 128.14146440410758, 35.140072377845428 ], [ 128.138259565504939, 35.142201302657725 ], [ 128.133737089051351, 35.140985622343649 ], [ 128.129821549955153, 35.14487134188586 ] ] ], [ [ [ 128.129832221989744, 35.184757545827331 ], [ 128.131042306913173, 35.187579290168969 ], [ 128.139223272400557, 35.183702380769873 ], [ 128.132316810575816, 35.185984010864821 ], [ 128.133269996257468, 35.178345358625791 ], [ 128.131493221157484, 35.173950605031713 ], [ 128.130091004393705, 35.173935172791118 ], [ 128.131906471855189, 35.178894259227548 ], [ 128.129832221989744, 35.184757545827331 ] ] ] ] } },
{ "type": "Feature", "properties": { "emd_cd": "48170310", "emd_nm": "내동면" }, "geometry": { "type": "MultiPolygon", "coordinates": [ [ [ [ 128.094528767813614, 35.146299324372066 ], [ 128.085727895900817, 35.138411099583223 ], [ 128.081123226636123, 35.139370750865801 ], [ 128.075060468905662, 35.138271790333462 ], [ 128.072097610460418, 35.139921382816659 ], [ 128.069583950966461, 35.137073808814741 ], [ 128.065273281402256, 35.138000272416619 ], [ 128.057447355795205, 35.133238431204219 ], [ 128.054763032305829, 35.129793362048588 ], [ 128.050710864764085, 35.131412287763951 ], [ 128.047601347729398, 35.127815711366217 ], [ 128.048729326847052, 35.124580507573498 ], [ 128.043976477192501, 35.121021076801711 ], [ 128.037163092304354, 35.119760048701146 ], [ 128.028089736659211, 35.122851355961146 ], [ 128.024486088188894, 35.121529245983439 ], [ 128.024334674745177, 35.118642344969544 ], [ 128.022553749196987, 35.117225816345112 ], [ 128.017109160130161, 35.11862312840443 ], [ 128.00856271592906, 35.113160405564109 ], [ 128.008190286194889, 35.114320520257479 ], [ 128.002597398289964, 35.114257944430491 ], [ 128.000961488867461, 35.11764689789382 ], [ 128.00152097619511, 35.12175101496706 ], [ 127.999454882686749, 35.123640167772145 ], [ 128.002602648869527, 35.128322206418687 ], [ 128.003122555593336, 35.133545017329006 ], [ 127.998508543546464, 35.136413651101904 ], [ 128.000310092242529, 35.138525087321923 ], [ 127.996677439395555, 35.144929332996547 ], [ 127.99921874842542, 35.14646619269903 ], [ 127.999127667480636, 35.150860504150117 ], [ 127.997193353139295, 35.152862410063214 ], [ 127.999084471654427, 35.156860168513006 ], [ 128.007746416637985, 35.159938449994939 ], [ 128.016734231229151, 35.152186660529836 ], [ 128.020481012128414, 35.15177961057109 ], [ 128.021976956384577, 35.153395054955737 ], [ 128.022567007808362, 35.162019785023794 ], [ 128.03088156089305, 35.168405819403603 ], [ 128.036299624761682, 35.164413760209079 ], [ 128.035100448135154, 35.162427175647814 ], [ 128.042936213158811, 35.159098193089946 ], [ 128.051252833220786, 35.160064295728162 ], [ 128.066199338077325, 35.168020437471611 ], [ 128.068728145347961, 35.166253666583522 ], [ 128.073680093513616, 35.167085144862668 ], [ 128.076120052833318, 35.163590168731879 ], [ 128.088745154222437, 35.162344097858991 ], [ 128.091944805902131, 35.154039248054325 ], [ 128.095836746874284, 35.150748964180366 ], [ 128.094528767813614, 35.146299324372066 ] ] ] ] } },
{ "type": "Feature", "properties": { "emd_cd": "48170320", "emd_nm": "정촌면" }, "geometry": { "type": "MultiPolygon", "coordinates": [ [ [ [ 128.159422257184133, 35.132075406360514 ], [ 128.159066618422315, 35.127737898834965 ], [ 128.161779791890893, 35.124855525167774 ], [ 128.161057300711178, 35.122010471935987 ], [ 128.163072027410863, 35.119567097531778 ], [ 128.16258694635286, 35.114715316483462 ], [ 128.158983927925391, 35.111658847029133 ], [ 128.153785592544068, 35.11035285509363 ], [ 128.146339101578491, 35.114874923804059 ], [ 128.141060914989424, 35.116305054098156 ], [ 128.138347526528662, 35.115384618883397 ], [ 128.135172761352976, 35.117311037091035 ], [ 128.131981366476424, 35.117265718421891 ], [ 128.128102381056323, 35.114603655506066 ], [ 128.125297794466007, 35.116374946460787 ], [ 128.120851386912108, 35.113760142553986 ], [ 128.118109485322407, 35.114155200189444 ], [ 128.115251553255405, 35.109659306751801 ], [ 128.109074083063632, 35.10548404757197 ], [ 128.098219006818113, 35.106550210504714 ], [ 128.091500811962874, 35.101030483774359 ], [ 128.08929211169189, 35.104328543581033 ], [ 128.092009195406121, 35.109352998058796 ], [ 128.09003780566519, 35.11722930216785 ], [ 128.075694575914326, 35.123192943744129 ], [ 128.074493566662767, 35.125853645761936 ], [ 128.070558078069723, 35.128306970072636 ], [ 128.058421915896645, 35.127494340916321 ], [ 128.054763032305829, 35.129793362048588 ], [ 128.057447355795205, 35.133238431204219 ], [ 128.065273281402256, 35.138000272416619 ], [ 128.069583950966461, 35.137073808814741 ], [ 128.072097610460418, 35.139921382816659 ], [ 128.075060468905662, 35.138271790333462 ], [ 128.081123226636123, 35.139370750865801 ], [ 128.085727895900817, 35.138411099583223 ], [ 128.094530757234878, 35.146388056034894 ], [ 128.100942493524059, 35.143085354944247 ], [ 128.106904877516172, 35.143199187331149 ], [ 128.109818751968533, 35.147007062051934 ], [ 128.117476726840465, 35.146733961686209 ], [ 128.119971683423813, 35.144104065410446 ], [ 128.121634217070095, 35.146222939968929 ], [ 128.124200438738256, 35.146143418292077 ], [ 128.126057678148442, 35.14283358747727 ], [ 128.130887666881335, 35.144259878767038 ], [ 128.133737089051351, 35.140985622343649 ], [ 128.138259565504939, 35.142201302657725 ], [ 128.14146440410758, 35.140072377845428 ], [ 128.148389727424529, 35.139120287376578 ], [ 128.150834861951608, 35.136248955184911 ], [ 128.155970329910616, 35.134974310044335 ], [ 128.159422257184133, 35.132075406360514 ] ] ] ] } },
{ "type": "Feature", "properties": { "emd_cd": "48170330", "emd_nm": "금곡면" }, "geometry": { "type": "MultiPolygon", "coordinates": [ [ [ [ 128.147946396187336, 35.077572821625331 ], [ 128.151799899761357, 35.081077654243828 ], [ 128.162711831686778, 35.079845704136318 ], [ 128.16928103175087, 35.083771687174853 ], [ 128.167740423195312, 35.085668074960573 ], [ 128.172036384931403, 35.095356099498346 ], [ 128.169844306795738, 35.097092490421105 ], [ 128.16643267461302, 35.096884027476037 ], [ 128.162634760135262, 35.101630594793498 ], [ 128.158765239625296, 35.10079498064475 ], [ 128.153785592544068, 35.11035285509363 ], [ 128.158983927925391, 35.111658847029133 ], [ 128.16258694635286, 35.114715316483462 ], [ 128.162819830289777, 35.121413597789548 ], [ 128.161057300711178, 35.122010471935987 ], [ 128.161779791890893, 35.124855525167774 ], [ 128.159066618422315, 35.127737898834965 ], [ 128.159422257184133, 35.132075406360514 ], [ 128.163289570383398, 35.13272906702597 ], [ 128.163783009336584, 35.134803986857911 ], [ 128.170219695820407, 35.135578757379776 ], [ 128.169452091882135, 35.139394733203432 ], [ 128.171481637258239, 35.139167346804413 ], [ 128.172509469746672, 35.141669133849632 ], [ 128.178560806571198, 35.145645238986518 ], [ 128.182782676095712, 35.145559709014059 ], [ 128.183760272841937, 35.144291113743364 ], [ 128.18250529594286, 35.141664728564329 ], [ 128.184463600558246, 35.137722537557657 ], [ 128.190612266123196, 35.135994453540121 ], [ 128.191813776159734, 35.132734541193862 ], [ 128.195946429208561, 35.137185328177274 ], [ 128.199033884290827, 35.136526857125254 ], [ 128.204208664969627, 35.140982186302438 ], [ 128.206883314900182, 35.141343915463366 ], [ 128.206949617232624, 35.143352400757763 ], [ 128.21152696070547, 35.143728326150679 ], [ 128.224441736942026, 35.135833558735015 ], [ 128.227167969773831, 35.136519775716813 ], [ 128.228768757967032, 35.13237920189497 ], [ 128.237151674088267, 35.130825740333513 ], [ 128.243209944747633, 35.125111693854727 ], [ 128.241881132469217, 35.120845664514235 ], [ 128.236223737580417, 35.119076646950425 ], [ 128.233976810192729, 35.116639594225965 ], [ 128.231809689738526, 35.118041020426894 ], [ 128.228905384984643, 35.117158906634543 ], [ 128.227714098527628, 35.113934359556907 ], [ 128.209465958482951, 35.114862432457741 ], [ 128.20958379874935, 35.112161881951756 ], [ 128.202993359867378, 35.109418965932832 ], [ 128.202200093604972, 35.106121503917528 ], [ 128.199068612741542, 35.105139530234474 ], [ 128.198384117453202, 35.103618343362704 ], [ 128.201046226612959, 35.100529627317613 ], [ 128.198364782488113, 35.096258186698172 ], [ 128.195514240249508, 35.095824407603764 ], [ 128.190221895803347, 35.098662755817436 ], [ 128.1877259028156, 35.088689682389663 ], [ 128.188278189915678, 35.081746636283491 ], [ 128.190470116496897, 35.077124183365513 ], [ 128.205914511871555, 35.076597581374763 ], [ 128.210727348212799, 35.075569135165075 ], [ 128.210986905470861, 35.073262689030123 ], [ 128.197264593775088, 35.066155494084533 ], [ 128.190028171762719, 35.054111123314854 ], [ 128.186660754810589, 35.051735093227549 ], [ 128.184395188494676, 35.050971735727941 ], [ 128.178111208940209, 35.053559261248608 ], [ 128.172471679939008, 35.051919845467815 ], [ 128.164929942540141, 35.063593024418402 ], [ 128.16084745107338, 35.066535145424673 ], [ 128.155974376971614, 35.065780740533157 ], [ 128.152027257547672, 35.074374030727164 ], [ 128.148786594255881, 35.075157155757736 ], [ 128.147946396187336, 35.077572821625331 ] ] ] ] } },
{ "type": "Feature", "properties": { "emd_cd": "48170350", "emd_nm": "진성면" }, "geometry": { "type": "MultiPolygon", "coordinates": [ [ [ [ 128.253073038847617, 35.174217830952394 ], [ 128.26379914253107, 35.166198781304338 ], [ 128.262614320335473, 35.16412184049279 ], [ 128.266289748743532, 35.158120136293348 ], [ 128.269019540386438, 35.156910805630069 ], [ 128.27047557595813, 35.151324037820991 ], [ 128.266956811261707, 35.14850488351702 ], [ 128.263367951462385, 35.150589667804404 ], [ 128.256018665288309, 35.149523508174092 ], [ 128.255457098339463, 35.148235295739568 ], [ 128.261014886925295, 35.141708312035767 ], [ 128.266450958681105, 35.139598170329961 ], [ 128.266027908802414, 35.136874885629176 ], [ 128.269592755334457, 35.131738069563845 ], [ 128.263547714918928, 35.127119927278443 ], [ 128.247276834664547, 35.128314436991907 ], [ 128.244615962410364, 35.135781090140128 ], [ 128.234751805220014, 35.138559083649362 ], [ 128.228935840137609, 35.142033424995567 ], [ 128.228384062955087, 35.146919626551657 ], [ 128.226079171912147, 35.149929019743283 ], [ 128.222404110493358, 35.15128976133424 ], [ 128.221133258449612, 35.157307227234526 ], [ 128.215740505894928, 35.158516819737748 ], [ 128.214551492554023, 35.160780399769465 ], [ 128.217071097326908, 35.166322981745829 ], [ 128.215686138934302, 35.17307184138523 ], [ 128.201937893401464, 35.177169086451961 ], [ 128.20069296353563, 35.190513363052716 ], [ 128.190281929634807, 35.193080629506397 ], [ 128.185338992186132, 35.196225038329153 ], [ 128.188001701097477, 35.203745497705057 ], [ 128.194209690257566, 35.205936305944185 ], [ 128.190620176351587, 35.215402800610399 ], [ 128.191268391110157, 35.217807866916885 ], [ 128.198805548631782, 35.222426884971611 ], [ 128.204304642290623, 35.221686500455903 ], [ 128.215363349038313, 35.213898159243918 ], [ 128.223947054772253, 35.21076261771065 ], [ 128.224774399755034, 35.204288664632571 ], [ 128.228045475929235, 35.200887457623232 ], [ 128.230065019492969, 35.202285353765888 ], [ 128.232530494302011, 35.196697815966246 ], [ 128.237100595639532, 35.194207703818854 ], [ 128.241097348211611, 35.194358642365209 ], [ 128.241376103865946, 35.19264842835414 ], [ 128.251682171713952, 35.192223827874095 ], [ 128.252129810097927, 35.186905783505324 ], [ 128.250227999027487, 35.183500920374094 ], [ 128.253073038847617, 35.174217830952394 ] ] ] ] } },
{ "type": "Feature", "properties": { "emd_cd": "48170360", "emd_nm": "일반성면" }, "geometry": { "type": "MultiPolygon", "coordinates": [ [ [ [ 128.310894836963456, 35.178059608300977 ], [ 128.308808305416761, 35.176548982032365 ], [ 128.308577646603652, 35.170640577415703 ], [ 128.31116794095945, 35.168495612830455 ], [ 128.306160298694039, 35.164671992884124 ], [ 128.302867550857485, 35.166372250533719 ], [ 128.299779169154164, 35.163770926335566 ], [ 128.292677260765174, 35.1637391501975 ], [ 128.290184311472956, 35.16095606638806 ], [ 128.292069726124055, 35.158035990235703 ], [ 128.296367207547661, 35.15706208346073 ], [ 128.303688531591291, 35.148213589512878 ], [ 128.303913704394262, 35.14243079811758 ], [ 128.300811135582506, 35.14036238188806 ], [ 128.303043767721164, 35.135948459592356 ], [ 128.303665251766887, 35.126856699067318 ], [ 128.299719253557669, 35.125590578246708 ], [ 128.289201612681438, 35.131379325482186 ], [ 128.269592755334457, 35.131738069563845 ], [ 128.266027908802414, 35.136874885629176 ], [ 128.266450958681105, 35.139598170329961 ], [ 128.261014886925295, 35.141708312035767 ], [ 128.255465765735494, 35.148183792985819 ], [ 128.255987791706957, 35.149514304940205 ], [ 128.263367951462385, 35.150589667804404 ], [ 128.266956811261707, 35.14850488351702 ], [ 128.27047557595813, 35.151324037820991 ], [ 128.269019540386438, 35.156910805630069 ], [ 128.266289748743532, 35.158120136293348 ], [ 128.262614320335473, 35.16412184049279 ], [ 128.26379914253107, 35.166198781304338 ], [ 128.252989514008618, 35.174252439612658 ], [ 128.256456308372464, 35.175453736833603 ], [ 128.273246095920939, 35.173899993083104 ], [ 128.283896784904925, 35.180186825215905 ], [ 128.287907210843315, 35.178495072081418 ], [ 128.292721241793487, 35.188624462349175 ], [ 128.296232802423134, 35.185125166971233 ], [ 128.301939498523069, 35.182848541686013 ], [ 128.30760765197445, 35.183729122450693 ], [ 128.311144862865859, 35.180924801389239 ], [ 128.310894836963456, 35.178059608300977 ] ] ] ] } },
{ "type": "Feature", "properties": { "emd_cd": "48170370", "emd_nm": "이반성면" }, "geometry": { "type": "MultiPolygon", "coordinates": [ [ [ [ 128.304006021798642, 35.127106194537376 ], [ 128.302740874027563, 35.137315779352186 ], [ 128.300811135582506, 35.14036238188806 ], [ 128.303913704394262, 35.14243079811758 ], [ 128.303688531591291, 35.148213589512878 ], [ 128.296367207547661, 35.15706208346073 ], [ 128.292069726124055, 35.158035990235703 ], [ 128.290184311472956, 35.16095606638806 ], [ 128.292677260765174, 35.1637391501975 ], [ 128.299779169154164, 35.163770926335566 ], [ 128.302867550857485, 35.166372250533719 ], [ 128.306160298694039, 35.164671992884124 ], [ 128.31116794095945, 35.168495612830455 ], [ 128.308635017045191, 35.170144272179655 ], [ 128.308808305416761, 35.176548982032365 ], [ 128.310894836963456, 35.178059608300977 ], [ 128.315833735369466, 35.177512425304251 ], [ 128.32130691264021, 35.186221501880013 ], [ 128.319125209469775, 35.189441090543852 ], [ 128.31707329832426, 35.201028169227293 ], [ 128.323434844511638, 35.198300826016144 ], [ 128.327859196546882, 35.198533866703059 ], [ 128.327652479003035, 35.202559704661439 ], [ 128.330147456655197, 35.207098566500655 ], [ 128.338140407508433, 35.208861959199375 ], [ 128.34110455859593, 35.207617960485656 ], [ 128.349627925405116, 35.21009371590776 ], [ 128.353817656815608, 35.209068782182797 ], [ 128.365678247418515, 35.19629355686957 ], [ 128.368205981260985, 35.191261896513971 ], [ 128.367432536508375, 35.184254202862675 ], [ 128.364376553421579, 35.178883115751454 ], [ 128.36526731385112, 35.171996965802009 ], [ 128.361255196367466, 35.163324946127794 ], [ 128.362401498458041, 35.159953810550704 ], [ 128.360424161064628, 35.157193776871587 ], [ 128.362167422474101, 35.152187057889165 ], [ 128.358543989746408, 35.146898291690604 ], [ 128.363422379320014, 35.141084097146191 ], [ 128.358111268848177, 35.139651319348452 ], [ 128.356958816293201, 35.136925244315854 ], [ 128.348136447678115, 35.130853332889721 ], [ 128.348257754478141, 35.12710690179685 ], [ 128.338359138877422, 35.127977153660289 ], [ 128.333863176349411, 35.124643658738698 ], [ 128.328076652326956, 35.124058409386734 ], [ 128.322637967092675, 35.129861138947923 ], [ 128.320543875937005, 35.128714121921867 ], [ 128.316113333428717, 35.129580601365106 ], [ 128.308704337303737, 35.125114313031816 ], [ 128.306317889306484, 35.124985081193287 ], [ 128.304006021798642, 35.127106194537376 ] ] ] ] } },
{ "type": "Feature", "properties": { "emd_cd": "48170380", "emd_nm": "사봉면" }, "geometry": { "type": "MultiPolygon", "coordinates": [ [ [ [ 128.2216124253776, 35.211757117120172 ], [ 128.231768147223079, 35.221215420720846 ], [ 128.236389781231395, 35.228453942533996 ], [ 128.243202281422413, 35.21816608854872 ], [ 128.24697497988052, 35.216827123297854 ], [ 128.251914857714269, 35.212238726804706 ], [ 128.253940233558893, 35.209608078028431 ], [ 128.253122789913419, 35.208173731175663 ], [ 128.257911606452069, 35.202106353632367 ], [ 128.264895129010057, 35.206385303946419 ], [ 128.263975899552406, 35.211188164277566 ], [ 128.266261960557273, 35.214499786682367 ], [ 128.272990777671907, 35.212354020993565 ], [ 128.276056209086988, 35.216975486473046 ], [ 128.280273327999822, 35.218804017308187 ], [ 128.287187598579379, 35.217121037086528 ], [ 128.291265688317594, 35.210409455000359 ], [ 128.294618014562076, 35.210006746293352 ], [ 128.29644695715848, 35.206269674362119 ], [ 128.298791795524608, 35.206074583776847 ], [ 128.301446542480903, 35.208609280076182 ], [ 128.29780683857021, 35.21524438155911 ], [ 128.305816805743035, 35.223934313964271 ], [ 128.307430313534667, 35.221512363450927 ], [ 128.316234201410822, 35.22272142466975 ], [ 128.320132038072813, 35.220619957617693 ], [ 128.322297200548746, 35.213805974720088 ], [ 128.329780236951052, 35.206727923490156 ], [ 128.327652479003035, 35.202559704661439 ], [ 128.327859196546882, 35.198533866703059 ], [ 128.323434844511638, 35.198300826016144 ], [ 128.31707329832426, 35.201028169227293 ], [ 128.319125209469775, 35.189441090543852 ], [ 128.32130691264021, 35.186221501880013 ], [ 128.319067062139027, 35.183934137257602 ], [ 128.319855223231428, 35.18219237471569 ], [ 128.315020698145332, 35.177113101199936 ], [ 128.310894836963456, 35.178059608300977 ], [ 128.311144862865859, 35.180924801389239 ], [ 128.30760765197445, 35.183729122450693 ], [ 128.301939498523069, 35.182848541686013 ], [ 128.296232802423134, 35.185125166971233 ], [ 128.292721241793487, 35.188624462349175 ], [ 128.287907210843315, 35.178495072081418 ], [ 128.283896784904925, 35.180186825215905 ], [ 128.273246095920939, 35.173899993083104 ], [ 128.256456308372464, 35.175453736833603 ], [ 128.25306923300829, 35.174217473949419 ], [ 128.250227999027487, 35.183500920374094 ], [ 128.252129810097927, 35.186905783505324 ], [ 128.251682171713952, 35.192223827874095 ], [ 128.241376103865946, 35.19264842835414 ], [ 128.241097348211611, 35.194358642365209 ], [ 128.237100595639532, 35.194207703818854 ], [ 128.232530494302011, 35.196697815966246 ], [ 128.230065019492969, 35.202285353765888 ], [ 128.228045475929235, 35.200887457623232 ], [ 128.224774399755034, 35.204288664632571 ], [ 128.224266412805264, 35.210350358573692 ], [ 128.2216124253776, 35.211757117120172 ] ] ] ] } },
{ "type": "Feature", "properties": { "emd_cd": "48170390", "emd_nm": "지수면" }, "geometry": { "type": "MultiPolygon", "coordinates": [ [ [ [ 128.307991776696639, 35.229780926473836 ], [ 128.301042287425304, 35.217465732918718 ], [ 128.297806838569841, 35.21524438155916 ], [ 128.301446542480392, 35.208609280076125 ], [ 128.298791795524181, 35.206074583776918 ], [ 128.296446957158025, 35.20626967436219 ], [ 128.294618014561649, 35.210006746293352 ], [ 128.291265688317139, 35.210409455000409 ], [ 128.287187598578953, 35.217121037086528 ], [ 128.280273327999424, 35.218804017308187 ], [ 128.276056209086562, 35.216975486473103 ], [ 128.272990777671566, 35.21235402099358 ], [ 128.266261960556875, 35.214499786682381 ], [ 128.263975899552037, 35.211188164277551 ], [ 128.264895129009602, 35.206385303946426 ], [ 128.257911606451756, 35.202106353632367 ], [ 128.253122789913135, 35.208173731175698 ], [ 128.253940233558495, 35.209608078028467 ], [ 128.251914857713928, 35.212238726804706 ], [ 128.24697497988015, 35.216827123297897 ], [ 128.243202281422072, 35.218166088548685 ], [ 128.240318231137536, 35.223363951248963 ], [ 128.237436241197855, 35.22528814734958 ], [ 128.238297905887094, 35.226997082150447 ], [ 128.236389781231082, 35.228453942534095 ], [ 128.238022794651386, 35.236448063718115 ], [ 128.234168699722119, 35.242593903247112 ], [ 128.220578008706894, 35.24277632377126 ], [ 128.21505544584349, 35.246343523873051 ], [ 128.211416895699529, 35.253530327269111 ], [ 128.212487217680945, 35.260747801846627 ], [ 128.215422629748957, 35.264015662279164 ], [ 128.21864853210414, 35.264902896595359 ], [ 128.232237643701609, 35.2557181280592 ], [ 128.239901922306075, 35.25350353817241 ], [ 128.2698963635506, 35.25623114646779 ], [ 128.274345288654501, 35.258071451619386 ], [ 128.286354874890975, 35.251559300319741 ], [ 128.293562364199175, 35.253445102447614 ], [ 128.298637423665838, 35.249885299015943 ], [ 128.29376503760335, 35.240798678373778 ], [ 128.297216263474894, 35.239577248579735 ], [ 128.297547622020176, 35.237493620357689 ], [ 128.301712407284413, 35.238366712865599 ], [ 128.303541794451263, 35.237185854892161 ], [ 128.307991776696639, 35.229780926473836 ] ] ] ] } },
{ "type": "Feature", "properties": { "emd_cd": "48170400", "emd_nm": "대곡면" }, "geometry": { "type": "MultiPolygon", "coordinates": [ [ [ [ 128.143716435693619, 35.238648516567629 ], [ 128.134990979362669, 35.242496135487208 ], [ 128.134576580108046, 35.244589194815063 ], [ 128.130037876671508, 35.246819142814516 ], [ 128.129591149859266, 35.249363260830179 ], [ 128.125430851527682, 35.251811673656739 ], [ 128.12792851052285, 35.255222232641749 ], [ 128.125831049664185, 35.257971087895378 ], [ 128.122495538592432, 35.259142135014621 ], [ 128.131659751126961, 35.265796636868068 ], [ 128.132082008321532, 35.270847089266972 ], [ 128.136365516603377, 35.274396048047258 ], [ 128.134625808283374, 35.2759039678349 ], [ 128.13446926138252, 35.283498822740135 ], [ 128.142309356128379, 35.282782178735594 ], [ 128.14449394083104, 35.28629395150179 ], [ 128.147299928163136, 35.283720236162644 ], [ 128.151716090080214, 35.284615650354453 ], [ 128.155985547022595, 35.289968046339872 ], [ 128.154643241034478, 35.297790292823443 ], [ 128.158978947134898, 35.301637851341297 ], [ 128.157893912547337, 35.305087073575272 ], [ 128.151539113558016, 35.307012913282328 ], [ 128.150840026617544, 35.313448185335822 ], [ 128.148414408980869, 35.314984351463885 ], [ 128.146612782337797, 35.319609868878523 ], [ 128.146276121184684, 35.327938398779146 ], [ 128.151852234208064, 35.329800500929892 ], [ 128.154158221814782, 35.336143654496979 ], [ 128.164449296700667, 35.336185058150505 ], [ 128.178427217775862, 35.322638847165962 ], [ 128.179040837330973, 35.319600343035965 ], [ 128.177568183232438, 35.316653900996194 ], [ 128.172630885425974, 35.313995656858538 ], [ 128.174213021421025, 35.3036893694809 ], [ 128.177554301147609, 35.298945837963537 ], [ 128.174426578456206, 35.29274822321041 ], [ 128.176714407855627, 35.288523876106844 ], [ 128.181027131587427, 35.285245802206781 ], [ 128.179366014437875, 35.282198839303156 ], [ 128.180159742960228, 35.279066479140461 ], [ 128.184813734820551, 35.275363609934772 ], [ 128.187921429408505, 35.274884122954369 ], [ 128.191317709398874, 35.267251780152222 ], [ 128.195728522735294, 35.265632053246307 ], [ 128.195735810671579, 35.260204101043065 ], [ 128.193865180684355, 35.256452844350719 ], [ 128.201489434108623, 35.25365755927514 ], [ 128.20595193665369, 35.262946682520401 ], [ 128.20970062109123, 35.264994872714226 ], [ 128.215143874615649, 35.264521856894163 ], [ 128.211324186171197, 35.257134968732124 ], [ 128.212312229539151, 35.249930919764012 ], [ 128.217556660844707, 35.243707138731082 ], [ 128.234168699722119, 35.242593903247112 ], [ 128.237745194877249, 35.237749435642989 ], [ 128.238077708111632, 35.232069867509423 ], [ 128.231768147222766, 35.221215420720895 ], [ 128.220876227587127, 35.21164238535389 ], [ 128.204304642290282, 35.221686500456009 ], [ 128.198805548631469, 35.222426884971618 ], [ 128.187854329843077, 35.219172132953254 ], [ 128.182361866278853, 35.219255387850211 ], [ 128.17616736460721, 35.222434247624122 ], [ 128.174899457332259, 35.223810565364658 ], [ 128.173978165426064, 35.235781508852732 ], [ 128.171386769455808, 35.241775411939649 ], [ 128.167306249384438, 35.245963218422247 ], [ 128.153441521133288, 35.239594412970078 ], [ 128.143716435693619, 35.238648516567629 ] ] ] ] } },
{ "type": "Feature", "properties": { "emd_cd": "48170410", "emd_nm": "금산면" }, "geometry": { "type": "MultiPolygon", "coordinates": [ [ [ [ 128.126673668627092, 35.216895105357487 ], [ 128.128390147452762, 35.224117978427856 ], [ 128.130484263043996, 35.225833924562615 ], [ 128.127929267699642, 35.226760015569639 ], [ 128.128246787018441, 35.228993200054752 ], [ 128.13171213845186, 35.233347261217112 ], [ 128.143955718338447, 35.238882317078023 ], [ 128.153441521133288, 35.239594412970078 ], [ 128.167306249384438, 35.245963218422247 ], [ 128.171386769455808, 35.241775411939649 ], [ 128.173978165426064, 35.235781508852732 ], [ 128.174899457332259, 35.223810565364658 ], [ 128.17616736460721, 35.222434247624122 ], [ 128.182361866278853, 35.219255387850211 ], [ 128.187854329843077, 35.219172132953254 ], [ 128.196923517844056, 35.221809790199728 ], [ 128.191268391109958, 35.217807866916985 ], [ 128.190620176351388, 35.215402800610406 ], [ 128.19420969025731, 35.205936305944178 ], [ 128.188001701097221, 35.203745497705114 ], [ 128.185319150117294, 35.196718060974405 ], [ 128.191159961188617, 35.192856923223637 ], [ 128.189280846688348, 35.189089186738066 ], [ 128.18201793593596, 35.186656040873466 ], [ 128.181168490078278, 35.183761705327925 ], [ 128.176003744839704, 35.182283478622928 ], [ 128.174428984646056, 35.176903582056454 ], [ 128.16728728665575, 35.175843916781638 ], [ 128.153871884613807, 35.180409436754907 ], [ 128.151363098136102, 35.184702146575297 ], [ 128.139223272400358, 35.18370238076993 ], [ 128.131042306913002, 35.187579290169062 ], [ 128.132759082721918, 35.191701721625058 ], [ 128.130313509831183, 35.194874745634422 ], [ 128.128226919562536, 35.202485326763274 ], [ 128.126673668627092, 35.216895105357487 ] ] ] ] } },
{ "type": "Feature", "properties": { "emd_cd": "48170420", "emd_nm": "집현면" }, "geometry": { "type": "MultiPolygon", "coordinates": [ [ [ [ 128.119012011444397, 35.213838898436279 ], [ 128.108890781402181, 35.219729050743531 ], [ 128.104070698719539, 35.219078924609121 ], [ 128.10201367247646, 35.220448889705828 ], [ 128.100748216331766, 35.226223371308947 ], [ 128.096499657013595, 35.2262867287576 ], [ 128.094695490250587, 35.229083033466615 ], [ 128.089957131410159, 35.228976721945585 ], [ 128.085582788517769, 35.230900718636263 ], [ 128.084839571294907, 35.224815930446006 ], [ 128.082909976850118, 35.224233581177657 ], [ 128.077660713306813, 35.226950316931003 ], [ 128.072612864122419, 35.224796715523361 ], [ 128.069643737687159, 35.220688164618124 ], [ 128.072550893613624, 35.213148726560256 ], [ 128.068481428865795, 35.207348045490939 ], [ 128.06299156183394, 35.211617678292605 ], [ 128.054189593560949, 35.209395194981347 ], [ 128.049317441725719, 35.213103029132164 ], [ 128.05245717755426, 35.215829800250638 ], [ 128.050167224892107, 35.223401537893203 ], [ 128.050728319067048, 35.227411985510557 ], [ 128.053261784761645, 35.228998464840899 ], [ 128.053333519218853, 35.23150380974915 ], [ 128.057993387212122, 35.232929820512325 ], [ 128.058068473598325, 35.235382200767688 ], [ 128.060353617264241, 35.236095470296405 ], [ 128.059936983601204, 35.24388267710038 ], [ 128.063755499889453, 35.248673679812967 ], [ 128.060364572207561, 35.250620693041164 ], [ 128.063837820731891, 35.254074333030815 ], [ 128.06074869894158, 35.259177472943783 ], [ 128.06311197764137, 35.262956500901417 ], [ 128.057564267499799, 35.270446416075295 ], [ 128.058285392392861, 35.272455406676841 ], [ 128.056401149590471, 35.275546444669601 ], [ 128.061644211866053, 35.281045708932538 ], [ 128.060761177528349, 35.285249337905043 ], [ 128.05314938077791, 35.298559415925006 ], [ 128.049744120192372, 35.301283078799628 ], [ 128.048773939170445, 35.304913702237997 ], [ 128.045328570531268, 35.306115017241019 ], [ 128.052328530260212, 35.312691555129682 ], [ 128.057078947734112, 35.30860482565172 ], [ 128.057220240240099, 35.306360910533733 ], [ 128.063417626759048, 35.303614771403595 ], [ 128.074810447618205, 35.303612686155908 ], [ 128.077998111244284, 35.305597003449854 ], [ 128.082250977382699, 35.304035544839323 ], [ 128.08736289346831, 35.297854775878392 ], [ 128.085904473092171, 35.295456014307931 ], [ 128.087938761141174, 35.291239646932731 ], [ 128.086495094138201, 35.286731236929427 ], [ 128.092702117998101, 35.27314756814971 ], [ 128.101318059392014, 35.271258020558598 ], [ 128.101291302726736, 35.268973528465537 ], [ 128.10678748727625, 35.262979608809104 ], [ 128.110656308025995, 35.264627198154969 ], [ 128.118831148978728, 35.258635797808402 ], [ 128.12044761744346, 35.260204291622529 ], [ 128.12583104966447, 35.257971087895328 ], [ 128.127928510523049, 35.255222232641714 ], [ 128.125430851527852, 35.251811673656739 ], [ 128.129591149859493, 35.249363260830172 ], [ 128.130037876671707, 35.246819142814516 ], [ 128.134576580108273, 35.244589194815013 ], [ 128.134990979362897, 35.242496135487158 ], [ 128.143716435693847, 35.238648516567629 ], [ 128.132459978946144, 35.233868874905113 ], [ 128.128593193852225, 35.230058936607975 ], [ 128.127929267699898, 35.226760015569589 ], [ 128.130484263044082, 35.225833924562515 ], [ 128.128390147452961, 35.224117978427856 ], [ 128.126816023836369, 35.215680220394269 ], [ 128.119012011444397, 35.213838898436279 ] ] ] ] } },
{ "type": "Feature", "properties": { "emd_cd": "48170430", "emd_nm": "미천면" }, "geometry": { "type": "MultiPolygon", "coordinates": [ [ [ [ 128.052328530260098, 35.312691555129675 ], [ 128.050914208652586, 35.320978638965308 ], [ 128.058615079753622, 35.333571471163062 ], [ 128.072303598916875, 35.332952731477825 ], [ 128.074774412448164, 35.334504383046166 ], [ 128.074306205859813, 35.335875881024329 ], [ 128.080492903776445, 35.337043760423541 ], [ 128.102134543594644, 35.335378583094126 ], [ 128.108889170150775, 35.329983888906845 ], [ 128.11231567229305, 35.331678718445545 ], [ 128.115639567104608, 35.330038005544836 ], [ 128.129896873166757, 35.336435214608002 ], [ 128.132634604704549, 35.338387537416068 ], [ 128.133467197376234, 35.34119043860975 ], [ 128.138289474095018, 35.342422443465047 ], [ 128.145845907948996, 35.348611790015923 ], [ 128.154908249612873, 35.351128106595823 ], [ 128.158017158735305, 35.345824265450879 ], [ 128.163986220950989, 35.341621495958549 ], [ 128.164351648569976, 35.33616678875206 ], [ 128.154158221814782, 35.336143654496979 ], [ 128.151852234208064, 35.329800500929892 ], [ 128.146276121184684, 35.327938398779146 ], [ 128.146612782337797, 35.319609868878523 ], [ 128.148414408980869, 35.314984351463885 ], [ 128.150840026617544, 35.313448185335822 ], [ 128.151539113558016, 35.307012913282328 ], [ 128.157893912547337, 35.305087073575272 ], [ 128.158978947134898, 35.301637851341297 ], [ 128.154643241034478, 35.297790292823443 ], [ 128.155985547022595, 35.289968046339872 ], [ 128.151716090080214, 35.284615650354453 ], [ 128.147299928163136, 35.283720236162644 ], [ 128.14449394083104, 35.28629395150179 ], [ 128.142309356128379, 35.282782178735594 ], [ 128.13446926138252, 35.283498822740135 ], [ 128.134625808283374, 35.2759039678349 ], [ 128.136365516603377, 35.274396048047258 ], [ 128.132082008321532, 35.270847089266972 ], [ 128.131659751126961, 35.265796636868068 ], [ 128.122036076125568, 35.258912956979707 ], [ 128.120447617443176, 35.260204291622522 ], [ 128.118831148978444, 35.258635797808402 ], [ 128.110656308025767, 35.264627198154955 ], [ 128.106787487276023, 35.262979608809189 ], [ 128.101291302726509, 35.268973528465587 ], [ 128.1013180593919, 35.271258020558605 ], [ 128.092702117997902, 35.273147568149817 ], [ 128.086495094138087, 35.286731236929469 ], [ 128.087938761141004, 35.29123964693278 ], [ 128.085904473092029, 35.295456014307959 ], [ 128.087362893468224, 35.297854775878392 ], [ 128.082250977382444, 35.304035544839323 ], [ 128.077998111244113, 35.30559700344994 ], [ 128.074810447618063, 35.303612686155915 ], [ 128.063417626758905, 35.303614771403694 ], [ 128.057220240239957, 35.306360910533755 ], [ 128.057078947734027, 35.30860482565177 ], [ 128.052328530260098, 35.312691555129675 ] ] ] ] } },
{ "type": "Feature", "properties": { "emd_cd": "48170440", "emd_nm": "명석면" }, "geometry": { "type": "MultiPolygon", "coordinates": [ [ [ [ 128.047493470752585, 35.213936483763987 ], [ 128.048646158153019, 35.207000608281056 ], [ 128.042486050538656, 35.211585098666646 ], [ 128.034741454012789, 35.209533693935846 ], [ 128.031962406380927, 35.20527857161715 ], [ 128.028021989920546, 35.207208294423964 ], [ 128.022337411243626, 35.207459331874269 ], [ 128.019603379878077, 35.200224322733767 ], [ 128.0151348562664, 35.200060546265838 ], [ 128.006694937738104, 35.203590463347886 ], [ 128.003765743125768, 35.206850347241939 ], [ 128.000387188267212, 35.206749609690732 ], [ 127.997408862355627, 35.211854575579324 ], [ 127.992878647531811, 35.212136974605528 ], [ 127.988874960884303, 35.214483897233087 ], [ 127.988231831235225, 35.217116726390856 ], [ 127.99094062400269, 35.220921611477465 ], [ 127.98916705250673, 35.22474265486305 ], [ 127.991160614959369, 35.228049576536229 ], [ 127.990052192173934, 35.231260906869586 ], [ 127.987054234673266, 35.23651088072436 ], [ 127.982004908634536, 35.238589322374366 ], [ 127.971394676008828, 35.250129036247351 ], [ 127.973108567094783, 35.269009750303006 ], [ 127.983348234766083, 35.27087369307349 ], [ 127.986104174284108, 35.275651140706479 ], [ 127.984325828738847, 35.281827338687734 ], [ 127.98624787701462, 35.286912069830734 ], [ 127.995984075369151, 35.285513347368763 ], [ 127.999533468085886, 35.290240651378852 ], [ 128.004318906782231, 35.293091712820235 ], [ 128.005943433431128, 35.297411218100443 ], [ 128.011889145540124, 35.298596887160485 ], [ 128.015186092069399, 35.303116886491829 ], [ 128.018840233080908, 35.302764691556938 ], [ 128.021376405598602, 35.304958170336072 ], [ 128.034621392419865, 35.307811588944084 ], [ 128.041415922337052, 35.303845728340384 ], [ 128.045323752409047, 35.306117088169515 ], [ 128.048773939170303, 35.304913702238039 ], [ 128.049744120192202, 35.301283078799734 ], [ 128.053149380777853, 35.298559415925006 ], [ 128.060761177528292, 35.285249337905086 ], [ 128.061644211865854, 35.281045708932574 ], [ 128.056401149590272, 35.275546444669693 ], [ 128.058285392392747, 35.27245540667694 ], [ 128.0575642674996, 35.270446416075366 ], [ 128.063111977641199, 35.262956500901446 ], [ 128.060748698941438, 35.259177472943783 ], [ 128.063837820731749, 35.254074333030857 ], [ 128.060364572207448, 35.250620693041249 ], [ 128.063755499889197, 35.24867367981296 ], [ 128.059936983601091, 35.24388267710038 ], [ 128.060353617264099, 35.236095470296448 ], [ 128.058068473598183, 35.235382200767731 ], [ 128.057993387211923, 35.232929820512346 ], [ 128.053333519218768, 35.23150380974915 ], [ 128.053261784761531, 35.228998464841013 ], [ 128.050728319066934, 35.227411985510592 ], [ 128.050167224891993, 35.223401537893253 ], [ 128.052457177554089, 35.215829800250688 ], [ 128.051497849591442, 35.214015296214441 ], [ 128.047493470752585, 35.213936483763987 ] ] ] ] } },
{ "type": "Feature", "properties": { "emd_cd": "48170450", "emd_nm": "대평면" }, "geometry": { "type": "MultiPolygon", "coordinates": [ [ [ [ 127.968743802217304, 35.158782889394125 ], [ 127.967191657946756, 35.163801777355275 ], [ 127.964577866545497, 35.165793506304674 ], [ 127.965385855887718, 35.166847319621702 ], [ 127.961930844656962, 35.169564379706557 ], [ 127.962014310118462, 35.172438061593539 ], [ 127.958752057740355, 35.175048342935916 ], [ 127.962386288407231, 35.177925784984566 ], [ 127.958892696398252, 35.181837668839997 ], [ 127.960369937059667, 35.186531929590544 ], [ 127.957649059352079, 35.192381766557823 ], [ 127.959093765287392, 35.194205605188834 ], [ 127.952411350553504, 35.200309491626278 ], [ 127.953465002863808, 35.203897036221861 ], [ 127.951605077631527, 35.209815800079753 ], [ 127.947149961423719, 35.21388029868428 ], [ 127.946707289594656, 35.215644414152173 ], [ 127.950869331434319, 35.220842425851671 ], [ 127.946086791280123, 35.229876310893076 ], [ 127.947466746579849, 35.24167582710664 ], [ 127.966780784213185, 35.246518766612454 ], [ 127.969726675452407, 35.251325785173371 ], [ 127.973812504505858, 35.24878860400672 ], [ 127.982004908634536, 35.238589322374366 ], [ 127.987054234673266, 35.23651088072436 ], [ 127.990052192173934, 35.231260906869586 ], [ 127.991160614959369, 35.228049576536229 ], [ 127.98916705250673, 35.22474265486305 ], [ 127.99094062400269, 35.220921611477465 ], [ 127.988231831235225, 35.217116726390856 ], [ 127.988874960884303, 35.214483897233087 ], [ 127.992878647531811, 35.212136974605528 ], [ 127.997408862355627, 35.211854575579324 ], [ 128.000387188267212, 35.206749609690732 ], [ 128.003765743125768, 35.206850347241939 ], [ 128.012455426852171, 35.200724476067336 ], [ 128.019865422480422, 35.20020215700044 ], [ 128.020394829580113, 35.194219388103818 ], [ 128.025476958455528, 35.191440627473952 ], [ 128.025271882326678, 35.187675445133095 ], [ 128.027474699567421, 35.186600904659876 ], [ 128.026835619983387, 35.183304172999961 ], [ 128.029080558227747, 35.179105277898543 ], [ 128.027476791365416, 35.178317637353821 ], [ 128.023519741330318, 35.184722267123348 ], [ 128.02016074062189, 35.185947995670894 ], [ 127.999099130519539, 35.180646610137011 ], [ 128.000418580490873, 35.179267069689672 ], [ 127.998758371859054, 35.177336865169259 ], [ 128.000933317192278, 35.174500522695517 ], [ 128.000891437762533, 35.170569165597549 ], [ 128.007746416637872, 35.159938449994968 ], [ 127.997763988098782, 35.155496571119201 ], [ 127.988188453737536, 35.157222268902146 ], [ 127.981407353588892, 35.156547215088615 ], [ 127.980235157710311, 35.159370281819577 ], [ 127.972073715249863, 35.156280261982495 ], [ 127.968743802217304, 35.158782889394125 ] ] ] ] } },
{ "type": "Feature", "properties": { "emd_cd": "48170460", "emd_nm": "수곡면" }, "geometry": { "type": "MultiPolygon", "coordinates": [ [ [ [ 127.887817471436506, 35.218475019462566 ], [ 127.889855553493959, 35.227531469862491 ], [ 127.893217519509193, 35.22576174843126 ], [ 127.899269078359595, 35.227419751684437 ], [ 127.905552068987276, 35.222593412807626 ], [ 127.909405416206567, 35.224028749413542 ], [ 127.910965817760228, 35.227505273744853 ], [ 127.911306822282754, 35.240247041571436 ], [ 127.913556192943105, 35.243232634912559 ], [ 127.912690111610004, 35.244400170424946 ], [ 127.915264612824402, 35.245485921658826 ], [ 127.91662192089872, 35.248301748327478 ], [ 127.917985173565597, 35.247717146639616 ], [ 127.920041341028451, 35.25195276860574 ], [ 127.92291168458793, 35.252375203457305 ], [ 127.924699415838916, 35.249279482490728 ], [ 127.931843730627293, 35.25065610527593 ], [ 127.938117125725157, 35.24960405796682 ], [ 127.942411924804134, 35.245455804435672 ], [ 127.94507159574286, 35.24503951686151 ], [ 127.947466746579906, 35.241675827106597 ], [ 127.94608679128018, 35.229876310893076 ], [ 127.950869331434362, 35.220842425851565 ], [ 127.946953077495579, 35.214480207484165 ], [ 127.951605077631555, 35.209815800079717 ], [ 127.953465002863808, 35.203897036221797 ], [ 127.952411350553533, 35.2003094916262 ], [ 127.959093765287435, 35.194205605188763 ], [ 127.957649059352093, 35.192381766557759 ], [ 127.96036993705971, 35.18653192959048 ], [ 127.958892696398252, 35.181837668839954 ], [ 127.96238628840733, 35.177925784984573 ], [ 127.958752057740483, 35.175048342935803 ], [ 127.962014310118519, 35.172438061593397 ], [ 127.961930844656962, 35.169564379706443 ], [ 127.967191657946813, 35.163801777355182 ], [ 127.968756671670931, 35.158643404941003 ], [ 127.966791079976915, 35.157156173393247 ], [ 127.966802548764917, 35.154618159197355 ], [ 127.962987968249834, 35.150526837525497 ], [ 127.961860829918393, 35.150697586446228 ], [ 127.963796734005612, 35.155038095142835 ], [ 127.960846026151046, 35.157555612457955 ], [ 127.956131445903992, 35.156779445848123 ], [ 127.951016456761522, 35.151973914446174 ], [ 127.938614468024184, 35.152587433625193 ], [ 127.937192683794748, 35.162171650813484 ], [ 127.939253656775591, 35.165940324548352 ], [ 127.925077685845537, 35.17831880117491 ], [ 127.917495208873788, 35.179943448148606 ], [ 127.908252530774092, 35.184286841324372 ], [ 127.897141571867124, 35.194095648571505 ], [ 127.893706125994655, 35.199446103840721 ], [ 127.894534749638879, 35.207893832524107 ], [ 127.889578926152581, 35.212879676286661 ], [ 127.887817471436506, 35.218475019462566 ] ] ] ] } }
]
}
