{
"type": "FeatureCollection",
"name": "48240",
"crs": { "type": "name", "properties": { "name": "urn:ogc:def:crs:OGC:1.3:CRS84" } },
"features": [
{ "type": "Feature", "properties": { "emd_cd": "48240101", "emd_nm": "동동" }, "geometry": { "type": "MultiPolygon", "coordinates": [ [ [ [ 128.061864161031735, 34.943974025125904 ], [ 128.066546118463236, 34.946299680625856 ], [ 128.070751952877998, 34.942452474945405 ], [ 128.069574699637712, 34.93672385749494 ], [ 128.072030356899177, 34.927372716240136 ], [ 128.069550044007343, 34.927725669543598 ], [ 128.067558103616619, 34.934755226940204 ], [ 128.062736719675286, 34.939388622499671 ], [ 128.061864161031735, 34.943974025125904 ] ] ] ] } },
{ "type": "Feature", "properties": { "emd_cd": "48240102", "emd_nm": "서동" }, "geometry": { "type": "MultiPolygon", "coordinates": [ [ [ [ 128.06394858406847, 34.924858865189535 ], [ 128.064040169611161, 34.926229413371004 ], [ 128.064381400575087, 34.924440922578057 ], [ 128.06394858406847, 34.924858865189535 ] ] ], [ [ [ 128.062427549641399, 34.93530887694795 ], [ 128.063279864786352, 34.938912049047723 ], [ 128.066637409912005, 34.936399512972443 ], [ 128.070322349231077, 34.926337582897496 ], [ 128.065075609112199, 34.926263121410663 ], [ 128.063186707195683, 34.927159948494719 ], [ 128.064204266491402, 34.931287392037632 ], [ 128.062427549641399, 34.93530887694795 ] ] ] ] } },
{ "type": "Feature", "properties": { "emd_cd": "48240103", "emd_nm": "선구동" }, "geometry": { "type": "MultiPolygon", "coordinates": [ [ [ [ 128.077055220197423, 34.938486748965488 ], [ 128.074998781722456, 34.932853860322773 ], [ 128.077242208068753, 34.928754280389263 ], [ 128.073101310678254, 34.926093353708872 ], [ 128.07078922202237, 34.930103630302845 ], [ 128.06965653020049, 34.938861433913168 ], [ 128.073861141544711, 34.93744297186668 ], [ 128.077055220197423, 34.938486748965488 ] ] ] ] } },
{ "type": "Feature", "properties": { "emd_cd": "48240104", "emd_nm": "동금동" }, "geometry": { "type": "MultiPolygon", "coordinates": [ [ [ [ 128.081562968906866, 34.935594286660859 ], [ 128.08697481516478, 34.934196993718871 ], [ 128.086397032788966, 34.929601387975374 ], [ 128.084735101959438, 34.929495084435992 ], [ 128.084217711905353, 34.926954386116158 ], [ 128.07895977254492, 34.92814514019075 ], [ 128.080641190306579, 34.925683086204202 ], [ 128.077319894217879, 34.927042921421247 ], [ 128.077294067991971, 34.924159381178264 ], [ 128.076840681375046, 34.925661924487109 ], [ 128.077360713824078, 34.927756622470731 ], [ 128.075038755955205, 34.92754446661602 ], [ 128.077329381809534, 34.929123009143055 ], [ 128.075363229436732, 34.93421084169421 ], [ 128.081562968906866, 34.935594286660859 ] ] ] ] } },
{ "type": "Feature", "properties": { "emd_cd": "48240105", "emd_nm": "서금동" }, "geometry": { "type": "MultiPolygon", "coordinates": [ [ [ [ 128.07763297090122, 34.922498436514616 ], [ 128.075540489725398, 34.921957042036084 ], [ 128.075509519328165, 34.922059397654962 ], [ 128.07763297090122, 34.922498436514616 ] ] ], [ [ [ 128.078241841898034, 34.922577713609016 ], [ 128.079004865865699, 34.92362990300925 ], [ 128.079642873974279, 34.923230056572869 ], [ 128.078241841898034, 34.922577713609016 ] ] ], [ [ [ 128.074831457032531, 34.92344559700561 ], [ 128.074978580400881, 34.923437029298753 ], [ 128.075447131866326, 34.923057896847226 ], [ 128.074831457032531, 34.92344559700561 ] ] ], [ [ [ 128.076968832876418, 34.927407622748262 ], [ 128.074935552675782, 34.923822379557322 ], [ 128.073886372047269, 34.922775227931915 ], [ 128.067078635529299, 34.923230766049883 ], [ 128.071897709186828, 34.924052385985476 ], [ 128.075038755955205, 34.92754446661602 ], [ 128.076968832876418, 34.927407622748262 ] ] ] ] } },
{ "type": "Feature", "properties": { "emd_cd": "48240106", "emd_nm": "동림동" }, "geometry": { "type": "MultiPolygon", "coordinates": [ [ [ [ 128.065757626875325, 34.950347020628854 ], [ 128.073003308225992, 34.956672379345768 ], [ 128.076192367920243, 34.951797832361486 ], [ 128.078627593549555, 34.943333663114245 ], [ 128.07607637074716, 34.937484660633885 ], [ 128.076238828029119, 34.938771768871405 ], [ 128.073861141544711, 34.93744297186668 ], [ 128.07097588370786, 34.939176381072279 ], [ 128.070751952877998, 34.942452474945405 ], [ 128.066546118463236, 34.946299680625856 ], [ 128.06813592343309, 34.948773965537789 ], [ 128.065757626875325, 34.950347020628854 ] ] ] ] } },
{ "type": "Feature", "properties": { "emd_cd": "48240107", "emd_nm": "좌룡동" }, "geometry": { "type": "MultiPolygon", "coordinates": [ [ [ [ 128.084088212008083, 34.964316533011797 ], [ 128.08760580572374, 34.962487299971919 ], [ 128.088893695817404, 34.955597752946346 ], [ 128.081996271108608, 34.951501013226526 ], [ 128.077587503337952, 34.946703643542044 ], [ 128.072844450394825, 34.958247931298402 ], [ 128.078853007725968, 34.955754415054557 ], [ 128.08012943435827, 34.957062292498868 ], [ 128.078625239971927, 34.957009267619128 ], [ 128.080034117157282, 34.959123656763488 ], [ 128.07965212627073, 34.963183450049037 ], [ 128.084088212008083, 34.964316533011797 ] ] ] ] } },
{ "type": "Feature", "properties": { "emd_cd": "48240108", "emd_nm": "벌리동" }, "geometry": { "type": "MultiPolygon", "coordinates": [ [ [ [ 128.077704169491, 34.94558836670646 ], [ 128.080502251160226, 34.945477230275259 ], [ 128.081509251080405, 34.94334383701117 ], [ 128.091368664104692, 34.942293475920316 ], [ 128.091900408368673, 34.939524135917374 ], [ 128.089488542539954, 34.937678463589798 ], [ 128.086606953097402, 34.937923193079293 ], [ 128.085564323918021, 34.934492918040682 ], [ 128.076593691923563, 34.934867922752808 ], [ 128.078634473038306, 34.943250142506585 ], [ 128.077704169491, 34.94558836670646 ] ] ] ] } },
{ "type": "Feature", "properties": { "emd_cd": "48240109", "emd_nm": "용강동" }, "geometry": { "type": "MultiPolygon", "coordinates": [ [ [ [ 128.091797263913207, 34.942027372104214 ], [ 128.081509251080405, 34.94334383701117 ], [ 128.080502251160226, 34.945477230275259 ], [ 128.077367210119178, 34.946133083395239 ], [ 128.081996271108608, 34.951501013226526 ], [ 128.088893695817404, 34.955597752946346 ], [ 128.08760580572374, 34.962487299971919 ], [ 128.090281250298034, 34.964487357750436 ], [ 128.091851441827544, 34.95854755426511 ], [ 128.094019601279825, 34.958364087532807 ], [ 128.095029083493813, 34.955308337063613 ], [ 128.099216425846635, 34.954170374978744 ], [ 128.097630278593385, 34.951863591703038 ], [ 128.100050029038755, 34.949667844393232 ], [ 128.097671221697937, 34.949104565779088 ], [ 128.090348502022124, 34.951742313322171 ], [ 128.092710092818976, 34.94722513725538 ], [ 128.09072659107585, 34.945605803989352 ], [ 128.091797263913207, 34.942027372104214 ] ] ] ] } },
{ "type": "Feature", "properties": { "emd_cd": "48240110", "emd_nm": "와룡동" }, "geometry": { "type": "MultiPolygon", "coordinates": [ [ [ [ 128.113598298179909, 34.986686189622702 ], [ 128.121584068225559, 34.972691116609212 ], [ 128.121230559629765, 34.966830848194526 ], [ 128.116222373586623, 34.964241734729839 ], [ 128.112145680274409, 34.958767186556116 ], [ 128.103936478928404, 34.954682849030036 ], [ 128.095029083493813, 34.955308337063613 ], [ 128.094019601279825, 34.958364087532807 ], [ 128.091851441827544, 34.95854755426511 ], [ 128.090281250298034, 34.964487357750436 ], [ 128.099207431063149, 34.980602078165646 ], [ 128.109762396535615, 34.986775624021512 ], [ 128.113598298179909, 34.986686189622702 ] ] ] ] } },
{ "type": "Feature", "properties": { "emd_cd": "48240111", "emd_nm": "봉남동" }, "geometry": { "type": "MultiPolygon", "coordinates": [ [ [ [ 128.090348502022124, 34.951742313322171 ], [ 128.097671221697937, 34.949104565779088 ], [ 128.100001220908496, 34.949640387698537 ], [ 128.111039807618681, 34.944571304001045 ], [ 128.116567201277547, 34.945722415089193 ], [ 128.115900368943443, 34.940029469854764 ], [ 128.112446827742673, 34.940302360464436 ], [ 128.112256482880497, 34.938668252786506 ], [ 128.104824071260254, 34.936614678152473 ], [ 128.103163389352289, 34.942383521919297 ], [ 128.091568796938844, 34.938991867291982 ], [ 128.09072659107585, 34.945605803989352 ], [ 128.092710092818976, 34.94722513725538 ], [ 128.090348502022124, 34.951742313322171 ] ] ] ] } },
{ "type": "Feature", "properties": { "emd_cd": "48240112", "emd_nm": "이금동" }, "geometry": { "type": "MultiPolygon", "coordinates": [ [ [ [ 128.119991651448629, 34.947375788267095 ], [ 128.111039807618681, 34.944571304001045 ], [ 128.10063451324902, 34.948754409785849 ], [ 128.097630278593385, 34.951863591703038 ], [ 128.099216425846635, 34.954170374978744 ], [ 128.110832086046656, 34.957986269902328 ], [ 128.120258070726294, 34.950784109904966 ], [ 128.119991651448629, 34.947375788267095 ] ] ] ] } },
{ "type": "Feature", "properties": { "emd_cd": "48240113", "emd_nm": "이홀동" }, "geometry": { "type": "MultiPolygon", "coordinates": [ [ [ [ 128.119991651448629, 34.947375788267095 ], [ 128.120004812074797, 34.947296790326334 ], [ 128.119963093218672, 34.947364350228909 ], [ 128.119991651448629, 34.947375788267095 ] ] ], [ [ [ 128.12015575038015, 34.947415105946867 ], [ 128.120258070726294, 34.950784109904966 ], [ 128.110832086046656, 34.957986269902328 ], [ 128.116222373586623, 34.964241734729839 ], [ 128.121230559629765, 34.966830848194526 ], [ 128.122075040795892, 34.970253592639772 ], [ 128.130484142341004, 34.97133042406346 ], [ 128.133816114888276, 34.969777412269359 ], [ 128.134630685423105, 34.97084361929285 ], [ 128.132046529855984, 34.958924314546117 ], [ 128.126575788716224, 34.9519181366515 ], [ 128.12015575038015, 34.947415105946867 ] ] ] ] } },
{ "type": "Feature", "properties": { "emd_cd": "48240114", "emd_nm": "궁지동" }, "geometry": { "type": "MultiPolygon", "coordinates": [ [ [ [ 128.110760207239082, 34.938432883387321 ], [ 128.112446827742673, 34.940302360464436 ], [ 128.115900368943443, 34.940029469854764 ], [ 128.116564667985102, 34.945798245206078 ], [ 128.123108288397134, 34.94914412387476 ], [ 128.124074456163584, 34.94204495055304 ], [ 128.122753404650666, 34.938943580025679 ], [ 128.114345629200216, 34.933851121933429 ], [ 128.1144156179015, 34.931622789381855 ], [ 128.111104833272805, 34.933240394143077 ], [ 128.110760207239082, 34.938432883387321 ] ] ] ] } },
{ "type": "Feature", "properties": { "emd_cd": "48240115", "emd_nm": "사등동" }, "geometry": { "type": "MultiPolygon", "coordinates": [ [ [ [ 128.101003958346041, 34.927872902050744 ], [ 128.103434225362975, 34.929428015097798 ], [ 128.110893636332975, 34.929866152395135 ], [ 128.112979399696087, 34.932535243559734 ], [ 128.11965941495626, 34.922422463577441 ], [ 128.110889245442621, 34.924119208882232 ], [ 128.102814056915065, 34.920476101607406 ], [ 128.102601726762316, 34.922552625237756 ], [ 128.104363168890046, 34.923092770174243 ], [ 128.101003958346041, 34.927872902050744 ] ] ] ] } },
{ "type": "Feature", "properties": { "emd_cd": "48240116", "emd_nm": "향촌동" }, "geometry": { "type": "MultiPolygon", "coordinates": [ [ [ [ 128.082516563905585, 34.9164304198206 ], [ 128.08670475510587, 34.91858103033703 ], [ 128.086759467556874, 34.918514165321646 ], [ 128.082595214009018, 34.916333722689195 ], [ 128.082516563905585, 34.9164304198206 ] ] ], [ [ [ 128.086798219683999, 34.918561228100373 ], [ 128.087588656072001, 34.918354419849159 ], [ 128.086937441949459, 34.91816309453818 ], [ 128.086798219683999, 34.918561228100373 ] ] ], [ [ [ 128.094042519864985, 34.924969999177343 ], [ 128.093855026176271, 34.924628483242593 ], [ 128.09381644953433, 34.924644374352823 ], [ 128.094042519864985, 34.924969999177343 ] ] ], [ [ [ 128.085891869008805, 34.918969276850824 ], [ 128.088001209356634, 34.926171978678916 ], [ 128.084217711905353, 34.926954386116158 ], [ 128.084735101959438, 34.929495084435992 ], [ 128.086397032788966, 34.929601387975374 ], [ 128.086606953097402, 34.937923193079293 ], [ 128.103163389352289, 34.942383521919297 ], [ 128.104758065044507, 34.936619220550959 ], [ 128.111187677029534, 34.938118894427014 ], [ 128.111104833272805, 34.933240394143077 ], [ 128.112330860412527, 34.932651181398249 ], [ 128.110893636332975, 34.929866152395135 ], [ 128.101257959502135, 34.928503431216022 ], [ 128.102232059222445, 34.925964182836992 ], [ 128.099400234993368, 34.924959260910363 ], [ 128.099416016682085, 34.923384077396165 ], [ 128.100677376008775, 34.923756678724907 ], [ 128.100698967134917, 34.923699657036053 ], [ 128.097750924465856, 34.920736731006038 ], [ 128.098484739605169, 34.924528835353456 ], [ 128.0964054711161, 34.926940785570977 ], [ 128.092344107133698, 34.924567082692036 ], [ 128.094547153252762, 34.924238588708384 ], [ 128.091741024133768, 34.923249697938431 ], [ 128.089125882093867, 34.919072665440765 ], [ 128.087362988345319, 34.919695032548269 ], [ 128.083241085494819, 34.917078252944748 ], [ 128.082506343841686, 34.918034710962338 ], [ 128.085891869008805, 34.918969276850824 ] ] ] ] } },
{ "type": "Feature", "properties": { "emd_cd": "48240117", "emd_nm": "대방동" }, "geometry": { "type": "MultiPolygon", "coordinates": [ [ [ [ 128.058217419858835, 34.922609906560382 ], [ 128.058423430563806, 34.922765825243658 ], [ 128.058420035764073, 34.922568007117441 ], [ 128.058217419858835, 34.922609906560382 ] ] ], [ [ [ 128.048728546872383, 34.92600558935689 ], [ 128.048505110850385, 34.927098405338967 ], [ 128.048901384471236, 34.927087920181577 ], [ 128.048728546872383, 34.92600558935689 ] ] ], [ [ [ 128.047014470366094, 34.934906546231609 ], [ 128.04867081461822, 34.939809955328087 ], [ 128.053131909849355, 34.939211132687831 ], [ 128.052803483607534, 34.942369882125803 ], [ 128.054907635397967, 34.941611750965272 ], [ 128.061864161031735, 34.943974025125904 ], [ 128.063279864786352, 34.938912049047723 ], [ 128.06242685786026, 34.935071853544507 ], [ 128.064204266491402, 34.931287392037632 ], [ 128.063207073477827, 34.927156157852394 ], [ 128.058376217631974, 34.928925943143099 ], [ 128.058212172100554, 34.928284415978418 ], [ 128.057637194087079, 34.927802922298191 ], [ 128.058118997656834, 34.928976287683433 ], [ 128.056659127106229, 34.929314180901947 ], [ 128.056111497527496, 34.929188879645018 ], [ 128.057378641308816, 34.927376559524475 ], [ 128.047014470366094, 34.934906546231609 ] ] ] ] } },
{ "type": "Feature", "properties": { "emd_cd": "48240118", "emd_nm": "실안동" }, "geometry": { "type": "MultiPolygon", "coordinates": [ [ [ [ 128.064310403020329, 34.944085055830122 ], [ 128.054907635397967, 34.941611750965272 ], [ 128.052803483607534, 34.942369882125803 ], [ 128.053131909849355, 34.939211132687831 ], [ 128.04867081461822, 34.939809955328087 ], [ 128.046874437045858, 34.934850977823913 ], [ 128.041064424897201, 34.940671544259885 ], [ 128.039334512641176, 34.94025912035152 ], [ 128.039466130601511, 34.946379065849897 ], [ 128.034848989144365, 34.950982803281029 ], [ 128.034330083471588, 34.949743771876214 ], [ 128.03010332386404, 34.958391787917016 ], [ 128.036888782606212, 34.956980481125996 ], [ 128.036702457738471, 34.954586869121727 ], [ 128.041556829695367, 34.953199504225097 ], [ 128.043928273705916, 34.953244134664004 ], [ 128.044194031773884, 34.95604490505707 ], [ 128.047916249859441, 34.95908653014201 ], [ 128.059017914362812, 34.95647359239625 ], [ 128.06813592343309, 34.948773965537789 ], [ 128.064310403020329, 34.944085055830122 ] ] ] ] } },
{ "type": "Feature", "properties": { "emd_cd": "48240119", "emd_nm": "마도동" }, "geometry": { "type": "MultiPolygon", "coordinates": [ [ [ [ 128.027742402105076, 34.932266339635113 ], [ 128.027399466038048, 34.931721441653671 ], [ 128.027182983241971, 34.932036942896772 ], [ 128.027742402105076, 34.932266339635113 ] ] ], [ [ [ 128.031720171663352, 34.931930322769013 ], [ 128.032250209455697, 34.932176112176485 ], [ 128.032170317191003, 34.931830557502337 ], [ 128.031720171663352, 34.931930322769013 ] ] ], [ [ [ 128.028263320025815, 34.936718714957401 ], [ 128.030194102850885, 34.938547848103823 ], [ 128.033571230246139, 34.934703537692698 ], [ 128.029792588829082, 34.934604217268316 ], [ 128.028263320025815, 34.936718714957401 ] ] ], [ [ [ 128.029922270551566, 34.943237658785087 ], [ 128.029602974934761, 34.94513548562837 ], [ 128.030316364317059, 34.945958942162285 ], [ 128.031895227484853, 34.942525478545022 ], [ 128.029922270551566, 34.943237658785087 ] ] ] ] } },
{ "type": "Feature", "properties": { "emd_cd": "48240120", "emd_nm": "늑도동" }, "geometry": { "type": "MultiPolygon", "coordinates": [ [ [ [ 128.043970967855472, 34.922141356683532 ], [ 128.044844156031502, 34.922656773520167 ], [ 128.045648335187536, 34.922364196933167 ], [ 128.043970967855472, 34.922141356683532 ] ] ], [ [ [ 128.037124242387591, 34.925925542717891 ], [ 128.041862874780264, 34.921990391280154 ], [ 128.037125749724254, 34.918961007536609 ], [ 128.034323370103778, 34.922002998199609 ], [ 128.035497218264993, 34.923509506304022 ], [ 128.033080315485734, 34.924815364542347 ], [ 128.035022458494495, 34.927405113600159 ], [ 128.036336598166855, 34.927308100201792 ], [ 128.036450213874701, 34.926414958190357 ], [ 128.037124242387591, 34.925925542717891 ] ] ], [ [ [ 128.042512311399207, 34.926564802414362 ], [ 128.044560098932351, 34.92743424116555 ], [ 128.045787052999003, 34.924801555725232 ], [ 128.042494367786929, 34.924801619013095 ], [ 128.042512311399207, 34.926564802414362 ] ] ], [ [ [ 128.037229178305836, 34.925983962417433 ], [ 128.036711785320904, 34.926513100619331 ], [ 128.036638365041, 34.926827006067768 ], [ 128.036699011306411, 34.926838682304471 ], [ 128.037229178305836, 34.925983962417433 ] ] ], [ [ [ 128.028157781633013, 34.92885098727406 ], [ 128.031134776303134, 34.928549429810893 ], [ 128.031423603785186, 34.927410453359343 ], [ 128.028652198303433, 34.926781502978343 ], [ 128.028157781633013, 34.92885098727406 ] ] ] ] } },
{ "type": "Feature", "properties": { "emd_cd": "48240121", "emd_nm": "신수동" }, "geometry": { "type": "MultiPolygon", "coordinates": [ [ [ [ 128.082570390235418, 34.896287006372141 ], [ 128.08299009491995, 34.895997779044237 ], [ 128.082503586900145, 34.896096766381838 ], [ 128.082570390235418, 34.896287006372141 ] ] ], [ [ [ 128.070856499366698, 34.902512508219878 ], [ 128.073831175747699, 34.90016916036538 ], [ 128.076291502398277, 34.902325766472273 ], [ 128.071137809694648, 34.904569239030934 ], [ 128.071451224952085, 34.906389086753265 ], [ 128.073401881023784, 34.905606778315978 ], [ 128.074941420808386, 34.907366848637338 ], [ 128.072229611212151, 34.908599664439677 ], [ 128.0733361258863, 34.909688650004192 ], [ 128.075581305700695, 34.910314700346106 ], [ 128.076563092116487, 34.908249391788857 ], [ 128.080048502430884, 34.907108830406742 ], [ 128.077480372266933, 34.904105534505653 ], [ 128.080943168374375, 34.902688157110006 ], [ 128.078659883711538, 34.900865713833504 ], [ 128.081582606332063, 34.897363674780699 ], [ 128.079178942166948, 34.89816895600557 ], [ 128.077944569188759, 34.89520005338246 ], [ 128.075244278329166, 34.893988451448159 ], [ 128.075327385717856, 34.891110863689192 ], [ 128.078707963743, 34.888915543269583 ], [ 128.075717209192305, 34.887054322231684 ], [ 128.07166391814107, 34.88863436249666 ], [ 128.072603319400514, 34.894389935763584 ], [ 128.074588843606733, 34.894112673818761 ], [ 128.07308511564392, 34.894853811142049 ], [ 128.072633497095097, 34.900364567360391 ], [ 128.070856499366698, 34.902512508219878 ] ] ], [ [ [ 128.059805399880389, 34.901964958724854 ], [ 128.058647966034727, 34.901411029736273 ], [ 128.056478940666722, 34.900955345634401 ], [ 128.059805399880389, 34.901964958724854 ] ] ], [ [ [ 128.070265039219493, 34.904044954504329 ], [ 128.071084951522693, 34.904332698328261 ], [ 128.070594895937262, 34.903130941609085 ], [ 128.070265039219493, 34.904044954504329 ] ] ], [ [ [ 128.081867194358239, 34.907868653440104 ], [ 128.082446500464386, 34.906953763991964 ], [ 128.082066045800048, 34.906856596234228 ], [ 128.081867194358239, 34.907868653440104 ] ] ], [ [ [ 128.06327815820822, 34.908557666977224 ], [ 128.063737777655547, 34.907886282729685 ], [ 128.063230083946735, 34.907948523802972 ], [ 128.06327815820822, 34.908557666977224 ] ] ], [ [ [ 128.04758346505534, 34.909883323079534 ], [ 128.047817094039857, 34.909439457506281 ], [ 128.047201195761517, 34.909709075026612 ], [ 128.04758346505534, 34.909883323079534 ] ] ], [ [ [ 128.073425936797236, 34.915231912644032 ], [ 128.074913354161822, 34.915197464218018 ], [ 128.074369857800122, 34.914801763740073 ], [ 128.073425936797236, 34.915231912644032 ] ] ] ] } },
{ "type": "Feature", "properties": { "emd_cd": "48240122", "emd_nm": "백천동" }, "geometry": { "type": "MultiPolygon", "coordinates": [ [ [ [ 128.114912957512502, 34.995114860877479 ], [ 128.115977049394672, 34.989016371525793 ], [ 128.114254422690408, 34.986682233564871 ], [ 128.109762396535615, 34.986775624021512 ], [ 128.099207431063149, 34.980602078165646 ], [ 128.09602971147595, 34.983550530324727 ], [ 128.090341992781333, 34.984575273327685 ], [ 128.082261357278099, 34.991698756870527 ], [ 128.072012789352698, 34.99073403213491 ], [ 128.062183055777524, 34.99252924799908 ], [ 128.068410507077033, 34.993148462450549 ], [ 128.078346559735422, 34.997200258531905 ], [ 128.080044638976261, 35.001573627306982 ], [ 128.09091625373631, 35.001974397655914 ], [ 128.096885640533827, 35.004664969900965 ], [ 128.110594558795583, 35.001066679280115 ], [ 128.114912957512502, 34.995114860877479 ] ] ] ] } },
{ "type": "Feature", "properties": { "emd_cd": "48240123", "emd_nm": "신벽동" }, "geometry": { "type": "MultiPolygon", "coordinates": [ [ [ [ 128.063877848852513, 34.992194431167718 ], [ 128.07321541639422, 34.990691784108762 ], [ 128.082261357278099, 34.991698756870527 ], [ 128.090341992781333, 34.984575273327685 ], [ 128.084804038906611, 34.984845843829504 ], [ 128.080500813508365, 34.981661688284028 ], [ 128.081816698912462, 34.980780568200672 ], [ 128.077872061786252, 34.978656047376447 ], [ 128.068415003124926, 34.980571891489696 ], [ 128.067026827235452, 34.978199777232462 ], [ 128.057278327826339, 34.978763258028096 ], [ 128.058348829282153, 34.980173637728114 ], [ 128.057469243825182, 34.982752285641276 ], [ 128.062782531022577, 34.986715167186823 ], [ 128.063877848852513, 34.992194431167718 ] ] ] ] } },
{ "type": "Feature", "properties": { "emd_cd": "48240124", "emd_nm": "노룡동" }, "geometry": { "type": "MultiPolygon", "coordinates": [ [ [ [ 128.043441715966594, 34.983649801928671 ], [ 128.048051523561668, 34.986683331078432 ], [ 128.047856002677605, 34.988225273036051 ], [ 128.050552573091608, 34.988351950504125 ], [ 128.050469559610349, 34.989895264431354 ], [ 128.054860941552619, 34.990101195717926 ], [ 128.053094260461279, 34.992892983885397 ], [ 128.063877848852513, 34.992194431167718 ], [ 128.062782531022577, 34.986715167186823 ], [ 128.058675279074322, 34.984396964114836 ], [ 128.057275357908651, 34.980680221775387 ], [ 128.058348829282153, 34.980173637728114 ], [ 128.055866861143812, 34.977561145793423 ], [ 128.048699921566453, 34.978785405636835 ], [ 128.046099550619999, 34.981568858568245 ], [ 128.045554910149264, 34.981527419073693 ], [ 128.045566962113554, 34.980751371610154 ], [ 128.045437725342367, 34.980785461303036 ], [ 128.045091827205852, 34.980124679438873 ], [ 128.044920726614635, 34.980047520174665 ], [ 128.045526860312492, 34.981527730044121 ], [ 128.043441715966594, 34.983649801928671 ] ] ] ] } },
{ "type": "Feature", "properties": { "emd_cd": "48240125", "emd_nm": "대포동" }, "geometry": { "type": "MultiPolygon", "coordinates": [ [ [ [ 128.038773700360849, 34.989513357306883 ], [ 128.040275084842705, 34.990859302396117 ], [ 128.039702154334435, 34.99270152194908 ], [ 128.053935423953106, 34.99304130485141 ], [ 128.054860941552619, 34.990101195717926 ], [ 128.050469559610349, 34.989895264431354 ], [ 128.050552573091608, 34.988351950504125 ], [ 128.047856002677605, 34.988225273036051 ], [ 128.048051523561668, 34.986683331078432 ], [ 128.044748776759548, 34.984381069472192 ], [ 128.042592565282263, 34.989138227577982 ], [ 128.041136295607487, 34.990021546993013 ], [ 128.039880583237448, 34.988484356785115 ], [ 128.039107333014016, 34.988154263000446 ], [ 128.040805534432877, 34.989712989729199 ], [ 128.038773700360849, 34.989513357306883 ] ] ] ] } },
{ "type": "Feature", "properties": { "emd_cd": "48240126", "emd_nm": "송포동" }, "geometry": { "type": "MultiPolygon", "coordinates": [ [ [ [ 128.033196763596862, 34.958122956854126 ], [ 128.038322428798551, 34.963218823219343 ], [ 128.039786234994352, 34.962065043353114 ], [ 128.038706761989459, 34.963530849785599 ], [ 128.040314532949878, 34.963063457762672 ], [ 128.045869758914847, 34.966487337791371 ], [ 128.047340919995293, 34.970398678903003 ], [ 128.050131457594404, 34.969142479039967 ], [ 128.051422586241728, 34.976438134975176 ], [ 128.057423288003349, 34.978805954852852 ], [ 128.060729606743337, 34.978034811372964 ], [ 128.059420386147366, 34.977623096900942 ], [ 128.06181740773448, 34.976294624493953 ], [ 128.063147745916979, 34.969320059026138 ], [ 128.067664075500744, 34.964589093769789 ], [ 128.065227313596665, 34.958887151503397 ], [ 128.059017914362812, 34.95647359239625 ], [ 128.047916249859441, 34.95908653014201 ], [ 128.044194031773884, 34.95604490505707 ], [ 128.043928273705916, 34.953244134664004 ], [ 128.038367469473343, 34.953427175332365 ], [ 128.036702457738471, 34.954586869121727 ], [ 128.036888782606212, 34.956980481125996 ], [ 128.033196763596862, 34.958122956854126 ] ] ] ] } },
{ "type": "Feature", "properties": { "emd_cd": "48240127", "emd_nm": "죽림동" }, "geometry": { "type": "MultiPolygon", "coordinates": [ [ [ [ 128.059017914362812, 34.95647359239625 ], [ 128.065227313596665, 34.958887151503397 ], [ 128.067664075500744, 34.964589093769789 ], [ 128.063147745916979, 34.969320059026138 ], [ 128.06181740773448, 34.976294624493953 ], [ 128.059454718361025, 34.977673648991683 ], [ 128.065732763569684, 34.979198214019867 ], [ 128.067026827235452, 34.978199777232462 ], [ 128.068415003124926, 34.980571891489696 ], [ 128.077872061786252, 34.978656047376447 ], [ 128.086698387013513, 34.984990617210819 ], [ 128.09602971147595, 34.983550530324727 ], [ 128.099207431063149, 34.980602078165646 ], [ 128.090281250298034, 34.964487357750436 ], [ 128.08760580572374, 34.962487299971919 ], [ 128.084088212008083, 34.964316533011797 ], [ 128.07965212627073, 34.963183450049037 ], [ 128.080034117157282, 34.959123656763488 ], [ 128.078625239971927, 34.957009267619128 ], [ 128.07968564102319, 34.956238205920826 ], [ 128.072879238489691, 34.958272668745735 ], [ 128.072676129169707, 34.956137472002411 ], [ 128.065757626875325, 34.950347020628854 ], [ 128.06429338410021, 34.953057332800881 ], [ 128.059017914362812, 34.95647359239625 ] ] ] ] } },
{ "type": "Feature", "properties": { "emd_cd": "48240250", "emd_nm": "사천읍" }, "geometry": { "type": "MultiPolygon", "coordinates": [ [ [ [ 128.055051590405071, 35.083694319671096 ], [ 128.058488549431587, 35.091126532664283 ], [ 128.061292285658624, 35.093678552563134 ], [ 128.066621109733148, 35.094963867903495 ], [ 128.069123355270477, 35.099680777209969 ], [ 128.072803970405374, 35.09807671778335 ], [ 128.085084862836879, 35.097914639092608 ], [ 128.086348713236617, 35.095457266854268 ], [ 128.084367633496072, 35.094121010827642 ], [ 128.085307105947578, 35.093403690474737 ], [ 128.087959610133282, 35.094026544935005 ], [ 128.08995769856665, 35.097102311362221 ], [ 128.099666991595768, 35.094080496309473 ], [ 128.100734153554129, 35.096097674114105 ], [ 128.110073648501952, 35.099529155308161 ], [ 128.107700713756003, 35.102715955472398 ], [ 128.10907204602259, 35.105478741796844 ], [ 128.116597429010682, 35.110940880888116 ], [ 128.118105712400251, 35.114153126688883 ], [ 128.120856137913961, 35.113754913325344 ], [ 128.125287005096993, 35.116374525974621 ], [ 128.128106622493164, 35.11459885495622 ], [ 128.131976168379879, 35.117265581992044 ], [ 128.147346154630952, 35.114464618572491 ], [ 128.155463443186278, 35.108819670534068 ], [ 128.154950717122432, 35.107068045048287 ], [ 128.158039796681265, 35.10410216231729 ], [ 128.158796986116045, 35.100792163801444 ], [ 128.162689449953149, 35.101610720246263 ], [ 128.166406810205444, 35.096895242186186 ], [ 128.169880157217619, 35.097090347766041 ], [ 128.172059048375274, 35.095318641926077 ], [ 128.167722844345661, 35.085688693786672 ], [ 128.169322786749717, 35.083811632372985 ], [ 128.162754330942562, 35.079855272770629 ], [ 128.151827798878344, 35.081058137553015 ], [ 128.147929436923022, 35.077601022155491 ], [ 128.148492432165909, 35.074965500915894 ], [ 128.132322923504944, 35.07466884661364 ], [ 128.127855522337171, 35.078386884726825 ], [ 128.12004507978105, 35.077133577650841 ], [ 128.113161199580389, 35.080168912784664 ], [ 128.109432140839459, 35.083958814910041 ], [ 128.098760827274504, 35.080631780275105 ], [ 128.09750164085321, 35.079451278241514 ], [ 128.099957265823662, 35.076494423125894 ], [ 128.096363924226864, 35.074576780472498 ], [ 128.089595067543115, 35.074765219471473 ], [ 128.0870251181328, 35.081182153034163 ], [ 128.078707327124732, 35.067363422117211 ], [ 128.073378567167595, 35.076847004011931 ], [ 128.066597457663732, 35.078250429954068 ], [ 128.066403682433616, 35.079677943162395 ], [ 128.062466339790632, 35.077936580934328 ], [ 128.061799839773414, 35.079463744216554 ], [ 128.057213200118667, 35.07880739564748 ], [ 128.055895517963194, 35.080395917290893 ], [ 128.059596349479875, 35.08470044663153 ], [ 128.059355991335508, 35.08632677680896 ], [ 128.056810633030352, 35.083151764278249 ], [ 128.055051590405071, 35.083694319671096 ] ] ] ] } },
{ "type": "Feature", "properties": { "emd_cd": "48240310", "emd_nm": "정동면" }, "geometry": { "type": "MultiPolygon", "coordinates": [ [ [ [ 128.078690731099215, 35.067122677174147 ], [ 128.0870251181328, 35.081182153034163 ], [ 128.089595067543115, 35.074765219471473 ], [ 128.096363924226864, 35.074576780472498 ], [ 128.099957265823662, 35.076494423125894 ], [ 128.09750164085321, 35.079451278241514 ], [ 128.098760827274504, 35.080631780275105 ], [ 128.109432140839459, 35.083958814910041 ], [ 128.113161199580389, 35.080168912784664 ], [ 128.12004507978105, 35.077133577650841 ], [ 128.127855522337171, 35.078386884726825 ], [ 128.132322923504944, 35.07466884661364 ], [ 128.152001605524902, 35.074372661311145 ], [ 128.156042679496011, 35.065785543002484 ], [ 128.16242717544597, 35.066181194949323 ], [ 128.172425123096218, 35.051953012068729 ], [ 128.178057992864979, 35.053549463063973 ], [ 128.184351535532358, 35.051012110183372 ], [ 128.18199977439167, 35.047543432150178 ], [ 128.181962309894971, 35.042540190189364 ], [ 128.180060858524257, 35.038506072781139 ], [ 128.175909668724131, 35.036093908424675 ], [ 128.173393831698007, 35.031302316170134 ], [ 128.168654154234702, 35.030259253031439 ], [ 128.166879603084766, 35.031448982699843 ], [ 128.16725939204207, 35.029451075866348 ], [ 128.162650545479806, 35.027226307836393 ], [ 128.157825912806715, 35.006984719702487 ], [ 128.166032781181087, 34.994526951947613 ], [ 128.159728132000652, 34.996280878734055 ], [ 128.158311749645208, 34.998761035423072 ], [ 128.15439569031534, 35.000127542791525 ], [ 128.152078931447903, 35.006121185079245 ], [ 128.144636037352996, 35.011081281963264 ], [ 128.146569356271158, 35.013737730327435 ], [ 128.145848813244726, 35.017657167694807 ], [ 128.14189108191465, 35.021169021914673 ], [ 128.141288569211639, 35.025949446060771 ], [ 128.133226458824936, 35.036656325597903 ], [ 128.115926511854781, 35.044670190486194 ], [ 128.113892306570506, 35.047717620616623 ], [ 128.109134313779151, 35.049131984235501 ], [ 128.103205300036848, 35.055506344700945 ], [ 128.098351839826876, 35.057018817370043 ], [ 128.094839072214569, 35.055527167794814 ], [ 128.08992141309875, 35.05630970827341 ], [ 128.083098535119888, 35.061007404164982 ], [ 128.079091782808632, 35.060399675800561 ], [ 128.08040971932769, 35.061610486145725 ], [ 128.078690731099215, 35.067122677174147 ] ] ] ] } },
{ "type": "Feature", "properties": { "emd_cd": "48240320", "emd_nm": "사남면" }, "geometry": { "type": "MultiPolygon", "coordinates": [ [ [ [ 128.038394979280525, 35.051098738771145 ], [ 128.039630157421811, 35.05690402560171 ], [ 128.046051494288577, 35.067877852756858 ], [ 128.064837300792675, 35.079695825223283 ], [ 128.073276588901479, 35.076913967322298 ], [ 128.080169209083806, 35.063606294191246 ], [ 128.079091782808632, 35.060399675800561 ], [ 128.083098535119888, 35.061007404164982 ], [ 128.08992141309875, 35.05630970827341 ], [ 128.094839072214569, 35.055527167794814 ], [ 128.098351839826876, 35.057018817370043 ], [ 128.103205300036848, 35.055506344700945 ], [ 128.109134313779151, 35.049131984235501 ], [ 128.113892306570506, 35.047717620616623 ], [ 128.115926511854781, 35.044670190486194 ], [ 128.133226458824936, 35.036656325597903 ], [ 128.141288569211639, 35.025949446060771 ], [ 128.14189108191465, 35.021169021914673 ], [ 128.145848813244726, 35.017657167694807 ], [ 128.146569356271158, 35.013737730327435 ], [ 128.144636037352996, 35.011081281963264 ], [ 128.152078931447903, 35.006121185079245 ], [ 128.15439569031534, 35.000127542791525 ], [ 128.158311749645208, 34.998761035423072 ], [ 128.159728132000652, 34.996280878734055 ], [ 128.166032781181087, 34.994526951947613 ], [ 128.170188006306716, 34.984716317850328 ], [ 128.166247379514999, 34.983549900473896 ], [ 128.152537580047209, 34.991255871964398 ], [ 128.146164159101772, 34.99086946018604 ], [ 128.134893570080607, 34.980482667994714 ], [ 128.133816114888276, 34.969777412269359 ], [ 128.130484142341004, 34.97133042406346 ], [ 128.122075040795892, 34.970253592639772 ], [ 128.11861906680133, 34.979295721660485 ], [ 128.114204991640037, 34.984629963705032 ], [ 128.11594390323873, 34.993445932769148 ], [ 128.109889151123724, 35.0013621249484 ], [ 128.110955200957847, 35.002980122936926 ], [ 128.109881931031396, 35.008655763418169 ], [ 128.106633524051659, 35.013171302565155 ], [ 128.107780689273255, 35.016165772440445 ], [ 128.087251916454989, 35.030622734896589 ], [ 128.084494683331314, 35.037934022226686 ], [ 128.080485783858393, 35.041806702467476 ], [ 128.079804688756582, 35.045763155997761 ], [ 128.073521670357792, 35.047435338965379 ], [ 128.070215622274247, 35.045755949034536 ], [ 128.06604068662358, 35.046847458813872 ], [ 128.064068486145686, 35.04539404750453 ], [ 128.054681977054742, 35.049986580212732 ], [ 128.04910282439829, 35.047483691904453 ], [ 128.046772702289047, 35.049924167140176 ], [ 128.044907261814927, 35.049326422420172 ], [ 128.0444251369249, 35.051086510227357 ], [ 128.038394979280525, 35.051098738771145 ] ] ] ] } },
{ "type": "Feature", "properties": { "emd_cd": "48240330", "emd_nm": "용현면" }, "geometry": { "type": "MultiPolygon", "coordinates": [ [ [ [ 128.036484216638883, 35.016533207780554 ], [ 128.03665974617914, 35.016799612905579 ], [ 128.036777886887535, 35.016631471043375 ], [ 128.036484216638883, 35.016533207780554 ] ] ], [ [ [ 128.052707652947618, 35.04947206402732 ], [ 128.055361566872875, 35.049793643388426 ], [ 128.064068486145686, 35.04539404750453 ], [ 128.06604068662358, 35.046847458813872 ], [ 128.070215622274247, 35.045755949034536 ], [ 128.073521670357792, 35.047435338965379 ], [ 128.079804688756582, 35.045763155997761 ], [ 128.080485563036206, 35.041805871565444 ], [ 128.084494364762691, 35.037933109472576 ], [ 128.087251390402344, 35.030621757492149 ], [ 128.107779773190174, 35.016164377633963 ], [ 128.106632520186764, 35.013169925129382 ], [ 128.109880796400375, 35.008654321954097 ], [ 128.110953902376821, 35.002978653239076 ], [ 128.109889151123724, 35.0013621249484 ], [ 128.096885640533827, 35.004664969900965 ], [ 128.09091625373631, 35.001974397655914 ], [ 128.079670041540084, 35.00143040005824 ], [ 128.078346559735422, 34.997200258531905 ], [ 128.068410507077033, 34.993148462450549 ], [ 128.03946402764285, 34.992624058349421 ], [ 128.038785042769149, 34.99782597136479 ], [ 128.040028621044087, 34.999626815159509 ], [ 128.037934972129648, 35.001381275840323 ], [ 128.042228729917895, 35.003882809728331 ], [ 128.044272569292445, 35.007731840695996 ], [ 128.0426695550033, 35.008477581099655 ], [ 128.044600578669872, 35.007731695709218 ], [ 128.048211334339044, 35.010301416986579 ], [ 128.049383097959407, 35.012589916292761 ], [ 128.048177622475379, 35.013339233646896 ], [ 128.050661406755523, 35.016182612203927 ], [ 128.044909708420136, 35.024620949477082 ], [ 128.043210503477894, 35.024985373878053 ], [ 128.037814729171856, 35.02128845354639 ], [ 128.037451366357885, 35.018550359268943 ], [ 128.036787133625666, 35.022267067804655 ], [ 128.034884255002055, 35.023053400420423 ], [ 128.042338612962453, 35.032263277980583 ], [ 128.039002257339121, 35.036203479816976 ], [ 128.039901783658394, 35.040800045143556 ], [ 128.038853514279026, 35.04162342552813 ], [ 128.041264608862605, 35.047185574766665 ], [ 128.038721505051086, 35.048356355141848 ], [ 128.038394979280525, 35.051098738771145 ], [ 128.0444251369249, 35.051086510227357 ], [ 128.044907261814927, 35.049326422420172 ], [ 128.046772702289047, 35.049924167140176 ], [ 128.04910282439829, 35.047483691904453 ], [ 128.052707652947618, 35.04947206402732 ] ], [ [ 128.052695477028323, 35.049318427427885 ], [ 128.052696281415734, 35.049322796150413 ], [ 128.052695790834377, 35.049321620586362 ], [ 128.052695477028323, 35.049318427427885 ] ] ], [ [ [ 128.038531631370176, 35.0342528107726 ], [ 128.039147588646756, 35.03394507079237 ], [ 128.038551578207972, 35.033806936951443 ], [ 128.038531631370176, 35.0342528107726 ] ] ] ] } },
{ "type": "Feature", "properties": { "emd_cd": "48240340", "emd_nm": "축동면" }, "geometry": { "type": "MultiPolygon", "coordinates": [ [ [ [ 128.054272936767688, 35.081736486009234 ], [ 128.055051590405071, 35.083694319671096 ], [ 128.056810633030352, 35.083151764278249 ], [ 128.057359655707756, 35.084700999656313 ], [ 128.059355991335508, 35.08632677680896 ], [ 128.059596349479875, 35.08470044663153 ], [ 128.055895517963194, 35.080395917290893 ], [ 128.054272936767688, 35.081736486009234 ] ] ], [ [ [ 128.10909755849903, 35.105244161286286 ], [ 128.107700713756003, 35.102715955472398 ], [ 128.110073648501952, 35.099529155308161 ], [ 128.100734153554129, 35.096097674114105 ], [ 128.099366384679229, 35.094014491451688 ], [ 128.08995769856665, 35.097102311362221 ], [ 128.087959610133282, 35.094026544935005 ], [ 128.085307105947578, 35.093403690474737 ], [ 128.084367633496072, 35.094121010827642 ], [ 128.086348713236617, 35.095457266854268 ], [ 128.085084862836879, 35.097914639092608 ], [ 128.072803970405374, 35.09807671778335 ], [ 128.069123355270477, 35.099680777209969 ], [ 128.066621109733148, 35.094963867903495 ], [ 128.061292285658624, 35.093678552563134 ], [ 128.057089290467104, 35.090148271036142 ], [ 128.052272855286077, 35.079680853874258 ], [ 128.04479150062437, 35.075372488514553 ], [ 128.041334292428644, 35.078817086767842 ], [ 128.03576081272351, 35.077677808384124 ], [ 128.034263852333481, 35.078913373666815 ], [ 128.033923533134299, 35.081065154039322 ], [ 128.036745578520708, 35.084399545682444 ], [ 128.034571744897505, 35.08679690178311 ], [ 128.03791674600248, 35.091416112455569 ], [ 128.029850566852645, 35.100131526095929 ], [ 128.029162464967499, 35.107237262783947 ], [ 128.020947746461417, 35.116612136221995 ], [ 128.024340874442288, 35.11864126829952 ], [ 128.024508419996238, 35.121518474987681 ], [ 128.028102705721892, 35.122876057020569 ], [ 128.037189133394889, 35.119749899724958 ], [ 128.04071985292299, 35.12142904959255 ], [ 128.043964789295472, 35.121019623487463 ], [ 128.048698472800112, 35.124571540295015 ], [ 128.047612166166175, 35.127812786106411 ], [ 128.050630554584899, 35.131532163793196 ], [ 128.055654239937837, 35.129654594943858 ], [ 128.056387092419328, 35.127768121292959 ], [ 128.070602125334744, 35.128312842466805 ], [ 128.074521019611694, 35.125867772088469 ], [ 128.075716509903515, 35.12322357588755 ], [ 128.088290650635713, 35.118545179698302 ], [ 128.091097730326794, 35.116056705566486 ], [ 128.091793131475526, 35.107667758379861 ], [ 128.089295904038948, 35.104321875274856 ], [ 128.090910722221963, 35.103653585991339 ], [ 128.091126667215519, 35.101180053171163 ], [ 128.098512492422799, 35.106610613224838 ], [ 128.10909755849903, 35.105244161286286 ] ] ] ] } },
{ "type": "Feature", "properties": { "emd_cd": "48240350", "emd_nm": "곤양면" }, "geometry": { "type": "MultiPolygon", "coordinates": [ [ [ [ 128.022395181515805, 35.030706201880811 ], [ 128.022635757361115, 35.030835121834443 ], [ 128.022522386108932, 35.030658799705556 ], [ 128.022395181515805, 35.030706201880811 ] ] ], [ [ [ 128.003538304955498, 35.037165704171201 ], [ 128.005688828638853, 35.038372734461959 ], [ 128.006472156382472, 35.037082449136385 ], [ 128.0035862731647, 35.035345473588322 ], [ 128.003538304955498, 35.037165704171201 ] ] ], [ [ [ 128.034566323012911, 35.062641665561834 ], [ 128.024804285770841, 35.05596737492251 ], [ 128.026455277517101, 35.05590318647485 ], [ 128.026244011792897, 35.05096855854169 ], [ 128.028690517469727, 35.049585005514928 ], [ 128.030897163204116, 35.050751437549337 ], [ 128.030910320456371, 35.049405726623135 ], [ 128.02784387803581, 35.048508735921018 ], [ 128.028723759271088, 35.045367494201514 ], [ 128.025896614448044, 35.043063211278955 ], [ 128.027211425060528, 35.041006950326398 ], [ 128.025805746275182, 35.034413841615603 ], [ 128.02274273582708, 35.032530392638662 ], [ 128.024397621071358, 35.031624373172384 ], [ 128.020714384693463, 35.031339197615338 ], [ 128.022383492341788, 35.030602130271184 ], [ 128.019823203380298, 35.028279659985706 ], [ 128.01231878362492, 35.029510688517043 ], [ 128.010503210323691, 35.030621238149024 ], [ 128.011273954652637, 35.031561981226638 ], [ 128.008916256200109, 35.030713120052766 ], [ 128.005904746964575, 35.033545234235135 ], [ 128.013821280252472, 35.036165026691791 ], [ 128.019716617297405, 35.040919536304067 ], [ 128.015023515702751, 35.047068500821105 ], [ 128.01306134951173, 35.046818286068877 ], [ 128.009807420421396, 35.050062705847544 ], [ 128.008484772413141, 35.04743220461539 ], [ 128.013727690448491, 35.043218273508032 ], [ 128.014014439080256, 35.039607180400623 ], [ 128.008383912764288, 35.038541747073111 ], [ 128.004811916487625, 35.04188239123328 ], [ 128.006352201613311, 35.043607642392381 ], [ 128.004199698856951, 35.044658246998502 ], [ 128.002890794500445, 35.044383888930462 ], [ 128.003204909604733, 35.04218902476525 ], [ 127.997373824369646, 35.043977286926712 ], [ 127.994714676691089, 35.046739297646468 ], [ 127.991116295636971, 35.045305249190832 ], [ 127.985829661103125, 35.046708256623575 ], [ 127.981366708350777, 35.039268147876442 ], [ 127.980870024672896, 35.035320840953062 ], [ 127.977511941350159, 35.034615268386418 ], [ 127.974141841143194, 35.036102286839579 ], [ 127.975369755429156, 35.039078841804603 ], [ 127.973871591151493, 35.038985080233431 ], [ 127.972653251238256, 35.045189401803995 ], [ 127.970307321570331, 35.044999118737962 ], [ 127.965880391683427, 35.051974357547735 ], [ 127.963864326895902, 35.051663868782917 ], [ 127.959064481186601, 35.045980241219425 ], [ 127.946735040177273, 35.04577453857992 ], [ 127.944185010547983, 35.047172569984518 ], [ 127.940638559324213, 35.045831302480252 ], [ 127.937825225694425, 35.04855314131909 ], [ 127.931183589618868, 35.047735380658871 ], [ 127.924728068616602, 35.053710500624355 ], [ 127.923631839841406, 35.05911482418329 ], [ 127.920202961138656, 35.064355457265194 ], [ 127.914467522371126, 35.064531037632001 ], [ 127.911708315625262, 35.07344904831217 ], [ 127.908324926785028, 35.073429272117295 ], [ 127.906318100276309, 35.078820358174866 ], [ 127.897709144417476, 35.079120861222222 ], [ 127.893502730148143, 35.086566177930571 ], [ 127.900160907339711, 35.087707526231732 ], [ 127.904495560984429, 35.086650346848195 ], [ 127.90720740850719, 35.088606633806549 ], [ 127.912354488750879, 35.088996695596883 ], [ 127.917322870087503, 35.081061868819425 ], [ 127.922714675095278, 35.081215376921442 ], [ 127.92655742253919, 35.078448075190295 ], [ 127.935267600105675, 35.077314309981439 ], [ 127.937750841904474, 35.070207601520679 ], [ 127.940771072716871, 35.06933287147038 ], [ 127.942906796416352, 35.065402224856996 ], [ 127.946441111504299, 35.065352187418178 ], [ 127.951905570210542, 35.070355195186117 ], [ 127.954525995303143, 35.069980172478004 ], [ 127.954435408070623, 35.076316409607287 ], [ 127.958464687598607, 35.07772887076348 ], [ 127.956191979241936, 35.083050687962405 ], [ 127.947564720223696, 35.090669370362484 ], [ 127.949121183905007, 35.096682899882019 ], [ 127.951303382733443, 35.097619545302564 ], [ 127.957018737974479, 35.095115826448335 ], [ 127.959910054293445, 35.095781990999441 ], [ 127.966734976823645, 35.090082819307419 ], [ 127.967382027366469, 35.086989328728727 ], [ 127.970367847782853, 35.085427166809652 ], [ 127.970972651294019, 35.082944674980219 ], [ 127.973836631754395, 35.081862908858632 ], [ 127.983331951928378, 35.097231509346969 ], [ 127.981378520403155, 35.10027659667486 ], [ 127.98460043083972, 35.102162677723072 ], [ 127.984359526797391, 35.104485327994453 ], [ 127.996636330359692, 35.110069734534498 ], [ 127.99887041290873, 35.112863271931865 ], [ 128.004862365097409, 35.114553758687222 ], [ 128.009199579844505, 35.113324837551531 ], [ 128.015177839990656, 35.117820049414334 ], [ 128.019120346971732, 35.118773550463224 ], [ 128.02270005503857, 35.113593826637093 ], [ 128.026151677995614, 35.112033894124615 ], [ 128.02922763710157, 35.107101497091655 ], [ 128.029850566852645, 35.100131526095929 ], [ 128.03791674600248, 35.091416112455569 ], [ 128.035244314057564, 35.088700202787024 ], [ 128.034571744897505, 35.08679690178311 ], [ 128.036702437991096, 35.083802941648514 ], [ 128.033766636358848, 35.080197379608109 ], [ 128.03576081272351, 35.077677808384124 ], [ 128.03489652780587, 35.076894622658259 ], [ 128.040422656125429, 35.075464098219634 ], [ 128.040878215394855, 35.071801092766862 ], [ 128.039302137834596, 35.070690552686074 ], [ 128.037254213671758, 35.071619283391087 ], [ 128.036244874765686, 35.068908904473084 ], [ 128.032517245962254, 35.069576114694399 ], [ 128.034566323012911, 35.062641665561834 ] ], [ [ 128.032016075885338, 35.061981838724982 ], [ 128.031801045687786, 35.062081933729679 ], [ 128.031918645333207, 35.061889142885811 ], [ 128.032016075885338, 35.061981838724982 ] ] ] ] } },
{ "type": "Feature", "properties": { "emd_cd": "48240360", "emd_nm": "곤명면" }, "geometry": { "type": "MultiPolygon", "coordinates": [ [ [ [ 127.878964498935829, 35.145643374065237 ], [ 127.880040289994511, 35.148710474503638 ], [ 127.884425613067137, 35.147747205892784 ], [ 127.885166381499445, 35.150217776327523 ], [ 127.896517525522015, 35.152798681951218 ], [ 127.896390637349484, 35.156430983691315 ], [ 127.898573012556596, 35.156730416217137 ], [ 127.903090200569906, 35.154867953436735 ], [ 127.909659051185542, 35.148399657530142 ], [ 127.912988743076212, 35.15098062037616 ], [ 127.921441203864703, 35.150325598746676 ], [ 127.927222933285563, 35.147733025354114 ], [ 127.92718072437934, 35.146272171068937 ], [ 127.929887600676622, 35.144761724356648 ], [ 127.931540957263621, 35.145471590503007 ], [ 127.931894130257874, 35.149707372358051 ], [ 127.938595206509959, 35.15256396597588 ], [ 127.951006233250723, 35.152006885659958 ], [ 127.958011662174826, 35.157651748387075 ], [ 127.963508678817803, 35.155593634849545 ], [ 127.961859678221501, 35.150698405766079 ], [ 127.96298740464168, 35.150521965643541 ], [ 127.968769709428145, 35.158650384017257 ], [ 127.972100269313074, 35.156290194651405 ], [ 127.980274899124808, 35.159367570382535 ], [ 127.981405341302022, 35.156541375705245 ], [ 127.988190066585418, 35.157220533854556 ], [ 127.998553854190817, 35.155374152565827 ], [ 127.997278673851355, 35.152938592804482 ], [ 127.999171949413338, 35.15093101033866 ], [ 127.999303498038174, 35.146458790862049 ], [ 127.996673400272272, 35.144852634086455 ], [ 128.000331074048404, 35.138528433270935 ], [ 127.998504940780379, 35.136457812577767 ], [ 128.003130543931434, 35.133581784562651 ], [ 128.002221169798219, 35.127256134651354 ], [ 127.999460151988075, 35.123652415113128 ], [ 128.001567342853434, 35.121725259363096 ], [ 128.000993535537418, 35.117667126503839 ], [ 128.003095315650825, 35.115122765825269 ], [ 127.997596222986459, 35.112229359840391 ], [ 127.996636330359692, 35.110069734534498 ], [ 127.984359526797391, 35.104485327994453 ], [ 127.98460043083972, 35.102162677723072 ], [ 127.981378520403155, 35.10027659667486 ], [ 127.983331951928378, 35.097231509346969 ], [ 127.973836631754395, 35.081862908858632 ], [ 127.970972651294019, 35.082944674980219 ], [ 127.970367847782853, 35.085427166809652 ], [ 127.967382027366469, 35.086989328728727 ], [ 127.966734976823645, 35.090082819307419 ], [ 127.959910054293445, 35.095781990999441 ], [ 127.957018737974479, 35.095115826448335 ], [ 127.951303382733443, 35.097619545302564 ], [ 127.949121183905007, 35.096682899882019 ], [ 127.947564720223696, 35.090669370362484 ], [ 127.956191979241936, 35.083050687962405 ], [ 127.958464687598607, 35.07772887076348 ], [ 127.954435408070623, 35.076316409607287 ], [ 127.954525995303143, 35.069980172478004 ], [ 127.951905570210542, 35.070355195186117 ], [ 127.946441111504299, 35.065352187418178 ], [ 127.942906796416352, 35.065402224856996 ], [ 127.940771072716871, 35.06933287147038 ], [ 127.937750841904474, 35.070207601520679 ], [ 127.935267600105675, 35.077314309981439 ], [ 127.92655742253919, 35.078448075190295 ], [ 127.922714675095278, 35.081215376921442 ], [ 127.917322870087503, 35.081061868819425 ], [ 127.912354488750879, 35.088996695596883 ], [ 127.90720740850719, 35.088606633806549 ], [ 127.904495560984429, 35.086650346848195 ], [ 127.902276042107218, 35.087599876427518 ], [ 127.901883241886935, 35.095257876988242 ], [ 127.9093276123142, 35.098120188459504 ], [ 127.900043217546582, 35.106491998579443 ], [ 127.899718960584167, 35.109682999933845 ], [ 127.905841855929381, 35.113894159852933 ], [ 127.906119702571203, 35.112936311711159 ], [ 127.906932221588164, 35.113205903636548 ], [ 127.90606099651994, 35.114355959266547 ], [ 127.910893357250586, 35.118308402376996 ], [ 127.910458606415787, 35.120622079007013 ], [ 127.906547031524767, 35.121505607190777 ], [ 127.902042703234656, 35.125520584099064 ], [ 127.89559089963295, 35.126392853525353 ], [ 127.891084198761462, 35.131075065751268 ], [ 127.88543679076615, 35.130519392915907 ], [ 127.885124856295789, 35.134326029262418 ], [ 127.882339214474342, 35.13658435740502 ], [ 127.881252826517994, 35.142368727329746 ], [ 127.878964498935829, 35.145643374065237 ] ] ] ] } },
{ "type": "Feature", "properties": { "emd_cd": "48240370", "emd_nm": "서포면" }, "geometry": { "type": "MultiPolygon", "coordinates": [ [ [ [ 127.947337084520484, 34.962893538665845 ], [ 127.948986426005774, 34.962333631197559 ], [ 127.948364688132514, 34.961160296202024 ], [ 127.947337084520484, 34.962893538665845 ] ] ], [ [ [ 127.95773902011851, 34.963524561502467 ], [ 127.959066071306665, 34.963815569878236 ], [ 127.95769812195681, 34.962663239233038 ], [ 127.95773902011851, 34.963524561502467 ] ] ], [ [ [ 127.937708889940936, 34.974099592702913 ], [ 127.937159784906612, 34.974183255836145 ], [ 127.937444763440226, 34.974351732854913 ], [ 127.937708889940936, 34.974099592702913 ] ] ], [ [ [ 127.942874586349504, 34.975960037532055 ], [ 127.9421685095014, 34.975872823749938 ], [ 127.942315326177663, 34.976274790211875 ], [ 127.942874586349504, 34.975960037532055 ] ] ], [ [ [ 127.934936854794103, 34.978967643127071 ], [ 127.938585717197356, 34.97814908948957 ], [ 127.939420127510402, 34.977040491449287 ], [ 127.934613264312645, 34.977492039671873 ], [ 127.934936854794103, 34.978967643127071 ] ] ], [ [ [ 127.9598318335199, 34.979885902555225 ], [ 127.959299578446235, 34.980026368625687 ], [ 127.959667529014425, 34.980203807256082 ], [ 127.9598318335199, 34.979885902555225 ] ] ], [ [ [ 127.952556581724835, 34.981225239694325 ], [ 127.952609242744941, 34.980771154184609 ], [ 127.952348374083059, 34.980892472824848 ], [ 127.952556581724835, 34.981225239694325 ] ] ], [ [ [ 127.939022944223865, 34.985999984160856 ], [ 127.939785479671201, 34.985654866113549 ], [ 127.938856282495195, 34.985854042942115 ], [ 127.939022944223865, 34.985999984160856 ] ] ], [ [ [ 127.931691835450394, 34.997965210522359 ], [ 127.93218383603967, 34.99739355337892 ], [ 127.931963000486704, 34.997278744167886 ], [ 127.931691835450394, 34.997965210522359 ] ] ], [ [ [ 127.933649979330553, 35.002984134759473 ], [ 127.933297813748183, 35.001259236491663 ], [ 127.933284081160693, 35.003188211156612 ], [ 127.933649979330553, 35.002984134759473 ] ] ], [ [ [ 127.935593733030515, 35.0032368415985 ], [ 127.9368991608698, 35.002544948188692 ], [ 127.935919939448041, 35.002040835583557 ], [ 127.935593733030515, 35.0032368415985 ] ] ], [ [ [ 127.932652129656617, 35.00481823630826 ], [ 127.933220424189557, 35.004144127153246 ], [ 127.93278571959452, 35.004087663592557 ], [ 127.932652129656617, 35.00481823630826 ] ] ], [ [ [ 127.964947233492126, 34.946597068686017 ], [ 127.966593625764204, 34.946519520614125 ], [ 127.965737656365491, 34.945535457147017 ], [ 127.964947233492126, 34.946597068686017 ] ] ], [ [ [ 127.970407517476971, 34.961072332677993 ], [ 127.971489507984217, 34.963088540364254 ], [ 127.972325095459681, 34.962534101557857 ], [ 127.970407517476971, 34.961072332677993 ] ] ], [ [ [ 127.960660650581417, 34.964371126503465 ], [ 127.963182361263321, 34.96603630885982 ], [ 127.966838518343181, 34.965455911258111 ], [ 127.966177311389103, 34.964018337839185 ], [ 127.96362229015439, 34.964110982603955 ], [ 127.965073060261346, 34.96091695917027 ], [ 127.961049808566983, 34.961382666792709 ], [ 127.960660650581417, 34.964371126503465 ] ] ], [ [ [ 127.999662411168131, 34.974333987391859 ], [ 127.999255530060665, 34.973507098410515 ], [ 127.998970112037611, 34.973808348242002 ], [ 127.999662411168131, 34.974333987391859 ] ] ], [ [ [ 127.979352078969768, 34.975429136522806 ], [ 127.979079073117717, 34.974932277020393 ], [ 127.978641848240372, 34.975241474824017 ], [ 127.979352078969768, 34.975429136522806 ] ] ], [ [ [ 127.993909038054767, 34.975583597695042 ], [ 127.995529815160197, 34.975176652216355 ], [ 127.994695288572984, 34.977579182868787 ], [ 127.995920663780751, 34.977831551531466 ], [ 127.997496227396354, 34.976591012381533 ], [ 127.99628795816362, 34.9750113520235 ], [ 127.998172442785147, 34.974498186064011 ], [ 127.993978899129019, 34.972608620031444 ], [ 127.993909038054767, 34.975583597695042 ] ] ], [ [ [ 127.977788190673124, 34.97526260152425 ], [ 127.977737300617207, 34.975431866420607 ], [ 127.977974408251811, 34.975391466377317 ], [ 127.977788190673124, 34.97526260152425 ] ] ], [ [ [ 127.963036777830752, 34.976202204413532 ], [ 127.962511118763175, 34.983374624568071 ], [ 127.965621201668739, 34.982207870859952 ], [ 127.965802938040525, 34.989802612160183 ], [ 127.967953794433583, 34.990103957633472 ], [ 127.969818190938469, 34.98745334637794 ], [ 127.968002218073678, 34.985125819851049 ], [ 127.970987243391193, 34.984175283398088 ], [ 127.967740555891396, 34.984314143720496 ], [ 127.965707241152529, 34.982074315582352 ], [ 127.971130007702968, 34.981619923836199 ], [ 127.971577899395456, 34.980002823446434 ], [ 127.974255117980675, 34.981116787897463 ], [ 127.974216610945305, 34.977135721347715 ], [ 127.977173496986225, 34.977455741052474 ], [ 127.97632648382347, 34.974605899125621 ], [ 127.980522482894187, 34.971929776591033 ], [ 127.982916169825117, 34.973207985013396 ], [ 127.979209006923313, 34.970539786211972 ], [ 127.98028107830271, 34.968681197174625 ], [ 127.983271353746289, 34.969342159496428 ], [ 127.986350450621828, 34.966734461428985 ], [ 127.988520787364635, 34.969316014688459 ], [ 127.986859626893505, 34.971674603916135 ], [ 127.987176355566376, 34.973233330725769 ], [ 127.988991237883567, 34.970544905425051 ], [ 127.991015529946154, 34.972349661313153 ], [ 127.99210547825642, 34.969836178078211 ], [ 127.99494199361564, 34.971016502525487 ], [ 127.995055806348432, 34.967386831399175 ], [ 127.991665316869529, 34.968347461517979 ], [ 127.992133408069932, 34.965097577294195 ], [ 127.990442687386206, 34.967853840437698 ], [ 127.983553321303503, 34.965720248705189 ], [ 127.982326015225794, 34.964125923558136 ], [ 127.984056377814966, 34.963282675721636 ], [ 127.97705617611544, 34.965839379437831 ], [ 127.971721104355439, 34.965141804478066 ], [ 127.970582265487835, 34.965490540469744 ], [ 127.972329792395101, 34.96623899250698 ], [ 127.969739785744622, 34.965804468436019 ], [ 127.968180124924942, 34.969459750818046 ], [ 127.962365360612708, 34.971803687451242 ], [ 127.964757059726452, 34.974096953562608 ], [ 127.963853830873731, 34.976008164735489 ], [ 127.961716083854483, 34.975964894672515 ], [ 127.963036777830752, 34.976202204413532 ] ] ], [ [ [ 127.998295799541509, 34.977178773708161 ], [ 127.998904148176791, 34.976777395113153 ], [ 127.99797180518118, 34.976881423479291 ], [ 127.998295799541509, 34.977178773708161 ] ] ], [ [ [ 127.999890002516381, 34.982426169825224 ], [ 127.999922172766276, 34.981482206853961 ], [ 127.999536302607638, 34.981656045496067 ], [ 127.999890002516381, 34.982426169825224 ] ] ], [ [ [ 127.923193267090227, 35.026406216532074 ], [ 127.925105996826304, 35.029532407358289 ], [ 127.922950884921249, 35.033111302517035 ], [ 127.924710063294526, 35.035223257828584 ], [ 127.923262679412389, 35.038011486654902 ], [ 127.923919503427967, 35.041829896348766 ], [ 127.927043680467662, 35.042712222562784 ], [ 127.931183589618868, 35.047735380658871 ], [ 127.937825225694425, 35.04855314131909 ], [ 127.940638559324213, 35.045831302480252 ], [ 127.944185010547983, 35.047172569984518 ], [ 127.946735040177273, 35.04577453857992 ], [ 127.959064481186601, 35.045980241219425 ], [ 127.963864326895902, 35.051663868782917 ], [ 127.965880391683427, 35.051974357547735 ], [ 127.970307321570331, 35.044999118737962 ], [ 127.972653251238256, 35.045189401803995 ], [ 127.974234315328189, 35.040416964831202 ], [ 127.973079889439163, 35.0362290306376 ], [ 127.976868489640268, 35.031405512177628 ], [ 127.985288930777131, 35.031689894985284 ], [ 127.98923654943529, 35.033663658168365 ], [ 127.987640633584434, 35.034992984953391 ], [ 127.987806197499239, 35.039134963622601 ], [ 127.996480220933677, 35.037182974228926 ], [ 127.996738614069415, 35.034129069950197 ], [ 127.997143662651368, 35.034465922655322 ], [ 127.997882783743989, 35.0346527085958 ], [ 127.99430463672239, 35.031987099231316 ], [ 127.99795517020938, 35.031144236788911 ], [ 128.000757175127376, 35.027657896667456 ], [ 128.003814352261571, 35.026993020470634 ], [ 128.004394134233195, 35.026487778061124 ], [ 128.003159735024923, 35.025053054357045 ], [ 128.005895187228447, 35.02531642335348 ], [ 128.007763679492882, 35.023405390963411 ], [ 128.0064677505068, 35.024573845815119 ], [ 128.005776501159801, 35.024744305046916 ], [ 128.007978514346718, 35.022903235008492 ], [ 128.00831127816727, 35.021722027172082 ], [ 128.006804766920396, 35.021481500326992 ], [ 128.009906806728111, 35.016350242917461 ], [ 128.007632043697555, 35.017777830077414 ], [ 128.006779873753317, 35.016815719460766 ], [ 128.008566030133068, 35.015312946857989 ], [ 128.006843354094258, 35.014943393994741 ], [ 128.007499891294088, 35.012878264216056 ], [ 128.012592866998034, 35.010242235329876 ], [ 128.017970675726275, 35.01030836193997 ], [ 128.016031278306912, 35.007422468752246 ], [ 128.019836598224202, 35.004648499466398 ], [ 128.014724761088559, 35.001770824124655 ], [ 128.018905913812148, 35.001405231048658 ], [ 128.015320647046707, 34.998133128436216 ], [ 128.016161339790926, 34.997107450376888 ], [ 128.015483748738632, 34.993886965204972 ], [ 128.013680180309677, 34.990230177421616 ], [ 128.012049983068437, 34.994487836309851 ], [ 128.008929925213806, 34.996710265781786 ], [ 128.007448383351203, 34.995992247802448 ], [ 128.009334140521503, 34.992702476192129 ], [ 128.007445123979522, 34.989847726106994 ], [ 128.009086725354138, 34.989893242355166 ], [ 128.009609061666396, 34.987163080102334 ], [ 128.012681963372188, 34.986410409206691 ], [ 128.008429919268195, 34.984362866580774 ], [ 128.007949023321544, 34.982429914829005 ], [ 128.003702583611641, 34.983195282015942 ], [ 128.005857787882888, 34.984656224860629 ], [ 128.005349415263396, 34.98830166368483 ], [ 127.999852754655706, 34.983652109027801 ], [ 127.999898162756921, 34.986570063704917 ], [ 128.002314162258301, 34.989259898185907 ], [ 127.998964410374299, 34.990889827594259 ], [ 128.000312367845481, 34.995119816227955 ], [ 127.99757666479772, 34.996103481464594 ], [ 127.99710929228813, 34.993419199538152 ], [ 127.995308356140626, 34.99399997792468 ], [ 127.993188335306812, 34.991486043668118 ], [ 127.994781136481009, 34.99117966661386 ], [ 127.993399938515992, 34.989282971455353 ], [ 127.995851220246323, 34.987959916966183 ], [ 127.995213300061167, 34.984474018105516 ], [ 127.993881167680399, 34.984399832705563 ], [ 127.994619742363923, 34.986868950351571 ], [ 127.992715509738844, 34.988248263022527 ], [ 127.991933797178106, 34.986912282740164 ], [ 127.989212708813241, 34.989296201959355 ], [ 127.987792878889238, 34.985622452112381 ], [ 127.991752847641138, 34.982262163799362 ], [ 127.989715690922651, 34.979448162978457 ], [ 127.990006845265029, 34.979419519573568 ], [ 127.990390838147491, 34.979631700613403 ], [ 127.990767581783459, 34.979617630520949 ], [ 127.988066852352745, 34.978723676415001 ], [ 127.988197790143715, 34.976807840404156 ], [ 127.986668734397128, 34.979220108802487 ], [ 127.98508797114394, 34.979254712654644 ], [ 127.984276661289442, 34.976346348171653 ], [ 127.982693045679326, 34.97582867772681 ], [ 127.982789309392061, 34.978025582967945 ], [ 127.980398677212079, 34.978500110830453 ], [ 127.981304460021818, 34.979632298369708 ], [ 127.979259963779853, 34.982044897522321 ], [ 127.978360341629411, 34.981039212968298 ], [ 127.976920062214944, 34.982457996136041 ], [ 127.977926141336923, 34.985398755529047 ], [ 127.975740128672797, 34.986844610479324 ], [ 127.974138169528501, 34.984842343376208 ], [ 127.974802506170732, 34.986190801284508 ], [ 127.972730973085632, 34.986518873798047 ], [ 127.974985727693962, 34.989991873270817 ], [ 127.97390290618101, 34.989254637225407 ], [ 127.974575543983704, 34.990290710843013 ], [ 127.971971511042582, 34.990911739148977 ], [ 127.973467197259978, 34.992218010149749 ], [ 127.97223987042284, 34.994106875489969 ], [ 127.968028386394366, 34.993654405989048 ], [ 127.968425572180706, 34.992732671014039 ], [ 127.967735723288527, 34.991786145025173 ], [ 127.967423915919213, 34.991715529544983 ], [ 127.965132745710164, 34.994916423997502 ], [ 127.9627743580767, 34.995067711130197 ], [ 127.961585801467805, 34.99464807205058 ], [ 127.960974484176646, 34.988333479502316 ], [ 127.957063409619437, 34.985249477927859 ], [ 127.957728362760733, 34.984234602543083 ], [ 127.952860155291972, 34.986805285253062 ], [ 127.946465670933961, 34.98282044299669 ], [ 127.952133869590583, 34.981459475278783 ], [ 127.948784286696608, 34.980741218331111 ], [ 127.948208780412116, 34.97848722226577 ], [ 127.951939390605204, 34.977576282010894 ], [ 127.953076659050751, 34.975974527994566 ], [ 127.952864093966312, 34.975563488752492 ], [ 127.944976867877102, 34.977921386314918 ], [ 127.943866713858199, 34.97979751865433 ], [ 127.94223328933117, 34.979787778615766 ], [ 127.942385302494003, 34.979250813119023 ], [ 127.941184289339674, 34.978814977151387 ], [ 127.940746639644772, 34.978981524040037 ], [ 127.941346927188448, 34.980602208167959 ], [ 127.939981610091891, 34.981627096212961 ], [ 127.934893330377051, 34.981548257744905 ], [ 127.93719318364559, 34.984401129664185 ], [ 127.940146029364996, 34.982268845852921 ], [ 127.944501548169399, 34.984076640845217 ], [ 127.940492785756859, 34.985545264204262 ], [ 127.94189455475211, 34.987031391810341 ], [ 127.938946346858273, 34.987632626847521 ], [ 127.938369677555613, 34.989883005115246 ], [ 127.934109223906816, 34.986162021084695 ], [ 127.934459853406793, 34.991130257853563 ], [ 127.932224517605832, 34.991494133256133 ], [ 127.932419081444976, 34.992652067260437 ], [ 127.935198632797722, 34.996378570611725 ], [ 127.936170872454014, 34.99283292608164 ], [ 127.939987758475411, 34.992405815853637 ], [ 127.937925718966369, 34.996967983595574 ], [ 127.944624805328473, 34.998043002199488 ], [ 127.944790410242305, 34.999386662417862 ], [ 127.943192836447309, 35.000251908288959 ], [ 127.93502202500818, 34.997995393908909 ], [ 127.941318260929165, 35.001493531949031 ], [ 127.940722900041109, 35.004183085631219 ], [ 127.938331113821818, 35.005245580973025 ], [ 127.936520486607606, 35.004014751570132 ], [ 127.935087033849996, 35.006137377341567 ], [ 127.9331523104469, 35.006098328058826 ], [ 127.930394826250634, 35.009338603206722 ], [ 127.930653608212126, 35.011183199494305 ], [ 127.928490960936116, 35.012217675096466 ], [ 127.929755438177693, 35.01344280166753 ], [ 127.922743502128654, 35.014614459688133 ], [ 127.924351690713465, 35.017997403760099 ], [ 127.92054052479979, 35.022825324225117 ], [ 127.921890868732433, 35.023680177332984 ], [ 127.921126473209171, 35.025401556850746 ], [ 127.919764606866622, 35.025468200967808 ], [ 127.923193267090227, 35.026406216532074 ] ] ] ] } }
]
}
