{
"type": "FeatureCollection",
"name": "48270",
"crs": { "type": "name", "properties": { "name": "urn:ogc:def:crs:OGC:1.3:CRS84" } },
"features": [
{ "type": "Feature", "properties": { "emd_cd": "48270101", "emd_nm": "내일동" }, "geometry": { "type": "MultiPolygon", "coordinates": [ [ [ [ 128.76075025721218, 35.490523129683233 ], [ 128.75091546311856, 35.491297908110113 ], [ 128.750558398199757, 35.496562761703217 ], [ 128.752047506173994, 35.499084769833779 ], [ 128.760107504345171, 35.498925577459566 ], [ 128.75760193934039, 35.494943825741721 ], [ 128.761734751324525, 35.492613073928986 ], [ 128.76075025721218, 35.490523129683233 ] ] ] ] } },
{ "type": "Feature", "properties": { "emd_cd": "48270102", "emd_nm": "내이동" }, "geometry": { "type": "MultiPolygon", "coordinates": [ [ [ [ 128.743642104841399, 35.507318986887213 ], [ 128.744941564308675, 35.501905762290342 ], [ 128.75277277630471, 35.503552708488392 ], [ 128.75293104226904, 35.502268590971809 ], [ 128.750558398201832, 35.496562761703089 ], [ 128.751122931381019, 35.491462573975831 ], [ 128.745837533786982, 35.491820253048616 ], [ 128.7421429575015, 35.489990361144159 ], [ 128.74314553345593, 35.486104895354146 ], [ 128.740581512364287, 35.481596829637127 ], [ 128.738339802692167, 35.484380271444167 ], [ 128.739292980997476, 35.486563048304866 ], [ 128.736596112771053, 35.491870283102926 ], [ 128.736793292632484, 35.499919183613486 ], [ 128.73250037735545, 35.502989290669774 ], [ 128.728647622683837, 35.509512566818387 ], [ 128.733658925237449, 35.512411150403487 ], [ 128.743642104841399, 35.507318986887213 ] ] ] ] } },
{ "type": "Feature", "properties": { "emd_cd": "48270103", "emd_nm": "교동" }, "geometry": { "type": "MultiPolygon", "coordinates": [ [ [ [ 128.781918495638564, 35.499325345007811 ], [ 128.773478737786149, 35.502432758383769 ], [ 128.771197990900049, 35.501761518811435 ], [ 128.768680138287152, 35.503695025850149 ], [ 128.762034142695398, 35.502723650271015 ], [ 128.759734618010668, 35.498813295014045 ], [ 128.752090081635345, 35.499120711589299 ], [ 128.752772776302606, 35.503552708488506 ], [ 128.744941564306572, 35.50190576229047 ], [ 128.744107751328386, 35.505130534052569 ], [ 128.752638905481803, 35.511935008730042 ], [ 128.750277001160185, 35.514611884872387 ], [ 128.752362115674316, 35.517954086484757 ], [ 128.756431136560224, 35.518546334708304 ], [ 128.767770992456406, 35.513371654998593 ], [ 128.76658332823115, 35.518004864988356 ], [ 128.766906412080431, 35.519998778447068 ], [ 128.768490687044448, 35.519972673262686 ], [ 128.772701900162303, 35.51679272118762 ], [ 128.773796123423693, 35.510949241961576 ], [ 128.783844971543573, 35.502991967664911 ], [ 128.784151517363114, 35.50107300034076 ], [ 128.781918495638564, 35.499325345007811 ] ] ] ] } },
{ "type": "Feature", "properties": { "emd_cd": "48270104", "emd_nm": "삼문동" }, "geometry": { "type": "MultiPolygon", "coordinates": [ [ [ [ 128.740581512362184, 35.481596829637247 ], [ 128.743145533453713, 35.486104895354181 ], [ 128.741908813464931, 35.48960843563556 ], [ 128.745837533784737, 35.491820253048644 ], [ 128.76075025721218, 35.490523129683233 ], [ 128.764424063404874, 35.485343347566612 ], [ 128.761514269334356, 35.482132092760615 ], [ 128.760005679352986, 35.476791749001023 ], [ 128.756839898749632, 35.47450476681874 ], [ 128.752714160717034, 35.476734004466742 ], [ 128.742403760507017, 35.477689275831914 ], [ 128.740581512362184, 35.481596829637247 ] ] ] ] } },
{ "type": "Feature", "properties": { "emd_cd": "48270105", "emd_nm": "남포동" }, "geometry": { "type": "MultiPolygon", "coordinates": [ [ [ [ 128.77941737987166, 35.469318646256426 ], [ 128.78297837977891, 35.472318093227031 ], [ 128.791846770598994, 35.473257017901581 ], [ 128.795394031454265, 35.471663794037831 ], [ 128.793429459919281, 35.468272305080426 ], [ 128.794612740850454, 35.464561295963748 ], [ 128.791950139279436, 35.460270265762155 ], [ 128.784809683330735, 35.460364945638631 ], [ 128.783980879467265, 35.46502051974646 ], [ 128.77941737987166, 35.469318646256426 ] ] ] ] } },
{ "type": "Feature", "properties": { "emd_cd": "48270106", "emd_nm": "용평동" }, "geometry": { "type": "MultiPolygon", "coordinates": [ [ [ [ 128.757600489056699, 35.495055413008565 ], [ 128.762034142695398, 35.502723650271015 ], [ 128.768680138287152, 35.503695025850149 ], [ 128.771197990900049, 35.501761518811435 ], [ 128.779779548337387, 35.500523058968504 ], [ 128.781918495638564, 35.499325345007811 ], [ 128.780203664412028, 35.497460618808446 ], [ 128.779373630729111, 35.491254229964916 ], [ 128.782432181273947, 35.488420525193561 ], [ 128.7824228935539, 35.484877870830275 ], [ 128.776003381557956, 35.481433252391163 ], [ 128.768187762288704, 35.481666790305056 ], [ 128.76075025721218, 35.490523129683233 ], [ 128.761660256578637, 35.492707806029237 ], [ 128.757600489056699, 35.495055413008565 ] ] ] ] } },
{ "type": "Feature", "properties": { "emd_cd": "48270107", "emd_nm": "활성동" }, "geometry": { "type": "MultiPolygon", "coordinates": [ [ [ [ 128.780203664412028, 35.497460618808446 ], [ 128.783671710866798, 35.500179963809188 ], [ 128.806403500051459, 35.490601975363795 ], [ 128.809104192943806, 35.486862518948463 ], [ 128.816953378271052, 35.482238723883341 ], [ 128.827210684294101, 35.48046435445994 ], [ 128.830281116432758, 35.481380301444538 ], [ 128.832626671118135, 35.479386483304687 ], [ 128.832254242821563, 35.475705343479291 ], [ 128.835831038700974, 35.471227214049485 ], [ 128.835000429965078, 35.466313216253852 ], [ 128.831788034728447, 35.466010420094378 ], [ 128.830803782868685, 35.468559832174016 ], [ 128.828255857278776, 35.469594644387008 ], [ 128.810339688928991, 35.469021136721956 ], [ 128.810191582671791, 35.470355944857239 ], [ 128.802608434354795, 35.473153910394736 ], [ 128.803618100866487, 35.474239930854075 ], [ 128.801930242042744, 35.476971326803728 ], [ 128.792752300056691, 35.485766258300728 ], [ 128.781997422676426, 35.481955817661444 ], [ 128.780892491997264, 35.483359180269808 ], [ 128.782422893553957, 35.48487787083031 ], [ 128.782432181273947, 35.488420525193561 ], [ 128.779373630729111, 35.491254229964881 ], [ 128.780203664412028, 35.497460618808446 ] ] ] ] } },
{ "type": "Feature", "properties": { "emd_cd": "48270108", "emd_nm": "가곡동" }, "geometry": { "type": "MultiPolygon", "coordinates": [ [ [ [ 128.77941737987166, 35.469318646256426 ], [ 128.768291758602032, 35.468767529517898 ], [ 128.756839898749575, 35.474504766818754 ], [ 128.760005679352986, 35.476791749001023 ], [ 128.761514269334384, 35.482132092760551 ], [ 128.764424063404874, 35.485343347566612 ], [ 128.76748525254709, 35.482093775289833 ], [ 128.771441365797642, 35.48097081061487 ], [ 128.780892491997264, 35.483359180269808 ], [ 128.781997422676426, 35.481955817661444 ], [ 128.792752300056691, 35.485766258300728 ], [ 128.803618100866487, 35.474239930854075 ], [ 128.801808299102674, 35.472402648768778 ], [ 128.798315773906523, 35.473447023532785 ], [ 128.795394031454265, 35.471663794037831 ], [ 128.791846770598994, 35.473257017901581 ], [ 128.78297837977891, 35.472318093227031 ], [ 128.77941737987166, 35.469318646256426 ] ] ] ] } },
{ "type": "Feature", "properties": { "emd_cd": "48270250", "emd_nm": "삼랑진읍" }, "geometry": { "type": "MultiPolygon", "coordinates": [ [ [ [ 128.90646735372485, 35.439905747866952 ], [ 128.907968018232168, 35.435317938203134 ], [ 128.922264176646962, 35.425944722101967 ], [ 128.924418335002571, 35.419515627126685 ], [ 128.912651919849935, 35.414433203132262 ], [ 128.903592349718679, 35.419822607342176 ], [ 128.898479751965397, 35.417737579458887 ], [ 128.898401924907972, 35.416271153147122 ], [ 128.890896466953706, 35.414526463758207 ], [ 128.892260081312429, 35.411738490168993 ], [ 128.890288070862255, 35.403967327789225 ], [ 128.88773293255349, 35.404148575046911 ], [ 128.879436603927189, 35.398095096396538 ], [ 128.878539771161854, 35.39073318601335 ], [ 128.880610364637903, 35.386512554208245 ], [ 128.876102625842407, 35.385582828779214 ], [ 128.874766769325419, 35.382342927365208 ], [ 128.872380119471927, 35.382190349761174 ], [ 128.869453130618638, 35.391769428844341 ], [ 128.86523205485301, 35.395468326902723 ], [ 128.859504767903587, 35.395549197741275 ], [ 128.826986875879868, 35.381601540313746 ], [ 128.815484089599295, 35.380293478287278 ], [ 128.810829846554327, 35.385750315408792 ], [ 128.790439700329074, 35.39449882948918 ], [ 128.79092960440758, 35.403743637126759 ], [ 128.797803006706118, 35.428992228872296 ], [ 128.795266686783378, 35.434405244633503 ], [ 128.782494985598788, 35.443386426486704 ], [ 128.779357293046473, 35.44894295800723 ], [ 128.784809683330735, 35.460364945638631 ], [ 128.792984068136604, 35.460933795868975 ], [ 128.794877282514904, 35.471112897627741 ], [ 128.800966038989145, 35.473385614284709 ], [ 128.810191582671791, 35.470355944857239 ], [ 128.810990241794912, 35.468762507431322 ], [ 128.81333192388314, 35.469916238182776 ], [ 128.819443597725211, 35.468747212480558 ], [ 128.828450986358803, 35.469570291482093 ], [ 128.830803782868685, 35.468559832174016 ], [ 128.831788034728447, 35.466010420094378 ], [ 128.835000429965078, 35.466313216253852 ], [ 128.83851657001577, 35.461333337615066 ], [ 128.849502269884539, 35.456113672983626 ], [ 128.863428565865064, 35.458162544049046 ], [ 128.86492193244473, 35.453752240936311 ], [ 128.877523075885136, 35.445646347852374 ], [ 128.877721190305977, 35.443746081505779 ], [ 128.889592595561936, 35.444205362297701 ], [ 128.896946083654257, 35.447609688050385 ], [ 128.90646735372485, 35.439905747866952 ] ] ] ] } },
{ "type": "Feature", "properties": { "emd_cd": "48270253", "emd_nm": "하남읍" }, "geometry": { "type": "MultiPolygon", "coordinates": [ [ [ [ 128.694819284058553, 35.375344113934702 ], [ 128.697948975862744, 35.378509873097833 ], [ 128.698855688014646, 35.383329545489111 ], [ 128.704563542865799, 35.381181200219459 ], [ 128.708956614509617, 35.386274443106096 ], [ 128.710691845453169, 35.388962653878515 ], [ 128.710947206531927, 35.39715260851986 ], [ 128.713030721829625, 35.396823239453589 ], [ 128.716777551533625, 35.403036861568225 ], [ 128.711421410011297, 35.405659916205103 ], [ 128.706053903149126, 35.411619735591771 ], [ 128.709810587088725, 35.416873144402956 ], [ 128.711692976077302, 35.427192106958401 ], [ 128.721326750029419, 35.422199127459777 ], [ 128.725748184398384, 35.422191969179089 ], [ 128.72960744220083, 35.420046057810588 ], [ 128.734184063675798, 35.411893609114827 ], [ 128.739538979475896, 35.410700714464561 ], [ 128.741528067906273, 35.406603074244053 ], [ 128.74635727868278, 35.406142611808065 ], [ 128.749374373114847, 35.403969303539164 ], [ 128.755687376737171, 35.38766579116276 ], [ 128.760633085614899, 35.384692782224654 ], [ 128.759900186710098, 35.382547163138248 ], [ 128.76844530142148, 35.377010156067094 ], [ 128.783352203834767, 35.372705475711214 ], [ 128.783717927012333, 35.369835634729945 ], [ 128.779851047710991, 35.371214252315809 ], [ 128.778098374539326, 35.366914427042694 ], [ 128.787768262422702, 35.364264447990465 ], [ 128.78476107305238, 35.36262039984102 ], [ 128.786864426316356, 35.361639764041101 ], [ 128.789992509439685, 35.355249433893086 ], [ 128.786103646258795, 35.351310714127578 ], [ 128.775115760597032, 35.346442678145038 ], [ 128.764117638909795, 35.345526346002416 ], [ 128.753567830429546, 35.348222729490352 ], [ 128.743290197510674, 35.348251051970209 ], [ 128.714533305058239, 35.368522401179973 ], [ 128.703520005791745, 35.371113527318734 ], [ 128.694819284058553, 35.375344113934702 ] ] ] ] } },
{ "type": "Feature", "properties": { "emd_cd": "48270310", "emd_nm": "부북면" }, "geometry": { "type": "MultiPolygon", "coordinates": [ [ [ [ 128.744133244232728, 35.505158772078374 ], [ 128.743642104841399, 35.507318986887213 ], [ 128.733658925237449, 35.512411150403487 ], [ 128.728647622683837, 35.509512566818387 ], [ 128.73250037735545, 35.502989290669774 ], [ 128.736793292632484, 35.499919183613486 ], [ 128.736596112771053, 35.491870283102926 ], [ 128.741690873893447, 35.478217557299374 ], [ 128.752714160719222, 35.476734004466721 ], [ 128.758232583017019, 35.473702111840161 ], [ 128.751958718639429, 35.47203340179157 ], [ 128.752518288932606, 35.469103529548846 ], [ 128.737223242005911, 35.455643229010285 ], [ 128.724295142900871, 35.449310307632338 ], [ 128.720982062175779, 35.456422435759102 ], [ 128.711354209451798, 35.462578472013064 ], [ 128.717210042201941, 35.47718363414026 ], [ 128.714631174192789, 35.478643296172393 ], [ 128.712187352050648, 35.484829784084887 ], [ 128.71193154666247, 35.49090034953565 ], [ 128.709000652870429, 35.492466080094474 ], [ 128.706931950022494, 35.498202523521684 ], [ 128.696722513388664, 35.502121449220908 ], [ 128.693166513217676, 35.508713807815788 ], [ 128.69872939978967, 35.511554211844427 ], [ 128.6991599403799, 35.516375972098309 ], [ 128.701181435914947, 35.517916452479668 ], [ 128.69978663608515, 35.520502164371692 ], [ 128.693697700966538, 35.523039589001449 ], [ 128.691130894930467, 35.518057288916793 ], [ 128.689231427334761, 35.517526967870886 ], [ 128.685089130255335, 35.520725485697817 ], [ 128.675689617352674, 35.523986115696623 ], [ 128.677527040351464, 35.531727238979542 ], [ 128.681974461290679, 35.533228246456915 ], [ 128.682863128454727, 35.536037244903362 ], [ 128.676277339696611, 35.543824074316284 ], [ 128.676174963338354, 35.547619058770316 ], [ 128.673691132455303, 35.550526479955067 ], [ 128.675033147108451, 35.561972085739406 ], [ 128.67390526441423, 35.566853078103726 ], [ 128.675684574093339, 35.570233712145431 ], [ 128.679531603825325, 35.571101531720082 ], [ 128.683886829944612, 35.56895536989574 ], [ 128.688064770664454, 35.570718155615388 ], [ 128.692086915645064, 35.576742895922486 ], [ 128.695603054335038, 35.578418439529429 ], [ 128.696894937256076, 35.582204387450368 ], [ 128.703308090154735, 35.578010161730802 ], [ 128.714004970020483, 35.578576401804021 ], [ 128.715378334699381, 35.576931076827464 ], [ 128.716503718387457, 35.566481911907374 ], [ 128.722939823246264, 35.562615263405199 ], [ 128.722419315231605, 35.560248017458626 ], [ 128.728457156873134, 35.555532967848841 ], [ 128.733116700621082, 35.553436998186875 ], [ 128.737802142975482, 35.553829688884406 ], [ 128.737963500679712, 35.550629892905874 ], [ 128.742319097587682, 35.547942381740974 ], [ 128.740317453488728, 35.546151663716302 ], [ 128.741195446434062, 35.53844418605258 ], [ 128.748301708788688, 35.530861883215088 ], [ 128.749118689759882, 35.522692427416793 ], [ 128.752362115676391, 35.517954086484728 ], [ 128.750277001162289, 35.514611884872274 ], [ 128.752638905483991, 35.511935008730013 ], [ 128.744133244232728, 35.505158772078374 ] ] ] ] } },
{ "type": "Feature", "properties": { "emd_cd": "48270320", "emd_nm": "상동면" }, "geometry": { "type": "MultiPolygon", "coordinates": [ [ [ [ 128.842184487789439, 35.551491199377402 ], [ 128.824460897443089, 35.544212521301716 ], [ 128.817220626925575, 35.549144318892722 ], [ 128.80633582590886, 35.550148789253441 ], [ 128.800877037793981, 35.547005220196809 ], [ 128.800784079033519, 35.54197274572023 ], [ 128.795223836019574, 35.536698147495891 ], [ 128.790981572471566, 35.529937770970328 ], [ 128.789148701450159, 35.522648700748896 ], [ 128.786370356362141, 35.521143279196728 ], [ 128.784887601795333, 35.517995877540358 ], [ 128.7751035711116, 35.520120970885721 ], [ 128.772701900162303, 35.51679272118762 ], [ 128.766906412080431, 35.519998778447068 ], [ 128.767475527590989, 35.513375922316165 ], [ 128.756431136560224, 35.518546334708304 ], [ 128.752362115674316, 35.517954086484757 ], [ 128.74958062050618, 35.521346935095394 ], [ 128.748301708786585, 35.530861883215188 ], [ 128.741195446431988, 35.538444186052601 ], [ 128.740317453486625, 35.546151663716309 ], [ 128.742319097585579, 35.547942381741088 ], [ 128.737963500677495, 35.550629892905903 ], [ 128.737802142973408, 35.55382968888452 ], [ 128.733116700619121, 35.553436998186982 ], [ 128.728457156871031, 35.555532967848976 ], [ 128.722419315229615, 35.560248017458761 ], [ 128.722939823244303, 35.56261526340532 ], [ 128.716503718385468, 35.566481911907481 ], [ 128.714957665420968, 35.577597229668413 ], [ 128.724620043354633, 35.581476689240866 ], [ 128.727679078644627, 35.577510227646691 ], [ 128.731972491586504, 35.575953028501658 ], [ 128.737418012718507, 35.577154058931178 ], [ 128.741288063050405, 35.574133221076821 ], [ 128.748762846574976, 35.570733077329152 ], [ 128.753847292455021, 35.570339082562008 ], [ 128.757178434242348, 35.567706483741958 ], [ 128.766345983132595, 35.568240788590067 ], [ 128.768466145879671, 35.570844083395265 ], [ 128.771036993319825, 35.568631091173827 ], [ 128.785528413703531, 35.56688809412303 ], [ 128.792345627785636, 35.570466133738712 ], [ 128.798780344046378, 35.5783063660678 ], [ 128.801655387504866, 35.588600836795734 ], [ 128.809563382154778, 35.588984178344589 ], [ 128.821391622723951, 35.59355760462028 ], [ 128.823762656637939, 35.596117888891349 ], [ 128.833648049268646, 35.597354069054411 ], [ 128.842638435101946, 35.588993711113368 ], [ 128.84578294791217, 35.579606162612905 ], [ 128.8457495398834, 35.575274189587347 ], [ 128.841278661410342, 35.567669908833501 ], [ 128.842560119009363, 35.560075099983138 ], [ 128.840677323228675, 35.553876188611348 ], [ 128.842184487789439, 35.551491199377402 ] ] ] ] } },
{ "type": "Feature", "properties": { "emd_cd": "48270330", "emd_nm": "산외면" }, "geometry": { "type": "MultiPolygon", "coordinates": [ [ [ [ 128.772701900162303, 35.51679272118762 ], [ 128.7751035711116, 35.520120970885721 ], [ 128.784887601795333, 35.517995877540358 ], [ 128.786370356362141, 35.521143279196728 ], [ 128.789148701450159, 35.522648700748896 ], [ 128.790981572471566, 35.529937770970328 ], [ 128.795223836019574, 35.536698147495891 ], [ 128.800784079033519, 35.54197274572023 ], [ 128.800877037793981, 35.547005220196809 ], [ 128.80633582590886, 35.550148789253441 ], [ 128.817220626925575, 35.549144318892722 ], [ 128.824460897443089, 35.544212521301716 ], [ 128.842184487789439, 35.551491199377402 ], [ 128.854139446600499, 35.546765879100363 ], [ 128.859518624392081, 35.547794480713549 ], [ 128.861763538792587, 35.544848196391627 ], [ 128.870966011293689, 35.546314089018573 ], [ 128.875196764411356, 35.54451571134878 ], [ 128.865339149213185, 35.537527273846727 ], [ 128.865739918795413, 35.53519716807611 ], [ 128.860934433358409, 35.524789030817431 ], [ 128.854900792809161, 35.519529500762189 ], [ 128.848134326842171, 35.518095802045714 ], [ 128.845920130352198, 35.511556510364478 ], [ 128.830589102287604, 35.501751755756402 ], [ 128.829736144137399, 35.498800824995094 ], [ 128.822790663798969, 35.49666495537582 ], [ 128.819683872995483, 35.491237470696738 ], [ 128.817065815975724, 35.490312141085617 ], [ 128.81040664444788, 35.489508689420163 ], [ 128.80404453398404, 35.490827521317151 ], [ 128.783671710866798, 35.500179963809188 ], [ 128.78251406916425, 35.504675245628327 ], [ 128.773796123423693, 35.510949241961576 ], [ 128.772701900162303, 35.51679272118762 ] ] ] ] } },
{ "type": "Feature", "properties": { "emd_cd": "48270340", "emd_nm": "산내면" }, "geometry": { "type": "MultiPolygon", "coordinates": [ [ [ [ 128.971190054635571, 35.560300022646679 ], [ 128.961891800260844, 35.560807976853745 ], [ 128.950381665569296, 35.557028802175147 ], [ 128.935478782257377, 35.567079239631617 ], [ 128.932976574951908, 35.580861276154842 ], [ 128.920174338393991, 35.5853550568158 ], [ 128.917189495950794, 35.584183032502828 ], [ 128.912423899402881, 35.57553547272677 ], [ 128.910890379705506, 35.569994598453619 ], [ 128.911077752249525, 35.559693031856781 ], [ 128.905041143345471, 35.555046543256644 ], [ 128.904894016769305, 35.550076393109727 ], [ 128.902505539226524, 35.546376077954406 ], [ 128.895055467323857, 35.546507777721772 ], [ 128.888920302710403, 35.550794469028716 ], [ 128.884629950652624, 35.550408167533021 ], [ 128.875196764411356, 35.544515711348822 ], [ 128.870966011293632, 35.546314089018573 ], [ 128.861763538792559, 35.544848196391627 ], [ 128.859518624392024, 35.547794480713549 ], [ 128.854139446600556, 35.546765879100363 ], [ 128.844977194661624, 35.54976846960723 ], [ 128.840677323228675, 35.553876188611348 ], [ 128.84256011900942, 35.560075099983109 ], [ 128.8416648981447, 35.569354342105299 ], [ 128.845958233778248, 35.576506614443318 ], [ 128.842638435102003, 35.588993711113375 ], [ 128.845696051036384, 35.589619410414969 ], [ 128.851679256018969, 35.594628363676811 ], [ 128.859358340937007, 35.606220959608429 ], [ 128.864790086904577, 35.60904717023196 ], [ 128.868147278663258, 35.616121214454402 ], [ 128.871965358201521, 35.618251258184628 ], [ 128.873876065843035, 35.621636107939182 ], [ 128.875378160792451, 35.63232983861878 ], [ 128.87707803394116, 35.633704872762678 ], [ 128.881460400714332, 35.635477887141512 ], [ 128.884794264219352, 35.633984563253684 ], [ 128.887244514706424, 35.629107695485779 ], [ 128.891915919664626, 35.6293096398256 ], [ 128.915053337037762, 35.640618695330424 ], [ 128.941144954303212, 35.635073379639401 ], [ 128.951197730206104, 35.630153585275245 ], [ 128.953591574013501, 35.62523989116076 ], [ 128.961261094781435, 35.620562237906263 ], [ 128.960876576859363, 35.615581340659951 ], [ 128.972807251030815, 35.613447015067081 ], [ 128.982641936842668, 35.608705197946712 ], [ 128.986749512665313, 35.609120199297834 ], [ 128.997095864374131, 35.615004475776253 ], [ 129.00273945645597, 35.620258514963957 ], [ 129.008501008478163, 35.61593736069991 ], [ 129.016674954416914, 35.616288530991376 ], [ 129.02245459303893, 35.614223337639061 ], [ 129.02360063353342, 35.609245494954081 ], [ 129.022647733311857, 35.602953540597234 ], [ 129.024622623960852, 35.599916077682082 ], [ 129.022679693880605, 35.595975638563239 ], [ 129.0227546087973, 35.59126492576361 ], [ 129.01893157436453, 35.586761169861767 ], [ 129.018895132640409, 35.58381998282529 ], [ 129.013050568723429, 35.582965550385715 ], [ 129.007930432103393, 35.580191560027117 ], [ 128.99407992859912, 35.566996868826294 ], [ 128.983175452400701, 35.56508628125129 ], [ 128.971190054635571, 35.560300022646679 ] ] ] ] } },
{ "type": "Feature", "properties": { "emd_cd": "48270350", "emd_nm": "단장면" }, "geometry": { "type": "MultiPolygon", "coordinates": [ [ [ [ 128.865339149213185, 35.537527273846727 ], [ 128.884629950652624, 35.550408167533021 ], [ 128.890133041009591, 35.550440502134791 ], [ 128.895055467323857, 35.546507777721772 ], [ 128.903619644378836, 35.547197383015316 ], [ 128.905041143345471, 35.555046543256644 ], [ 128.911077752249525, 35.559693031856781 ], [ 128.910890379705506, 35.569994598453619 ], [ 128.912423899402881, 35.57553547272677 ], [ 128.917189495950794, 35.584183032502828 ], [ 128.920174338393991, 35.5853550568158 ], [ 128.932976574951908, 35.580861276154842 ], [ 128.934598143827003, 35.577486451932359 ], [ 128.935156413571434, 35.567603453448008 ], [ 128.945544988237401, 35.559806061150184 ], [ 128.950381665569296, 35.557028802175147 ], [ 128.961891800260844, 35.560807976853745 ], [ 128.971190054635571, 35.560300022646679 ], [ 128.972005782761329, 35.556422916047644 ], [ 128.980921680696923, 35.546373256215929 ], [ 128.98934749694493, 35.551604854876238 ], [ 128.992290921800304, 35.547371075815519 ], [ 128.996993503618796, 35.544972251037436 ], [ 128.998960920508353, 35.540001471385196 ], [ 128.995921346475797, 35.535247706667491 ], [ 128.99458912973509, 35.528133079759002 ], [ 128.991598786269492, 35.527129437407297 ], [ 128.990960795129496, 35.52326609560432 ], [ 128.988804704310496, 35.521750820550103 ], [ 128.98963409259926, 35.516635930937831 ], [ 128.984749138903197, 35.514925521254419 ], [ 128.97729776249983, 35.507542323598706 ], [ 128.961886859430933, 35.509468817211939 ], [ 128.95854864923993, 35.505466550012422 ], [ 128.957941585675655, 35.498907384468204 ], [ 128.961580772909485, 35.494055234715759 ], [ 128.967610041023164, 35.489978553426305 ], [ 128.963149138440059, 35.484507339185285 ], [ 128.966017881975091, 35.481224701951682 ], [ 128.964558141708096, 35.476928680204999 ], [ 128.968429828064359, 35.471887498355223 ], [ 128.96765420985372, 35.467259551263147 ], [ 128.961927619029808, 35.466688833805648 ], [ 128.960891589871693, 35.464551270034313 ], [ 128.964131500936077, 35.463839469637037 ], [ 128.958478461889797, 35.458398230444566 ], [ 128.950081374809571, 35.454245154006919 ], [ 128.942377844958401, 35.456348272560092 ], [ 128.933514826534008, 35.452620242285008 ], [ 128.929834485628731, 35.454322520887828 ], [ 128.926375961589031, 35.452105746057256 ], [ 128.918498838133331, 35.451747700653989 ], [ 128.916978256079659, 35.449025200577609 ], [ 128.910056019390083, 35.444674269041613 ], [ 128.909236910569945, 35.440932714033345 ], [ 128.907093353611714, 35.439762380153397 ], [ 128.896946083654257, 35.447609688050385 ], [ 128.889592595561936, 35.444205362297701 ], [ 128.877721190305977, 35.443746081505779 ], [ 128.877523075885136, 35.445646347852374 ], [ 128.86492193244473, 35.453752240936311 ], [ 128.863428565865064, 35.458162544049046 ], [ 128.855863638094831, 35.457669573952572 ], [ 128.852359075696427, 35.455869762219784 ], [ 128.841581409734658, 35.459511933606102 ], [ 128.835000429965078, 35.466313216253852 ], [ 128.835895057448852, 35.471014917882755 ], [ 128.832254242821563, 35.475705343479291 ], [ 128.832626671118135, 35.479386483304687 ], [ 128.830281116432758, 35.481380301444538 ], [ 128.827210684294101, 35.48046435445994 ], [ 128.816953378271052, 35.482238723883341 ], [ 128.8061638952164, 35.489704123730704 ], [ 128.819683872995483, 35.49123747069671 ], [ 128.822790663798969, 35.496664955375792 ], [ 128.829736144137399, 35.498800824995094 ], [ 128.830589102287547, 35.501751755756452 ], [ 128.845920130352255, 35.511556510364471 ], [ 128.848134326842086, 35.518095802045643 ], [ 128.854900792809218, 35.519529500762189 ], [ 128.861575934277283, 35.525510392192778 ], [ 128.862672173703828, 35.530599427276982 ], [ 128.865739918795413, 35.535197168076166 ], [ 128.865339149213185, 35.537527273846727 ] ] ] ] } },
{ "type": "Feature", "properties": { "emd_cd": "48270360", "emd_nm": "상남면" }, "geometry": { "type": "MultiPolygon", "coordinates": [ [ [ [ 128.721326750029419, 35.422199127459777 ], [ 128.708459659344413, 35.429564433488757 ], [ 128.709940330168592, 35.441518671756555 ], [ 128.716456562298674, 35.442772896268494 ], [ 128.721013341917683, 35.448191101267341 ], [ 128.737223242003807, 35.455643229010313 ], [ 128.752518288930418, 35.469103529548946 ], [ 128.75275863418122, 35.472718268979243 ], [ 128.758232583014831, 35.473702111840176 ], [ 128.768291758602089, 35.468767529517898 ], [ 128.780281828979042, 35.468930832858113 ], [ 128.783816685964126, 35.46528533428129 ], [ 128.784943180116784, 35.461417020206817 ], [ 128.779697861807591, 35.45059179919545 ], [ 128.779710008611829, 35.446986583937409 ], [ 128.78249498559876, 35.443386426486711 ], [ 128.795266686783378, 35.434405244633467 ], [ 128.797803006706118, 35.428992228872296 ], [ 128.79092960440758, 35.403743637126802 ], [ 128.790439700329131, 35.394498829489173 ], [ 128.81082984655427, 35.385750315408799 ], [ 128.815484089599295, 35.380293478287278 ], [ 128.80255136813588, 35.373528643490481 ], [ 128.79504347995416, 35.360487390132029 ], [ 128.789992509439685, 35.355249433893086 ], [ 128.786864426316356, 35.361639764041101 ], [ 128.78476107305238, 35.36262039984102 ], [ 128.787768262422702, 35.364264447990465 ], [ 128.778098374539326, 35.366914427042694 ], [ 128.779851047710991, 35.371214252315809 ], [ 128.783717927012333, 35.369835634729945 ], [ 128.783352203834767, 35.372705475711214 ], [ 128.76844530142148, 35.377010156067094 ], [ 128.759900186710098, 35.382547163138248 ], [ 128.760633085614899, 35.384692782224654 ], [ 128.755687376737171, 35.38766579116276 ], [ 128.749374373114847, 35.403969303539164 ], [ 128.74635727868278, 35.406142611808065 ], [ 128.741528067906273, 35.406603074244053 ], [ 128.739538979475896, 35.410700714464561 ], [ 128.734184063675798, 35.411893609114827 ], [ 128.72960744220083, 35.420046057810588 ], [ 128.725748184398384, 35.422191969179089 ], [ 128.721326750029419, 35.422199127459777 ] ] ] ] } },
{ "type": "Feature", "properties": { "emd_cd": "48270370", "emd_nm": "초동면" }, "geometry": { "type": "MultiPolygon", "coordinates": [ [ [ [ 128.649277644848752, 35.397753335674906 ], [ 128.645944351990181, 35.412665114950379 ], [ 128.650810833751819, 35.422044544088443 ], [ 128.651197831493732, 35.426454693803649 ], [ 128.653207568010373, 35.425676068969089 ], [ 128.660026299320378, 35.427839970159745 ], [ 128.678082498078993, 35.438385980725783 ], [ 128.674868519998881, 35.441328403088875 ], [ 128.679073569902783, 35.446013821445462 ], [ 128.674809351357283, 35.447681721117874 ], [ 128.675066223790935, 35.451631517820623 ], [ 128.677976894612527, 35.453901143294729 ], [ 128.678277342910519, 35.457476040103465 ], [ 128.680496218687409, 35.458137767481929 ], [ 128.682250078660502, 35.462795576987723 ], [ 128.681851474395785, 35.474756781766054 ], [ 128.685745574435288, 35.471911061035662 ], [ 128.690439514549496, 35.475233238955248 ], [ 128.697818584252474, 35.472692883912188 ], [ 128.702866928604266, 35.472920159238271 ], [ 128.704075672385443, 35.464122489432157 ], [ 128.710957068066733, 35.462972072560582 ], [ 128.723091130561755, 35.453823449754282 ], [ 128.724295142898939, 35.449310307632416 ], [ 128.721013341917654, 35.448191101267369 ], [ 128.716456562298731, 35.442772896268494 ], [ 128.709539414538568, 35.440949743414393 ], [ 128.708459659344385, 35.429564433488792 ], [ 128.711609030813577, 35.427527905253086 ], [ 128.711735204402714, 35.425199796797273 ], [ 128.709810587088725, 35.416873144402985 ], [ 128.706053903149069, 35.411619735591763 ], [ 128.711421410011297, 35.405659916205103 ], [ 128.716777551533625, 35.403036861568197 ], [ 128.713030721829625, 35.396823239453589 ], [ 128.710947206531841, 35.397152608519811 ], [ 128.710671431732777, 35.388891157373607 ], [ 128.704563542865856, 35.381181200219515 ], [ 128.698855688014646, 35.383329545489111 ], [ 128.697948975862744, 35.378509873097833 ], [ 128.694819284058639, 35.375344113934659 ], [ 128.689362682998535, 35.377547477707402 ], [ 128.670481912434695, 35.37741507687123 ], [ 128.65949131609716, 35.374007834564807 ], [ 128.650729408564303, 35.374908457251259 ], [ 128.647397649765992, 35.380257113869575 ], [ 128.651639080759054, 35.381789049838162 ], [ 128.649604566787616, 35.385529074178656 ], [ 128.640693588389126, 35.383718427625951 ], [ 128.638547750667556, 35.384957250117651 ], [ 128.639481289958894, 35.387046450433566 ], [ 128.644120227871298, 35.388071137315976 ], [ 128.644175949101793, 35.393176338471768 ], [ 128.649277644848752, 35.397753335674906 ] ] ] ] } },
{ "type": "Feature", "properties": { "emd_cd": "48270380", "emd_nm": "무안면" }, "geometry": { "type": "MultiPolygon", "coordinates": [ [ [ [ 128.711354209450008, 35.462578472013085 ], [ 128.704075672385443, 35.464122489432157 ], [ 128.702866928604266, 35.472920159238271 ], [ 128.697818584252474, 35.472692883912188 ], [ 128.690439514549496, 35.475233238955248 ], [ 128.685745574435288, 35.471911061035662 ], [ 128.681851474395785, 35.474756781766054 ], [ 128.682250078660502, 35.462795576987723 ], [ 128.680496218687409, 35.458137767481929 ], [ 128.678277342910519, 35.457476040103465 ], [ 128.677976894612527, 35.453901143294729 ], [ 128.675066223790935, 35.451631517820623 ], [ 128.674809351357283, 35.447681721117874 ], [ 128.679073569902783, 35.446013821445462 ], [ 128.674868519998881, 35.441328403088875 ], [ 128.678082498078993, 35.438385980725783 ], [ 128.660026299320378, 35.427839970159745 ], [ 128.65006156085272, 35.426006479736252 ], [ 128.64690352882667, 35.428341446827332 ], [ 128.647238218703137, 35.430669157574684 ], [ 128.645282948285995, 35.432664816104136 ], [ 128.636185833417727, 35.43478609006889 ], [ 128.631815224483915, 35.447481077751753 ], [ 128.626097303006588, 35.451972810624248 ], [ 128.616941653540096, 35.449277822614341 ], [ 128.614979641579311, 35.446117216182543 ], [ 128.599288426957116, 35.45279579327967 ], [ 128.587740656125902, 35.452314360905085 ], [ 128.581487562671782, 35.454995210904904 ], [ 128.577288777848366, 35.459738776273419 ], [ 128.579221095006289, 35.465599719100368 ], [ 128.577463532585142, 35.470284755899165 ], [ 128.573585622843552, 35.471955096939077 ], [ 128.572431521741464, 35.477905605488353 ], [ 128.573410160989141, 35.479789045192184 ], [ 128.571393517054815, 35.485712823212552 ], [ 128.573163929765599, 35.489384587707605 ], [ 128.571235924053894, 35.490280658144748 ], [ 128.571198097073278, 35.492421436660905 ], [ 128.577519518331513, 35.506349047034114 ], [ 128.585917148230493, 35.506319541695817 ], [ 128.589879891855134, 35.510482109627262 ], [ 128.591706128449175, 35.517463919208652 ], [ 128.594079787369196, 35.51879940134112 ], [ 128.596970405645237, 35.517380748625989 ], [ 128.59890099054266, 35.518759930779808 ], [ 128.613396745022982, 35.518110261870838 ], [ 128.617887980370568, 35.516488324951204 ], [ 128.622702873574923, 35.51814393011297 ], [ 128.62583603408109, 35.524120601204956 ], [ 128.63870741926138, 35.526217729595288 ], [ 128.650195566075666, 35.532780288083814 ], [ 128.654321310858109, 35.533590472072618 ], [ 128.655148886406266, 35.535006808987312 ], [ 128.651233959293279, 35.536845904386709 ], [ 128.653668824907271, 35.542354998092286 ], [ 128.65947718659919, 35.545281753749585 ], [ 128.664794440762449, 35.544569948660815 ], [ 128.669050126124006, 35.550551675811093 ], [ 128.673691132453627, 35.550526479955082 ], [ 128.676174963336678, 35.547619058770429 ], [ 128.676277339694792, 35.54382407431634 ], [ 128.682863128452937, 35.53603724490339 ], [ 128.681974461288917, 35.53322824645695 ], [ 128.677527040349759, 35.531727238979656 ], [ 128.676471088617774, 35.522921954816823 ], [ 128.685089130253573, 35.520725485697859 ], [ 128.689231427332913, 35.517526967870921 ], [ 128.691130894928705, 35.518057288916857 ], [ 128.694473007561413, 35.523043294981541 ], [ 128.699786636083303, 35.52050216437172 ], [ 128.701181435913043, 35.517916452479739 ], [ 128.699159940378081, 35.516375972098366 ], [ 128.698729399787794, 35.511554211844491 ], [ 128.693166513215857, 35.508713807815859 ], [ 128.696722513386931, 35.502121449221036 ], [ 128.706931950020618, 35.498202523521748 ], [ 128.709000652868554, 35.49246608009458 ], [ 128.711931546660509, 35.490900349535721 ], [ 128.712187352048716, 35.484829784084909 ], [ 128.714631174190799, 35.4786432961725 ], [ 128.717210042199952, 35.477183634140324 ], [ 128.711354209450008, 35.462578472013085 ] ] ] ] } },
{ "type": "Feature", "properties": { "emd_cd": "48270390", "emd_nm": "청도면" }, "geometry": { "type": "MultiPolygon", "coordinates": [ [ [ [ 128.651233959293279, 35.536845904386709 ], [ 128.655148886406266, 35.535006808987312 ], [ 128.654321310858109, 35.533590472072618 ], [ 128.650195566075666, 35.532780288083814 ], [ 128.63870741926138, 35.526217729595288 ], [ 128.62583603408109, 35.524120601204956 ], [ 128.622702873574923, 35.51814393011297 ], [ 128.617887980370568, 35.516488324951204 ], [ 128.613396745022982, 35.518110261870838 ], [ 128.59890099054266, 35.518759930779808 ], [ 128.596970405645237, 35.517380748625989 ], [ 128.594079787369196, 35.51879940134112 ], [ 128.591706128449175, 35.517463919208652 ], [ 128.584899130346514, 35.520557639465601 ], [ 128.581768721580659, 35.525076577263853 ], [ 128.583788118804335, 35.528967739927822 ], [ 128.581934040076987, 35.534456919585232 ], [ 128.577443538787151, 35.537858513386759 ], [ 128.585093189014486, 35.538694513580189 ], [ 128.591130677179905, 35.537004474458826 ], [ 128.593950571366037, 35.541204936719033 ], [ 128.587538712982791, 35.547141147900724 ], [ 128.585953771704283, 35.553716176228896 ], [ 128.585617539777303, 35.555277913506302 ], [ 128.589111145866553, 35.55720576011111 ], [ 128.58963934147161, 35.560648382986074 ], [ 128.588207832919068, 35.563875851366682 ], [ 128.583626792179189, 35.566616304607834 ], [ 128.585729186918257, 35.570985569889672 ], [ 128.584709108685871, 35.579737614655748 ], [ 128.593187508434852, 35.584446598459863 ], [ 128.602856920993162, 35.580065235617575 ], [ 128.614703295326848, 35.581655836880699 ], [ 128.616835656010039, 35.583918845531578 ], [ 128.630746380575232, 35.587420144347369 ], [ 128.636532061885276, 35.584697865799093 ], [ 128.638065350590495, 35.58859584139806 ], [ 128.640902519880285, 35.588817893807892 ], [ 128.644090603447808, 35.593052510427228 ], [ 128.650607559546302, 35.594613600773272 ], [ 128.655288324186046, 35.597888467544898 ], [ 128.659114820710414, 35.597432469113073 ], [ 128.664418539163648, 35.593752827211986 ], [ 128.674242528331632, 35.59609974174375 ], [ 128.67828350839531, 35.59474784800652 ], [ 128.687603466634272, 35.595025089533806 ], [ 128.691604982509517, 35.593319044078427 ], [ 128.694939991187027, 35.583417540101642 ], [ 128.696894937254257, 35.58220438745041 ], [ 128.695603054333304, 35.578418439529457 ], [ 128.692086915643273, 35.576742895922493 ], [ 128.688064770662635, 35.570718155615481 ], [ 128.685498801521277, 35.569498711068313 ], [ 128.679531603823563, 35.57110153172016 ], [ 128.675684574091633, 35.570233712145502 ], [ 128.673905264412525, 35.566853078103776 ], [ 128.675033147106802, 35.561972085739448 ], [ 128.673691132453627, 35.550526479955082 ], [ 128.669050126124006, 35.550551675811093 ], [ 128.664794440762449, 35.544569948660815 ], [ 128.65947718659919, 35.545281753749585 ], [ 128.653668824907271, 35.542354998092286 ], [ 128.651233959293279, 35.536845904386709 ] ] ] ] } }
]
}
