{
"type": "FeatureCollection",
"name": "48330",
"crs": { "type": "name", "properties": { "name": "urn:ogc:def:crs:OGC:1.3:CRS84" } },
"features": [
{ "type": "Feature", "properties": { "emd_cd": "48330101", "emd_nm": "다방동" }, "geometry": { "type": "MultiPolygon", "coordinates": [ [ [ [ 129.034998900042524, 35.33010194317081 ], [ 129.037299272257542, 35.33224496855447 ], [ 129.037119137239529, 35.334309353680929 ], [ 129.04101229929006, 35.334760086644344 ], [ 129.042270060676401, 35.337904611051201 ], [ 129.046118779036306, 35.338880984037552 ], [ 129.050675946517742, 35.338831002251688 ], [ 129.05610629360055, 35.332719689492251 ], [ 129.052328662994142, 35.325556750614858 ], [ 129.044547706832788, 35.329780080106794 ], [ 129.039128389552189, 35.331057668179334 ], [ 129.034998900042524, 35.33010194317081 ] ] ] ] } },
{ "type": "Feature", "properties": { "emd_cd": "48330102", "emd_nm": "남부동" }, "geometry": { "type": "MultiPolygon", "coordinates": [ [ [ [ 129.019726858563217, 35.326638747295462 ], [ 129.020211344664546, 35.330237205144989 ], [ 129.02257301898922, 35.330333861712738 ], [ 129.023121925585542, 35.334360353513311 ], [ 129.023420496353623, 35.335123725127254 ], [ 129.023848426247127, 35.335849207190464 ], [ 129.034838608001337, 35.334412197689304 ], [ 129.037600524181016, 35.3422541848824 ], [ 129.042506433903696, 35.339994692924897 ], [ 129.049901026805486, 35.339687324592859 ], [ 129.042270060676401, 35.337904611051201 ], [ 129.04101229929006, 35.334760086644344 ], [ 129.037119137239529, 35.334309353680929 ], [ 129.037299272257542, 35.33224496855447 ], [ 129.034370757575687, 35.328853107386919 ], [ 129.019726858563217, 35.326638747295462 ] ] ] ] } },
{ "type": "Feature", "properties": { "emd_cd": "48330103", "emd_nm": "중부동" }, "geometry": { "type": "MultiPolygon", "coordinates": [ [ [ [ 129.020211344664546, 35.330237205144989 ], [ 129.02067435025657, 35.333425115965753 ], [ 129.028271790095914, 35.344238868294944 ], [ 129.031583128548789, 35.343177559271965 ], [ 129.043169698392035, 35.344788158742062 ], [ 129.050328354763337, 35.341957660451172 ], [ 129.049901026805486, 35.339687324592859 ], [ 129.048373150119602, 35.339460026497655 ], [ 129.037600524181016, 35.3422541848824 ], [ 129.034941472722977, 35.334465978567863 ], [ 129.023848404238436, 35.33584917114139 ], [ 129.02257301898922, 35.330333861712738 ], [ 129.020211344664546, 35.330237205144989 ] ] ] ] } },
{ "type": "Feature", "properties": { "emd_cd": "48330104", "emd_nm": "북부동" }, "geometry": { "type": "MultiPolygon", "coordinates": [ [ [ [ 129.028311428535289, 35.344216263215642 ], [ 129.030601977868685, 35.350147995988195 ], [ 129.036282734477908, 35.355241580642897 ], [ 129.033726596999344, 35.349756242621943 ], [ 129.041193466534054, 35.35137961437956 ], [ 129.047328397355614, 35.350268729007439 ], [ 129.056957002246747, 35.343503261200546 ], [ 129.057299448950374, 35.341461848963625 ], [ 129.051361401893928, 35.337601336558635 ], [ 129.049906166276514, 35.339157188422355 ], [ 129.050328354763337, 35.341957660451172 ], [ 129.043169698392035, 35.344788158742062 ], [ 129.031583128548789, 35.343177559271965 ], [ 129.028311428535289, 35.344216263215642 ] ] ] ] } },
{ "type": "Feature", "properties": { "emd_cd": "48330105", "emd_nm": "명곡동" }, "geometry": { "type": "MultiPolygon", "coordinates": [ [ [ [ 129.051361401893928, 35.337601336558635 ], [ 129.056460073385381, 35.340004570446183 ], [ 129.061798633397927, 35.34564811885037 ], [ 129.067170019414419, 35.346609052786285 ], [ 129.067615023160783, 35.35142201074585 ], [ 129.078061270772906, 35.352726630676649 ], [ 129.086399746130269, 35.360673279311314 ], [ 129.09245425662678, 35.362478272042523 ], [ 129.094854682722968, 35.361360529091939 ], [ 129.093939046160443, 35.357268200269203 ], [ 129.096172978064686, 35.353191560197644 ], [ 129.092233787316786, 35.346549528441258 ], [ 129.093567491942792, 35.338685466415932 ], [ 129.090533399472548, 35.336047479803028 ], [ 129.085505553381324, 35.336450792051508 ], [ 129.076458196161582, 35.330518672593641 ], [ 129.070125826471667, 35.335310465701028 ], [ 129.057489447505475, 35.332672295342689 ], [ 129.051361401893928, 35.337601336558635 ] ] ] ] } },
{ "type": "Feature", "properties": { "emd_cd": "48330106", "emd_nm": "신기동" }, "geometry": { "type": "MultiPolygon", "coordinates": [ [ [ [ 129.033654570420481, 35.349891821343313 ], [ 129.03729651355448, 35.358895654100643 ], [ 129.043090931973126, 35.353830086804741 ], [ 129.04423934845542, 35.356376886219245 ], [ 129.050288083705709, 35.356160348426506 ], [ 129.055919129601278, 35.352068626815019 ], [ 129.058691497474086, 35.355404414525964 ], [ 129.066783944742696, 35.354232905236195 ], [ 129.06808071139227, 35.351589482720087 ], [ 129.066857348019028, 35.350997132348702 ], [ 129.067170019414419, 35.346609052786285 ], [ 129.061798633397927, 35.34564811885037 ], [ 129.057299448950374, 35.341461848963625 ], [ 129.056957002246747, 35.343503261200546 ], [ 129.047328397355614, 35.350268729007439 ], [ 129.041193466534054, 35.35137961437956 ], [ 129.033654570420481, 35.349891821343313 ] ] ] ] } },
{ "type": "Feature", "properties": { "emd_cd": "48330107", "emd_nm": "북정동" }, "geometry": { "type": "MultiPolygon", "coordinates": [ [ [ [ 129.03729651355448, 35.358895654100643 ], [ 129.043954231720505, 35.3720467446893 ], [ 129.060306740712775, 35.367063661939831 ], [ 129.058978962061389, 35.360977937718708 ], [ 129.06084411244106, 35.359564830748084 ], [ 129.055919129601278, 35.352068626815019 ], [ 129.050288083705709, 35.356160348426506 ], [ 129.04423934845542, 35.356376886219245 ], [ 129.043090931973126, 35.353830086804741 ], [ 129.03729651355448, 35.358895654100643 ] ] ] ] } },
{ "type": "Feature", "properties": { "emd_cd": "48330108", "emd_nm": "산막동" }, "geometry": { "type": "MultiPolygon", "coordinates": [ [ [ [ 129.043954231720505, 35.3720467446893 ], [ 129.045905982996345, 35.374906877493657 ], [ 129.051525939367224, 35.376906805110522 ], [ 129.0568403586839, 35.37618393275811 ], [ 129.063726853627031, 35.377232702559525 ], [ 129.065170159613245, 35.379037622835988 ], [ 129.071889890115187, 35.378709029055763 ], [ 129.071329939007427, 35.376365871392501 ], [ 129.066701994242635, 35.373011906419116 ], [ 129.068843773545836, 35.372068767348772 ], [ 129.067482270841083, 35.367400032860054 ], [ 129.059578165277486, 35.369422895753715 ], [ 129.058644858984252, 35.367214169751193 ], [ 129.053228848155982, 35.370119594699112 ], [ 129.043954231720505, 35.3720467446893 ] ] ] ] } },
{ "type": "Feature", "properties": { "emd_cd": "48330109", "emd_nm": "호계동" }, "geometry": { "type": "MultiPolygon", "coordinates": [ [ [ [ 129.058580254685438, 35.367039704014609 ], [ 129.059578165277486, 35.369422895753715 ], [ 129.064105038005181, 35.367404408717547 ], [ 129.068292455893982, 35.367728462470836 ], [ 129.068843773545836, 35.372068767348772 ], [ 129.066701994242635, 35.373011906419116 ], [ 129.071329939007427, 35.376365871392501 ], [ 129.074308311169119, 35.380893507851354 ], [ 129.086824453686205, 35.383830984413208 ], [ 129.093240382141346, 35.383359531699341 ], [ 129.101182248547417, 35.386945289577511 ], [ 129.104573218462065, 35.386226587198784 ], [ 129.100806029740937, 35.381011139769321 ], [ 129.101330315432563, 35.377666110012278 ], [ 129.091220771946922, 35.364084912591167 ], [ 129.09245425662678, 35.362478272042523 ], [ 129.086399746130269, 35.360673279311314 ], [ 129.078061270772906, 35.352726630676649 ], [ 129.068353597548594, 35.35154128229297 ], [ 129.066783944742696, 35.354232905236195 ], [ 129.059322965090416, 35.354625188200558 ], [ 129.059343822304839, 35.358506483743511 ], [ 129.06084411244106, 35.359564830748084 ], [ 129.058978962061389, 35.360977937718708 ], [ 129.060306740712775, 35.367063661939831 ], [ 129.058580254685438, 35.367039704014609 ] ] ] ] } },
{ "type": "Feature", "properties": { "emd_cd": "48330110", "emd_nm": "교동" }, "geometry": { "type": "MultiPolygon", "coordinates": [ [ [ [ 129.002613126055081, 35.35519530013989 ], [ 129.004823680442598, 35.360643508970021 ], [ 129.01171223769083, 35.360078277937205 ], [ 129.016407847040853, 35.357844069808472 ], [ 129.020465395177069, 35.35921807458768 ], [ 129.031599213977387, 35.357040488463966 ], [ 129.033530404105534, 35.353327484732098 ], [ 129.02635457480983, 35.341448371687711 ], [ 129.022474265662083, 35.341855977227986 ], [ 129.01598189101594, 35.346611353030255 ], [ 129.013883993776915, 35.343588877891619 ], [ 129.009417424517551, 35.346578831271145 ], [ 129.006140421251047, 35.345751827970659 ], [ 129.002613126055081, 35.35519530013989 ] ] ] ] } },
{ "type": "Feature", "properties": { "emd_cd": "48330111", "emd_nm": "유산동" }, "geometry": { "type": "MultiPolygon", "coordinates": [ [ [ [ 129.007945288034222, 35.360282572076592 ], [ 129.00900842930676, 35.36517008724946 ], [ 129.018352630701543, 35.367731164160041 ], [ 129.02325593931991, 35.37233998164502 ], [ 129.028311523562053, 35.372708596223809 ], [ 129.034289837681712, 35.377898197391033 ], [ 129.042478982528138, 35.377980184290699 ], [ 129.045986482851248, 35.375408587148208 ], [ 129.033530404105534, 35.353327484732098 ], [ 129.031599213977387, 35.357040488463966 ], [ 129.020465395177069, 35.35921807458768 ], [ 129.016407847040853, 35.357844069808472 ], [ 129.007945288034222, 35.360282572076592 ] ] ] ] } },
{ "type": "Feature", "properties": { "emd_cd": "48330112", "emd_nm": "어곡동" }, "geometry": { "type": "MultiPolygon", "coordinates": [ [ [ [ 128.977505435081952, 35.401188536625369 ], [ 128.979990475815725, 35.405001734204973 ], [ 128.983295803245312, 35.40669027373157 ], [ 128.981225422505702, 35.414947859672516 ], [ 128.984482744284264, 35.420378936358816 ], [ 128.996160644292246, 35.423763551474302 ], [ 129.010329541835375, 35.420730323530329 ], [ 129.013010285539423, 35.414814261792557 ], [ 129.026464197837754, 35.405341261850836 ], [ 129.027916006132074, 35.39195875987415 ], [ 129.031367026259232, 35.388659905924662 ], [ 129.031056696888186, 35.3863422537761 ], [ 129.035496051021426, 35.377687260584345 ], [ 129.028311523562053, 35.372708596223809 ], [ 129.02325593931991, 35.37233998164502 ], [ 129.019341816867723, 35.368310446784371 ], [ 129.013377623057181, 35.365521873325747 ], [ 129.006654182503979, 35.365367989167751 ], [ 128.999807462067508, 35.369641095556553 ], [ 129.001205079986079, 35.379794571156566 ], [ 128.998517089613074, 35.382475103102024 ], [ 128.981120851069448, 35.386210379239529 ], [ 128.982312324303052, 35.393086153474449 ], [ 128.977505435081952, 35.401188536625369 ] ] ] ] } },
{ "type": "Feature", "properties": { "emd_cd": "48330113", "emd_nm": "용당동" }, "geometry": { "type": "MultiPolygon", "coordinates": [ [ [ [ 129.165938532601473, 35.422898634605374 ], [ 129.165645386632093, 35.432120184727104 ], [ 129.176948210106701, 35.433821622102705 ], [ 129.178440033291821, 35.431838837218116 ], [ 129.185515052933482, 35.435151427074501 ], [ 129.190242208682008, 35.434969310718209 ], [ 129.196502488376183, 35.438343282439291 ], [ 129.202107747155878, 35.432073801715916 ], [ 129.199931750573256, 35.43046092964898 ], [ 129.201040960892243, 35.428511968378693 ], [ 129.200134115630476, 35.424113062773138 ], [ 129.203236329511157, 35.420997701792189 ], [ 129.211430139307879, 35.41902462007485 ], [ 129.214794764492126, 35.41302922686598 ], [ 129.218172113056283, 35.411532430239127 ], [ 129.218885119581955, 35.406978045280283 ], [ 129.211897604779722, 35.40076463106665 ], [ 129.206389935121621, 35.404248730208963 ], [ 129.198943939021831, 35.403958146143083 ], [ 129.187526505072469, 35.418999592823418 ], [ 129.182587213327338, 35.418185462761329 ], [ 129.174031842815111, 35.425898405821044 ], [ 129.170109811264609, 35.42178068663727 ], [ 129.165938532601473, 35.422898634605374 ] ] ] ] } },
{ "type": "Feature", "properties": { "emd_cd": "48330114", "emd_nm": "삼호동" }, "geometry": { "type": "MultiPolygon", "coordinates": [ [ [ [ 129.163137257032162, 35.411873464037718 ], [ 129.171796998053367, 35.419247346088333 ], [ 129.170109811264609, 35.42178068663727 ], [ 129.174031842815111, 35.425898405821044 ], [ 129.182587213327338, 35.418185462761329 ], [ 129.187526505072469, 35.418999592823418 ], [ 129.198943939021831, 35.403958146143083 ], [ 129.206389935121621, 35.404248730208963 ], [ 129.211897604779722, 35.40076463106665 ], [ 129.202836366180321, 35.392637679820986 ], [ 129.201154944812799, 35.387774142795266 ], [ 129.194079676961792, 35.39439410772615 ], [ 129.189298845810868, 35.396620473627401 ], [ 129.191924189228331, 35.397192909059939 ], [ 129.191922975810542, 35.403641719503725 ], [ 129.189759048277892, 35.404903791944278 ], [ 129.172359770609035, 35.403781834083468 ], [ 129.171106614876663, 35.407962916735521 ], [ 129.164537320597816, 35.409716570792938 ], [ 129.163137257032162, 35.411873464037718 ] ] ] ] } },
{ "type": "Feature", "properties": { "emd_cd": "48330115", "emd_nm": "명동" }, "geometry": { "type": "MultiPolygon", "coordinates": [ [ [ [ 129.161579938178903, 35.392250402629969 ], [ 129.159486633485898, 35.406214232863448 ], [ 129.163137257032162, 35.411873464037718 ], [ 129.164537320597816, 35.409716570792938 ], [ 129.171106614876663, 35.407962916735521 ], [ 129.172359770609035, 35.403781834083468 ], [ 129.189759048277892, 35.404903791944278 ], [ 129.192111635287432, 35.403382212169177 ], [ 129.191924189228331, 35.397192909059939 ], [ 129.189298845810868, 35.396620473627401 ], [ 129.194079676961792, 35.39439410772615 ], [ 129.199357905205432, 35.389040577661426 ], [ 129.19490342600804, 35.383826042971194 ], [ 129.186116403361638, 35.386322612080988 ], [ 129.180704550006112, 35.383390250968631 ], [ 129.169526343495903, 35.382544600416885 ], [ 129.158786488585577, 35.389940007531273 ], [ 129.161579938178903, 35.392250402629969 ] ] ] ] } },
{ "type": "Feature", "properties": { "emd_cd": "48330116", "emd_nm": "주남동" }, "geometry": { "type": "MultiPolygon", "coordinates": [ [ [ [ 129.171796998053367, 35.419247346088333 ], [ 129.16530085762048, 35.414346391150239 ], [ 129.160985144121668, 35.415291249175631 ], [ 129.147809949167851, 35.421655274185838 ], [ 129.140017425389004, 35.420997952443656 ], [ 129.128255510172778, 35.417401015498925 ], [ 129.125121466008125, 35.420589955756896 ], [ 129.133087565220592, 35.427293500382419 ], [ 129.133380007735525, 35.429097792214421 ], [ 129.13796484990425, 35.430407749362736 ], [ 129.13921107318285, 35.43221339562669 ], [ 129.137536525794872, 35.436022125282975 ], [ 129.14122949494373, 35.437866309963958 ], [ 129.145085527321186, 35.444680128397074 ], [ 129.165127015851311, 35.433626089982788 ], [ 129.16546295211657, 35.423444044787672 ], [ 129.170683217156693, 35.421725409096403 ], [ 129.171796998053367, 35.419247346088333 ] ] ] ] } },
{ "type": "Feature", "properties": { "emd_cd": "48330117", "emd_nm": "소주동" }, "geometry": { "type": "MultiPolygon", "coordinates": [ [ [ [ 129.167810666000321, 35.416362655300112 ], [ 129.159486633485898, 35.406214232863448 ], [ 129.161409733280664, 35.399796142083382 ], [ 129.158189360637209, 35.396993153588639 ], [ 129.146452100509862, 35.401567318464025 ], [ 129.135785760997891, 35.39979734768275 ], [ 129.134373454374128, 35.402537528794298 ], [ 129.129281388312847, 35.405101982570507 ], [ 129.124976633653915, 35.404229064444529 ], [ 129.12282934079721, 35.408387810636654 ], [ 129.124605381490113, 35.413271609363164 ], [ 129.129026582331022, 35.417972953572928 ], [ 129.14224348194287, 35.421349711972859 ], [ 129.150382877067301, 35.421207230867125 ], [ 129.16530085762048, 35.414346391150239 ], [ 129.167810666000321, 35.416362655300112 ] ] ] ] } },
{ "type": "Feature", "properties": { "emd_cd": "48330118", "emd_nm": "주진동" }, "geometry": { "type": "MultiPolygon", "coordinates": [ [ [ [ 129.121602142033652, 35.401799991024625 ], [ 129.122786613584424, 35.404273492703489 ], [ 129.127447754257474, 35.405512674522015 ], [ 129.134373454379954, 35.402537528794099 ], [ 129.135785761003604, 35.399797347682501 ], [ 129.146452100515774, 35.401567318463833 ], [ 129.15818936064332, 35.396993153588447 ], [ 129.161409733286831, 35.399796142083161 ], [ 129.16177361410746, 35.393004865251179 ], [ 129.156265621994237, 35.386381626813026 ], [ 129.15018292666457, 35.388331431621552 ], [ 129.150391540637202, 35.3906168130776 ], [ 129.148033018290846, 35.390742385094931 ], [ 129.147787675414861, 35.388834678992701 ], [ 129.137759502093047, 35.389386975104891 ], [ 129.129030180467424, 35.386352010705878 ], [ 129.122405273501158, 35.393622633328285 ], [ 129.121602142033652, 35.401799991024625 ] ] ] ] } },
{ "type": "Feature", "properties": { "emd_cd": "48330119", "emd_nm": "평산동" }, "geometry": { "type": "MultiPolygon", "coordinates": [ [ [ [ 129.104581248971272, 35.3857391461245 ], [ 129.105080328650615, 35.399183885266901 ], [ 129.115318791835676, 35.403468206610505 ], [ 129.12199759270095, 35.403322148513546 ], [ 129.122405273501158, 35.393622633328285 ], [ 129.128382846072725, 35.386673652656469 ], [ 129.137759502093047, 35.389386975104891 ], [ 129.147787675414861, 35.388834678992701 ], [ 129.148033018290846, 35.390742385094931 ], [ 129.150391540637202, 35.3906168130776 ], [ 129.15018292666457, 35.388331431621552 ], [ 129.156785068860216, 35.386890737700192 ], [ 129.156695854173705, 35.380153013363135 ], [ 129.149135217849363, 35.375685059221283 ], [ 129.143976169189528, 35.370381033280808 ], [ 129.137839398996675, 35.368203245269285 ], [ 129.138480844260982, 35.366088394131843 ], [ 129.121264602348901, 35.367348630638091 ], [ 129.118210989221097, 35.368954514569992 ], [ 129.116573962944869, 35.375850608085585 ], [ 129.104581248971272, 35.3857391461245 ] ] ] ] } },
{ "type": "Feature", "properties": { "emd_cd": "48330120", "emd_nm": "덕계동" }, "geometry": { "type": "MultiPolygon", "coordinates": [ [ [ [ 129.172670085076504, 35.383494117016539 ], [ 129.168709145951084, 35.371685444433055 ], [ 129.169956094040685, 35.368255641027773 ], [ 129.16338320157567, 35.364257345022814 ], [ 129.16106926992336, 35.359406957613075 ], [ 129.15016053217235, 35.363936918552319 ], [ 129.137414800343549, 35.366512517047646 ], [ 129.137839398990764, 35.368203245269477 ], [ 129.143685049062157, 35.370201129769605 ], [ 129.149135217843337, 35.375685059221482 ], [ 129.156199838409151, 35.379252409698026 ], [ 129.156785068854191, 35.386890737700455 ], [ 129.158786488585577, 35.389940007531273 ], [ 129.168136943539224, 35.383077060249697 ], [ 129.172670085076504, 35.383494117016539 ] ] ] ] } },
{ "type": "Feature", "properties": { "emd_cd": "48330121", "emd_nm": "매곡동" }, "geometry": { "type": "MultiPolygon", "coordinates": [ [ [ [ 129.16106926992336, 35.359406957613075 ], [ 129.16338320157567, 35.364257345022814 ], [ 129.169956094040685, 35.368255641027773 ], [ 129.168709145951084, 35.371685444433055 ], [ 129.172670085076504, 35.383494117016539 ], [ 129.180704550006112, 35.383390250968631 ], [ 129.186116403361638, 35.386322612080988 ], [ 129.19490342600804, 35.383826042971194 ], [ 129.193599779886, 35.382090405263625 ], [ 129.1945763320455, 35.380228694759225 ], [ 129.1992530322768, 35.375904525220676 ], [ 129.197833704654613, 35.371346298653805 ], [ 129.19879071686907, 35.366440709930664 ], [ 129.193800496048368, 35.36328087639238 ], [ 129.193410578954825, 35.361249229124176 ], [ 129.185742525962922, 35.358595626324487 ], [ 129.182847349721385, 35.353926712468429 ], [ 129.176114656740594, 35.351396154685219 ], [ 129.16449571537342, 35.35580579390431 ], [ 129.16106926992336, 35.359406957613075 ] ] ] ] } },
{ "type": "Feature", "properties": { "emd_cd": "48330253", "emd_nm": "물금읍" }, "geometry": { "type": "MultiPolygon", "coordinates": [ [ [ [ 128.972293397608098, 35.319793271701776 ], [ 128.97706318716439, 35.320350827319331 ], [ 128.982324621806526, 35.318585309005293 ], [ 128.984158410787927, 35.330330163017251 ], [ 128.991064942811363, 35.334314783235016 ], [ 128.992351608633754, 35.336941331646329 ], [ 129.005189849151321, 35.342211293706498 ], [ 129.006140421251018, 35.345751827970659 ], [ 129.009417424517551, 35.34657883127116 ], [ 129.013883993776915, 35.343588877891605 ], [ 129.01598189101594, 35.346611353030269 ], [ 129.022474265662083, 35.341855977227972 ], [ 129.026125556322341, 35.342151364167506 ], [ 129.02067435025873, 35.33342512497903 ], [ 129.017100316209223, 35.308218722635075 ], [ 129.012710929644641, 35.295223654327586 ], [ 129.014118213809411, 35.291551088542555 ], [ 129.011283813980924, 35.286155740299229 ], [ 129.010959060705176, 35.281954411763799 ], [ 129.007669714898299, 35.281346232388522 ], [ 128.998355131216897, 35.288557160736808 ], [ 128.984138816867272, 35.295766743114491 ], [ 128.973143179014329, 35.310185204949818 ], [ 128.972293397608098, 35.319793271701776 ] ] ] ] } },
{ "type": "Feature", "properties": { "emd_cd": "48330310", "emd_nm": "동면" }, "geometry": { "type": "MultiPolygon", "coordinates": [ [ [ [ 129.007669714898299, 35.281346232388522 ], [ 129.010959060705176, 35.281954411763799 ], [ 129.011283813980924, 35.286155740299229 ], [ 129.01397881781088, 35.290839985510758 ], [ 129.012710929644641, 35.295223654327586 ], [ 129.017071932842327, 35.308085734647719 ], [ 129.019726858563217, 35.326638747295462 ], [ 129.034370757575687, 35.328853107386927 ], [ 129.039128389552189, 35.331057668179348 ], [ 129.052328662994142, 35.325556750614822 ], [ 129.055936920054421, 35.333489383700432 ], [ 129.059040234315376, 35.332531031365036 ], [ 129.070125826471667, 35.335310465701028 ], [ 129.076458196161582, 35.330518672593648 ], [ 129.085505553381324, 35.336450792051508 ], [ 129.090011897037527, 35.335767036077712 ], [ 129.093567491942792, 35.338685466415967 ], [ 129.092233787316786, 35.346549528441265 ], [ 129.096172978064686, 35.353191560197629 ], [ 129.093939046160443, 35.357268200269203 ], [ 129.094854682722968, 35.361360529091939 ], [ 129.091220771946922, 35.364084912591181 ], [ 129.101330315432563, 35.377666110012278 ], [ 129.100806029740937, 35.381011139769321 ], [ 129.104581248971272, 35.385739146124493 ], [ 129.116573962944869, 35.375850608085578 ], [ 129.118122103642747, 35.367595891738453 ], [ 129.122194831232292, 35.36380984760897 ], [ 129.127102134224288, 35.362357823948393 ], [ 129.133286939903343, 35.356283754412665 ], [ 129.134593748294208, 35.351453553430325 ], [ 129.127385393667254, 35.345765537566237 ], [ 129.128560062651246, 35.343756720247114 ], [ 129.124025589867273, 35.338078444585591 ], [ 129.125756350265107, 35.332067829355509 ], [ 129.121068157015657, 35.328746069161483 ], [ 129.118148341996601, 35.322480111976901 ], [ 129.113553176760746, 35.319944177098179 ], [ 129.112005103426128, 35.316741849185256 ], [ 129.112404561309745, 35.310138319757428 ], [ 129.109345090029137, 35.305540074681517 ], [ 129.105867741821356, 35.306532276399807 ], [ 129.100745322840879, 35.304018365693217 ], [ 129.088367772865666, 35.302578550437772 ], [ 129.0744568189277, 35.290727747076552 ], [ 129.070581981600867, 35.294515810782698 ], [ 129.058419991547879, 35.294814381261759 ], [ 129.052391294075107, 35.285997873349487 ], [ 129.054037072067331, 35.282193529770957 ], [ 129.048478300965087, 35.278079529848078 ], [ 129.047551022665203, 35.274207929930924 ], [ 129.029318566217285, 35.27691346098586 ], [ 129.013334026195423, 35.274135226384736 ], [ 129.007669714898299, 35.281346232388522 ] ] ] ] } },
{ "type": "Feature", "properties": { "emd_cd": "48330320", "emd_nm": "원동면" }, "geometry": { "type": "MultiPolygon", "coordinates": [ [ [ [ 128.872379272068343, 35.382190330829523 ], [ 128.874801552449355, 35.382360773927395 ], [ 128.876114993702203, 35.385577677042491 ], [ 128.880591986756798, 35.386503450518269 ], [ 128.878572233820165, 35.390723619977337 ], [ 128.879401395380285, 35.398062216783131 ], [ 128.887721327082829, 35.404142408121182 ], [ 128.890231932736242, 35.403971043627315 ], [ 128.892239056223588, 35.411735956487938 ], [ 128.890908235119326, 35.414527637226549 ], [ 128.898352578082353, 35.41626143090226 ], [ 128.898480525650172, 35.417735263736624 ], [ 128.903592496705983, 35.419755684779034 ], [ 128.913186510525804, 35.414496344607379 ], [ 128.924307328718783, 35.419557512528129 ], [ 128.922239202066322, 35.425967436883852 ], [ 128.913827882671939, 35.430663045303767 ], [ 128.906383367495124, 35.437336120166542 ], [ 128.906435443707295, 35.439909012553066 ], [ 128.909202590458335, 35.440943710870222 ], [ 128.910055933663983, 35.444672159906801 ], [ 128.916955248024749, 35.449055099 ], [ 128.918522741888694, 35.451779037628803 ], [ 128.92640256970472, 35.452134415273427 ], [ 128.929855522656993, 35.454325417558863 ], [ 128.933542700727742, 35.45262671135238 ], [ 128.942378002542483, 35.456343675954145 ], [ 128.950083515929208, 35.454238683506752 ], [ 128.961317459844963, 35.460911519021181 ], [ 128.964028235551041, 35.463992975712486 ], [ 128.960923584892271, 35.464635192668396 ], [ 128.96192761903356, 35.466688833805513 ], [ 128.967615297180913, 35.467258882406298 ], [ 128.968398259239791, 35.471893789858456 ], [ 128.96452803356604, 35.476892276205909 ], [ 128.966009894100637, 35.481247493653356 ], [ 128.963157515848053, 35.484502069202243 ], [ 128.967625385390448, 35.489968949812521 ], [ 128.961586190532245, 35.494064691192769 ], [ 128.957957878632925, 35.498901703113603 ], [ 128.958545175204648, 35.505470235106408 ], [ 128.96194671168422, 35.509474433913361 ], [ 128.977353632181092, 35.507594889737355 ], [ 128.984874705495258, 35.514896904219633 ], [ 128.989655554755558, 35.516646712603936 ], [ 128.988812052742503, 35.521712696301009 ], [ 128.990904988561567, 35.523254563104089 ], [ 128.991589379372243, 35.527147453622888 ], [ 128.994527594317304, 35.528152850757188 ], [ 129.007596833425936, 35.529108820649668 ], [ 129.009730803002498, 35.528242057430965 ], [ 129.009062848526753, 35.524012624798303 ], [ 129.012432332189945, 35.523108856595378 ], [ 129.027343067736354, 35.527114452633064 ], [ 129.03333415470226, 35.525828917967893 ], [ 129.055832692835679, 35.531813064503723 ], [ 129.056454453288552, 35.527515134758637 ], [ 129.052112633331035, 35.524401566810781 ], [ 129.051056194833279, 35.51984005509896 ], [ 129.052729995915968, 35.514490492659185 ], [ 129.037950229996852, 35.509603529118664 ], [ 129.031102688824717, 35.497886975104095 ], [ 129.023543681396234, 35.496163994777355 ], [ 129.021703918614691, 35.494302204059636 ], [ 129.022375926543276, 35.491772829272712 ], [ 129.01650961565727, 35.48545488400022 ], [ 129.015709905902355, 35.481358444087697 ], [ 129.017351762221693, 35.477263591877978 ], [ 129.0013261255489, 35.47469529050435 ], [ 128.998948193386838, 35.47047664696936 ], [ 129.000643924603679, 35.46743853904389 ], [ 128.997439426225213, 35.460787821342393 ], [ 128.990538762084697, 35.455690845818772 ], [ 128.991972382129234, 35.453853707967006 ], [ 128.989342891783366, 35.443756069226396 ], [ 128.990591049737162, 35.440057317745676 ], [ 128.992439854075457, 35.437258874349261 ], [ 128.995542290516738, 35.43674962561235 ], [ 128.999066619161027, 35.428019689869615 ], [ 129.003015729793987, 35.424983028682583 ], [ 129.002151307958258, 35.422779933460426 ], [ 128.995369835799607, 35.423717141570329 ], [ 128.984482744284264, 35.420378936358816 ], [ 128.981225422505702, 35.414947859672516 ], [ 128.983295803245312, 35.40669027373157 ], [ 128.979990475815725, 35.405001734204973 ], [ 128.977505435081952, 35.401188536625369 ], [ 128.982312324303052, 35.393086153474449 ], [ 128.981120851069448, 35.386210379239529 ], [ 128.998517089613074, 35.382475103102024 ], [ 129.001205079986079, 35.379794571156566 ], [ 128.999807462067508, 35.369641095556553 ], [ 129.008956885082739, 35.364052745714368 ], [ 129.007945288034222, 35.360282572076592 ], [ 129.00447187154623, 35.360463559743607 ], [ 129.002613126055081, 35.35519530013989 ], [ 129.006140421251047, 35.345751827970659 ], [ 129.005189849151321, 35.342211293706491 ], [ 128.992351608633783, 35.336941331646322 ], [ 128.991064942811363, 35.334314783234994 ], [ 128.984158410787927, 35.330330163017251 ], [ 128.982324621806526, 35.318585309005286 ], [ 128.97706318716439, 35.320350827319324 ], [ 128.972293397624298, 35.31979322663522 ], [ 128.971126775186519, 35.32460672151997 ], [ 128.967637290378434, 35.329236126435099 ], [ 128.962136288760689, 35.332854318790893 ], [ 128.945634484514073, 35.337779753299586 ], [ 128.923616641915999, 35.357034792813351 ], [ 128.912607237719811, 35.364236554958325 ], [ 128.890598930797694, 35.365026302271673 ], [ 128.88039012381256, 35.367954317348108 ], [ 128.876424794619055, 35.371414848137803 ], [ 128.872379272068343, 35.382190330829523 ] ] ] ] } },
{ "type": "Feature", "properties": { "emd_cd": "48330330", "emd_nm": "상북면" }, "geometry": { "type": "MultiPolygon", "coordinates": [ [ [ [ 128.989342891783366, 35.443756069226396 ], [ 128.991972382129234, 35.453853707967006 ], [ 128.990538762084697, 35.455690845818772 ], [ 128.997439426225213, 35.460787821342393 ], [ 129.000643924603679, 35.46743853904389 ], [ 128.998948193386838, 35.47047664696936 ], [ 129.001571579867374, 35.474858598466113 ], [ 129.013898157185906, 35.47594585323057 ], [ 129.023705313596963, 35.479795873789818 ], [ 129.02823151637233, 35.475331022561591 ], [ 129.02915562881023, 35.477073149606682 ], [ 129.033911130346297, 35.476268412765542 ], [ 129.045295655526473, 35.471322591861103 ], [ 129.050185527120391, 35.463452912854109 ], [ 129.05415115221308, 35.463024044162154 ], [ 129.05481303488898, 35.450094482767106 ], [ 129.057936434372351, 35.44652926674388 ], [ 129.058022093080609, 35.443301339461584 ], [ 129.065852162642301, 35.439763902162838 ], [ 129.065727279324818, 35.430671364337883 ], [ 129.078724630783739, 35.428719612158318 ], [ 129.082665905636389, 35.430300319767277 ], [ 129.084475697863326, 35.428465329090528 ], [ 129.087656404021203, 35.429083240889923 ], [ 129.090042027764895, 35.426724865444839 ], [ 129.095438515756797, 35.425588356435817 ], [ 129.09589973198851, 35.421434258916953 ], [ 129.094703423392616, 35.420473376717403 ], [ 129.099137431053521, 35.411498693056181 ], [ 129.097303571165924, 35.407693124602304 ], [ 129.104994547902862, 35.400806115916062 ], [ 129.103999938502483, 35.387158139266795 ], [ 129.092589603333465, 35.383219264983587 ], [ 129.079447522967911, 35.382728193533502 ], [ 129.071889890115187, 35.378709029055763 ], [ 129.065170159613245, 35.379037622835988 ], [ 129.060386341577015, 35.376661632691565 ], [ 129.052398558115527, 35.377067795079022 ], [ 129.045905982996345, 35.374906877493657 ], [ 129.042478982528138, 35.377980184290699 ], [ 129.035496051021426, 35.377687260584345 ], [ 129.031056696888186, 35.3863422537761 ], [ 129.031367026259232, 35.388659905924662 ], [ 129.027916006132074, 35.39195875987415 ], [ 129.026464197837754, 35.405341261850836 ], [ 129.013010285539423, 35.414814261792557 ], [ 129.010329541835375, 35.420730323530329 ], [ 129.003471305654358, 35.421339246548861 ], [ 129.002151307958258, 35.422779933460426 ], [ 129.003015729793987, 35.424983028682583 ], [ 128.999066619161027, 35.428019689869615 ], [ 128.995542290516738, 35.43674962561235 ], [ 128.992439854075457, 35.437258874349261 ], [ 128.989342891783366, 35.443756069226396 ] ] ] ] } },
{ "type": "Feature", "properties": { "emd_cd": "48330340", "emd_nm": "하북면" }, "geometry": { "type": "MultiPolygon", "coordinates": [ [ [ [ 129.015709905902355, 35.481358444087697 ], [ 129.017164653091214, 35.48671061727471 ], [ 129.022375926543276, 35.491772829272712 ], [ 129.021703918614691, 35.494302204059636 ], [ 129.023543681396234, 35.496163994777355 ], [ 129.031102688824717, 35.497886975104095 ], [ 129.037950229996852, 35.509603529118664 ], [ 129.052729995915968, 35.514490492659185 ], [ 129.0717014068004, 35.505629464596815 ], [ 129.086255704442294, 35.502010385135826 ], [ 129.090618569913858, 35.498305270579799 ], [ 129.105267236503238, 35.4964651898865 ], [ 129.10672300699278, 35.49514486106743 ], [ 129.106793309502308, 35.489478162126211 ], [ 129.109381736840902, 35.486605145531541 ], [ 129.108330636398875, 35.481051936443627 ], [ 129.117406308040017, 35.475897962637056 ], [ 129.118804585881009, 35.471966334533739 ], [ 129.121238459713169, 35.470115695077027 ], [ 129.120487638946742, 35.465546057130418 ], [ 129.121765775085692, 35.463442766870429 ], [ 129.130883703594321, 35.458165985234714 ], [ 129.131284154511405, 35.456353760545213 ], [ 129.138088353990497, 35.452108183402927 ], [ 129.14046578022365, 35.447629100892087 ], [ 129.145085527327126, 35.444680128396875 ], [ 129.141229494949556, 35.437866309963766 ], [ 129.137536525800698, 35.436022125282776 ], [ 129.139211073188676, 35.432213395626391 ], [ 129.137964849910219, 35.430407749362459 ], [ 129.133380007741351, 35.429097792214215 ], [ 129.133087565226418, 35.427293500382241 ], [ 129.125121466013866, 35.420589955756689 ], [ 129.128255510178519, 35.417401015498719 ], [ 129.122829340802838, 35.408387810636469 ], [ 129.1249766336596, 35.404229064444337 ], [ 129.115318791835676, 35.403468206610505 ], [ 129.105080328650615, 35.399183885266901 ], [ 129.103759155507134, 35.403205206839289 ], [ 129.097303571165924, 35.407693124602304 ], [ 129.099137431053521, 35.411498693056181 ], [ 129.094703423392616, 35.420473376717403 ], [ 129.09589973198851, 35.421434258916953 ], [ 129.095438515756797, 35.425588356435817 ], [ 129.090042027764895, 35.426724865444839 ], [ 129.087656404021203, 35.429083240889923 ], [ 129.084475697863326, 35.428465329090528 ], [ 129.082665905636389, 35.430300319767277 ], [ 129.078724630783739, 35.428719612158318 ], [ 129.065727279324818, 35.430671364337883 ], [ 129.065852162642301, 35.439763902162838 ], [ 129.058022093080609, 35.443301339461584 ], [ 129.057936434372351, 35.44652926674388 ], [ 129.05481303488898, 35.450094482767106 ], [ 129.05415115221308, 35.463024044162154 ], [ 129.050185527120391, 35.463452912854109 ], [ 129.046796031043158, 35.470326722820388 ], [ 129.033911130346297, 35.476268412765542 ], [ 129.02915562881023, 35.477073149606682 ], [ 129.02823151637233, 35.475331022561591 ], [ 129.023705313596963, 35.479795873789818 ], [ 129.017351762221693, 35.477263591877978 ], [ 129.015709905902355, 35.481358444087697 ] ] ] ] } }
]
}
