{
"type": "FeatureCollection",
"name": "48740",
"crs": { "type": "name", "properties": { "name": "urn:ogc:def:crs:OGC:1.3:CRS84" } },
"features": [
{ "type": "Feature", "properties": { "emd_cd": "48740250", "emd_nm": "창녕읍" }, "geometry": { "type": "MultiPolygon", "coordinates": [ [ [ [ 128.534278553435371, 35.506979510497295 ], [ 128.533385195865691, 35.509867097598082 ], [ 128.52989004845054, 35.510293317779876 ], [ 128.506627978039774, 35.504110980875744 ], [ 128.496857783819621, 35.508977290948657 ], [ 128.482707486024253, 35.504369754333148 ], [ 128.482659076311734, 35.502218659814694 ], [ 128.477986463703871, 35.49712658670154 ], [ 128.47546279903483, 35.498406775682724 ], [ 128.468512448943841, 35.496375537224104 ], [ 128.465887526342755, 35.491753726811858 ], [ 128.460434041006181, 35.492115234242597 ], [ 128.459257274067483, 35.489733020529471 ], [ 128.45671484245986, 35.489157082445139 ], [ 128.455705787545924, 35.49282452103742 ], [ 128.452147274592278, 35.494508606588028 ], [ 128.458720785727309, 35.502804295857935 ], [ 128.457187438884858, 35.504308419508831 ], [ 128.456581473430731, 35.509796483618622 ], [ 128.452735438427197, 35.5116439090122 ], [ 128.447747214152173, 35.507437877565756 ], [ 128.444786642454034, 35.50872003683746 ], [ 128.441248334733217, 35.507090956844507 ], [ 128.43902751962986, 35.511140747770739 ], [ 128.43081038361683, 35.511637570870157 ], [ 128.428036857681292, 35.514825990042617 ], [ 128.433819218842814, 35.516312005685769 ], [ 128.43409420793509, 35.514724645778223 ], [ 128.448248568075485, 35.516099655858618 ], [ 128.448479679358314, 35.514546949448402 ], [ 128.460313213623976, 35.516646813760254 ], [ 128.46278575359608, 35.51886593610228 ], [ 128.463457742444433, 35.522161861596814 ], [ 128.469202368014209, 35.525328746816022 ], [ 128.471948438728987, 35.529935936328499 ], [ 128.479300992091595, 35.534022040255422 ], [ 128.473382066067785, 35.535929096880139 ], [ 128.47206371335696, 35.533606769117043 ], [ 128.469147202221052, 35.534919156618088 ], [ 128.468980882025647, 35.541299666919507 ], [ 128.472435696252774, 35.542918860589957 ], [ 128.482277992880313, 35.541614103034945 ], [ 128.487263428085043, 35.544781650899949 ], [ 128.482918139672421, 35.549781822084924 ], [ 128.482593010510868, 35.560289866462227 ], [ 128.481202591067756, 35.56071994271084 ], [ 128.482192704438376, 35.563145749315986 ], [ 128.48414685806992, 35.563973658335961 ], [ 128.491833086766178, 35.559526168132109 ], [ 128.495537797522047, 35.561254766345108 ], [ 128.497750261929298, 35.565392599118731 ], [ 128.502234853392991, 35.564946946400404 ], [ 128.506055007532609, 35.567072128971887 ], [ 128.509713302056497, 35.563337127326058 ], [ 128.511606171098492, 35.557452868634151 ], [ 128.516671799252236, 35.557960584565514 ], [ 128.525843114474867, 35.555423317699187 ], [ 128.530030943851216, 35.547564144632176 ], [ 128.533753138527459, 35.546593927872443 ], [ 128.544023324102938, 35.547738948312059 ], [ 128.549105269867511, 35.549928066176427 ], [ 128.554011118165249, 35.543648665236837 ], [ 128.553796399989608, 35.540261024398546 ], [ 128.557825334182581, 35.537801881973536 ], [ 128.568836345537477, 35.539695085393959 ], [ 128.575682840834332, 35.537083014488537 ], [ 128.578005586611027, 35.539318748173983 ], [ 128.584024336997885, 35.533620248262849 ], [ 128.585179878135676, 35.529954219854687 ], [ 128.583723186032614, 35.52498132611931 ], [ 128.586359038693132, 35.521588253016255 ], [ 128.593591543087598, 35.51836654572233 ], [ 128.591858059849613, 35.517386112728737 ], [ 128.589851489836946, 35.510485563835083 ], [ 128.585894921018792, 35.506269326094504 ], [ 128.577507332057593, 35.506337683952552 ], [ 128.573682687807093, 35.495960602958 ], [ 128.571187618765833, 35.492483029964319 ], [ 128.568662708030303, 35.492866019809298 ], [ 128.567038598855106, 35.48984098453402 ], [ 128.565114938278583, 35.489402954135258 ], [ 128.564616865323813, 35.485534623617959 ], [ 128.553852361874704, 35.488541409242501 ], [ 128.54739384637125, 35.494999418946875 ], [ 128.541222328420702, 35.505686550848672 ], [ 128.534278553435371, 35.506979510497295 ] ] ] ] } },
{ "type": "Feature", "properties": { "emd_cd": "48740253", "emd_nm": "남지읍" }, "geometry": { "type": "MultiPolygon", "coordinates": [ [ [ [ 128.421192522738579, 35.479398939545085 ], [ 128.426143320183996, 35.479139887307873 ], [ 128.42969709017521, 35.484469790986338 ], [ 128.432610133414414, 35.484098705323376 ], [ 128.434125615761786, 35.486821141792667 ], [ 128.438005426688903, 35.485794947192815 ], [ 128.438788562374128, 35.483949060133035 ], [ 128.436136179421283, 35.477296502021922 ], [ 128.437325197839613, 35.475281294398521 ], [ 128.440848150737907, 35.474882717493635 ], [ 128.439964238346136, 35.467976248023348 ], [ 128.437991143584725, 35.466133730791732 ], [ 128.439749743386187, 35.465539438488001 ], [ 128.441893918782966, 35.460468218993668 ], [ 128.43917708963113, 35.457572846125828 ], [ 128.437642690905534, 35.45218377974664 ], [ 128.44041853182776, 35.450016014123975 ], [ 128.440569347273708, 35.447936070187509 ], [ 128.436999725005307, 35.445269043470333 ], [ 128.436657770229203, 35.442599675031531 ], [ 128.44537694480033, 35.433238198288528 ], [ 128.451434398856208, 35.429563308021642 ], [ 128.45321363940198, 35.430753481365706 ], [ 128.453447427354888, 35.434939072446099 ], [ 128.457687128256737, 35.436589762722214 ], [ 128.460987176469189, 35.433595884404212 ], [ 128.460771735042641, 35.432008216216694 ], [ 128.468099789616616, 35.429736600087011 ], [ 128.467028981123917, 35.430777204416451 ], [ 128.471580736005649, 35.43060889011592 ], [ 128.469633797280295, 35.426738974984133 ], [ 128.476458568572156, 35.42358038809666 ], [ 128.473954946962408, 35.415761488810091 ], [ 128.481509597248902, 35.413084284901032 ], [ 128.479212921601771, 35.409580928567273 ], [ 128.479001357209626, 35.405772873096495 ], [ 128.482682221535981, 35.40380790966919 ], [ 128.483648434852114, 35.400306081558291 ], [ 128.485681357926296, 35.400003610881832 ], [ 128.488418062681291, 35.4031286745222 ], [ 128.495968070359794, 35.399995130436992 ], [ 128.494287381656108, 35.395652013221209 ], [ 128.480103086130981, 35.381170704439214 ], [ 128.475058694556452, 35.378919572562467 ], [ 128.462632891471799, 35.379025823168917 ], [ 128.462340596368193, 35.380897051198566 ], [ 128.451515577510918, 35.383466271341042 ], [ 128.441761308972957, 35.388209647850772 ], [ 128.4337350234415, 35.397564675967182 ], [ 128.43022552279615, 35.406181748259165 ], [ 128.423235189898179, 35.415905408484704 ], [ 128.397788582293146, 35.421536021224057 ], [ 128.388255468958192, 35.425872946681743 ], [ 128.375983487698505, 35.439710315281694 ], [ 128.374734017186512, 35.445563666603732 ], [ 128.375946253008522, 35.453546158341162 ], [ 128.380254389923778, 35.456407719160424 ], [ 128.382934412164531, 35.461149886545527 ], [ 128.391995136689104, 35.462242705565309 ], [ 128.41207835339614, 35.469696477503462 ], [ 128.420973344285699, 35.477452924847618 ], [ 128.421192522738579, 35.479398939545085 ] ] ] ] } },
{ "type": "Feature", "properties": { "emd_cd": "48740310", "emd_nm": "고암면" }, "geometry": { "type": "MultiPolygon", "coordinates": [ [ [ [ 128.586447117125402, 35.539658179852935 ], [ 128.577223984607315, 35.539711902001798 ], [ 128.575682840834332, 35.537083014488537 ], [ 128.568836345537477, 35.539695085393959 ], [ 128.557825334182581, 35.537801881973536 ], [ 128.553796399989608, 35.540261024398546 ], [ 128.554011118165249, 35.543648665236837 ], [ 128.549105269867511, 35.549928066176427 ], [ 128.544023324102938, 35.547738948312059 ], [ 128.533753138527459, 35.546593927872443 ], [ 128.530030943851216, 35.547564144632176 ], [ 128.525843114474867, 35.555423317699187 ], [ 128.516671799252236, 35.557960584565514 ], [ 128.511606171098492, 35.557452868634151 ], [ 128.509713302056497, 35.563337127326058 ], [ 128.506055007532609, 35.567072128971887 ], [ 128.502234853392991, 35.564946946400404 ], [ 128.497750261929298, 35.565392599118731 ], [ 128.495537797522047, 35.561254766345108 ], [ 128.491833086766178, 35.559526168132109 ], [ 128.48315184217941, 35.563866170257228 ], [ 128.486520021194139, 35.567558653173379 ], [ 128.482766943060398, 35.567013567029221 ], [ 128.481624869243433, 35.569209081907076 ], [ 128.478863581845616, 35.570604864322981 ], [ 128.476131779274283, 35.569564630341389 ], [ 128.473857415193294, 35.572069425168998 ], [ 128.478282829344209, 35.575116977223139 ], [ 128.478449100552979, 35.578557298651361 ], [ 128.482090195476502, 35.585073779988406 ], [ 128.485109740001093, 35.585770814144496 ], [ 128.485112998162776, 35.588011425272853 ], [ 128.49205534964463, 35.589930684857364 ], [ 128.492889364860645, 35.591906366467001 ], [ 128.492593603126238, 35.596609185797789 ], [ 128.486602096862669, 35.599157986229734 ], [ 128.483822019831905, 35.605704504235476 ], [ 128.490005018010265, 35.609254000490317 ], [ 128.493094682481967, 35.607241528387995 ], [ 128.504072973988059, 35.607405416195924 ], [ 128.514613962269777, 35.599520471935108 ], [ 128.514586357150648, 35.596146721730314 ], [ 128.522754329362812, 35.593198422764189 ], [ 128.526480870379174, 35.596094754633164 ], [ 128.534325404290399, 35.59531999425873 ], [ 128.538797705520125, 35.591979525614754 ], [ 128.546234948024164, 35.589556251858056 ], [ 128.556297124916398, 35.579861301475219 ], [ 128.571243425589955, 35.581244312523694 ], [ 128.577233337657731, 35.578917237028747 ], [ 128.585959466633199, 35.580620718767548 ], [ 128.586972821493418, 35.571837087174316 ], [ 128.58491393679094, 35.56754136791416 ], [ 128.589482011583868, 35.564808059244285 ], [ 128.590933276956036, 35.561584338665611 ], [ 128.590397737487109, 35.558125068000891 ], [ 128.586933519850817, 35.556182263195645 ], [ 128.587259081757765, 35.554636582763081 ], [ 128.588886954479193, 35.548072707634425 ], [ 128.595308333199057, 35.542148471861864 ], [ 128.592515029092169, 35.537961515991348 ], [ 128.586447117125402, 35.539658179852935 ] ] ] ] } },
{ "type": "Feature", "properties": { "emd_cd": "48740320", "emd_nm": "성산면" }, "geometry": { "type": "MultiPolygon", "coordinates": [ [ [ [ 128.450525009732416, 35.637682883642306 ], [ 128.456481939500435, 35.637413200551514 ], [ 128.457507429824716, 35.639628686267407 ], [ 128.461110527673952, 35.64065746978325 ], [ 128.466262785379087, 35.636744047214705 ], [ 128.470226407312907, 35.63661796465567 ], [ 128.478493964062039, 35.640528350638448 ], [ 128.482708807413786, 35.634990518057258 ], [ 128.489204618274982, 35.635742639436131 ], [ 128.495693328071894, 35.63903648102135 ], [ 128.506235932592659, 35.639556965381004 ], [ 128.510710807022605, 35.645692596570719 ], [ 128.50681377690924, 35.650125869322508 ], [ 128.507280467319106, 35.652615588086491 ], [ 128.505691863048696, 35.654898573218858 ], [ 128.507166498147058, 35.655397259112902 ], [ 128.508926756083042, 35.661843813261427 ], [ 128.509177848089593, 35.669036950756045 ], [ 128.507550909031949, 35.672857709541823 ], [ 128.509454780575197, 35.67471463289624 ], [ 128.514801873745967, 35.675416665509765 ], [ 128.518164875338073, 35.67942803142229 ], [ 128.530118183979994, 35.682995926690886 ], [ 128.529026009711913, 35.677740361245291 ], [ 128.526852521153074, 35.675557903166556 ], [ 128.527013008090535, 35.672429036946745 ], [ 128.530868810944497, 35.66258172717518 ], [ 128.536981879336679, 35.660973637938177 ], [ 128.538148827956803, 35.654360517776794 ], [ 128.534871200481518, 35.643744799909477 ], [ 128.538218144623045, 35.632664636457314 ], [ 128.536215568590649, 35.627710967944374 ], [ 128.536680654533455, 35.62416534363016 ], [ 128.551235699792613, 35.616539336512879 ], [ 128.556109488014783, 35.61683587098765 ], [ 128.558737992623264, 35.614805866685437 ], [ 128.558648468594839, 35.607759731230082 ], [ 128.560639880965113, 35.603468164441445 ], [ 128.566245680378074, 35.602232208761869 ], [ 128.569350188494866, 35.604147604144146 ], [ 128.56974709537721, 35.599599977108504 ], [ 128.573049673400732, 35.59699694782811 ], [ 128.573016971373733, 35.593386379755799 ], [ 128.58480340559413, 35.586849653622203 ], [ 128.593258972646964, 35.584994045836481 ], [ 128.585446345424884, 35.580367400715382 ], [ 128.577233337657759, 35.578917237028747 ], [ 128.571243425589955, 35.581244312523694 ], [ 128.55562787403943, 35.58009721754653 ], [ 128.546234948024164, 35.589556251858056 ], [ 128.538797705520153, 35.59197952561474 ], [ 128.534325404290399, 35.595319994258723 ], [ 128.526480870379174, 35.596094754633143 ], [ 128.52275432936284, 35.593198422764175 ], [ 128.514586357150648, 35.596146721730328 ], [ 128.514613962269777, 35.599520471935108 ], [ 128.504072973988059, 35.607405416195924 ], [ 128.493094682481967, 35.607241528387988 ], [ 128.490005018010265, 35.609254000490317 ], [ 128.487009134431361, 35.607975081952631 ], [ 128.48594488496127, 35.611813635435851 ], [ 128.483236476862942, 35.614498425251547 ], [ 128.485363848556943, 35.616764004504496 ], [ 128.4837785852026, 35.618982648313604 ], [ 128.473687508061232, 35.61958525493359 ], [ 128.470589902864617, 35.61661728166245 ], [ 128.463409405966246, 35.619503033835755 ], [ 128.4583365963733, 35.61964910097074 ], [ 128.453393355862971, 35.627180024509357 ], [ 128.457638838411867, 35.633151400630879 ], [ 128.450525009732416, 35.637682883642306 ] ] ] ] } },
{ "type": "Feature", "properties": { "emd_cd": "48740330", "emd_nm": "대합면" }, "geometry": { "type": "MultiPolygon", "coordinates": [ [ [ [ 128.486738278243791, 35.608123528118632 ], [ 128.483426946016948, 35.604804631002871 ], [ 128.486602096862669, 35.599157986229734 ], [ 128.492593603126238, 35.596609185797789 ], [ 128.492889364860645, 35.591906366467001 ], [ 128.49205534964463, 35.589930684857364 ], [ 128.485112998162776, 35.588011425272853 ], [ 128.485109740001093, 35.585770814144496 ], [ 128.482090195476502, 35.585073779988406 ], [ 128.478449100552979, 35.578557298651361 ], [ 128.478282829344209, 35.575116977223139 ], [ 128.476584690757591, 35.574963867792533 ], [ 128.469574239279268, 35.567409333767131 ], [ 128.464359533817969, 35.566184078524927 ], [ 128.463376088746259, 35.563763196735543 ], [ 128.458664531214112, 35.564179100099096 ], [ 128.456327022213827, 35.56024410578317 ], [ 128.457220434879304, 35.557901222283185 ], [ 128.45170276386952, 35.55843535588172 ], [ 128.443517354814304, 35.555851097755443 ], [ 128.440121635532506, 35.556689049276571 ], [ 128.433412288026375, 35.552968135415384 ], [ 128.428942176549697, 35.555260754571549 ], [ 128.42459416114437, 35.56035953790434 ], [ 128.420622278717985, 35.55888833704762 ], [ 128.41785404730166, 35.559726958948239 ], [ 128.418280707811107, 35.564453384728026 ], [ 128.415214641622981, 35.569724017132032 ], [ 128.418469898721241, 35.573712517561084 ], [ 128.422881055811871, 35.57532874144794 ], [ 128.416541776486781, 35.581983369999612 ], [ 128.422256787347266, 35.585008538161887 ], [ 128.419937406768753, 35.59456032422792 ], [ 128.415690683939658, 35.596597728813585 ], [ 128.41269983721358, 35.600445554065949 ], [ 128.405647832692949, 35.596513539571333 ], [ 128.401541576664215, 35.590687300654388 ], [ 128.39814856562711, 35.594340035629045 ], [ 128.398790776245903, 35.600173123536464 ], [ 128.395305434506156, 35.60190786145494 ], [ 128.39735339896967, 35.603380656846184 ], [ 128.396696495390557, 35.605641491938499 ], [ 128.398194158360809, 35.607636500382682 ], [ 128.395700807117692, 35.611486326226917 ], [ 128.396449243257734, 35.61477590198043 ], [ 128.402923608255634, 35.615209679446558 ], [ 128.403493160977604, 35.617411174237063 ], [ 128.406304853455765, 35.614257876894797 ], [ 128.41015617507685, 35.615096849867321 ], [ 128.413918122411189, 35.617233418725412 ], [ 128.416666452390075, 35.621962461384491 ], [ 128.41903953889593, 35.61969777931369 ], [ 128.422943981670159, 35.625174863258025 ], [ 128.425225152910542, 35.625277544350681 ], [ 128.43099449255314, 35.621645200354713 ], [ 128.437488412805322, 35.630794999148002 ], [ 128.440453578279289, 35.630590276276685 ], [ 128.441073276009291, 35.633991425598083 ], [ 128.4457820483224, 35.634946330793028 ], [ 128.446691090701819, 35.63843975837375 ], [ 128.457638838411867, 35.633151400630879 ], [ 128.453393355862971, 35.627180024509364 ], [ 128.4583365963733, 35.61964910097074 ], [ 128.463409405966217, 35.619503033835755 ], [ 128.470589902864617, 35.61661728166245 ], [ 128.473687508061232, 35.61958525493359 ], [ 128.483778585202629, 35.618982648313604 ], [ 128.485363848556943, 35.616764004504525 ], [ 128.483236476862942, 35.614498425251547 ], [ 128.485944884961242, 35.611813635435858 ], [ 128.486738278243791, 35.608123528118632 ] ] ] ] } },
{ "type": "Feature", "properties": { "emd_cd": "48740340", "emd_nm": "이방면" }, "geometry": { "type": "MultiPolygon", "coordinates": [ [ [ [ 128.417857749860246, 35.561346377712198 ], [ 128.411633557454081, 35.555318472662385 ], [ 128.406394502024597, 35.552787426662647 ], [ 128.403732354670268, 35.554761392579451 ], [ 128.403242871211575, 35.549007285091001 ], [ 128.404869334024653, 35.546911302938099 ], [ 128.402196433653558, 35.544373851106855 ], [ 128.403511015406878, 35.5431669453598 ], [ 128.400993569727973, 35.542729627404405 ], [ 128.400705466559714, 35.541335406609143 ], [ 128.402787514011322, 35.537139270484502 ], [ 128.404865801459437, 35.53721175719803 ], [ 128.405154116210355, 35.535846649739767 ], [ 128.401552014233886, 35.535171121208094 ], [ 128.399874734079134, 35.53272783528022 ], [ 128.397590329600462, 35.533736437157302 ], [ 128.39643693728371, 35.528226091051778 ], [ 128.394871480857375, 35.52715891466152 ], [ 128.393089900374633, 35.528285423631317 ], [ 128.392530169262841, 35.526851470034977 ], [ 128.386828721435023, 35.529924308033216 ], [ 128.379623904477512, 35.529541647755778 ], [ 128.376119444554234, 35.52601009834504 ], [ 128.379703772194745, 35.520334808273311 ], [ 128.375091220001451, 35.519236463552218 ], [ 128.373316780212065, 35.516242718299821 ], [ 128.351417393481455, 35.536845463812618 ], [ 128.350448148540551, 35.550844692518972 ], [ 128.357357923633828, 35.564441755410016 ], [ 128.359237860589246, 35.581294573514285 ], [ 128.351669134364244, 35.604067208103189 ], [ 128.352395154861341, 35.607676196738936 ], [ 128.35498233438787, 35.609962184373593 ], [ 128.364762685986392, 35.612865836040022 ], [ 128.377078635432042, 35.606980071384093 ], [ 128.380233765514276, 35.609247191992011 ], [ 128.382398643612504, 35.606539893968467 ], [ 128.384406510905364, 35.609908857460795 ], [ 128.395774660825964, 35.614134197434261 ], [ 128.398194158360099, 35.607636500382739 ], [ 128.396696495389904, 35.605641491938556 ], [ 128.397353398968988, 35.603380656846241 ], [ 128.395305434505445, 35.601907861454997 ], [ 128.398790776245193, 35.600173123536422 ], [ 128.398148565626457, 35.594340035629116 ], [ 128.400926287863143, 35.590981738160217 ], [ 128.404079720993451, 35.592970910213424 ], [ 128.405647832692154, 35.59651353957139 ], [ 128.412699837212926, 35.60044555406602 ], [ 128.420385509546833, 35.593564314844777 ], [ 128.422256787346555, 35.585008538161844 ], [ 128.416541776486127, 35.58198336999962 ], [ 128.42288105581116, 35.575328741447997 ], [ 128.418469898720474, 35.573712517561134 ], [ 128.415214641622299, 35.569724017132032 ], [ 128.418255056161485, 35.564545569631633 ], [ 128.417857749860246, 35.561346377712198 ] ] ] ] } },
{ "type": "Feature", "properties": { "emd_cd": "48740350", "emd_nm": "유어면" }, "geometry": { "type": "MultiPolygon", "coordinates": [ [ [ [ 128.373316780212662, 35.516242718299807 ], [ 128.375091220001991, 35.519236463552154 ], [ 128.379703772195455, 35.520334808273311 ], [ 128.376119444554746, 35.526010098345019 ], [ 128.37962390447808, 35.529541647755728 ], [ 128.386828721435649, 35.529924308033145 ], [ 128.392530169263495, 35.526851470034934 ], [ 128.39308990037523, 35.528285423631282 ], [ 128.394871480858086, 35.527158914661548 ], [ 128.39643693728442, 35.528226091051771 ], [ 128.397590329601115, 35.533736437157259 ], [ 128.399874734079845, 35.532727835280156 ], [ 128.401552014234539, 35.535171121208037 ], [ 128.40515411621098, 35.535846649739746 ], [ 128.40486580146009, 35.537211757198058 ], [ 128.402787514012005, 35.537139270484403 ], [ 128.400705466560396, 35.541335406609086 ], [ 128.400993569728683, 35.542729627404398 ], [ 128.403511015407673, 35.543166945359808 ], [ 128.402196433654211, 35.544373851106897 ], [ 128.404869334025364, 35.546911302938057 ], [ 128.403242871212257, 35.549007285090937 ], [ 128.403732354670893, 35.554761392579465 ], [ 128.406150835084389, 35.552691634640425 ], [ 128.410892595555509, 35.554925132571711 ], [ 128.416627883114955, 35.561113575654211 ], [ 128.420622278717985, 35.55888833704762 ], [ 128.42459416114437, 35.56035953790434 ], [ 128.429871711762502, 35.554654465440045 ], [ 128.434648637162013, 35.552239598040323 ], [ 128.437191357714255, 35.553391797518358 ], [ 128.436730362258857, 35.549996259698922 ], [ 128.438869860174179, 35.548530879150356 ], [ 128.43970840979344, 35.545071123160497 ], [ 128.434621181351787, 35.538295780401931 ], [ 128.435167923861002, 35.534355772348391 ], [ 128.432753105241659, 35.53285179351753 ], [ 128.441138594098334, 35.526076809808679 ], [ 128.442289936941989, 35.522756280695774 ], [ 128.43544253781684, 35.517846187496495 ], [ 128.437867401916748, 35.516318592939598 ], [ 128.440863603309623, 35.517198140336617 ], [ 128.441131838319222, 35.5153861498327 ], [ 128.43409420793509, 35.514724645778223 ], [ 128.433819218842814, 35.516312005685769 ], [ 128.428036857681292, 35.514825990042617 ], [ 128.43081038361683, 35.511637570870157 ], [ 128.43902751962986, 35.511140747770739 ], [ 128.441248334733217, 35.507090956844507 ], [ 128.444786642454034, 35.50872003683746 ], [ 128.447747214152173, 35.507437877565756 ], [ 128.452735438427197, 35.5116439090122 ], [ 128.456581473430731, 35.509796483618622 ], [ 128.457187438884858, 35.504308419508831 ], [ 128.458720785727309, 35.502804295857935 ], [ 128.452147274592278, 35.494508606588028 ], [ 128.455705787545924, 35.49282452103742 ], [ 128.457801625219616, 35.486785437789713 ], [ 128.455871769364876, 35.482749419457647 ], [ 128.446554071536042, 35.479262421983755 ], [ 128.447678461411044, 35.477182363316054 ], [ 128.445579381013175, 35.4755209495857 ], [ 128.437325197839613, 35.475281294398521 ], [ 128.436136179421283, 35.477296502021922 ], [ 128.43882987754165, 35.484149366593364 ], [ 128.438005426688903, 35.485794947192815 ], [ 128.434125615761786, 35.486821141792667 ], [ 128.432610133414414, 35.484098705323376 ], [ 128.42969709017521, 35.484469790986338 ], [ 128.426143320183996, 35.479139887307873 ], [ 128.421192522738579, 35.479398939545085 ], [ 128.419776051365147, 35.493538462341888 ], [ 128.411981615636392, 35.500711235311201 ], [ 128.38884340527261, 35.511281876123142 ], [ 128.373316780212662, 35.516242718299807 ] ] ] ] } },
{ "type": "Feature", "properties": { "emd_cd": "48740360", "emd_nm": "대지면" }, "geometry": { "type": "MultiPolygon", "coordinates": [ [ [ [ 128.433412288026375, 35.552968135415384 ], [ 128.440121635532506, 35.556689049276571 ], [ 128.443517354814304, 35.555851097755443 ], [ 128.45170276386952, 35.55843535588172 ], [ 128.457220434879304, 35.557901222283185 ], [ 128.456327022213827, 35.56024410578317 ], [ 128.458664531214112, 35.564179100099096 ], [ 128.463376088746259, 35.563763196735543 ], [ 128.464359533817969, 35.566184078524927 ], [ 128.469574239279268, 35.567409333767131 ], [ 128.473527687221321, 35.572222199835544 ], [ 128.476131779274283, 35.569564630341389 ], [ 128.478863581845616, 35.570604864322981 ], [ 128.481624869243433, 35.569209081907076 ], [ 128.482766943060398, 35.567013567029221 ], [ 128.486520021194139, 35.567558653173379 ], [ 128.481202591067756, 35.56071994271084 ], [ 128.482593010510868, 35.560289866462227 ], [ 128.482942436638325, 35.549709652573519 ], [ 128.487263428085043, 35.544781650899949 ], [ 128.482277992880313, 35.541614103034945 ], [ 128.472435696252774, 35.542918860589957 ], [ 128.468980882025647, 35.541299666919507 ], [ 128.469147202221052, 35.534919156618088 ], [ 128.47206371335696, 35.533606769117043 ], [ 128.473382066067785, 35.535929096880139 ], [ 128.479300992091595, 35.534022040255422 ], [ 128.471948438728987, 35.529935936328499 ], [ 128.469202368014209, 35.525328746816022 ], [ 128.463457742444433, 35.522161861596814 ], [ 128.46278575359608, 35.51886593610228 ], [ 128.45992378284825, 35.516507673909523 ], [ 128.448479679358314, 35.514546949448402 ], [ 128.448248568075485, 35.516099655858618 ], [ 128.441131838319222, 35.5153861498327 ], [ 128.440863603309623, 35.517198140336617 ], [ 128.437867401916748, 35.516318592939598 ], [ 128.43544253781684, 35.517846187496495 ], [ 128.442289936941989, 35.522756280695774 ], [ 128.441138594098334, 35.526076809808679 ], [ 128.432753105241659, 35.53285179351753 ], [ 128.435167923861002, 35.534355772348391 ], [ 128.434621181351787, 35.538295780401931 ], [ 128.43970840979344, 35.545071123160497 ], [ 128.438869860174179, 35.548530879150356 ], [ 128.436730362258857, 35.549996259698922 ], [ 128.437041369712347, 35.553672836155393 ], [ 128.433412288026375, 35.552968135415384 ] ] ] ] } },
{ "type": "Feature", "properties": { "emd_cd": "48740370", "emd_nm": "계성면" }, "geometry": { "type": "MultiPolygon", "coordinates": [ [ [ [ 128.534278553435371, 35.506979510497295 ], [ 128.541222328420702, 35.505686550848672 ], [ 128.54739384637125, 35.494999418946875 ], [ 128.553852361874704, 35.488541409242501 ], [ 128.563740109212262, 35.486018363727602 ], [ 128.564375956036798, 35.484245761187331 ], [ 128.559405308654021, 35.479342109393826 ], [ 128.546818064544397, 35.479790469822092 ], [ 128.545198083529783, 35.478899300456192 ], [ 128.545987273717344, 35.476374014640072 ], [ 128.543981169861951, 35.474146314098867 ], [ 128.538075863436092, 35.472206843519558 ], [ 128.534390392622015, 35.472717735014385 ], [ 128.526705808916716, 35.4688089101248 ], [ 128.523535320345928, 35.468921598148818 ], [ 128.521477208056211, 35.465964573069108 ], [ 128.518047557951178, 35.465192354512418 ], [ 128.517370451880964, 35.459787976654304 ], [ 128.519334639287081, 35.455370356324536 ], [ 128.516333237534639, 35.449544188801319 ], [ 128.513095345440007, 35.447300866580797 ], [ 128.509026778192606, 35.448769333651235 ], [ 128.499803474275183, 35.447137576566298 ], [ 128.497759002248245, 35.445633996709319 ], [ 128.498584312745066, 35.442638097145377 ], [ 128.490359013944584, 35.440509190315929 ], [ 128.488360051324406, 35.441340067072204 ], [ 128.487145639299769, 35.439054167795021 ], [ 128.479273664221807, 35.437676254514976 ], [ 128.474868110092189, 35.435060330929112 ], [ 128.473777275610217, 35.435862602990674 ], [ 128.473581576898511, 35.438120398107138 ], [ 128.479028211393029, 35.44440395851084 ], [ 128.487171410459126, 35.446467518795785 ], [ 128.488107272240455, 35.455214501039364 ], [ 128.490761976615289, 35.455185165514685 ], [ 128.491374990120562, 35.458752221499203 ], [ 128.494850357533494, 35.461804600179093 ], [ 128.491318185714277, 35.464441748481072 ], [ 128.488248087739265, 35.464037662292135 ], [ 128.485436043167965, 35.460581654574995 ], [ 128.483727706332274, 35.466545821509072 ], [ 128.478763607472388, 35.4664350198085 ], [ 128.478090161804602, 35.469502691987643 ], [ 128.4816620717896, 35.476960566143042 ], [ 128.48398723909591, 35.479487847330724 ], [ 128.487121994734082, 35.479202197257102 ], [ 128.490026446450429, 35.484577838243013 ], [ 128.493305083220662, 35.483838863400855 ], [ 128.493496241445939, 35.486734887086207 ], [ 128.499317081969821, 35.490999403363091 ], [ 128.50056237740074, 35.494906936501444 ], [ 128.504087882511072, 35.496361010789094 ], [ 128.504201897484847, 35.500297309745505 ], [ 128.508685117742942, 35.500577806970995 ], [ 128.512212566341901, 35.503201439743655 ], [ 128.524664949252781, 35.503464967556447 ], [ 128.534278553435371, 35.506979510497295 ] ] ] ] } },
{ "type": "Feature", "properties": { "emd_cd": "48740380", "emd_nm": "영산면" }, "geometry": { "type": "MultiPolygon", "coordinates": [ [ [ [ 128.573987140386151, 35.45549084909355 ], [ 128.570309031456361, 35.456156774712227 ], [ 128.563366557049534, 35.453085930836778 ], [ 128.559228351825027, 35.455541618771868 ], [ 128.547809067805986, 35.452408020068063 ], [ 128.546995405584056, 35.448970981727662 ], [ 128.542933604073312, 35.445227748249806 ], [ 128.54463805485284, 35.444775157431948 ], [ 128.543309035620325, 35.443250237074743 ], [ 128.543906995683216, 35.440964005841131 ], [ 128.540277538189486, 35.437764902264682 ], [ 128.541087590505043, 35.436270495199274 ], [ 128.539259170082886, 35.434592051689478 ], [ 128.531457610703285, 35.433727215093299 ], [ 128.530313909698151, 35.442576952485233 ], [ 128.527196998017871, 35.440675286963057 ], [ 128.524745051316103, 35.445272565357385 ], [ 128.520984865249858, 35.443297545952532 ], [ 128.517381099038658, 35.438357067276364 ], [ 128.513567235603801, 35.443621129978119 ], [ 128.512560110229742, 35.443158942783377 ], [ 128.508906949870862, 35.436560986986031 ], [ 128.510838695066838, 35.436800900294081 ], [ 128.510175974970537, 35.432912275421096 ], [ 128.51233738966539, 35.431556872783851 ], [ 128.505451833506697, 35.427910542358511 ], [ 128.505552045703382, 35.422909609627759 ], [ 128.502130951293168, 35.41507629030751 ], [ 128.498689537023978, 35.411848960148873 ], [ 128.499712614524128, 35.407592290237694 ], [ 128.490885989132551, 35.406641200901689 ], [ 128.490163108355119, 35.403108177492278 ], [ 128.488118431729418, 35.402973152071795 ], [ 128.485568033481002, 35.399953113491748 ], [ 128.483465607637015, 35.400436176512265 ], [ 128.482682221535981, 35.40380790966919 ], [ 128.478851371403238, 35.406117856968159 ], [ 128.481269146040631, 35.413620346014035 ], [ 128.473954946962408, 35.415761488810091 ], [ 128.476458568572156, 35.42358038809666 ], [ 128.469633797280295, 35.426738974984133 ], [ 128.474868110092189, 35.435060330929112 ], [ 128.479032332126025, 35.437579474484728 ], [ 128.487145639299769, 35.439054167795021 ], [ 128.488360051324406, 35.441340067072204 ], [ 128.490359013944584, 35.440509190315929 ], [ 128.498584312745066, 35.442638097145377 ], [ 128.497759002248245, 35.445633996709319 ], [ 128.499803474275183, 35.447137576566298 ], [ 128.509026778192606, 35.448769333651235 ], [ 128.513095345440007, 35.447300866580797 ], [ 128.516333237534639, 35.449544188801319 ], [ 128.519334639287081, 35.455370356324536 ], [ 128.517370451880964, 35.459787976654304 ], [ 128.518047557951178, 35.465192354512418 ], [ 128.521477208056211, 35.465964573069108 ], [ 128.523535320345928, 35.468921598148818 ], [ 128.526705808916716, 35.4688089101248 ], [ 128.534390392622015, 35.472717735014385 ], [ 128.538075863436092, 35.472206843519558 ], [ 128.543981169861951, 35.474146314098867 ], [ 128.545987273717344, 35.476374014640072 ], [ 128.545198083529783, 35.478899300456192 ], [ 128.546818064544397, 35.479790469822092 ], [ 128.559405308654021, 35.479342109393826 ], [ 128.564375956036798, 35.484245761187331 ], [ 128.565114938278583, 35.489402954135258 ], [ 128.56982758237092, 35.493308564562568 ], [ 128.573153665336918, 35.489375078645168 ], [ 128.571395703023427, 35.485678960236491 ], [ 128.573370910788441, 35.479818333381736 ], [ 128.572376432300388, 35.477844788293268 ], [ 128.573521834720054, 35.472010318769939 ], [ 128.577395696293621, 35.470312250606128 ], [ 128.579212986077835, 35.465692560787097 ], [ 128.577261846970544, 35.45981994301308 ], [ 128.578220610881289, 35.458762728186478 ], [ 128.573987140386151, 35.45549084909355 ] ] ] ] } },
{ "type": "Feature", "properties": { "emd_cd": "48740390", "emd_nm": "장마면" }, "geometry": { "type": "MultiPolygon", "coordinates": [ [ [ [ 128.534278553435371, 35.506979510497295 ], [ 128.524664949252781, 35.503464967556447 ], [ 128.512212566341901, 35.503201439743655 ], [ 128.508685117742942, 35.500577806970995 ], [ 128.504201897484847, 35.500297309745505 ], [ 128.504087882511072, 35.496361010789094 ], [ 128.50056237740074, 35.494906936501444 ], [ 128.499317081969821, 35.490999403363091 ], [ 128.493496241445939, 35.486734887086207 ], [ 128.493305083220662, 35.483838863400855 ], [ 128.490026446450429, 35.484577838243013 ], [ 128.487121994734082, 35.479202197257102 ], [ 128.48398723909591, 35.479487847330724 ], [ 128.4816620717896, 35.476960566143042 ], [ 128.478090161804602, 35.469502691987643 ], [ 128.478763607472388, 35.4664350198085 ], [ 128.483727706332274, 35.466545821509072 ], [ 128.485436043167965, 35.460581654574995 ], [ 128.488248087739265, 35.464037662292135 ], [ 128.491318185714277, 35.464441748481072 ], [ 128.494850357533494, 35.461804600179093 ], [ 128.491374990120562, 35.458752221499203 ], [ 128.490761976615289, 35.455185165514685 ], [ 128.488107272240455, 35.455214501039364 ], [ 128.487171410459126, 35.446467518795785 ], [ 128.479028211393029, 35.44440395851084 ], [ 128.473667692361573, 35.438241323475545 ], [ 128.473053533083174, 35.436779882560586 ], [ 128.474957011582632, 35.434996681135544 ], [ 128.471907823563782, 35.43030180932341 ], [ 128.467028981123917, 35.430777204416451 ], [ 128.467949101889957, 35.430087216716537 ], [ 128.468099789616616, 35.429736600087011 ], [ 128.460771735042641, 35.432008216216694 ], [ 128.460987176469189, 35.433595884404212 ], [ 128.457687128256737, 35.436589762722214 ], [ 128.453447427354888, 35.434939072446099 ], [ 128.45321363940198, 35.430753481365706 ], [ 128.451434398856208, 35.429563308021642 ], [ 128.44537694480033, 35.433238198288528 ], [ 128.436657770229203, 35.442599675031531 ], [ 128.436999725005307, 35.445269043470333 ], [ 128.438904661539311, 35.445648006721164 ], [ 128.440868088259037, 35.449031055743546 ], [ 128.437642690905534, 35.45218377974664 ], [ 128.43917708963113, 35.457572846125828 ], [ 128.441893918782966, 35.460468218993668 ], [ 128.439749743386187, 35.465539438488001 ], [ 128.437991143584725, 35.466133730791732 ], [ 128.439964238346136, 35.467976248023348 ], [ 128.440225373128413, 35.473848950874434 ], [ 128.441855028076048, 35.475832459136335 ], [ 128.44713294997112, 35.476390893920005 ], [ 128.446554071536042, 35.479262421983755 ], [ 128.448218416106158, 35.479088839621348 ], [ 128.449202410148331, 35.481026754876432 ], [ 128.451990203794395, 35.480677754194168 ], [ 128.455871769364876, 35.482749419457647 ], [ 128.457801625219616, 35.486785437789713 ], [ 128.45671484245986, 35.489157082445139 ], [ 128.459257274067483, 35.489733020529471 ], [ 128.459823600143238, 35.491777683998464 ], [ 128.465887526342755, 35.491753726811858 ], [ 128.468195500839329, 35.496166001704815 ], [ 128.475217188951405, 35.498364398591377 ], [ 128.477986463703871, 35.49712658670154 ], [ 128.482659076311734, 35.502218659814694 ], [ 128.482707486024253, 35.504369754333148 ], [ 128.496857783819621, 35.508977290948657 ], [ 128.506627978039774, 35.504110980875744 ], [ 128.52989004845054, 35.510293317779876 ], [ 128.533385195865691, 35.509867097598082 ], [ 128.534278553435371, 35.506979510497295 ] ] ] ] } },
{ "type": "Feature", "properties": { "emd_cd": "48740400", "emd_nm": "도천면" }, "geometry": { "type": "MultiPolygon", "coordinates": [ [ [ [ 128.572539691171613, 35.439628165199842 ], [ 128.566596684325219, 35.438752670686419 ], [ 128.564617596789049, 35.436581774409035 ], [ 128.563610555058631, 35.428472904933734 ], [ 128.556321158726632, 35.422589002463866 ], [ 128.556394804478259, 35.420071653912437 ], [ 128.554735709523015, 35.41866727742201 ], [ 128.5542867241642, 35.409341479737179 ], [ 128.541749313154298, 35.404886316959839 ], [ 128.536601036793257, 35.406599786225627 ], [ 128.535372049075875, 35.403296875295801 ], [ 128.523708886496308, 35.395632750485547 ], [ 128.520015850514511, 35.39606145327739 ], [ 128.517044163772852, 35.393732732945772 ], [ 128.51198604836361, 35.401514963960949 ], [ 128.499769936846036, 35.399280135290596 ], [ 128.489336923873623, 35.402842758226825 ], [ 128.490885989132551, 35.406641200901689 ], [ 128.499712614524128, 35.407592290237694 ], [ 128.498689537023978, 35.411848960148873 ], [ 128.502130951293168, 35.41507629030751 ], [ 128.505552045703382, 35.422909609627759 ], [ 128.505451833506697, 35.427910542358511 ], [ 128.51233738966539, 35.431556872783851 ], [ 128.510175974970537, 35.432912275421096 ], [ 128.510838695066838, 35.436800900294081 ], [ 128.508906949870862, 35.436560986986031 ], [ 128.510873881881707, 35.441575672926469 ], [ 128.513538132876789, 35.443627267412701 ], [ 128.517381099038658, 35.438357067276364 ], [ 128.520984865249858, 35.443297545952532 ], [ 128.524745051316103, 35.445272565357385 ], [ 128.527196998017871, 35.440675286963057 ], [ 128.530313909698151, 35.442576952485233 ], [ 128.531457610703285, 35.433727215093299 ], [ 128.539259170082886, 35.434592051689478 ], [ 128.541087590505043, 35.436270495199274 ], [ 128.540277538189486, 35.437764902264682 ], [ 128.543906995683216, 35.440964005841131 ], [ 128.543309035620325, 35.443250237074743 ], [ 128.54463805485284, 35.444775157431948 ], [ 128.542933604073312, 35.445227748249806 ], [ 128.546995405584056, 35.448970981727662 ], [ 128.547809067805986, 35.452408020068063 ], [ 128.559228351825027, 35.455541618771868 ], [ 128.563366557049534, 35.453085930836778 ], [ 128.570309031456361, 35.456156774712227 ], [ 128.573987140386151, 35.45549084909355 ], [ 128.574410839922791, 35.453785930722368 ], [ 128.573611162548417, 35.448688863395603 ], [ 128.571437329216394, 35.446348477423818 ], [ 128.572539691171613, 35.439628165199842 ] ] ] ] } },
{ "type": "Feature", "properties": { "emd_cd": "48740410", "emd_nm": "길곡면" }, "geometry": { "type": "MultiPolygon", "coordinates": [ [ [ [ 128.517044163772852, 35.393732732945772 ], [ 128.530824452180099, 35.399870990937252 ], [ 128.535372049075875, 35.403296875295801 ], [ 128.536840747418779, 35.406702808612401 ], [ 128.541749313154298, 35.404886316959839 ], [ 128.5542867241642, 35.409341479737179 ], [ 128.554345058313999, 35.417313537802677 ], [ 128.556321158726632, 35.422589002463866 ], [ 128.56288799325938, 35.427216764784205 ], [ 128.564617596789049, 35.436581774409035 ], [ 128.568923202752757, 35.43960134889501 ], [ 128.572539691171613, 35.439628165199842 ], [ 128.584315740948824, 35.433123643781038 ], [ 128.585124363809427, 35.420836554906835 ], [ 128.589535445910514, 35.418113568201598 ], [ 128.595436097384692, 35.419297164208217 ], [ 128.598048829982417, 35.41674405684649 ], [ 128.599949940221052, 35.403287360672394 ], [ 128.602261777851481, 35.402033249501279 ], [ 128.595375352248766, 35.396442157390197 ], [ 128.598077259427072, 35.395863066606246 ], [ 128.599536304118516, 35.392988587693942 ], [ 128.593375461311581, 35.391665602508894 ], [ 128.576921337052966, 35.380942556223943 ], [ 128.565928236838744, 35.378652025880086 ], [ 128.539796989433569, 35.379737063325393 ], [ 128.517044163772852, 35.393732732945772 ] ] ] ] } },
{ "type": "Feature", "properties": { "emd_cd": "48740420", "emd_nm": "부곡면" }, "geometry": { "type": "MultiPolygon", "coordinates": [ [ [ [ 128.572539691171613, 35.439628165199842 ], [ 128.571437329216394, 35.446348477423818 ], [ 128.573611162548417, 35.448688863395603 ], [ 128.573987140386151, 35.45549084909355 ], [ 128.578220610881289, 35.458762728186478 ], [ 128.583296559450162, 35.453555836473718 ], [ 128.589929017295873, 35.452156991538416 ], [ 128.599330756149072, 35.452767453078543 ], [ 128.614967621935506, 35.446163937422682 ], [ 128.617002058066504, 35.449270921701121 ], [ 128.623211315204145, 35.451572574362579 ], [ 128.626049368201507, 35.451965072600942 ], [ 128.630890945755823, 35.448920089938561 ], [ 128.636236325380338, 35.43476691874978 ], [ 128.645292006495879, 35.432673468339665 ], [ 128.648070938953737, 35.426887649943488 ], [ 128.651156097512796, 35.426116392462802 ], [ 128.650807048386525, 35.422046524993711 ], [ 128.645915977029773, 35.41267077278718 ], [ 128.64951436983543, 35.397960191982577 ], [ 128.6441852236633, 35.393187325877115 ], [ 128.644124047989152, 35.388078422224666 ], [ 128.63945364352486, 35.387041230113496 ], [ 128.638581324643241, 35.384602043483703 ], [ 128.640683018430224, 35.383714466332513 ], [ 128.64960332787291, 35.385533045372092 ], [ 128.651627161889593, 35.381789015333013 ], [ 128.647396082304454, 35.380263229213682 ], [ 128.650729707568672, 35.374923284784948 ], [ 128.634362227463242, 35.368569511002356 ], [ 128.600228764419683, 35.392445045286443 ], [ 128.598077259427072, 35.395863066606246 ], [ 128.5955241464506, 35.396047891796698 ], [ 128.602261777851481, 35.402033249501279 ], [ 128.599949940221052, 35.403287360672394 ], [ 128.598048829982417, 35.41674405684649 ], [ 128.595436097384692, 35.419297164208217 ], [ 128.589535445910514, 35.418113568201598 ], [ 128.585124363809427, 35.420836554906835 ], [ 128.584315740948824, 35.433123643781038 ], [ 128.572539691171613, 35.439628165199842 ] ] ] ] } }
]
}
