{
"type": "FeatureCollection",
"name": "48820",
"crs": { "type": "name", "properties": { "name": "urn:ogc:def:crs:OGC:1.3:CRS84" } },
"features": [
{ "type": "Feature", "properties": { "emd_cd": "48820250", "emd_nm": "고성읍" }, "geometry": { "type": "MultiPolygon", "coordinates": [ [ [ [ 128.332701931916091, 34.936688744298536 ], [ 128.332566923562865, 34.937677738064643 ], [ 128.334323060979955, 34.937386255580819 ], [ 128.332701931916091, 34.936688744298536 ] ] ], [ [ [ 128.324432213577751, 34.942374309166659 ], [ 128.325808487302055, 34.944105048160466 ], [ 128.326494753679356, 34.944000311303192 ], [ 128.325470452830444, 34.941664450985243 ], [ 128.324432213577751, 34.942374309166659 ] ] ], [ [ [ 128.25032622285562, 34.97556306044806 ], [ 128.25314787050516, 34.977830723562946 ], [ 128.252322987967489, 34.98050519580103 ], [ 128.253889199916614, 34.981575923078402 ], [ 128.25150312721766, 34.984808899258617 ], [ 128.251955375011335, 34.989388884905104 ], [ 128.257088402600999, 34.995539553482175 ], [ 128.262117767515861, 34.994634481040912 ], [ 128.265160294696756, 34.991001467409234 ], [ 128.26913940451729, 34.991068409663463 ], [ 128.278864200188906, 34.986245201963605 ], [ 128.282183121287659, 34.987519081410852 ], [ 128.284284887784963, 34.990453169052394 ], [ 128.283440233596565, 34.993243235748025 ], [ 128.291254547748451, 34.996140896494126 ], [ 128.290921632878423, 34.999211127871575 ], [ 128.294590249111764, 35.00110020524167 ], [ 128.316113721036629, 34.996496181634285 ], [ 128.316722612130292, 34.999533287154662 ], [ 128.315341086936684, 35.000054800041347 ], [ 128.314139254883457, 35.006555224224542 ], [ 128.314871650667982, 35.010264966409856 ], [ 128.318015695792951, 35.010942239216853 ], [ 128.323301326600358, 35.016019940439541 ], [ 128.329049072306219, 35.017439994771671 ], [ 128.333174179611348, 35.011964309876888 ], [ 128.342220525812309, 35.012448419592481 ], [ 128.341391753409312, 35.009001743008135 ], [ 128.338997530134975, 35.007008735256612 ], [ 128.341423698304595, 35.003908527130214 ], [ 128.34538311518466, 35.002948158227163 ], [ 128.344598763197553, 35.005820410910104 ], [ 128.353398836089838, 35.006093119416668 ], [ 128.352633689733238, 35.001994639294033 ], [ 128.346887446237446, 34.992629608256834 ], [ 128.346523777577744, 34.983554833921914 ], [ 128.342598243227144, 34.978013653701403 ], [ 128.342741202455045, 34.969793618889284 ], [ 128.349005838075158, 34.969841892521622 ], [ 128.349192789557208, 34.96764214606732 ], [ 128.359691598416447, 34.967910102958832 ], [ 128.361764972244401, 34.959408055638768 ], [ 128.366091204931308, 34.957578977884104 ], [ 128.371849073433339, 34.951255809649432 ], [ 128.378859680035106, 34.947261537742271 ], [ 128.374234314795928, 34.945226937533917 ], [ 128.368894392965245, 34.946283155553338 ], [ 128.364761408791054, 34.943613410355105 ], [ 128.353709600395405, 34.941851017493221 ], [ 128.351092424764204, 34.93826324835274 ], [ 128.347620774792233, 34.940457887818241 ], [ 128.344349765105363, 34.9375976255807 ], [ 128.344513104801621, 34.939778006337811 ], [ 128.3427076593359, 34.93961793687847 ], [ 128.336119308569238, 34.935601500857501 ], [ 128.33506239880009, 34.936732450062664 ], [ 128.337361281574516, 34.937048644304006 ], [ 128.336673789183749, 34.938676223942075 ], [ 128.341763899300389, 34.940120700578888 ], [ 128.340465089409037, 34.940762769938871 ], [ 128.342365036496091, 34.942830858029787 ], [ 128.340497530431321, 34.948428841714851 ], [ 128.336562216612265, 34.945304415633323 ], [ 128.334856054683343, 34.946036745923934 ], [ 128.335040477810111, 34.944223425317801 ], [ 128.329914155748838, 34.947410061907199 ], [ 128.328881780818023, 34.948818448406477 ], [ 128.331026256032544, 34.949339311860228 ], [ 128.332578079293, 34.956879641303757 ], [ 128.33043221798124, 34.954898262759208 ], [ 128.321554698227004, 34.956419768246121 ], [ 128.319593707572409, 34.962161382059406 ], [ 128.32048008920691, 34.96306564399876 ], [ 128.31751283798252, 34.961698586987225 ], [ 128.316735795822808, 34.963210886145745 ], [ 128.311767300104549, 34.962496568628353 ], [ 128.308577117117466, 34.963790307844214 ], [ 128.303952986636773, 34.962904131824878 ], [ 128.303173406013713, 34.960386882299517 ], [ 128.297597668435316, 34.962449607697749 ], [ 128.290640845116144, 34.958165731447032 ], [ 128.286334249724604, 34.958096070549409 ], [ 128.284391310967379, 34.960589217637654 ], [ 128.279910873640432, 34.961916022558775 ], [ 128.276823217201382, 34.966880012266195 ], [ 128.255697883447368, 34.970457397917457 ], [ 128.251483288611126, 34.972336723089967 ], [ 128.25032622285562, 34.97556306044806 ] ] ] ] } },
{ "type": "Feature", "properties": { "emd_cd": "48820310", "emd_nm": "삼산면" }, "geometry": { "type": "MultiPolygon", "coordinates": [ [ [ [ 128.243636028561212, 34.879234416562483 ], [ 128.24622486727651, 34.878420696282511 ], [ 128.242059676367802, 34.876195024721007 ], [ 128.242248084227498, 34.876829269205999 ], [ 128.243636028561212, 34.879234416562483 ] ] ], [ [ [ 128.236816545078568, 34.885646159878469 ], [ 128.237310071952066, 34.886019139096909 ], [ 128.237732710388542, 34.885525249134403 ], [ 128.236816545078568, 34.885646159878469 ] ] ], [ [ [ 128.252133296377707, 34.891173334722119 ], [ 128.249856400456281, 34.896412765696596 ], [ 128.251691409208149, 34.896497919306704 ], [ 128.252018366547475, 34.896975046194264 ], [ 128.25227474338152, 34.89697349875388 ], [ 128.254542124260041, 34.895395744213118 ], [ 128.252133296377707, 34.891173334722119 ] ] ], [ [ [ 128.253430198634533, 34.906563188457227 ], [ 128.254254112487729, 34.907225604423331 ], [ 128.254200394998207, 34.906412106786071 ], [ 128.253430198634533, 34.906563188457227 ] ] ], [ [ [ 128.256543046977839, 34.913031848327911 ], [ 128.257641864797165, 34.913329647007188 ], [ 128.256903048843185, 34.912566705335863 ], [ 128.256543046977839, 34.913031848327911 ] ] ], [ [ [ 128.26099922529599, 34.931071699951247 ], [ 128.263156353191363, 34.933512692130471 ], [ 128.262577295521851, 34.928930743564969 ], [ 128.26099922529599, 34.931071699951247 ] ] ], [ [ [ 128.250519776159251, 34.93381294071829 ], [ 128.250717352503187, 34.936824078527302 ], [ 128.252164643558217, 34.935145456265779 ], [ 128.250519776159251, 34.93381294071829 ] ] ], [ [ [ 128.237178260816023, 34.938422804693218 ], [ 128.239014786383876, 34.938255351282571 ], [ 128.238290858466428, 34.936148373961665 ], [ 128.237178260816023, 34.938422804693218 ] ] ], [ [ [ 128.279967400247216, 34.89181068140558 ], [ 128.280774390742266, 34.892449717049779 ], [ 128.280874083712916, 34.891438574103823 ], [ 128.279967400247216, 34.89181068140558 ] ] ], [ [ [ 128.264654666390413, 34.894535131236687 ], [ 128.264277332757928, 34.894862618377516 ], [ 128.26464859101722, 34.894863931705281 ], [ 128.264654666390413, 34.894535131236687 ] ] ], [ [ [ 128.274391386535058, 34.906404348934309 ], [ 128.274640145042554, 34.906657318225726 ], [ 128.274667271704203, 34.906628465409831 ], [ 128.274391386535058, 34.906404348934309 ] ] ], [ [ [ 128.262104180221684, 34.918307127911689 ], [ 128.263442391939606, 34.917076777152005 ], [ 128.263099216224305, 34.915779565974994 ], [ 128.261216926852512, 34.917424518503026 ], [ 128.262104180221684, 34.918307127911689 ] ] ], [ [ [ 128.309488860974, 34.922829353812332 ], [ 128.310020444116788, 34.924192543039084 ], [ 128.311930085661515, 34.921656056386887 ], [ 128.309488860974, 34.922829353812332 ] ] ], [ [ [ 128.308001603330212, 34.925716851819196 ], [ 128.308957631408248, 34.925262840810404 ], [ 128.308887741424087, 34.925137945682621 ], [ 128.308001603330212, 34.925716851819196 ] ] ], [ [ [ 128.211619016494694, 34.968163475232139 ], [ 128.215881880032839, 34.969475300499219 ], [ 128.21877366161533, 34.971887976555657 ], [ 128.225625805057348, 34.970930150914732 ], [ 128.227195426144277, 34.969048530525036 ], [ 128.234334913029386, 34.971157335590661 ], [ 128.240886591116691, 34.968958475057967 ], [ 128.242012912243922, 34.970431849135608 ], [ 128.252303064941231, 34.972332327520952 ], [ 128.259142673532779, 34.969551401969724 ], [ 128.276823217201354, 34.966880012266216 ], [ 128.279910873640432, 34.961916022558789 ], [ 128.287931669567854, 34.957878150333038 ], [ 128.291780582108061, 34.958747797548206 ], [ 128.296154874720912, 34.96221224759055 ], [ 128.303173406013684, 34.96038688229951 ], [ 128.303952986636773, 34.962904131824878 ], [ 128.316735795822837, 34.963210886145745 ], [ 128.316985869735873, 34.959696739188928 ], [ 128.31492570025469, 34.957904416702398 ], [ 128.316471308660823, 34.958097597339894 ], [ 128.319394018010854, 34.951763253285272 ], [ 128.315961645495946, 34.951915931447481 ], [ 128.315795705202731, 34.950500737175695 ], [ 128.320388176667791, 34.946212757872296 ], [ 128.320314761314734, 34.944597127393976 ], [ 128.316355851556352, 34.943895328094904 ], [ 128.316439211942253, 34.942233762195862 ], [ 128.313847806201551, 34.94294704773084 ], [ 128.314023076497278, 34.938907084350795 ], [ 128.309662857960177, 34.939780492502535 ], [ 128.311204220717968, 34.94209362567949 ], [ 128.310292006947805, 34.942719178588092 ], [ 128.307187456082772, 34.941562864658863 ], [ 128.306562947736126, 34.936271076248445 ], [ 128.302011126324487, 34.937500055027371 ], [ 128.299222325253368, 34.936445488317851 ], [ 128.301315810389951, 34.929474718353624 ], [ 128.298282275080794, 34.927016636134134 ], [ 128.301867332920921, 34.926771813161395 ], [ 128.300585523295268, 34.925005635525658 ], [ 128.302435489673769, 34.92349406284535 ], [ 128.298229722485786, 34.923616873670916 ], [ 128.300500029955344, 34.922975814303385 ], [ 128.301694750850771, 34.919750721303721 ], [ 128.302899385849003, 34.921117761029087 ], [ 128.303730688466629, 34.919071772274869 ], [ 128.304450346982577, 34.92100837090441 ], [ 128.304730506375932, 34.919385000918894 ], [ 128.298193762965383, 34.916901705626493 ], [ 128.300145776758228, 34.912726013569149 ], [ 128.295225321493973, 34.914390705348787 ], [ 128.294815859401751, 34.91114074139518 ], [ 128.292329573616968, 34.912416839439956 ], [ 128.290730838268928, 34.910041869794405 ], [ 128.288618428859991, 34.910027876617988 ], [ 128.283793258103373, 34.916354949801594 ], [ 128.281108347991079, 34.916125261371505 ], [ 128.281650790654027, 34.911404365895933 ], [ 128.279893982101925, 34.908305963099963 ], [ 128.281820253725328, 34.907850114182338 ], [ 128.282747019779066, 34.904678860859242 ], [ 128.274039845796153, 34.903478587210728 ], [ 128.272747185043755, 34.899894909865033 ], [ 128.271011654119121, 34.900534352900451 ], [ 128.271307062731381, 34.904326181502242 ], [ 128.275759119662013, 34.904613383486129 ], [ 128.274674535569829, 34.907408489172219 ], [ 128.276170588886316, 34.909878347688029 ], [ 128.270598268222585, 34.911946513443112 ], [ 128.271875393745404, 34.914568581653462 ], [ 128.266193977648612, 34.912264811865569 ], [ 128.267816941071374, 34.918889003413582 ], [ 128.261053135196846, 34.923331875333055 ], [ 128.262177877375962, 34.923890997755521 ], [ 128.260678639276477, 34.926723579487067 ], [ 128.257157505396947, 34.930135418415823 ], [ 128.259969514433806, 34.930174405391838 ], [ 128.261330228670715, 34.927130171002581 ], [ 128.265701478075698, 34.927566260368941 ], [ 128.26853172930609, 34.929970400943198 ], [ 128.266541530180717, 34.933573072398552 ], [ 128.271592415501061, 34.935129110451996 ], [ 128.268643484731541, 34.936359531860838 ], [ 128.267904109585658, 34.940689072926951 ], [ 128.263253430696153, 34.937514520210392 ], [ 128.258868947650711, 34.9408676288067 ], [ 128.256533243135607, 34.936748845327607 ], [ 128.252145999611628, 34.942130007605741 ], [ 128.249522766866846, 34.943673307145851 ], [ 128.247986085800079, 34.942388920518098 ], [ 128.248843055163235, 34.93748141019659 ], [ 128.244963176629824, 34.936062323474346 ], [ 128.246057469488079, 34.938525088183809 ], [ 128.243574025707204, 34.940197455906372 ], [ 128.246819041778025, 34.94133698240519 ], [ 128.246629542730744, 34.943599553543933 ], [ 128.238842495186333, 34.943799346139272 ], [ 128.237589224161354, 34.940194227209382 ], [ 128.236383202900754, 34.942146645429013 ], [ 128.231682229999876, 34.9423452923116 ], [ 128.233131741159923, 34.945293610555325 ], [ 128.225720911533443, 34.953145276305783 ], [ 128.226782769197939, 34.958783171430156 ], [ 128.216667271213709, 34.961796140216258 ], [ 128.211619016494694, 34.968163475232139 ] ] ], [ [ [ 128.319146926663677, 34.950102887192202 ], [ 128.32054132830612, 34.949311930910092 ], [ 128.319629218238248, 34.949462192259404 ], [ 128.319146926663677, 34.950102887192202 ] ] ] ] } },
{ "type": "Feature", "properties": { "emd_cd": "48820320", "emd_nm": "하일면" }, "geometry": { "type": "MultiPolygon", "coordinates": [ [ [ [ 128.179158411149189, 34.887421254974072 ], [ 128.177963045924258, 34.890928199944163 ], [ 128.178268977808642, 34.89164099631364 ], [ 128.18174497828565, 34.889314170807417 ], [ 128.179667348605534, 34.887416403656829 ], [ 128.181055830257492, 34.884513358125389 ], [ 128.17659903224353, 34.88650954866479 ], [ 128.179158411149189, 34.887421254974072 ] ] ], [ [ [ 128.191551207261625, 34.891506373832165 ], [ 128.191705789262841, 34.891706325510313 ], [ 128.191829696815546, 34.891605260628488 ], [ 128.191551207261625, 34.891506373832165 ] ] ], [ [ [ 128.161016781274157, 34.900985776359114 ], [ 128.16117452215704, 34.900618589284242 ], [ 128.16105340460814, 34.900644819800057 ], [ 128.161016781274157, 34.900985776359114 ] ] ], [ [ [ 128.206890385901232, 34.907720327777128 ], [ 128.207894947797513, 34.909222683563222 ], [ 128.207781782784707, 34.907030795636288 ], [ 128.206890385901232, 34.907720327777128 ] ] ], [ [ [ 128.206466814897254, 34.91945579114855 ], [ 128.207458864177482, 34.921728955310442 ], [ 128.207437016099988, 34.918937632194854 ], [ 128.206466814897254, 34.91945579114855 ] ] ], [ [ [ 128.204716424374084, 34.928813612275455 ], [ 128.204674287416339, 34.9284412458886 ], [ 128.204286745113677, 34.928811452148537 ], [ 128.204716424374084, 34.928813612275455 ] ] ], [ [ [ 128.218047958796632, 34.92737567940403 ], [ 128.221283514983497, 34.928210722132967 ], [ 128.220683550717894, 34.932099915352651 ], [ 128.226343588049275, 34.93416642211789 ], [ 128.227442984478159, 34.930162557052931 ], [ 128.223407875110581, 34.923320893875818 ], [ 128.219783647584421, 34.924489757457053 ], [ 128.218047958796632, 34.92737567940403 ] ] ], [ [ [ 128.203067319501599, 34.931855924795492 ], [ 128.20361493673164, 34.931637372943307 ], [ 128.203050355801054, 34.93177337507209 ], [ 128.203067319501599, 34.931855924795492 ] ] ], [ [ [ 128.171515789077489, 34.958327246754642 ], [ 128.181091299019727, 34.964629475593796 ], [ 128.189605083599787, 34.966086555661384 ], [ 128.191657932774319, 34.971922356228028 ], [ 128.195435134196202, 34.972104382331885 ], [ 128.200396224341205, 34.97635010951025 ], [ 128.205189374903085, 34.977563323304203 ], [ 128.216667271213709, 34.961796140216258 ], [ 128.226782769197939, 34.958783171430156 ], [ 128.225720911533443, 34.953145276305783 ], [ 128.233131741159923, 34.945293610555325 ], [ 128.232429666863879, 34.942823167281468 ], [ 128.227159880979656, 34.940970401806361 ], [ 128.224883957013276, 34.942056912548601 ], [ 128.224836202877185, 34.944543473609244 ], [ 128.222578380155511, 34.946609966687035 ], [ 128.219037994820155, 34.944500086493782 ], [ 128.219785725025503, 34.941524414583441 ], [ 128.217719360192689, 34.939117148206847 ], [ 128.213796057337987, 34.942734579441421 ], [ 128.21126690892558, 34.942366941861373 ], [ 128.210348578937896, 34.941378242235359 ], [ 128.211889109744902, 34.939781791418163 ], [ 128.209451279474649, 34.938541221902469 ], [ 128.208763613889005, 34.936135050207476 ], [ 128.206979031412544, 34.941294051767223 ], [ 128.196440567747914, 34.937387946178333 ], [ 128.197995968459168, 34.933724884879851 ], [ 128.202537987810416, 34.934344818659085 ], [ 128.202340959884907, 34.931717703785381 ], [ 128.199399183621409, 34.933179315717567 ], [ 128.199225768562229, 34.931601046349265 ], [ 128.200428519240035, 34.929220038490961 ], [ 128.20402938011344, 34.927806523622174 ], [ 128.203244696979482, 34.925798208620449 ], [ 128.204607097740364, 34.925080392969555 ], [ 128.20113107644454, 34.922028872643551 ], [ 128.19940764774347, 34.916017101228306 ], [ 128.19599005895455, 34.911932606973423 ], [ 128.198722545849876, 34.903509945662115 ], [ 128.203106350869348, 34.89965853987804 ], [ 128.202301117944103, 34.894129773217294 ], [ 128.187987969175168, 34.893702018648987 ], [ 128.1866899461115, 34.898836473592581 ], [ 128.190551346696566, 34.899872162472654 ], [ 128.187823559617925, 34.900271148219424 ], [ 128.189852155460926, 34.901331479563574 ], [ 128.187860900373749, 34.901631318998042 ], [ 128.189773758730581, 34.903469455220382 ], [ 128.188081470338858, 34.906462551580361 ], [ 128.184011219422359, 34.905785824183013 ], [ 128.186425418384772, 34.901713749464506 ], [ 128.184921551068442, 34.900063042973848 ], [ 128.183110596345756, 34.900900461114489 ], [ 128.184596829874408, 34.899092122563786 ], [ 128.183893917682212, 34.894776740259388 ], [ 128.178380756033647, 34.89884741264855 ], [ 128.177057625402256, 34.901665358572131 ], [ 128.179333030666868, 34.906722918827214 ], [ 128.177837908659825, 34.907414640934881 ], [ 128.174702014452748, 34.907614310173081 ], [ 128.171138129717804, 34.903789467859525 ], [ 128.174836740835076, 34.902458219543334 ], [ 128.176540482533568, 34.895708376074431 ], [ 128.1734544895846, 34.897226344087201 ], [ 128.169566230697427, 34.896818377216185 ], [ 128.168845200099213, 34.899445225222166 ], [ 128.166752945259844, 34.899797225106305 ], [ 128.169900107040149, 34.900920222001282 ], [ 128.166096458796233, 34.901760538042041 ], [ 128.166030470030393, 34.903402182160043 ], [ 128.164205474645286, 34.899162057242016 ], [ 128.1671576365394, 34.897056450715908 ], [ 128.161685255354115, 34.900846268989739 ], [ 128.163408255265978, 34.904596874421919 ], [ 128.167634759185262, 34.906987558062092 ], [ 128.165077648417594, 34.919039691518073 ], [ 128.168653715841032, 34.919241664718818 ], [ 128.170344180447614, 34.92444850001413 ], [ 128.159653762305197, 34.932116477442634 ], [ 128.160956881664276, 34.935840406144706 ], [ 128.164558915464085, 34.936265589305521 ], [ 128.163124481987353, 34.939664641404029 ], [ 128.164007266859187, 34.943364037154211 ], [ 128.172178206405192, 34.950552879286178 ], [ 128.171515789077489, 34.958327246754642 ] ] ] ] } },
{ "type": "Feature", "properties": { "emd_cd": "48820330", "emd_nm": "하이면" }, "geometry": { "type": "MultiPolygon", "coordinates": [ [ [ [ 128.138389871205447, 34.891491708776108 ], [ 128.138912336418031, 34.891496002750522 ], [ 128.138882341930497, 34.891404806712842 ], [ 128.138389871205447, 34.891491708776108 ] ] ], [ [ [ 128.117827507058337, 34.90434825804153 ], [ 128.118030528814103, 34.904277877719792 ], [ 128.11816603572592, 34.90403249494188 ], [ 128.117827507058337, 34.90434825804153 ] ] ], [ [ [ 128.101510464247554, 34.914772800695332 ], [ 128.10675052807278, 34.914630444936314 ], [ 128.11004958431235, 34.916544032589513 ], [ 128.108398457332243, 34.921295704350982 ], [ 128.112162599995571, 34.922964906297004 ], [ 128.11659030939839, 34.920746522627049 ], [ 128.121826520971354, 34.921404218021863 ], [ 128.115750955190464, 34.926878593094735 ], [ 128.114350027121674, 34.933845205125877 ], [ 128.122621844022149, 34.938746972156572 ], [ 128.124073401102322, 34.942047403621146 ], [ 128.123127988656421, 34.949121957911444 ], [ 128.132925056075493, 34.960748953942634 ], [ 128.135029175658929, 34.969179663861333 ], [ 128.133799703064142, 34.974047409485173 ], [ 128.13496823941253, 34.980489582364115 ], [ 128.1371425760791, 34.981300281925364 ], [ 128.143439336135145, 34.989548584056273 ], [ 128.14828248577922, 34.991407748370598 ], [ 128.15446268090065, 34.990544337114244 ], [ 128.165347122833253, 34.98451268104764 ], [ 128.166244633829081, 34.983547429921209 ], [ 128.16223878553717, 34.979506161103771 ], [ 128.160960091297454, 34.973759331207383 ], [ 128.16323175621676, 34.970655920961569 ], [ 128.166653400661886, 34.969911953333686 ], [ 128.167630702047944, 34.961916988077064 ], [ 128.171515789077489, 34.958327246754635 ], [ 128.172900629945104, 34.952366545660482 ], [ 128.170108709122985, 34.947752857655942 ], [ 128.164007266859215, 34.943364037154204 ], [ 128.163124481987353, 34.939664641404029 ], [ 128.164558915464085, 34.936265589305513 ], [ 128.160956881664276, 34.935840406144706 ], [ 128.159645202339505, 34.931404077114749 ], [ 128.170344180447643, 34.92444850001413 ], [ 128.168653715841032, 34.919241664718825 ], [ 128.165077648417594, 34.919039691518066 ], [ 128.16550263583008, 34.912654988895859 ], [ 128.167846072307213, 34.910303611959655 ], [ 128.167440578042118, 34.906561433083525 ], [ 128.163408255265978, 34.904596874421905 ], [ 128.162055117101659, 34.901187031922156 ], [ 128.158908810211642, 34.90603846295658 ], [ 128.160272713841238, 34.907119174880592 ], [ 128.15677735488228, 34.909607245174598 ], [ 128.151641479221468, 34.906681410234469 ], [ 128.151210117443895, 34.904399786582758 ], [ 128.147261144502806, 34.904190583351053 ], [ 128.148142928392275, 34.905567012711387 ], [ 128.146007648480662, 34.905473125455948 ], [ 128.145396533218076, 34.904198584124558 ], [ 128.148122604919138, 34.902302384457379 ], [ 128.147451828938642, 34.901068175304935 ], [ 128.149572305089066, 34.900277140703558 ], [ 128.149720395070659, 34.899094567778086 ], [ 128.145443416505515, 34.899596875652989 ], [ 128.14459216294307, 34.902225828330984 ], [ 128.141786805007797, 34.903809725000144 ], [ 128.138690020859173, 34.897458825521483 ], [ 128.140784107208816, 34.893849531299402 ], [ 128.137884312794739, 34.894230197199384 ], [ 128.135964044403437, 34.889420048344185 ], [ 128.133396331039506, 34.889857224973419 ], [ 128.132912813995745, 34.888443865380502 ], [ 128.131016974560055, 34.892142904541181 ], [ 128.12785714958315, 34.893955322890569 ], [ 128.127055340690703, 34.89834861658386 ], [ 128.122923307774528, 34.902458358311357 ], [ 128.122840505562351, 34.904854141685902 ], [ 128.117841661656257, 34.904720359467014 ], [ 128.12077218883104, 34.906511115957287 ], [ 128.113527783522557, 34.906142763093037 ], [ 128.112546302138384, 34.902500702483977 ], [ 128.102473431739611, 34.900177290020288 ], [ 128.111507941721584, 34.902357477451254 ], [ 128.101510464247554, 34.914772800695332 ] ] ] ] } },
{ "type": "Feature", "properties": { "emd_cd": "48820340", "emd_nm": "상리면" }, "geometry": { "type": "MultiPolygon", "coordinates": [ [ [ [ 128.225625805056978, 34.970930150914768 ], [ 128.218773661614989, 34.971887976555649 ], [ 128.21588188003247, 34.969475300499305 ], [ 128.212432553609858, 34.969277131065127 ], [ 128.20518937490283, 34.977563323304224 ], [ 128.202362992212443, 34.97744908816648 ], [ 128.19543513419589, 34.972104382331956 ], [ 128.191657932774007, 34.971922356228028 ], [ 128.189605083599474, 34.966086555661356 ], [ 128.181091299019442, 34.964629475593888 ], [ 128.171515789077148, 34.958327246754642 ], [ 128.167630702047688, 34.961916988077164 ], [ 128.16665340066163, 34.969911953333721 ], [ 128.163231756216504, 34.970655920961626 ], [ 128.16096009129717, 34.973759331207489 ], [ 128.162951750454425, 34.9806082075741 ], [ 128.170525228524241, 34.986257344565367 ], [ 128.167043495326737, 34.989929948472422 ], [ 128.165641097915199, 34.995626909260068 ], [ 128.157828004502647, 35.006985851905903 ], [ 128.16264170340969, 35.027228391914591 ], [ 128.167249553634804, 35.029457380721603 ], [ 128.16688049198072, 35.031446699406402 ], [ 128.16865484872659, 35.030259924790144 ], [ 128.173537890574522, 35.031418157055995 ], [ 128.175909248193136, 35.036079060473838 ], [ 128.181210629502743, 35.040197609754905 ], [ 128.18199050060224, 35.047520529558533 ], [ 128.184421632308386, 35.050978773007706 ], [ 128.187871176214855, 35.046738939366172 ], [ 128.192968958352367, 35.044639973881011 ], [ 128.196679803380505, 35.039620085350059 ], [ 128.197417235542076, 35.035194072509434 ], [ 128.193846436874708, 35.031366223977898 ], [ 128.193380343219957, 35.027783471456068 ], [ 128.200308441175878, 35.022170564234813 ], [ 128.201259398706554, 35.016886642116546 ], [ 128.204698066631153, 35.013008118543652 ], [ 128.206617297654049, 35.007733821351565 ], [ 128.215074714417739, 35.009829024738792 ], [ 128.22535699327176, 35.003170576030854 ], [ 128.228276130520328, 35.009130872502169 ], [ 128.231758234622248, 35.011294337081637 ], [ 128.239449429697345, 35.01084207295434 ], [ 128.240488267134253, 35.00565994957006 ], [ 128.248896803265126, 35.002100715782333 ], [ 128.251839125092715, 34.996926382417108 ], [ 128.257088402600687, 34.995539553482281 ], [ 128.251955375011022, 34.989388884905104 ], [ 128.251503127217291, 34.98480889925866 ], [ 128.253889199916216, 34.98157592307841 ], [ 128.252322987967148, 34.980505195801037 ], [ 128.253147870504819, 34.97783072356296 ], [ 128.250326222855279, 34.975563060448096 ], [ 128.250730334244594, 34.971522157323101 ], [ 128.242012912243581, 34.970431849135608 ], [ 128.24088659111635, 34.968958475058074 ], [ 128.234334913029102, 34.971157335590682 ], [ 128.227195426143879, 34.969048530525065 ], [ 128.225625805056978, 34.970930150914768 ] ] ] ] } },
{ "type": "Feature", "properties": { "emd_cd": "48820350", "emd_nm": "대가면" }, "geometry": { "type": "MultiPolygon", "coordinates": [ [ [ [ 128.240488267134253, 35.00565994957006 ], [ 128.241048124402113, 35.013802855527025 ], [ 128.239978383295352, 35.016399488954995 ], [ 128.241944159563047, 35.020874347159953 ], [ 128.235629858249609, 35.022906255129854 ], [ 128.233242308715234, 35.027775701591167 ], [ 128.235846820782569, 35.037727420359921 ], [ 128.235732216415414, 35.039230655086598 ], [ 128.23257884968055, 35.040356081107269 ], [ 128.232450860826958, 35.042273827351124 ], [ 128.233021072636632, 35.043401389453393 ], [ 128.235531794807088, 35.042814949565624 ], [ 128.23801929866076, 35.048709537254602 ], [ 128.232205518582958, 35.052835823106314 ], [ 128.228373533375645, 35.061231389022495 ], [ 128.234807352553815, 35.059716332421864 ], [ 128.234975669705307, 35.062333487115154 ], [ 128.23978329124472, 35.06738547738518 ], [ 128.25608513446241, 35.06769279223807 ], [ 128.262254508666217, 35.062192529415732 ], [ 128.274573254791477, 35.060368664977155 ], [ 128.278058320396696, 35.051760057632976 ], [ 128.289234346866806, 35.046304083069835 ], [ 128.301411252020642, 35.047065284037835 ], [ 128.30282526189734, 35.050257267572022 ], [ 128.308391751424892, 35.050088300396396 ], [ 128.320406367921976, 35.041791835233262 ], [ 128.322751650719511, 35.033864403322077 ], [ 128.332056265004013, 35.033573202034717 ], [ 128.334104215401453, 35.027389345434834 ], [ 128.332592359573425, 35.019438433685288 ], [ 128.329765405384109, 35.016640366982529 ], [ 128.326428272567426, 35.017600202494279 ], [ 128.318015695792496, 35.010942239216917 ], [ 128.314871650667527, 35.010264966409849 ], [ 128.314139254883003, 35.006555224224613 ], [ 128.315341086936257, 35.000054800041376 ], [ 128.316722612129723, 34.999533287154726 ], [ 128.316113721036146, 34.996496181634285 ], [ 128.294590249111337, 35.001100205241727 ], [ 128.290921632877939, 34.99921112787159 ], [ 128.291254547747997, 34.996140896494175 ], [ 128.283440233596195, 34.993243235748068 ], [ 128.284284887784594, 34.990453169052401 ], [ 128.282183121287233, 34.987519081410859 ], [ 128.278864200188508, 34.986245201963712 ], [ 128.269139404516892, 34.99106840966347 ], [ 128.265160294696386, 34.991001467409248 ], [ 128.262117767515576, 34.994634481040961 ], [ 128.251839125092715, 34.996926382417108 ], [ 128.248896803265126, 35.002100715782333 ], [ 128.240488267134253, 35.00565994957006 ] ] ] ] } },
{ "type": "Feature", "properties": { "emd_cd": "48820360", "emd_nm": "영현면" }, "geometry": { "type": "MultiPolygon", "coordinates": [ [ [ [ 128.240006756997786, 35.010083704390851 ], [ 128.232103624050751, 35.011459571724117 ], [ 128.228276130520328, 35.009130872502169 ], [ 128.22535699327176, 35.003170576030854 ], [ 128.215074714417739, 35.009829024738792 ], [ 128.206617297654049, 35.007733821351565 ], [ 128.204698066631153, 35.013008118543652 ], [ 128.201259398706554, 35.016886642116546 ], [ 128.200308441175878, 35.022170564234813 ], [ 128.193380343219957, 35.027783471456068 ], [ 128.197524869887985, 35.03746571895573 ], [ 128.192968958352367, 35.044639973881011 ], [ 128.187871176214855, 35.046738939366172 ], [ 128.184421632308386, 35.050978773007706 ], [ 128.190022757397401, 35.054116621326941 ], [ 128.197271914983787, 35.06615456917649 ], [ 128.210991204965325, 35.073262509742761 ], [ 128.210729386700706, 35.075570356248072 ], [ 128.201258856740083, 35.076557273935684 ], [ 128.202041042302284, 35.081520812614507 ], [ 128.204097735978507, 35.083216129022013 ], [ 128.222933326882355, 35.085329858860916 ], [ 128.234349001755191, 35.08152666044866 ], [ 128.23931336872127, 35.082322286046221 ], [ 128.243703189268018, 35.078868936619806 ], [ 128.254901979769301, 35.078473358990493 ], [ 128.262092750559816, 35.069593193900829 ], [ 128.259004976423171, 35.066240626982072 ], [ 128.251980719687026, 35.068419049836557 ], [ 128.23978329124472, 35.06738547738518 ], [ 128.234975669705307, 35.062333487115154 ], [ 128.234807352553815, 35.059716332421864 ], [ 128.228373533375645, 35.061231389022495 ], [ 128.232205518582958, 35.052835823106314 ], [ 128.23801929866076, 35.048709537254602 ], [ 128.235531794807088, 35.042814949565624 ], [ 128.233021072636632, 35.043401389453393 ], [ 128.232450860826958, 35.042273827351124 ], [ 128.23257884968055, 35.040356081107269 ], [ 128.235732216415414, 35.039230655086598 ], [ 128.235846820782569, 35.037727420359921 ], [ 128.233242308715234, 35.027775701591167 ], [ 128.235629858249609, 35.022906255129854 ], [ 128.241944159563047, 35.020874347159953 ], [ 128.239978383295352, 35.016399488954995 ], [ 128.241048124402113, 35.013802855527025 ], [ 128.240006756997786, 35.010083704390851 ] ] ] ] } },
{ "type": "Feature", "properties": { "emd_cd": "48820370", "emd_nm": "영오면" }, "geometry": { "type": "MultiPolygon", "coordinates": [ [ [ [ 128.23886605939984, 35.082240462800172 ], [ 128.234349001755191, 35.08152666044866 ], [ 128.224000398820692, 35.085188416308192 ], [ 128.214158960631295, 35.085233022575608 ], [ 128.204097735978507, 35.083216129022013 ], [ 128.202041042302284, 35.081520812614507 ], [ 128.201258856740083, 35.076557273935684 ], [ 128.191298285596332, 35.076562876769387 ], [ 128.188274487331455, 35.081747386605677 ], [ 128.188059617679329, 35.092618781788296 ], [ 128.190219545685522, 35.098657539401607 ], [ 128.195511281093076, 35.095821990386959 ], [ 128.198362117458146, 35.096255960778691 ], [ 128.201434746360462, 35.100481139926103 ], [ 128.198457344996996, 35.103576258411742 ], [ 128.199070042656444, 35.105127921517195 ], [ 128.202194889165924, 35.106132186456804 ], [ 128.202981230227579, 35.109371575100859 ], [ 128.209643110091889, 35.112102655214152 ], [ 128.209461095635902, 35.114824247295374 ], [ 128.227692769574048, 35.113952286150514 ], [ 128.229508819198685, 35.117425507462833 ], [ 128.233937545451909, 35.116617884876526 ], [ 128.236243118385772, 35.119076958574006 ], [ 128.241869824062917, 35.120817111508586 ], [ 128.241714948755089, 35.123235707651411 ], [ 128.244143839456797, 35.12597151839438 ], [ 128.247638896149198, 35.126167162895335 ], [ 128.247204074020914, 35.128297814324071 ], [ 128.25331686212985, 35.128369706218173 ], [ 128.256040177294381, 35.126730861111078 ], [ 128.258616619076918, 35.128473877368705 ], [ 128.263493440358218, 35.127106689742988 ], [ 128.269546926130545, 35.131756567611042 ], [ 128.272249199456638, 35.131737343170762 ], [ 128.273031961151617, 35.129042111662116 ], [ 128.277598686888695, 35.126178960661434 ], [ 128.275773649747521, 35.120179050731011 ], [ 128.277797732261632, 35.112975589039593 ], [ 128.269307130025709, 35.112579541541251 ], [ 128.262370246787128, 35.10741106071216 ], [ 128.257767674804825, 35.106493070866136 ], [ 128.256563418359008, 35.103966684333997 ], [ 128.244754021391799, 35.106000942799689 ], [ 128.240967922404508, 35.104995860979976 ], [ 128.240691384539019, 35.097056731242041 ], [ 128.245572472991455, 35.092895604162329 ], [ 128.243848623355433, 35.091582403758991 ], [ 128.242968657803829, 35.086841721386293 ], [ 128.239053602494522, 35.084277117833146 ], [ 128.23886605939984, 35.082240462800172 ] ] ] ] } },
{ "type": "Feature", "properties": { "emd_cd": "48820380", "emd_nm": "개천면" }, "geometry": { "type": "MultiPolygon", "coordinates": [ [ [ [ 128.23886605939984, 35.082240462800172 ], [ 128.239053602494522, 35.084277117833146 ], [ 128.242968657803829, 35.086841721386293 ], [ 128.243848623355433, 35.091582403758991 ], [ 128.245572472991455, 35.092895604162329 ], [ 128.240691384539019, 35.097056731242041 ], [ 128.240967922404508, 35.104995860979976 ], [ 128.244754021391799, 35.106000942799689 ], [ 128.256563418359008, 35.103966684333997 ], [ 128.257767674804825, 35.106493070866136 ], [ 128.262370246787128, 35.10741106071216 ], [ 128.269307130025709, 35.112579541541251 ], [ 128.277797732261632, 35.112975589039593 ], [ 128.275773649747521, 35.120179050731011 ], [ 128.277598686888695, 35.126178960661434 ], [ 128.273031961151617, 35.129042111662116 ], [ 128.272249199456638, 35.131737343170762 ], [ 128.273726407533132, 35.132435904619207 ], [ 128.28596881300524, 35.130501546647842 ], [ 128.289217055787418, 35.131376099318274 ], [ 128.300086282943624, 35.125536576277611 ], [ 128.304006834933944, 35.12710475707695 ], [ 128.306319682774273, 35.124972842301901 ], [ 128.309223273212638, 35.12519611771053 ], [ 128.316092855232711, 35.1295747350404 ], [ 128.320519054284375, 35.128730513015419 ], [ 128.322631766689568, 35.129861329556981 ], [ 128.328059580905119, 35.124051888002853 ], [ 128.333843395809339, 35.124669255992629 ], [ 128.338386727911796, 35.127977565975293 ], [ 128.348222548495272, 35.127106901351169 ], [ 128.3516479579757, 35.123580900562686 ], [ 128.347801018371342, 35.120983672214777 ], [ 128.342584665829492, 35.121145028953045 ], [ 128.337676797628831, 35.118098520425455 ], [ 128.33339073764742, 35.113867319848872 ], [ 128.332464231793551, 35.111813922299596 ], [ 128.333836807020276, 35.109943372682537 ], [ 128.331426907107812, 35.108718341719154 ], [ 128.31936586982178, 35.110990065083321 ], [ 128.306704408806524, 35.102698288202937 ], [ 128.30519070981191, 35.099628344928647 ], [ 128.309925581428757, 35.097645909334027 ], [ 128.313667397621998, 35.090905851794894 ], [ 128.308433922409392, 35.08867313795016 ], [ 128.309962939502498, 35.083637317269272 ], [ 128.309058774902184, 35.077517925985994 ], [ 128.304935372297052, 35.072375858521497 ], [ 128.294527857538043, 35.071597672531261 ], [ 128.292559195227284, 35.068418280670045 ], [ 128.289441805239164, 35.068881231897727 ], [ 128.286652599774101, 35.066831393926577 ], [ 128.286638690864152, 35.063480769164492 ], [ 128.290906692152163, 35.056850178512256 ], [ 128.289314753038354, 35.054048634515773 ], [ 128.286363348107159, 35.053785350799259 ], [ 128.28232674644002, 35.049811907087694 ], [ 128.278058320396696, 35.051760057632976 ], [ 128.274573254791477, 35.060368664977155 ], [ 128.262254508666217, 35.062192529415732 ], [ 128.259072408057932, 35.064965612229173 ], [ 128.262092750559816, 35.069593193900829 ], [ 128.255908598737108, 35.077739613153888 ], [ 128.243703189268018, 35.078868936619806 ], [ 128.23886605939984, 35.082240462800172 ] ] ] ] } },
{ "type": "Feature", "properties": { "emd_cd": "48820390", "emd_nm": "구만면" }, "geometry": { "type": "MultiPolygon", "coordinates": [ [ [ [ 128.309690444617075, 35.08192395786606 ], [ 128.308433922409392, 35.08867313795016 ], [ 128.313667397621998, 35.090905851794894 ], [ 128.309925581428757, 35.097645909334027 ], [ 128.30519070981191, 35.099628344928647 ], [ 128.306704408806524, 35.102698288202937 ], [ 128.31936586982178, 35.110990065083321 ], [ 128.331426907107812, 35.108718341719154 ], [ 128.333836807020276, 35.109943372682537 ], [ 128.332464231793551, 35.111813922299596 ], [ 128.33339073764742, 35.113867319848872 ], [ 128.337676797628831, 35.118098520425455 ], [ 128.342584665829492, 35.121145028953045 ], [ 128.347801018371342, 35.120983672214777 ], [ 128.3516479579757, 35.123580900562686 ], [ 128.353675086601868, 35.118422514303177 ], [ 128.350128577189878, 35.111823635408925 ], [ 128.356911616118367, 35.10798075964842 ], [ 128.360671775132261, 35.109882975436008 ], [ 128.366009159658319, 35.108942330875401 ], [ 128.365197888535477, 35.098804739719142 ], [ 128.367917706269282, 35.096963209921007 ], [ 128.368059197170368, 35.094708926437946 ], [ 128.356306518687632, 35.093248521598547 ], [ 128.359588340588857, 35.086092872024587 ], [ 128.357137379796256, 35.082560557773164 ], [ 128.357759998614739, 35.073031706219965 ], [ 128.353324495891428, 35.069725159087234 ], [ 128.355652959316984, 35.066645617727112 ], [ 128.353058586245339, 35.060594547765696 ], [ 128.344319552160016, 35.06773130206674 ], [ 128.334163918421041, 35.072414405563727 ], [ 128.327455312613466, 35.07154738009627 ], [ 128.32016605117505, 35.075531428184611 ], [ 128.317760014999124, 35.080454133377927 ], [ 128.309690444617075, 35.08192395786606 ] ] ] ] } },
{ "type": "Feature", "properties": { "emd_cd": "48820400", "emd_nm": "회화면" }, "geometry": { "type": "MultiPolygon", "coordinates": [ [ [ [ 128.413439299073247, 35.055565933362182 ], [ 128.41328954923074, 35.055444326849383 ], [ 128.413374036059935, 35.055571818347957 ], [ 128.413439299073247, 35.055565933362182 ] ] ], [ [ [ 128.379541420089168, 35.104325112383755 ], [ 128.386016842316224, 35.102972326217269 ], [ 128.389931026436926, 35.098709510439974 ], [ 128.390496693438081, 35.091410954666749 ], [ 128.392528612300254, 35.087775203954649 ], [ 128.39961529580026, 35.083401649558837 ], [ 128.401051894482464, 35.0858270000112 ], [ 128.399144799740384, 35.088925898657827 ], [ 128.399777061844048, 35.090450585506233 ], [ 128.411083591696041, 35.092630148719913 ], [ 128.41700372699944, 35.091477211529117 ], [ 128.41992706227029, 35.088125148559115 ], [ 128.427043880462463, 35.08646454602826 ], [ 128.428144683045389, 35.083147087714138 ], [ 128.425749031911124, 35.081029020709387 ], [ 128.425085513160212, 35.075810270903716 ], [ 128.427676689650923, 35.071523376078154 ], [ 128.423039534312522, 35.056574721328595 ], [ 128.420796942500544, 35.057831718565339 ], [ 128.419151647100733, 35.054881802671055 ], [ 128.41515083176543, 35.055471453262719 ], [ 128.41752835715144, 35.059893353800355 ], [ 128.416051226289511, 35.061130238179544 ], [ 128.417172140532159, 35.063814698814667 ], [ 128.416361659484551, 35.06396611361675 ], [ 128.414844107951808, 35.061997944823489 ], [ 128.410576655531457, 35.061033102761634 ], [ 128.409666559508452, 35.058347266276805 ], [ 128.402786925813871, 35.05795356573163 ], [ 128.401120810135438, 35.054963898698333 ], [ 128.395215919936248, 35.051268785052521 ], [ 128.393053208332049, 35.053182295175979 ], [ 128.387911304423, 35.052026807404459 ], [ 128.387327523448675, 35.050355782163983 ], [ 128.383851635468062, 35.050606020756398 ], [ 128.383671064995241, 35.048339720799497 ], [ 128.386057929212967, 35.048324097804745 ], [ 128.383643012213639, 35.04830397449205 ], [ 128.383119371911675, 35.045966908925841 ], [ 128.381002118374141, 35.046795955144539 ], [ 128.381471969782069, 35.048807239627777 ], [ 128.37560798350637, 35.049952687450272 ], [ 128.374809085821255, 35.049362017511612 ], [ 128.374132211223838, 35.049883990397973 ], [ 128.372964525319048, 35.049945404598901 ], [ 128.372379375797124, 35.049828359981014 ], [ 128.373782580686139, 35.04489836606794 ], [ 128.371710672448273, 35.044458766478094 ], [ 128.364765067892534, 35.049141461931335 ], [ 128.364300618711297, 35.053775794879876 ], [ 128.361177820192665, 35.056356336995059 ], [ 128.359153558898953, 35.056209677026935 ], [ 128.35764715722334, 35.053704300830461 ], [ 128.354935987353826, 35.054826135681154 ], [ 128.352877113765203, 35.057552368066979 ], [ 128.353058586245396, 35.060594547765696 ], [ 128.355652959316984, 35.066645617727083 ], [ 128.353324495891428, 35.069725159087234 ], [ 128.357759998614796, 35.073031706219965 ], [ 128.357137379796256, 35.082560557773128 ], [ 128.359588340588886, 35.086092872024615 ], [ 128.356306518687575, 35.093248521598547 ], [ 128.368059197170368, 35.094708926437917 ], [ 128.367917706269225, 35.096963209921007 ], [ 128.365197888535391, 35.098804739719142 ], [ 128.364975090270462, 35.102431302891709 ], [ 128.366009159658233, 35.108942330875372 ], [ 128.3689661155652, 35.110898926635905 ], [ 128.371893980203311, 35.111166785508587 ], [ 128.379541420089168, 35.104325112383755 ] ] ] ] } },
{ "type": "Feature", "properties": { "emd_cd": "48820410", "emd_nm": "마암면" }, "geometry": { "type": "MultiPolygon", "coordinates": [ [ [ [ 128.309460717219793, 35.081715022696542 ], [ 128.317760014999152, 35.080454133377927 ], [ 128.32016605117505, 35.075531428184611 ], [ 128.327455312613353, 35.071547380096312 ], [ 128.334163918421041, 35.072414405563698 ], [ 128.344319552160016, 35.067731302066683 ], [ 128.353058586245396, 35.060594547765696 ], [ 128.352877113765203, 35.057552368066979 ], [ 128.354935987353826, 35.054826135681154 ], [ 128.35764715722334, 35.053704300830461 ], [ 128.359153558898953, 35.056209677026935 ], [ 128.361177820192665, 35.056356336995059 ], [ 128.364300618711297, 35.053775794879876 ], [ 128.36489582921007, 35.048060452969203 ], [ 128.36352901789229, 35.047259651518274 ], [ 128.367390282971826, 35.045105981076915 ], [ 128.367331674694242, 35.043560539003522 ], [ 128.371008218611905, 35.04284897874323 ], [ 128.376186293945807, 35.038788247453134 ], [ 128.38034924299933, 35.039165914258803 ], [ 128.382150478154671, 35.036574161224841 ], [ 128.378879443554041, 35.033181685548691 ], [ 128.376188576209017, 35.033418256563309 ], [ 128.376550096998216, 35.031615677027482 ], [ 128.374452421664955, 35.030053182566007 ], [ 128.369889932253017, 35.031396240974736 ], [ 128.368736113390639, 35.033525676227612 ], [ 128.368918654580341, 35.030988835419834 ], [ 128.365255822819023, 35.030968823617187 ], [ 128.369011950862102, 35.030603496499978 ], [ 128.370832208629423, 35.025857127014952 ], [ 128.374929437553106, 35.023503732254156 ], [ 128.373795609213744, 35.022024290786689 ], [ 128.372183322065524, 35.024218218095825 ], [ 128.370358087922341, 35.022630393514305 ], [ 128.369112946088222, 35.023590139837857 ], [ 128.365974564457986, 35.021555629180448 ], [ 128.367100522526584, 35.017696005153361 ], [ 128.361804996241233, 35.015635329321476 ], [ 128.354266451649039, 35.009214219863225 ], [ 128.352740552000739, 35.005358566022153 ], [ 128.346541832438419, 35.006494587640333 ], [ 128.344306868808303, 35.00558114317775 ], [ 128.34538311518412, 35.002948158227184 ], [ 128.341423698304084, 35.003908527130207 ], [ 128.338997530134435, 35.007008735256612 ], [ 128.341391753408857, 35.009001743008135 ], [ 128.342220525811769, 35.012448419592396 ], [ 128.332599500378535, 35.012268840528925 ], [ 128.329765405384109, 35.016640366982486 ], [ 128.332592359573425, 35.019438433685238 ], [ 128.334224644597271, 35.025383377582209 ], [ 128.332532429822379, 35.033030238873508 ], [ 128.322751650719511, 35.033864403322049 ], [ 128.320406367922033, 35.041791835233262 ], [ 128.316517737708409, 35.043691851372344 ], [ 128.315546442868055, 35.045859690598476 ], [ 128.306895400690308, 35.050282474839626 ], [ 128.30282526189734, 35.050257267571965 ], [ 128.301411252020642, 35.047065284037863 ], [ 128.293200447330349, 35.045677544196607 ], [ 128.282598632585405, 35.049166702638566 ], [ 128.290906692152163, 35.056850178512256 ], [ 128.286638690864152, 35.063480769164492 ], [ 128.286652599774015, 35.066831393926613 ], [ 128.289441805239164, 35.068881231897777 ], [ 128.292559195227284, 35.06841828067008 ], [ 128.294527857538043, 35.071597672531261 ], [ 128.304935372297081, 35.072375858521433 ], [ 128.309058774902127, 35.077517925985987 ], [ 128.309460717219793, 35.081715022696542 ] ] ] ] } },
{ "type": "Feature", "properties": { "emd_cd": "48820420", "emd_nm": "동해면" }, "geometry": { "type": "MultiPolygon", "coordinates": [ [ [ [ 128.387999793660072, 35.023132998308164 ], [ 128.389677176740776, 35.027851859274449 ], [ 128.389554692518573, 35.03497138105687 ], [ 128.399440218070623, 35.040009650531118 ], [ 128.409271478966986, 35.043123493958944 ], [ 128.418037338904526, 35.042581103661334 ], [ 128.421361142227283, 35.045864284802832 ], [ 128.428256678878199, 35.044661313656505 ], [ 128.434929722294527, 35.047278997698967 ], [ 128.438136906242107, 35.045526161714072 ], [ 128.439684932110623, 35.047669644930366 ], [ 128.43858093179287, 35.049230500477996 ], [ 128.450447144844503, 35.051493068516301 ], [ 128.446021989733339, 35.0541379497487 ], [ 128.44253384451099, 35.06015364904205 ], [ 128.444520255825353, 35.066065234483489 ], [ 128.452659041313922, 35.071238290412197 ], [ 128.455719534749477, 35.06958414236383 ], [ 128.458628431521674, 35.065455081317161 ], [ 128.458580286796007, 35.062839583176405 ], [ 128.460070514989269, 35.062648773872034 ], [ 128.468685689316658, 35.068263684330191 ], [ 128.467098718121576, 35.074035415680846 ], [ 128.46880410487762, 35.075496035089905 ], [ 128.476844120304719, 35.069026473925682 ], [ 128.475487126521813, 35.065115545585499 ], [ 128.481910321367025, 35.065523633657428 ], [ 128.482561553550426, 35.063488724292121 ], [ 128.479711378050951, 35.06321849519221 ], [ 128.479898657501849, 35.06030422239175 ], [ 128.474845002514172, 35.054823491966062 ], [ 128.482081548988305, 35.052536321352221 ], [ 128.47885477141412, 35.047156569796599 ], [ 128.463643943232626, 35.04984065032496 ], [ 128.460399836204346, 35.049215521302784 ], [ 128.458795900600848, 35.047118316900075 ], [ 128.462086696884001, 35.045873350931913 ], [ 128.463332905545258, 35.042936723601507 ], [ 128.465139278415023, 35.043945346443095 ], [ 128.472340006811038, 35.039891079315097 ], [ 128.470955495860636, 35.037136472837688 ], [ 128.473786177288503, 35.034311277884576 ], [ 128.476474596077054, 35.042142228025099 ], [ 128.481418524093101, 35.040202527023702 ], [ 128.481906641434165, 35.036815007111549 ], [ 128.485938101293954, 35.038085956952763 ], [ 128.485157691406755, 35.033612024069015 ], [ 128.480455736076948, 35.030350660930885 ], [ 128.481217734591837, 35.028295706349503 ], [ 128.482961542968837, 35.02752286869098 ], [ 128.484869857613319, 35.029293457497431 ], [ 128.485550241849552, 35.025878142895259 ], [ 128.48833205186213, 35.024725600530644 ], [ 128.485675625762894, 35.022265211844598 ], [ 128.489454575644118, 35.023767252888646 ], [ 128.499228765223137, 35.021725616891977 ], [ 128.501493941941163, 35.014823478139498 ], [ 128.500268610231018, 35.01279417575212 ], [ 128.495162170129618, 35.012067955432329 ], [ 128.496427016435121, 35.009927695724727 ], [ 128.491824462806079, 35.0053782699677 ], [ 128.489900491974254, 35.006236408399026 ], [ 128.48734192353956, 35.011694154678878 ], [ 128.4850773349078, 35.012221782819609 ], [ 128.484413212446952, 35.011886911265641 ], [ 128.484847267115867, 35.010403842240514 ], [ 128.483224154944082, 35.010459451586364 ], [ 128.482700061970064, 35.00870201259503 ], [ 128.484015066018145, 35.005826068725376 ], [ 128.48060774559292, 35.003945230016768 ], [ 128.484483364610895, 34.999911390571711 ], [ 128.481118917475015, 34.999512386773169 ], [ 128.480029490717499, 34.997887759439898 ], [ 128.478961218195337, 34.999108051351534 ], [ 128.476132481919052, 34.998429203457626 ], [ 128.479686141061478, 34.995747873562124 ], [ 128.477769688508033, 34.99492050575958 ], [ 128.478254302216641, 34.993019971910684 ], [ 128.475377078941307, 34.994740254894666 ], [ 128.473340614525711, 34.993711355640443 ], [ 128.467912131179588, 34.997767493804311 ], [ 128.463670996106316, 34.998180698325598 ], [ 128.470420349955305, 34.990209491152598 ], [ 128.464064579066076, 34.987913932715337 ], [ 128.45848988588574, 34.991320797440011 ], [ 128.458448904412421, 34.993594102671757 ], [ 128.455982685035963, 34.990473173306981 ], [ 128.449682643045918, 34.993833968717524 ], [ 128.448269270405405, 34.992283390385552 ], [ 128.438059550471138, 34.994814069545967 ], [ 128.42717823373286, 34.993219278554804 ], [ 128.423809053646352, 34.994189929370833 ], [ 128.421987471126641, 34.992919294817177 ], [ 128.414613279918058, 34.996952027489272 ], [ 128.407353834128855, 34.994044015524636 ], [ 128.401783972345811, 35.005159539837756 ], [ 128.403301643461134, 35.006097222802609 ], [ 128.400008070189642, 35.009207977079598 ], [ 128.396654737571623, 35.008801162648993 ], [ 128.393557384284406, 35.014151918254854 ], [ 128.389349544805526, 35.017019798534307 ], [ 128.390299998965929, 35.017861616468871 ], [ 128.38887827088692, 35.017341414365177 ], [ 128.387999793660072, 35.023132998308164 ] ] ] ] } },
{ "type": "Feature", "properties": { "emd_cd": "48820430", "emd_nm": "거류면" }, "geometry": { "type": "MultiPolygon", "coordinates": [ [ [ [ 128.342598243227144, 34.978013653701403 ], [ 128.346523788600905, 34.983554824967719 ], [ 128.346887446237446, 34.992629608256834 ], [ 128.352633689733238, 35.001994639294018 ], [ 128.354266451649579, 35.009214219863203 ], [ 128.361804996241773, 35.015635329321398 ], [ 128.367100522527124, 35.01769600515334 ], [ 128.368399910671627, 35.015588439006407 ], [ 128.375782484316602, 35.015195363722192 ], [ 128.382649038429122, 35.018659807874805 ], [ 128.391914558918785, 35.015739941614783 ], [ 128.396654737571623, 35.008801162648993 ], [ 128.400008070189642, 35.009207977079598 ], [ 128.403301643461134, 35.006097222802609 ], [ 128.401783972345811, 35.005159539837756 ], [ 128.407155645553303, 34.994589569014984 ], [ 128.407577027323015, 34.989823680338759 ], [ 128.40851739801073, 34.989656025459524 ], [ 128.410388435440751, 34.988115252480704 ], [ 128.408134275815911, 34.989144054190518 ], [ 128.406576513685565, 34.988015108770639 ], [ 128.405885305884965, 34.985405831998449 ], [ 128.407633784593628, 34.982715394286231 ], [ 128.410641857923252, 34.983316611982801 ], [ 128.412863723181431, 34.986516907846855 ], [ 128.41338715791403, 34.985206714605354 ], [ 128.417819423059314, 34.986775534692079 ], [ 128.426879069127779, 34.985491075630968 ], [ 128.427408998712053, 34.983339759942176 ], [ 128.428221615831546, 34.985423499857937 ], [ 128.434226214966486, 34.985053167503466 ], [ 128.436695248875452, 34.983259518949261 ], [ 128.441095589683442, 34.983007817819193 ], [ 128.443633679946373, 34.97684390384309 ], [ 128.44136259639123, 34.971859829466077 ], [ 128.432069427236883, 34.97638144740953 ], [ 128.423049978485267, 34.97541239129891 ], [ 128.415643542263922, 34.967205405275948 ], [ 128.405288916235918, 34.968655067076334 ], [ 128.401117475996017, 34.971057374187296 ], [ 128.39985977410123, 34.963999463029289 ], [ 128.392003821909015, 34.963666624486763 ], [ 128.389104978586374, 34.961023938808879 ], [ 128.391022169388094, 34.952009799114748 ], [ 128.386026872761079, 34.95088459264376 ], [ 128.379834173935933, 34.946875604437324 ], [ 128.361764972244401, 34.959408055638761 ], [ 128.359691598416447, 34.967910102958832 ], [ 128.349192789557208, 34.96764214606732 ], [ 128.349005838075158, 34.969841892521629 ], [ 128.342741202455045, 34.969793618889298 ], [ 128.342598243227144, 34.978013653701403 ] ] ] ] } }
]
}
