{
"type": "FeatureCollection",
"name": "48860",
"crs": { "type": "name", "properties": { "name": "urn:ogc:def:crs:OGC:1.3:CRS84" } },
"features": [
{ "type": "Feature", "properties": { "emd_cd": "48860250", "emd_nm": "산청읍" }, "geometry": { "type": "MultiPolygon", "coordinates": [ [ [ [ 127.906377817633754, 35.459474766474678 ], [ 127.909350246899677, 35.459578525833869 ], [ 127.916535919349243, 35.45524995811455 ], [ 127.915920438314686, 35.450343488527551 ], [ 127.918150817454048, 35.442753786223996 ], [ 127.922397085682377, 35.44110916487616 ], [ 127.929530081358038, 35.441995845054443 ], [ 127.930981840145577, 35.435499365843391 ], [ 127.934547358500666, 35.4323930866694 ], [ 127.938571636144303, 35.432521600809487 ], [ 127.939379471466793, 35.427751536963697 ], [ 127.94161020074219, 35.426167252791679 ], [ 127.94120990609359, 35.418271450563225 ], [ 127.957307764391402, 35.411778177257119 ], [ 127.949722072059515, 35.40416571356527 ], [ 127.950400663735664, 35.399644174690643 ], [ 127.94677921221205, 35.397295025170116 ], [ 127.945300470106034, 35.393346964871974 ], [ 127.946177334153333, 35.389699691623079 ], [ 127.942910542329315, 35.385125204590572 ], [ 127.943859377647897, 35.382487961269938 ], [ 127.923640463920975, 35.36957057400398 ], [ 127.91583157209898, 35.368262259376777 ], [ 127.915792743673236, 35.362838166939696 ], [ 127.909699859413266, 35.362479180932148 ], [ 127.902428284881054, 35.36452668911717 ], [ 127.884249241071046, 35.361927470595518 ], [ 127.880680692476503, 35.363494310088299 ], [ 127.874497459841749, 35.361739883958194 ], [ 127.871564683646071, 35.362569455225582 ], [ 127.86841674444949, 35.366630494988783 ], [ 127.864750912438481, 35.368126704996691 ], [ 127.860593341636275, 35.378510681854863 ], [ 127.854072006378161, 35.385957250620699 ], [ 127.854689086199699, 35.393593021144291 ], [ 127.85923123668303, 35.399697023124141 ], [ 127.85819505145173, 35.403620332526778 ], [ 127.860146688572968, 35.411633983326126 ], [ 127.86413665953728, 35.413279962922743 ], [ 127.865094073484102, 35.415248298982156 ], [ 127.873851119983982, 35.417469001908273 ], [ 127.876919486650635, 35.420740997808245 ], [ 127.864699283698897, 35.428705610140462 ], [ 127.859086088305418, 35.438299318347227 ], [ 127.853763235624129, 35.441842616387468 ], [ 127.852286439822365, 35.447139348485408 ], [ 127.85399144617331, 35.449146706643894 ], [ 127.865839097650351, 35.44990642618211 ], [ 127.868537655932741, 35.452275394797311 ], [ 127.873044301763912, 35.446393395666554 ], [ 127.878137942466367, 35.445946804575414 ], [ 127.881409367708031, 35.447340595557186 ], [ 127.883166645908602, 35.453637433879607 ], [ 127.890832616697054, 35.449959544577105 ], [ 127.898943795130023, 35.452563882506432 ], [ 127.90182583819518, 35.45616273861711 ], [ 127.901629600884419, 35.459604009771517 ], [ 127.904222063323985, 35.461347448102934 ], [ 127.906377817633754, 35.459474766474678 ] ], [ [ 127.901030652233615, 35.432502878002893 ], [ 127.900929864370738, 35.432037957093968 ], [ 127.901030707289394, 35.432502877592746 ], [ 127.901030652233615, 35.432502878002893 ] ], [ [ 127.894303636554071, 35.429402651526964 ], [ 127.894321240676788, 35.429360431689481 ], [ 127.89430369150837, 35.429402642107867 ], [ 127.894303636554071, 35.429402651526964 ] ], [ [ 127.899919579098395, 35.425215687961185 ], [ 127.899919545667586, 35.425215652158791 ], [ 127.900150953665673, 35.425236399119257 ], [ 127.899919579098395, 35.425215687961185 ] ] ] ] } },
{ "type": "Feature", "properties": { "emd_cd": "48860310", "emd_nm": "차황면" }, "geometry": { "type": "MultiPolygon", "coordinates": [ [ [ [ 127.946206076227398, 35.519541873363941 ], [ 127.960133001463134, 35.517613520692947 ], [ 127.962591200996656, 35.499998200645912 ], [ 127.974576393180911, 35.494943444860112 ], [ 127.97654834815873, 35.487035337054664 ], [ 127.974312556940035, 35.475253212241086 ], [ 127.979268866220892, 35.467342261815283 ], [ 127.978513082660811, 35.461941419978814 ], [ 127.98485572077773, 35.456499983135494 ], [ 127.984237392709773, 35.453421353686835 ], [ 127.97657898826867, 35.448202723697946 ], [ 127.963463677680636, 35.447575384732687 ], [ 127.964046586298664, 35.443123333413602 ], [ 127.970398775456857, 35.432681876919638 ], [ 127.967594405600678, 35.431491308880204 ], [ 127.965669972195272, 35.427108646884726 ], [ 127.960612134374443, 35.427933484234657 ], [ 127.950505921319362, 35.426539265526685 ], [ 127.945038233759476, 35.428821480883677 ], [ 127.941524477970802, 35.426459996121523 ], [ 127.939379471466793, 35.427751536963697 ], [ 127.938571636144303, 35.432521600809487 ], [ 127.934547358500666, 35.4323930866694 ], [ 127.930981840145577, 35.435499365843391 ], [ 127.929530081358038, 35.441995845054443 ], [ 127.922397085682377, 35.44110916487616 ], [ 127.918150817454048, 35.442753786223996 ], [ 127.915920438314686, 35.450343488527551 ], [ 127.916535919349243, 35.45524995811455 ], [ 127.904274612556776, 35.460861665848967 ], [ 127.903814029066965, 35.468935863792197 ], [ 127.907575903892351, 35.471234942122443 ], [ 127.906670681501652, 35.473657644330373 ], [ 127.909366560841278, 35.477822557826457 ], [ 127.90586283902654, 35.483946078415919 ], [ 127.910905213072297, 35.489799060152812 ], [ 127.917026420367449, 35.489666077709757 ], [ 127.921704882949541, 35.493603433752696 ], [ 127.923819169578067, 35.499045588917149 ], [ 127.922337190521262, 35.500415656464256 ], [ 127.923589268327092, 35.501073480155135 ], [ 127.923196366374782, 35.505961309352934 ], [ 127.92542101851619, 35.515373273135687 ], [ 127.93315158271632, 35.515975366964838 ], [ 127.941003154323724, 35.514295749621333 ], [ 127.946206076227398, 35.519541873363941 ] ], [ [ 127.940374978298991, 35.446798177489647 ], [ 127.940395730170891, 35.446795465500891 ], [ 127.940375011756586, 35.446798213280303 ], [ 127.940374978298991, 35.446798177489647 ] ], [ [ 127.959633420151206, 35.46019905699211 ], [ 127.959624510015956, 35.460141599793722 ], [ 127.959633475224948, 35.460199056554934 ], [ 127.959633420151206, 35.46019905699211 ] ], [ [ 127.961866018117178, 35.45939525558807 ], [ 127.9618660730832, 35.459395246138051 ], [ 127.961849006348473, 35.459443149115792 ], [ 127.961866018117178, 35.45939525558807 ] ], [ [ 127.918992458071699, 35.449209486947943 ], [ 127.918955145339055, 35.449100166728343 ], [ 127.91899250243209, 35.44920951364896 ], [ 127.918992458071699, 35.449209486947943 ] ], [ [ 127.951943829068242, 35.447346967536312 ], [ 127.951870010053824, 35.447172467902405 ], [ 127.951943851200227, 35.447346976374781 ], [ 127.951943829068242, 35.447346967536312 ] ] ] ] } },
{ "type": "Feature", "properties": { "emd_cd": "48860320", "emd_nm": "오부면" }, "geometry": { "type": "MultiPolygon", "coordinates": [ [ [ [ 127.903312931717664, 35.534214527812146 ], [ 127.913211571044556, 35.525622423070189 ], [ 127.92133360925753, 35.523705470995587 ], [ 127.919991713461798, 35.519915029698886 ], [ 127.925561429312481, 35.514765909172375 ], [ 127.923196366374782, 35.505961309352934 ], [ 127.923589268327092, 35.501073480155135 ], [ 127.922337190521262, 35.500415656464256 ], [ 127.923819169578067, 35.499045588917149 ], [ 127.921704882949541, 35.493603433752696 ], [ 127.917026420367449, 35.489666077709757 ], [ 127.910905213072297, 35.489799060152812 ], [ 127.90586283902654, 35.483946078415919 ], [ 127.909366560841278, 35.477822557826457 ], [ 127.906670681501652, 35.473657644330373 ], [ 127.907575903892351, 35.471234942122443 ], [ 127.903814029066965, 35.468935863792197 ], [ 127.904423036919468, 35.461648880517366 ], [ 127.900833885012617, 35.458120109758475 ], [ 127.90182583819518, 35.45616273861711 ], [ 127.898011919002244, 35.451812024091574 ], [ 127.89569517597684, 35.452397541910251 ], [ 127.890568199947268, 35.44991814990734 ], [ 127.883166645908602, 35.453637433879607 ], [ 127.881409367708031, 35.447340595557186 ], [ 127.878137942466367, 35.445946804575414 ], [ 127.873044301763912, 35.446393395666554 ], [ 127.869330642683778, 35.45205267826794 ], [ 127.865225855048706, 35.449980565194103 ], [ 127.864233240502656, 35.454533207720509 ], [ 127.853367004333791, 35.455524283326739 ], [ 127.852695445951611, 35.45780692637485 ], [ 127.859718593169717, 35.462436730641365 ], [ 127.86012898235208, 35.464761959783175 ], [ 127.865377940120993, 35.464852865067833 ], [ 127.867783950398405, 35.467739995583315 ], [ 127.866048964957344, 35.477011130923188 ], [ 127.863596432292724, 35.481092722737976 ], [ 127.869790366878632, 35.485390525265196 ], [ 127.872676308988574, 35.484926632520825 ], [ 127.874089367989228, 35.488204484635922 ], [ 127.873163901696159, 35.491933925797504 ], [ 127.877079919077772, 35.493122439893206 ], [ 127.876549509580784, 35.498925325681768 ], [ 127.874714869868981, 35.501778237096907 ], [ 127.876386085487141, 35.502755650233617 ], [ 127.875717744287215, 35.508332008271893 ], [ 127.878437887473893, 35.513747581864031 ], [ 127.87556859968393, 35.516441509738833 ], [ 127.87639766974155, 35.520178953375485 ], [ 127.875167508693096, 35.521544329186575 ], [ 127.876791196830737, 35.526433322648259 ], [ 127.878252269073997, 35.527760647014823 ], [ 127.88092643496725, 35.527070258416678 ], [ 127.887639433807365, 35.531442362565301 ], [ 127.893937589358217, 35.530156072462063 ], [ 127.899345746609271, 35.534217207696813 ], [ 127.903312931717664, 35.534214527812146 ] ], [ [ 127.891816930868345, 35.481540814764941 ], [ 127.89191031544469, 35.481473927443538 ], [ 127.891816975237944, 35.481540841475699 ], [ 127.891816930868345, 35.481540814764941 ] ] ] ] } },
{ "type": "Feature", "properties": { "emd_cd": "48860330", "emd_nm": "생초면" }, "geometry": { "type": "MultiPolygon", "coordinates": [ [ [ [ 127.867520260287748, 35.574853842069601 ], [ 127.870899859103829, 35.575523059454255 ], [ 127.871336496662849, 35.571416389577102 ], [ 127.874825507421775, 35.567168945907447 ], [ 127.872689084485032, 35.562436153807184 ], [ 127.869327043614589, 35.559487612350992 ], [ 127.871994952034314, 35.55222533189918 ], [ 127.877444984622841, 35.550441596587447 ], [ 127.874555226275305, 35.538366837672179 ], [ 127.877655309840449, 35.5355453007001 ], [ 127.877332886268121, 35.533306839739609 ], [ 127.880509072994627, 35.531584759232182 ], [ 127.875167508693096, 35.521544329186575 ], [ 127.87639766974155, 35.520178953375485 ], [ 127.87556859968393, 35.516441509738833 ], [ 127.878447253021676, 35.513990468232038 ], [ 127.875717744287215, 35.508332008271893 ], [ 127.876386085487141, 35.502755650233617 ], [ 127.874714869868981, 35.501778237096907 ], [ 127.876549509580784, 35.498925325681768 ], [ 127.877079919077772, 35.493122439893206 ], [ 127.873163901696159, 35.491933925797504 ], [ 127.874089367989228, 35.488204484635922 ], [ 127.872676308988574, 35.484926632520825 ], [ 127.869790366878632, 35.485390525265196 ], [ 127.863596432292724, 35.481092722737976 ], [ 127.867934481737436, 35.470622577449468 ], [ 127.865964973963202, 35.465341596283437 ], [ 127.86012898235208, 35.464761959783175 ], [ 127.859718593169717, 35.462436730641365 ], [ 127.85213164496183, 35.456750836761444 ], [ 127.846996845698129, 35.456779854883003 ], [ 127.842177146218361, 35.458803502646724 ], [ 127.834510155106088, 35.45529525493663 ], [ 127.826769877365464, 35.462927011700017 ], [ 127.825560612790284, 35.467884451718078 ], [ 127.821144830714587, 35.468934739709297 ], [ 127.817784478522043, 35.467290608894885 ], [ 127.813299623406081, 35.469689029213633 ], [ 127.814057615509597, 35.472491048432985 ], [ 127.80766144692528, 35.478117781407398 ], [ 127.809509549630107, 35.48274114793022 ], [ 127.805319744059048, 35.485604644645974 ], [ 127.805375716031278, 35.489371569695017 ], [ 127.806107887587743, 35.49121735096314 ], [ 127.816284156608447, 35.490668359328467 ], [ 127.822709567162534, 35.4996566796707 ], [ 127.822926662158565, 35.50659260249023 ], [ 127.820272560280245, 35.509687217819888 ], [ 127.823291744190456, 35.516621516917375 ], [ 127.815978422668863, 35.521663347477201 ], [ 127.817083682439716, 35.525771843376731 ], [ 127.824281248440599, 35.529147851764527 ], [ 127.83198282734503, 35.539840540772772 ], [ 127.840408486786288, 35.545771543762953 ], [ 127.847789095639257, 35.558007931045687 ], [ 127.852279571834515, 35.560561813631601 ], [ 127.853890465456288, 35.565757922952898 ], [ 127.861728767615247, 35.575085693439391 ], [ 127.863893857173949, 35.576244229675289 ], [ 127.867520260287748, 35.574853842069601 ] ], [ [ 127.849345769307163, 35.544889010619237 ], [ 127.849290981038735, 35.5448635025069 ], [ 127.849345790886161, 35.544888965404297 ], [ 127.849345769307163, 35.544889010619237 ] ], [ [ 127.849209208777523, 35.537184263798281 ], [ 127.849334820736971, 35.537133883257972 ], [ 127.849209187105615, 35.53718430000125 ], [ 127.849209208777523, 35.537184263798281 ] ] ] ] } },
{ "type": "Feature", "properties": { "emd_cd": "48860340", "emd_nm": "금서면" }, "geometry": { "type": "MultiPolygon", "coordinates": [ [ [ [ 127.814551719782642, 35.469914545597952 ], [ 127.817784478522043, 35.467290608894885 ], [ 127.821144830714587, 35.468934739709297 ], [ 127.825560612790284, 35.467884451718078 ], [ 127.826769877365464, 35.462927011700017 ], [ 127.834108297818389, 35.455413985908926 ], [ 127.842177146218361, 35.458803502646724 ], [ 127.865221459396494, 35.453501407561411 ], [ 127.864411988236228, 35.450777463445704 ], [ 127.853664424344899, 35.449035499536073 ], [ 127.852581785669386, 35.44387025749176 ], [ 127.859086088305418, 35.438299318347227 ], [ 127.864699283698897, 35.428705610140462 ], [ 127.876919486650635, 35.420740997808245 ], [ 127.873851119983982, 35.417469001908273 ], [ 127.865094073484102, 35.415248298982156 ], [ 127.86413665953728, 35.413279962922743 ], [ 127.860146688572968, 35.411633983326126 ], [ 127.85819505145173, 35.403620332526778 ], [ 127.859412416475109, 35.400416493982448 ], [ 127.854817211198252, 35.394010421099182 ], [ 127.854072006378161, 35.385957250620699 ], [ 127.839243904275207, 35.381568201550557 ], [ 127.832929915171192, 35.384065523359183 ], [ 127.826729790924716, 35.380383162939218 ], [ 127.826379768549359, 35.376869663705968 ], [ 127.819311667381371, 35.370530147582755 ], [ 127.811119593484619, 35.37227754488984 ], [ 127.800052899145186, 35.378038473603851 ], [ 127.796753169665521, 35.386089272834674 ], [ 127.787803918984181, 35.392429980090185 ], [ 127.785736962414447, 35.389645292867272 ], [ 127.7779701583612, 35.387681830277103 ], [ 127.776090254462545, 35.384246812323667 ], [ 127.771327117740015, 35.381145458233405 ], [ 127.752538856234054, 35.383221007870084 ], [ 127.748371979865752, 35.397147286359299 ], [ 127.758286340193635, 35.402596397288136 ], [ 127.759918878805095, 35.406311267889635 ], [ 127.759254748767404, 35.415159828472397 ], [ 127.763258237943319, 35.418410956498278 ], [ 127.769925170386998, 35.420600364208212 ], [ 127.768937406300552, 35.426203202945374 ], [ 127.780049508851562, 35.43432629566211 ], [ 127.775856498586421, 35.439333268040308 ], [ 127.772731047160477, 35.43974711678355 ], [ 127.773300466356062, 35.444709982244639 ], [ 127.777318965401946, 35.446870867356942 ], [ 127.785852024917759, 35.444280463783663 ], [ 127.789284288669307, 35.445990175804347 ], [ 127.789437364346895, 35.451783704915023 ], [ 127.782337008646266, 35.457103812963645 ], [ 127.782347503493895, 35.459073334771091 ], [ 127.800340717320708, 35.467777956604166 ], [ 127.814551719782642, 35.469914545597952 ] ], [ [ 127.863070162775713, 35.423623719958393 ], [ 127.863070173305914, 35.423623674819218 ], [ 127.863136374298961, 35.423656054175041 ], [ 127.863070162775713, 35.423623719958393 ] ] ] ] } },
{ "type": "Feature", "properties": { "emd_cd": "48860350", "emd_nm": "삼장면" }, "geometry": { "type": "MultiPolygon", "coordinates": [ [ [ [ 127.796753169665521, 35.386089272834674 ], [ 127.800052899145186, 35.378038473603851 ], [ 127.807931846931098, 35.373695874556596 ], [ 127.819311667381371, 35.370530147582755 ], [ 127.826379768549359, 35.376869663705968 ], [ 127.826729790924716, 35.380383162939218 ], [ 127.832929915171192, 35.384065523359183 ], [ 127.839243904275207, 35.381568201550557 ], [ 127.854072006378161, 35.385957250620699 ], [ 127.860593341636275, 35.378510681854863 ], [ 127.864750912438481, 35.368126704996691 ], [ 127.874894367769244, 35.360924080100332 ], [ 127.876526559806564, 35.34561501325534 ], [ 127.873135045258621, 35.336085781362947 ], [ 127.876104494131766, 35.329765076875894 ], [ 127.864739226230512, 35.325443459822793 ], [ 127.854946654931652, 35.330476599179903 ], [ 127.851657347944993, 35.324398730260199 ], [ 127.853391557576131, 35.312868916837687 ], [ 127.848909979628374, 35.306453694761849 ], [ 127.850921682012228, 35.299276473513579 ], [ 127.846747244730608, 35.29676742318496 ], [ 127.845635146376665, 35.287063662821126 ], [ 127.839299826010858, 35.28471852612833 ], [ 127.835231765020055, 35.281267717805783 ], [ 127.828308990056797, 35.281916286497221 ], [ 127.825907231604162, 35.280416098153445 ], [ 127.818373394431475, 35.282448150820727 ], [ 127.798333093693557, 35.277880469821824 ], [ 127.784833696659831, 35.305211155649005 ], [ 127.775540961758452, 35.30580809813214 ], [ 127.768104346070459, 35.304058545036327 ], [ 127.765727431751287, 35.306394298311467 ], [ 127.764632083932199, 35.30939528919977 ], [ 127.768067495622105, 35.321858568774566 ], [ 127.763587698836389, 35.33137931006523 ], [ 127.752856768639987, 35.336405436672926 ], [ 127.751665830526633, 35.340933114012579 ], [ 127.733838380059822, 35.343346497777979 ], [ 127.73507174731526, 35.350987933851151 ], [ 127.732922908490664, 35.355183119486931 ], [ 127.73413891710436, 35.361224271190601 ], [ 127.73880964812615, 35.364850173277048 ], [ 127.738647532018319, 35.372446853523932 ], [ 127.746038204212226, 35.376412582185509 ], [ 127.750787615981309, 35.38231281250912 ], [ 127.757584170369697, 35.383543901395541 ], [ 127.771327117740015, 35.381145458233405 ], [ 127.776090254462545, 35.384246812323667 ], [ 127.7779701583612, 35.387681830277103 ], [ 127.785736962414447, 35.389645292867272 ], [ 127.787803918984181, 35.392429980090185 ], [ 127.796753169665521, 35.386089272834674 ] ] ] ] } },
{ "type": "Feature", "properties": { "emd_cd": "48860360", "emd_nm": "시천면" }, "geometry": { "type": "MultiPolygon", "coordinates": [ [ [ [ 127.733799532517651, 35.343350689850958 ], [ 127.751665830526633, 35.340933114012579 ], [ 127.752856768639987, 35.336405436672926 ], [ 127.763587698836389, 35.33137931006523 ], [ 127.768067495622105, 35.321858568774566 ], [ 127.764632083932199, 35.30939528919977 ], [ 127.765727431751287, 35.306394298311467 ], [ 127.768104346070459, 35.304058545036327 ], [ 127.775540961758452, 35.30580809813214 ], [ 127.784833696659831, 35.305211155649005 ], [ 127.798333093693557, 35.277880469821824 ], [ 127.818373394431475, 35.282448150820727 ], [ 127.825907231604162, 35.280416098153445 ], [ 127.828649572040845, 35.281945855275488 ], [ 127.834854261703839, 35.28118976050169 ], [ 127.839299826010858, 35.28471852612833 ], [ 127.845313441286649, 35.286748856281925 ], [ 127.846747244730608, 35.29676742318496 ], [ 127.851088988116885, 35.299977924991474 ], [ 127.848972054228369, 35.30684978644225 ], [ 127.853391557576131, 35.312868916837687 ], [ 127.852014313838694, 35.326851522291967 ], [ 127.856193099625855, 35.330542573969907 ], [ 127.864209781985238, 35.325472484213712 ], [ 127.868591214103219, 35.326064890585428 ], [ 127.86771998446973, 35.32491160159497 ], [ 127.869308202339653, 35.320572191253092 ], [ 127.86567020454153, 35.317669647944349 ], [ 127.868254018840972, 35.31024596351584 ], [ 127.866633989897934, 35.299001475066433 ], [ 127.869281718796444, 35.291932946785565 ], [ 127.862523538772336, 35.288861528649086 ], [ 127.861208733511845, 35.285670495247984 ], [ 127.862575527091437, 35.278706417362109 ], [ 127.859714606576858, 35.274236005608188 ], [ 127.866329142173385, 35.268145436902998 ], [ 127.85701000448168, 35.265487599211269 ], [ 127.861740590112575, 35.262843400869073 ], [ 127.865170607227711, 35.258583850777178 ], [ 127.863386862818317, 35.254093871801359 ], [ 127.861181274982329, 35.253805127224688 ], [ 127.856801534784353, 35.248928177756106 ], [ 127.857841876954723, 35.242478498304258 ], [ 127.850740743180026, 35.236027835061861 ], [ 127.847197266375218, 35.235489507968815 ], [ 127.844681634806392, 35.228408489155846 ], [ 127.843240843361684, 35.227576592986409 ], [ 127.835320453436935, 35.229628764104092 ], [ 127.832317668002275, 35.225431784050855 ], [ 127.826516689181673, 35.222479099944074 ], [ 127.799555824503244, 35.219280424636111 ], [ 127.782755361557562, 35.220928850118177 ], [ 127.781881861755139, 35.219021663818964 ], [ 127.776051373925725, 35.219475986116144 ], [ 127.772498189140535, 35.223003919498318 ], [ 127.768309674632562, 35.223347941242785 ], [ 127.765457672706219, 35.227535126376324 ], [ 127.760246290814976, 35.228559570452305 ], [ 127.756401783893921, 35.232104316385886 ], [ 127.752816842029389, 35.236881078841471 ], [ 127.753606043225417, 35.239128927827785 ], [ 127.751663346405209, 35.24086127320588 ], [ 127.750609102805029, 35.246843112975455 ], [ 127.743454789721937, 35.253224570811604 ], [ 127.737565697510306, 35.255468082547395 ], [ 127.732396176847928, 35.255118783538038 ], [ 127.704811650847148, 35.264872516254997 ], [ 127.700316917941691, 35.274777445898941 ], [ 127.695642369976582, 35.277067063754515 ], [ 127.690258897833104, 35.28356145800381 ], [ 127.69270328473111, 35.287754062643764 ], [ 127.688544983769262, 35.294117859812232 ], [ 127.688839224849659, 35.319169524744147 ], [ 127.694903439708213, 35.318733528975976 ], [ 127.700502180742262, 35.316060999063957 ], [ 127.706331178191817, 35.320387139355915 ], [ 127.708917740719571, 35.326969464779296 ], [ 127.719814798389677, 35.335086349363799 ], [ 127.730579916561837, 35.336882491965838 ], [ 127.733799532517651, 35.343350689850958 ] ], [ [ 127.779426455968121, 35.258961755536937 ], [ 127.779451209790153, 35.258933781910372 ], [ 127.779426456226503, 35.258961782574637 ], [ 127.779426455968121, 35.258961755536937 ] ] ] ] } },
{ "type": "Feature", "properties": { "emd_cd": "48860370", "emd_nm": "단성면" }, "geometry": { "type": "MultiPolygon", "coordinates": [ [ [ [ 127.902809176266103, 35.364201620834663 ], [ 127.915792743673236, 35.362838166939696 ], [ 127.918605066307549, 35.355594454645292 ], [ 127.926412524076014, 35.352759923151176 ], [ 127.935861042115405, 35.346224133214619 ], [ 127.940239084856955, 35.33537476660149 ], [ 127.941077920072047, 35.328307269485833 ], [ 127.945042443984136, 35.322095678583473 ], [ 127.953106447940471, 35.31686002563999 ], [ 127.963003411825724, 35.315971263528155 ], [ 127.968472336950427, 35.313521337315777 ], [ 127.970636154230903, 35.309898859651184 ], [ 127.966650678406808, 35.301256253967409 ], [ 127.966620776818829, 35.296804783157654 ], [ 127.97520245978906, 35.292072231597793 ], [ 127.981486350697679, 35.290825746283936 ], [ 127.986350023210434, 35.286843771084307 ], [ 127.984141416923379, 35.281742471137534 ], [ 127.986384805311076, 35.276860269429548 ], [ 127.985339256292988, 35.273719507871718 ], [ 127.983092200550558, 35.270743908678469 ], [ 127.973665044150692, 35.270170449692685 ], [ 127.971993752074056, 35.251199169935632 ], [ 127.967238736869461, 35.246852108700089 ], [ 127.947468284011975, 35.241662547115148 ], [ 127.945990454179906, 35.244297857088107 ], [ 127.938469149967531, 35.249220445608962 ], [ 127.932309024438666, 35.250693446791168 ], [ 127.924230678826163, 35.249248952409218 ], [ 127.922834959812747, 35.251703493359607 ], [ 127.920406825293696, 35.252071598280843 ], [ 127.911229750067932, 35.240539534702606 ], [ 127.910889324469792, 35.227678487004631 ], [ 127.909196989832395, 35.2242212229052 ], [ 127.905874889349406, 35.22263989605576 ], [ 127.899688682936102, 35.227561423668178 ], [ 127.893614331190577, 35.22600317103241 ], [ 127.89257181177048, 35.227488345524804 ], [ 127.890725048644597, 35.226793174021935 ], [ 127.890211548074248, 35.232993758041729 ], [ 127.887821720407359, 35.237619906779706 ], [ 127.893113525994238, 35.250445924711443 ], [ 127.886540998975192, 35.249242161445594 ], [ 127.880488759585063, 35.251269280539155 ], [ 127.874473606191827, 35.250940124952145 ], [ 127.874968474091119, 35.257701127807842 ], [ 127.86915628092278, 35.260051438955216 ], [ 127.865170607227711, 35.258583850777178 ], [ 127.861740590112575, 35.262843400869073 ], [ 127.85701000448168, 35.265487599211269 ], [ 127.866329142173385, 35.268145436902998 ], [ 127.859714606576858, 35.274236005608188 ], [ 127.862575527091437, 35.278706417362109 ], [ 127.861208733511845, 35.285670495247984 ], [ 127.862523538772336, 35.288861528649086 ], [ 127.869281718796444, 35.291932946785565 ], [ 127.866633989897934, 35.299001475066433 ], [ 127.868254018840972, 35.31024596351584 ], [ 127.865703364156843, 35.316841209534743 ], [ 127.869308202339653, 35.320572191253092 ], [ 127.86771998446973, 35.32491160159497 ], [ 127.870073287459775, 35.327842330841271 ], [ 127.876104494131766, 35.329765076875894 ], [ 127.873135045258621, 35.336085781362947 ], [ 127.876526559806564, 35.34561501325534 ], [ 127.874497459841749, 35.361739883958194 ], [ 127.877279933677457, 35.3634170859386 ], [ 127.884249241071046, 35.361927470595518 ], [ 127.902809176266103, 35.364201620834663 ] ], [ [ 127.952536519127548, 35.285927069622765 ], [ 127.952538887199125, 35.285913378374843 ], [ 127.952536563408174, 35.285927096313443 ], [ 127.952536519127548, 35.285927069622765 ] ], [ [ 127.922435693830366, 35.309632908726606 ], [ 127.922435726711441, 35.309632899463253 ], [ 127.922463915183002, 35.309768383458547 ], [ 127.922435693830366, 35.309632908726606 ] ], [ [ 127.9312473899125, 35.304204896433546 ], [ 127.930882037895557, 35.303597231898102 ], [ 127.931247433783994, 35.304204887083316 ], [ 127.9312473899125, 35.304204896433546 ] ], [ [ 127.937395183342929, 35.304151363684205 ], [ 127.937528193074584, 35.304120555532151 ], [ 127.937395150777235, 35.30415139998793 ], [ 127.937395183342929, 35.304151363684205 ] ] ] ] } },
{ "type": "Feature", "properties": { "emd_cd": "48860380", "emd_nm": "신안면" }, "geometry": { "type": "MultiPolygon", "coordinates": [ [ [ [ 127.964215124957533, 35.391162081186913 ], [ 127.969731429417507, 35.389103775044752 ], [ 127.973228495829659, 35.382517262140766 ], [ 127.98157684895979, 35.378231803435249 ], [ 127.984759552376843, 35.378114527682769 ], [ 127.990308480670819, 35.383013628969572 ], [ 127.999231494473122, 35.383868952502709 ], [ 128.003464247946908, 35.381096451961731 ], [ 128.006319975438458, 35.381252151947699 ], [ 128.007856024774128, 35.377216109941578 ], [ 128.010183837026375, 35.376031304463865 ], [ 128.016172465373018, 35.375300473048434 ], [ 128.020699822447995, 35.372017129449539 ], [ 128.023273591769765, 35.373596344979156 ], [ 128.029764605450538, 35.371653083186153 ], [ 128.027119229799894, 35.362295110360776 ], [ 128.020973421652769, 35.358931455128712 ], [ 128.016278340862868, 35.354125782313332 ], [ 128.015569563724853, 35.346799467671261 ], [ 128.012881381676692, 35.343788743181413 ], [ 128.012766968197838, 35.340208255790152 ], [ 128.01497804460422, 35.339417087824621 ], [ 128.013080263575716, 35.33738511222392 ], [ 128.012144412379058, 35.331189870184936 ], [ 128.008257924201445, 35.32699266959996 ], [ 128.012222419660674, 35.326224603529994 ], [ 128.015909239089211, 35.32152988447671 ], [ 128.021966667913148, 35.324094115495342 ], [ 128.02923498902274, 35.321008496133743 ], [ 128.029876505921806, 35.317975526886201 ], [ 128.033691329409947, 35.315027724221714 ], [ 128.034575741363085, 35.307832089783268 ], [ 128.021573376971844, 35.305217654337227 ], [ 128.01904650845816, 35.302875953284719 ], [ 128.015258530226475, 35.303428827206453 ], [ 128.013009608537857, 35.299306951731573 ], [ 128.005830250164422, 35.297381818185265 ], [ 128.003542636105237, 35.292073766710153 ], [ 127.999495280198971, 35.290235208786491 ], [ 127.995092002582211, 35.285261948047832 ], [ 127.987988446945494, 35.286117192188094 ], [ 127.981486350697679, 35.290825746283936 ], [ 127.97520245978906, 35.292072231597793 ], [ 127.966620776818829, 35.296804783157654 ], [ 127.966650678406808, 35.301256253967409 ], [ 127.968347439665109, 35.302706864576592 ], [ 127.970468171818823, 35.311680440312557 ], [ 127.963003411825724, 35.315971263528155 ], [ 127.952022270743939, 35.317256928121751 ], [ 127.945042443984136, 35.322095678583473 ], [ 127.941077920072047, 35.328307269485833 ], [ 127.940239084856955, 35.33537476660149 ], [ 127.935861042115405, 35.346224133214619 ], [ 127.926412524076014, 35.352759923151176 ], [ 127.918605066307549, 35.355594454645292 ], [ 127.915792743673236, 35.362838166939696 ], [ 127.914851021619739, 35.367574585718181 ], [ 127.923640463920975, 35.36957057400398 ], [ 127.931476887075846, 35.373788539120547 ], [ 127.934841335166411, 35.377903692166939 ], [ 127.941583993065152, 35.380723548930533 ], [ 127.943859377647897, 35.382487961269938 ], [ 127.942910542329315, 35.385125204590572 ], [ 127.945424504632356, 35.388965283354516 ], [ 127.956990202931692, 35.388637748636846 ], [ 127.964215124957533, 35.391162081186913 ] ], [ [ 127.940732530500696, 35.341859417747841 ], [ 127.940731902870596, 35.341835601615372 ], [ 127.940732585494288, 35.341859417320542 ], [ 127.940732530500696, 35.341859417747841 ] ], [ [ 127.989765350583241, 35.350049103355296 ], [ 127.99048188208198, 35.349210467477434 ], [ 127.989765394252615, 35.350049075959795 ], [ 127.989765350583241, 35.350049103355296 ] ], [ [ 127.944322409824906, 35.343239153372792 ], [ 127.944322464714659, 35.343239143931797 ], [ 127.944680937975491, 35.343526651573782 ], [ 127.944322409824906, 35.343239153372792 ] ], [ [ 127.968284886509906, 35.333002723485166 ], [ 127.968284930177688, 35.333002696097367 ], [ 127.968357437272431, 35.33303544575525 ], [ 127.968284886509906, 35.333002723485166 ] ] ] ] } },
{ "type": "Feature", "properties": { "emd_cd": "48860390", "emd_nm": "생비량면" }, "geometry": { "type": "MultiPolygon", "coordinates": [ [ [ [ 128.070749478473886, 35.393353026436259 ], [ 128.072927304605543, 35.388968080238236 ], [ 128.080667994403484, 35.389113879264762 ], [ 128.084863889367483, 35.383434338126257 ], [ 128.089277428889744, 35.381215794496711 ], [ 128.086809051627625, 35.375345999259977 ], [ 128.080231290282256, 35.370121303313454 ], [ 128.085800793669165, 35.367876005812448 ], [ 128.087456400798118, 35.365633956727095 ], [ 128.102392251597166, 35.367125632527156 ], [ 128.099985609634473, 35.361623514657985 ], [ 128.095372233665842, 35.359849151092256 ], [ 128.095365768602107, 35.357333062107671 ], [ 128.099099818545994, 35.35348828467292 ], [ 128.092097454702241, 35.348347672244067 ], [ 128.096471485489644, 35.341520159579041 ], [ 128.103053618815693, 35.341172379631388 ], [ 128.106901113386527, 35.337975558466582 ], [ 128.110449776839886, 35.337867942828453 ], [ 128.115198861257568, 35.332844423367618 ], [ 128.114530970028142, 35.331120709452307 ], [ 128.112343940543212, 35.331785433771877 ], [ 128.108625961459893, 35.330090314638348 ], [ 128.10327825296261, 35.333268616815793 ], [ 128.102212044197245, 35.335598485352527 ], [ 128.080342579315356, 35.336885536594387 ], [ 128.074438384877936, 35.336004004838721 ], [ 128.073743177870455, 35.333634573279468 ], [ 128.06967486912049, 35.33246489907178 ], [ 128.058897957686156, 35.333425186419689 ], [ 128.050390126369109, 35.321176353240226 ], [ 128.052325130091702, 35.318701265120438 ], [ 128.052328443333579, 35.312697933621649 ], [ 128.048660481928465, 35.308234279380194 ], [ 128.04112273627706, 35.303725389551929 ], [ 128.034575741363085, 35.307832089783268 ], [ 128.033691329409947, 35.315027724221714 ], [ 128.029876505921806, 35.317975526886201 ], [ 128.02923498902274, 35.321008496133743 ], [ 128.021966667913148, 35.324094115495342 ], [ 128.015909239089211, 35.32152988447671 ], [ 128.012222419660674, 35.326224603529994 ], [ 128.008257924201445, 35.32699266959996 ], [ 128.012144412379058, 35.331189870184936 ], [ 128.013080263575716, 35.33738511222392 ], [ 128.01497804460422, 35.339417087824621 ], [ 128.012766968197838, 35.340208255790152 ], [ 128.012881381676692, 35.343788743181413 ], [ 128.015569563724853, 35.346799467671261 ], [ 128.015571515379975, 35.352020524433193 ], [ 128.017381925340118, 35.355781640135191 ], [ 128.027119229799894, 35.362295110360776 ], [ 128.031560490751048, 35.374382526975488 ], [ 128.035641119355745, 35.374654770226776 ], [ 128.040198274219136, 35.372387949039592 ], [ 128.040599096731228, 35.370719201816215 ], [ 128.048669497217531, 35.369810842121289 ], [ 128.050322815916417, 35.374707247634326 ], [ 128.049353644120544, 35.37773551233132 ], [ 128.052126510480292, 35.379723213889939 ], [ 128.051992369162321, 35.381986038723213 ], [ 128.057059450852478, 35.386546255253045 ], [ 128.059762273680832, 35.386591862777685 ], [ 128.057746770244449, 35.390340188656225 ], [ 128.066204560733468, 35.396342847903284 ], [ 128.070749478473886, 35.393353026436259 ] ] ] ] } },
{ "type": "Feature", "properties": { "emd_cd": "48860400", "emd_nm": "신등면" }, "geometry": { "type": "MultiPolygon", "coordinates": [ [ [ [ 127.979253341844014, 35.451001907514993 ], [ 127.986326367066297, 35.451035944517741 ], [ 127.986715506625075, 35.445611926496035 ], [ 127.995594718643105, 35.438701123783488 ], [ 127.996427722250246, 35.436298286531773 ], [ 127.999905213913252, 35.435994360356446 ], [ 128.00177942759646, 35.437979391034801 ], [ 128.007904982490004, 35.435862962402879 ], [ 128.008110900073859, 35.431626406674276 ], [ 128.01158394272548, 35.426246242706085 ], [ 128.018784314150622, 35.425173277213062 ], [ 128.023135758611204, 35.426372826345528 ], [ 128.025848587835355, 35.421015891825114 ], [ 128.031268990498802, 35.416284939924935 ], [ 128.03613724607024, 35.415952572418838 ], [ 128.041547845034927, 35.419343870602923 ], [ 128.045272415164874, 35.415783476335335 ], [ 128.052724267201853, 35.417900201183336 ], [ 128.059244048448193, 35.405398133428641 ], [ 128.066108496326223, 35.402281917201485 ], [ 128.064887954777561, 35.398770734231107 ], [ 128.066204560733468, 35.396342847903284 ], [ 128.057746770244449, 35.390340188656225 ], [ 128.059762273680832, 35.386591862777685 ], [ 128.057059450852478, 35.386546255253045 ], [ 128.049486908317704, 35.378177196317189 ], [ 128.050322815916417, 35.374707247634326 ], [ 128.048812299709056, 35.369910538026659 ], [ 128.040599096731228, 35.370719201816215 ], [ 128.038972497735273, 35.373341987133742 ], [ 128.033963559070202, 35.37500010036463 ], [ 128.031560490751048, 35.374382526975488 ], [ 128.029764605450538, 35.371653083186153 ], [ 128.023273591769765, 35.373596344979156 ], [ 128.020699822447995, 35.372017129449539 ], [ 128.016172465373018, 35.375300473048434 ], [ 128.009028412250302, 35.376521865493025 ], [ 128.006319975438458, 35.381252151947699 ], [ 128.003464247946908, 35.381096451961731 ], [ 127.999231494473122, 35.383868952502709 ], [ 127.990308480670819, 35.383013628969572 ], [ 127.984759552376843, 35.378114527682769 ], [ 127.98157684895979, 35.378231803435249 ], [ 127.973228495829659, 35.382517262140766 ], [ 127.969731429417507, 35.389103775044752 ], [ 127.964139947314408, 35.391248797340985 ], [ 127.956990202931692, 35.388637748636846 ], [ 127.945424504632356, 35.388965283354516 ], [ 127.94677921221205, 35.397295025170116 ], [ 127.950400663735664, 35.399644174690643 ], [ 127.949722072059515, 35.40416571356527 ], [ 127.957307764391402, 35.411778177257119 ], [ 127.94120990609359, 35.418271450563225 ], [ 127.941524477970802, 35.426459996121523 ], [ 127.945038233759476, 35.428821480883677 ], [ 127.950505921319362, 35.426539265526685 ], [ 127.965785485841593, 35.427151598409502 ], [ 127.967594405600678, 35.431491308880204 ], [ 127.970398775456857, 35.432681876919638 ], [ 127.964046586298664, 35.443123333413602 ], [ 127.963463677680636, 35.447575384732687 ], [ 127.973323346470352, 35.44707610949466 ], [ 127.977711535498685, 35.448762487031338 ], [ 127.979253341844014, 35.451001907514993 ] ], [ [ 128.002956315183553, 35.411953320650483 ], [ 128.002956370000703, 35.41195330217051 ], [ 128.002987402984814, 35.411978956380885 ], [ 128.002956315183553, 35.411953320650483 ] ], [ [ 128.01211100108236, 35.417543931396359 ], [ 128.012081267326806, 35.417430521134847 ], [ 128.012111034671364, 35.417543976178735 ], [ 128.01211100108236, 35.417543931396359 ] ], [ [ 127.995767290246391, 35.411128300615786 ], [ 127.99562536260855, 35.411070129208532 ], [ 127.995767289692893, 35.411128255556747 ], [ 127.995767290246391, 35.411128300615786 ] ], [ [ 127.976942476508029, 35.397012379268787 ], [ 127.977084038767785, 35.396885300811 ], [ 127.976942520858017, 35.397012405948921 ], [ 127.976942476508029, 35.397012379268787 ] ] ] ] } }
]
}
