{
"type": "FeatureCollection",
"name": "48890",
"crs": { "type": "name", "properties": { "name": "urn:ogc:def:crs:OGC:1.3:CRS84" } },
"features": [
{ "type": "Feature", "properties": { "emd_cd": "48890250", "emd_nm": "합천읍" }, "geometry": { "type": "MultiPolygon", "coordinates": [ [ [ [ 128.172687045112184, 35.56331376754266 ], [ 128.163806625758269, 35.559003391739971 ], [ 128.152582648330849, 35.560138523907739 ], [ 128.140614669257843, 35.566181622304526 ], [ 128.13526330876519, 35.571044560297487 ], [ 128.13638807667823, 35.571911708118634 ], [ 128.13478750017984, 35.575786251467648 ], [ 128.128781350188348, 35.580563830398994 ], [ 128.131040905792275, 35.585400506550762 ], [ 128.118643731528294, 35.591806531400124 ], [ 128.113366463736469, 35.596975451533915 ], [ 128.092236028017879, 35.592939960940051 ], [ 128.084910803213347, 35.593362951373003 ], [ 128.087413898822604, 35.600695448045443 ], [ 128.078508837045888, 35.609367996900822 ], [ 128.076810525974111, 35.613470880960421 ], [ 128.077178139277265, 35.617858048632712 ], [ 128.081103441179039, 35.619254677166353 ], [ 128.085600716715163, 35.623789536308223 ], [ 128.090172982475764, 35.624149557813922 ], [ 128.097643267106378, 35.619385807216865 ], [ 128.103663185294693, 35.622380830448741 ], [ 128.106710353357755, 35.622010959481166 ], [ 128.111925492508249, 35.629263069903971 ], [ 128.115792889944743, 35.631587775518909 ], [ 128.123763271019072, 35.63109958241283 ], [ 128.127416619837277, 35.635389000927859 ], [ 128.132027412520216, 35.637225560356171 ], [ 128.132992592057434, 35.640342283377151 ], [ 128.14055710900081, 35.643197271409221 ], [ 128.145204067785471, 35.650213353536181 ], [ 128.149538474841762, 35.65376680940615 ], [ 128.157649810180629, 35.657755564534348 ], [ 128.159402230366055, 35.655011928850485 ], [ 128.163690843568077, 35.653474375614046 ], [ 128.165478054584412, 35.647852071138921 ], [ 128.172574005085352, 35.638763917967097 ], [ 128.17682985874211, 35.636731584050658 ], [ 128.176731761041168, 35.6297529580362 ], [ 128.178346278725854, 35.626709450959126 ], [ 128.178333392912805, 35.621257726201577 ], [ 128.171650215931095, 35.621882614261011 ], [ 128.169643355793255, 35.615733175684475 ], [ 128.171262852629724, 35.605889693155248 ], [ 128.173559481187255, 35.603872166678613 ], [ 128.174386762047106, 35.595936438175279 ], [ 128.180836781359034, 35.593386416178625 ], [ 128.182432377181925, 35.590526135035631 ], [ 128.17153338383298, 35.583055823228591 ], [ 128.170269207999041, 35.578816144443671 ], [ 128.167693168095354, 35.576314893710851 ], [ 128.167769434170424, 35.574339586072192 ], [ 128.171340266898852, 35.572424793608334 ], [ 128.174116664166519, 35.566918644294908 ], [ 128.172687045112184, 35.56331376754266 ] ] ] ] } },
{ "type": "Feature", "properties": { "emd_cd": "48890310", "emd_nm": "봉산면" }, "geometry": { "type": "MultiPolygon", "coordinates": [ [ [ [ 128.066228288089377, 35.682649761803347 ], [ 128.072026919721253, 35.672704642898402 ], [ 128.060381859109867, 35.667644490538542 ], [ 128.059010299717841, 35.665685068189887 ], [ 128.059491922640859, 35.660769879095312 ], [ 128.062560127957283, 35.65774596103757 ], [ 128.065551799621375, 35.645374728291223 ], [ 128.067019192811159, 35.643912642998863 ], [ 128.073010028608081, 35.643582394968625 ], [ 128.080713354754437, 35.638166167745467 ], [ 128.085976867699344, 35.633169077582671 ], [ 128.086278810916383, 35.629353934323113 ], [ 128.089197386335684, 35.625277773861889 ], [ 128.089325042436968, 35.624120519742043 ], [ 128.085600716715163, 35.623789536308237 ], [ 128.076862589874509, 35.617204115451628 ], [ 128.078508837045888, 35.609367996900822 ], [ 128.087413898822604, 35.600695448045464 ], [ 128.084680434647453, 35.592779377887538 ], [ 128.080652983814304, 35.591459208685883 ], [ 128.072532592115095, 35.583571549726848 ], [ 128.060570432693595, 35.563568205056136 ], [ 128.051852945469079, 35.559950034578428 ], [ 128.048055137695144, 35.564808471312674 ], [ 128.042936602272704, 35.566791503648695 ], [ 128.041069574147286, 35.569302701561369 ], [ 128.037971107396714, 35.563897539167513 ], [ 128.040097521861895, 35.558931152455337 ], [ 128.02920223525885, 35.562090754951022 ], [ 128.027501804939874, 35.566734535856881 ], [ 128.024403967424092, 35.567646905469431 ], [ 128.02169579873015, 35.566086969471684 ], [ 128.021007461743295, 35.559098353126373 ], [ 128.019057719984517, 35.558863081616359 ], [ 128.016939138626583, 35.561953413827126 ], [ 128.01605228499804, 35.568754808534862 ], [ 128.010018723015833, 35.565930870042898 ], [ 127.997615976668058, 35.565441302357144 ], [ 127.985094863858109, 35.559069458054083 ], [ 127.982733950886541, 35.560901102128703 ], [ 127.974318082654179, 35.558049205367197 ], [ 127.974633941310984, 35.565262539816246 ], [ 127.979397921398785, 35.564401612158662 ], [ 127.981118791034305, 35.565779217007496 ], [ 127.979274398870245, 35.573957715933581 ], [ 127.98071251571065, 35.58007610130992 ], [ 127.98694234320989, 35.591475151146462 ], [ 127.987114794699266, 35.595994717085368 ], [ 127.985091883020985, 35.596659238864568 ], [ 127.982785861698957, 35.600966967324339 ], [ 127.984352832493528, 35.608870583198659 ], [ 128.000858925451666, 35.611047930512534 ], [ 127.998537845939552, 35.613876909484446 ], [ 127.99674983148968, 35.62312717489614 ], [ 128.001839078515644, 35.627909654153392 ], [ 128.000058757948239, 35.633327377282363 ], [ 128.003363041207962, 35.635542963823724 ], [ 128.003938421569416, 35.637893834825547 ], [ 128.017870268090064, 35.64336396285676 ], [ 128.020966092326518, 35.652671944025435 ], [ 128.024632288437289, 35.652652221471158 ], [ 128.044118209509975, 35.661135042908086 ], [ 128.04477153917432, 35.668504234818244 ], [ 128.046594828331223, 35.670551827259224 ], [ 128.044193864053483, 35.674809232621364 ], [ 128.047919803177649, 35.675170164421857 ], [ 128.050302135320123, 35.678400989206452 ], [ 128.054915779736547, 35.680223483022104 ], [ 128.066228288089377, 35.682649761803347 ] ] ] ] } },
{ "type": "Feature", "properties": { "emd_cd": "48890320", "emd_nm": "묘산면" }, "geometry": { "type": "MultiPolygon", "coordinates": [ [ [ [ 128.160094585097795, 35.667500035158511 ], [ 128.161219203575399, 35.660585458162387 ], [ 128.145204067785471, 35.650213353536216 ], [ 128.140557109000781, 35.643197271409221 ], [ 128.132992592057349, 35.640342283377102 ], [ 128.132027412520188, 35.637225560356171 ], [ 128.127416619837305, 35.635389000927823 ], [ 128.123763271019072, 35.631099582412844 ], [ 128.115383185367534, 35.631369877926105 ], [ 128.111037923804787, 35.628432762394389 ], [ 128.110884297337492, 35.626203928003072 ], [ 128.106710353357812, 35.622010959481166 ], [ 128.103663185294636, 35.622380830448677 ], [ 128.099154193144983, 35.619370509042469 ], [ 128.089325042436968, 35.624120519742043 ], [ 128.086278810916383, 35.629353934323113 ], [ 128.085976867699344, 35.633169077582671 ], [ 128.080713354754437, 35.638166167745467 ], [ 128.073010028608081, 35.643582394968625 ], [ 128.067019192811159, 35.643912642998863 ], [ 128.065551799621375, 35.645374728291223 ], [ 128.062560127957283, 35.65774596103757 ], [ 128.059491922640859, 35.660769879095312 ], [ 128.059010299717841, 35.665685068189887 ], [ 128.065315789318049, 35.670503729447717 ], [ 128.075201144628465, 35.67394779503767 ], [ 128.077838366816252, 35.681636508085383 ], [ 128.082601705837419, 35.684512083211871 ], [ 128.092847448964875, 35.684434317870867 ], [ 128.095205269666451, 35.690762078937247 ], [ 128.105558242313577, 35.69194099401502 ], [ 128.106110251116661, 35.694558234749486 ], [ 128.110619385627416, 35.696336964909129 ], [ 128.121571119990506, 35.695348968431347 ], [ 128.127237115161904, 35.70024122908071 ], [ 128.13257433811134, 35.696505451465704 ], [ 128.138925150155131, 35.695486551236385 ], [ 128.141243811445833, 35.692064950199381 ], [ 128.145923173246757, 35.692457666783142 ], [ 128.149133556362955, 35.68940176707315 ], [ 128.14883698460315, 35.687714342323531 ], [ 128.155808220485739, 35.685578887920862 ], [ 128.156338980264564, 35.68424813349872 ], [ 128.154231398120714, 35.682837338294604 ], [ 128.154889441784718, 35.680054859042649 ], [ 128.152904914095643, 35.680157807342347 ], [ 128.150816247786167, 35.677144807652731 ], [ 128.150923635024014, 35.674340152209034 ], [ 128.156690219843625, 35.67332209946165 ], [ 128.160094585097795, 35.667500035158511 ] ] ] ] } },
{ "type": "Feature", "properties": { "emd_cd": "48890330", "emd_nm": "가야면" }, "geometry": { "type": "MultiPolygon", "coordinates": [ [ [ [ 128.095205269666451, 35.690762078937247 ], [ 128.080242849662881, 35.695868764683247 ], [ 128.074327327607165, 35.701192001583259 ], [ 128.075619050188863, 35.706470312241628 ], [ 128.073933133150462, 35.717871394518127 ], [ 128.070591541612117, 35.721546756851666 ], [ 128.061685147965505, 35.723725321244501 ], [ 128.061456286681477, 35.727619824593816 ], [ 128.056161923152729, 35.740101549826079 ], [ 128.052645847203507, 35.743475187060668 ], [ 128.052340388369458, 35.746438157463238 ], [ 128.044241923991962, 35.752152960161048 ], [ 128.049065841262149, 35.756709713246138 ], [ 128.05106455577959, 35.761132935161235 ], [ 128.050472797713411, 35.766320823732237 ], [ 128.04869645753638, 35.76808679043377 ], [ 128.051668367206418, 35.775488690964551 ], [ 128.049030889761383, 35.778606167391054 ], [ 128.040758481423069, 35.779933366829241 ], [ 128.035007617029464, 35.786068575912019 ], [ 128.038063317728671, 35.791229785972092 ], [ 128.047899411148364, 35.795251703865588 ], [ 128.048118755059647, 35.798671506120463 ], [ 128.050024619273017, 35.800506596568574 ], [ 128.049177082659298, 35.801786529401305 ], [ 128.053531415084507, 35.805761148609939 ], [ 128.069012249211056, 35.806192568141462 ], [ 128.074440885994676, 35.813468386396941 ], [ 128.084703094446382, 35.817476934154847 ], [ 128.083865094311392, 35.822360958497221 ], [ 128.086625245316043, 35.826649356109264 ], [ 128.090122153953104, 35.830354206318646 ], [ 128.095882230149414, 35.832283128384944 ], [ 128.098836669259782, 35.829923973993779 ], [ 128.10355173648847, 35.829165534076274 ], [ 128.108617154435933, 35.824215288951606 ], [ 128.111964186197326, 35.823678265686411 ], [ 128.117103858502531, 35.826128631835729 ], [ 128.123088023152206, 35.82237653273372 ], [ 128.124521493457934, 35.819429910494314 ], [ 128.122508005491653, 35.814415836582157 ], [ 128.123957180618504, 35.812931439378275 ], [ 128.121880867348409, 35.811846216471864 ], [ 128.123355047474433, 35.805665831704481 ], [ 128.121891444695393, 35.803528983206277 ], [ 128.128746678071394, 35.794285477411307 ], [ 128.128650648359411, 35.789343139888814 ], [ 128.137567469462681, 35.784310647220487 ], [ 128.147979722704548, 35.784019710973205 ], [ 128.154494335218033, 35.786219528382802 ], [ 128.15475737833188, 35.784562569133897 ], [ 128.15876689443499, 35.783407571624906 ], [ 128.158056228251297, 35.781460655213706 ], [ 128.160390995459039, 35.778274754604837 ], [ 128.164093705828861, 35.776171028631886 ], [ 128.162164402469188, 35.769789269798814 ], [ 128.151216650537435, 35.765077999623564 ], [ 128.150602196635504, 35.762892789960951 ], [ 128.14698758669752, 35.761084096992676 ], [ 128.146153314788933, 35.754207935304883 ], [ 128.139173290587081, 35.751988269321004 ], [ 128.137984862489986, 35.752808185276159 ], [ 128.13463758848701, 35.747749401681823 ], [ 128.134585730813654, 35.741791187876331 ], [ 128.143679599886298, 35.737705881409276 ], [ 128.146296091350706, 35.731551002789523 ], [ 128.150218792363063, 35.730339111767719 ], [ 128.144588644847573, 35.722605604103542 ], [ 128.146232744586825, 35.719210763430837 ], [ 128.145141362308948, 35.715593235548063 ], [ 128.140626480789422, 35.714779517358274 ], [ 128.140750796701667, 35.712015369588443 ], [ 128.135861471629624, 35.707721247302892 ], [ 128.134955829770007, 35.703850071413193 ], [ 128.12704526140007, 35.703216557634505 ], [ 128.126814715905766, 35.699610257799947 ], [ 128.125448921676963, 35.699875645659951 ], [ 128.121571119990506, 35.695348968431347 ], [ 128.110619385627416, 35.696336964909129 ], [ 128.106110251116661, 35.694558234749486 ], [ 128.105558242313577, 35.69194099401502 ], [ 128.095205269666451, 35.690762078937247 ] ] ] ] } },
{ "type": "Feature", "properties": { "emd_cd": "48890340", "emd_nm": "야로면" }, "geometry": { "type": "MultiPolygon", "coordinates": [ [ [ [ 128.204561565272371, 35.684312669999912 ], [ 128.198772575736399, 35.684428966569094 ], [ 128.198056005012347, 35.682222421201487 ], [ 128.194842871150541, 35.681247516632709 ], [ 128.192730439560677, 35.68227582770637 ], [ 128.19131061053659, 35.678777156620505 ], [ 128.184138151530732, 35.680047404736641 ], [ 128.183861005485113, 35.676743515360059 ], [ 128.179164601803535, 35.672953088261345 ], [ 128.175432998388601, 35.674193420987493 ], [ 128.173192624375673, 35.672969314100762 ], [ 128.163918472762873, 35.673460862494622 ], [ 128.160094585097795, 35.667500035158511 ], [ 128.156690219843625, 35.67332209946165 ], [ 128.150923635024014, 35.674340152209034 ], [ 128.150816247786167, 35.677144807652731 ], [ 128.152904914095643, 35.680157807342347 ], [ 128.154889441784718, 35.680054859042649 ], [ 128.154231398120714, 35.682837338294604 ], [ 128.156338980264564, 35.68424813349872 ], [ 128.155808220485739, 35.685578887920862 ], [ 128.14883698460315, 35.687714342323531 ], [ 128.149133556362955, 35.68940176707315 ], [ 128.145923173246757, 35.692457666783142 ], [ 128.141243811445833, 35.692064950199381 ], [ 128.138688248080655, 35.695623680766182 ], [ 128.13257433811134, 35.696505451465704 ], [ 128.127542404192354, 35.699533476210682 ], [ 128.12704526140007, 35.703216557634505 ], [ 128.134955829770007, 35.703850071413193 ], [ 128.135861471629624, 35.707721247302892 ], [ 128.140750796701667, 35.712015369588443 ], [ 128.140626480789422, 35.714779517358274 ], [ 128.145250101689584, 35.715828953166138 ], [ 128.146232744586825, 35.719210763430837 ], [ 128.144588644847573, 35.722605604103542 ], [ 128.150218792363063, 35.730339111767719 ], [ 128.146296091350706, 35.731551002789523 ], [ 128.143679599886298, 35.737705881409276 ], [ 128.134585730813654, 35.741791187876331 ], [ 128.13463758848701, 35.747749401681823 ], [ 128.137984862489986, 35.752808185276159 ], [ 128.139173290587081, 35.751988269321004 ], [ 128.146153314788933, 35.754207935304883 ], [ 128.146820427381357, 35.760793226333327 ], [ 128.150602196635504, 35.762892789960951 ], [ 128.151216650537435, 35.765077999623564 ], [ 128.162164402469188, 35.769789269798814 ], [ 128.164205472342957, 35.766334543155168 ], [ 128.163550422968655, 35.763691973627928 ], [ 128.16540006702121, 35.764144763286353 ], [ 128.172325034679972, 35.759172094118348 ], [ 128.177258072876214, 35.758561243096565 ], [ 128.189391115904556, 35.75215716097285 ], [ 128.18860304516727, 35.749968186801468 ], [ 128.190920887519923, 35.747769990145457 ], [ 128.193681418720388, 35.73846680514265 ], [ 128.198496216992538, 35.736203981997129 ], [ 128.196440079717149, 35.730628068907045 ], [ 128.201924449397893, 35.723285369816203 ], [ 128.199764225832638, 35.72048670109551 ], [ 128.20201084402018, 35.720332555305959 ], [ 128.20252622950369, 35.713124610609867 ], [ 128.199870740965224, 35.707837760615867 ], [ 128.203779745053623, 35.700630167965556 ], [ 128.204390956661825, 35.696728037576342 ], [ 128.202168082656556, 35.691615218955022 ], [ 128.204561565272371, 35.684312669999912 ] ] ] ] } },
{ "type": "Feature", "properties": { "emd_cd": "48890350", "emd_nm": "율곡면" }, "geometry": { "type": "MultiPolygon", "coordinates": [ [ [ [ 128.163690843568077, 35.653474375614046 ], [ 128.172047787037229, 35.655089675790336 ], [ 128.176485274354746, 35.657724739266165 ], [ 128.183945705023916, 35.658392302505185 ], [ 128.196733152547978, 35.650998381082523 ], [ 128.201025485815592, 35.643632427360558 ], [ 128.210328947414723, 35.644525947531541 ], [ 128.211043927867991, 35.641229057985981 ], [ 128.219204799148741, 35.640258884418202 ], [ 128.22626788269713, 35.641812300994687 ], [ 128.230300605572239, 35.63900465472576 ], [ 128.23136283077497, 35.632090995498523 ], [ 128.236743300370591, 35.627360146548369 ], [ 128.237233780288705, 35.625109553232456 ], [ 128.233804122832396, 35.624017342429013 ], [ 128.24045427955437, 35.616952556656351 ], [ 128.243415361568537, 35.603171276474292 ], [ 128.245485537110454, 35.599843884670513 ], [ 128.261279992664271, 35.598223881281243 ], [ 128.268498044613835, 35.592962715222214 ], [ 128.268486944782978, 35.59058277390492 ], [ 128.257912284802984, 35.583593360049953 ], [ 128.26049512266664, 35.579112510372539 ], [ 128.25745867157849, 35.580863787935165 ], [ 128.252805368151769, 35.577314178906427 ], [ 128.262705714075651, 35.567390555425874 ], [ 128.257641330729712, 35.567112991776824 ], [ 128.251128372215305, 35.571446397807193 ], [ 128.240786354324513, 35.570143128157248 ], [ 128.239779489414161, 35.566054200432177 ], [ 128.236018296786426, 35.565924210540985 ], [ 128.234081864640046, 35.561284206238632 ], [ 128.223757267931944, 35.555621242526911 ], [ 128.223921399165334, 35.546880875854491 ], [ 128.218180663118943, 35.541526171051686 ], [ 128.217404202376088, 35.533675809411221 ], [ 128.212426932804107, 35.535340785647442 ], [ 128.202605179253624, 35.53367270800107 ], [ 128.192572343578036, 35.537406742120993 ], [ 128.191384038961218, 35.54171156051359 ], [ 128.181914577065839, 35.547805549557502 ], [ 128.177548204155357, 35.554039501667134 ], [ 128.175594602673527, 35.563812362085898 ], [ 128.173416820078131, 35.558817870348655 ], [ 128.169264855429589, 35.561354605720602 ], [ 128.172687045112184, 35.56331376754266 ], [ 128.174116664166519, 35.566918644294908 ], [ 128.171340266898852, 35.572424793608334 ], [ 128.167769434170424, 35.574339586072192 ], [ 128.167693168095354, 35.576314893710851 ], [ 128.170269207999041, 35.578816144443671 ], [ 128.17153338383298, 35.583055823228591 ], [ 128.182432377181925, 35.590526135035631 ], [ 128.180836781359034, 35.593386416178625 ], [ 128.174386762047106, 35.595936438175279 ], [ 128.173559481187255, 35.603872166678613 ], [ 128.171262852629724, 35.605889693155248 ], [ 128.169643355793255, 35.615733175684475 ], [ 128.171650215931095, 35.621882614261011 ], [ 128.178637859687285, 35.621997348121759 ], [ 128.17682985874211, 35.636731584050658 ], [ 128.172574005085352, 35.638763917967097 ], [ 128.165478054584412, 35.647852071138921 ], [ 128.163690843568077, 35.653474375614046 ] ] ] ] } },
{ "type": "Feature", "properties": { "emd_cd": "48890360", "emd_nm": "초계면" }, "geometry": { "type": "MultiPolygon", "coordinates": [ [ [ [ 128.273596418610936, 35.55314993205058 ], [ 128.267068270024993, 35.549200804009708 ], [ 128.263297417341676, 35.543899542215975 ], [ 128.258173203501656, 35.542754627320392 ], [ 128.255101000690786, 35.530729711688323 ], [ 128.254375959882424, 35.524916085431315 ], [ 128.256113044979315, 35.524367284011625 ], [ 128.25702713212263, 35.518905854291908 ], [ 128.266478519241929, 35.509904810414596 ], [ 128.262268310657532, 35.505009618010902 ], [ 128.252713000628376, 35.504016198755068 ], [ 128.243804912822895, 35.506298356929754 ], [ 128.241921983814109, 35.508818122761298 ], [ 128.238940466575599, 35.509297369764546 ], [ 128.238667682825422, 35.512722224189062 ], [ 128.225275872327757, 35.523844264284868 ], [ 128.224380636242159, 35.527545281841711 ], [ 128.217404202376031, 35.533675809411278 ], [ 128.218180663118943, 35.541526171051686 ], [ 128.223921399165334, 35.546880875854491 ], [ 128.223757267931887, 35.555621242526968 ], [ 128.234081864640046, 35.561284206238632 ], [ 128.236018296786341, 35.565924210540985 ], [ 128.239779489414161, 35.566054200432127 ], [ 128.240786354324598, 35.570143128157198 ], [ 128.251128372215305, 35.571446397807222 ], [ 128.259254674013164, 35.566594277228759 ], [ 128.266033129553023, 35.568766903166001 ], [ 128.270816376272563, 35.567463233970344 ], [ 128.280352419722675, 35.560827973251882 ], [ 128.273596418610936, 35.55314993205058 ] ] ] ] } },
{ "type": "Feature", "properties": { "emd_cd": "48890370", "emd_nm": "쌍책면" }, "geometry": { "type": "MultiPolygon", "coordinates": [ [ [ [ 128.262705714075651, 35.567390555425874 ], [ 128.252805368151712, 35.577314178906434 ], [ 128.25745867157849, 35.580863787935165 ], [ 128.26049512266664, 35.579112510372497 ], [ 128.257912284803069, 35.583593360049889 ], [ 128.268486944782978, 35.590582773904963 ], [ 128.268498044613835, 35.592962715222185 ], [ 128.261279992664328, 35.598223881281278 ], [ 128.245485537110454, 35.599843884670456 ], [ 128.243415361568537, 35.603171276474292 ], [ 128.240454279554314, 35.616952556656351 ], [ 128.233804122832396, 35.624017342429013 ], [ 128.237233780288648, 35.625109553232484 ], [ 128.236743300370648, 35.627360146548348 ], [ 128.231362830774913, 35.632090995498508 ], [ 128.229711245469645, 35.639539642312741 ], [ 128.23574852157364, 35.641211445344133 ], [ 128.237370541968744, 35.644450658028731 ], [ 128.235833953166889, 35.651399629176325 ], [ 128.240372399539808, 35.652400108862679 ], [ 128.241999028669738, 35.655546383537569 ], [ 128.258550968804656, 35.647606159916592 ], [ 128.261264475982927, 35.642743746015611 ], [ 128.271048053183108, 35.6467441752798 ], [ 128.276733597240451, 35.647040721569418 ], [ 128.282272924572396, 35.637641541720186 ], [ 128.286813151323827, 35.633872650896897 ], [ 128.287550838185382, 35.630444905051618 ], [ 128.295405808576305, 35.624716475250004 ], [ 128.295938862216701, 35.622768399657268 ], [ 128.287625883851433, 35.620993669488854 ], [ 128.289124710531752, 35.615265656346914 ], [ 128.287520239437924, 35.612386301833702 ], [ 128.2902438410851, 35.608058438834732 ], [ 128.295703551739564, 35.608568623348049 ], [ 128.299250345272355, 35.606977745656302 ], [ 128.30217390035736, 35.597520740426774 ], [ 128.304775300842721, 35.595842495833665 ], [ 128.304116860607792, 35.59139395883448 ], [ 128.308716961976444, 35.5858879470915 ], [ 128.308197518022297, 35.581899095635634 ], [ 128.300298809606687, 35.578024626775516 ], [ 128.302568403734824, 35.57540742181066 ], [ 128.296881506525636, 35.574672399921091 ], [ 128.292513192902788, 35.571873103661837 ], [ 128.288570398997592, 35.564689113013259 ], [ 128.281812369330765, 35.560486723248381 ], [ 128.267992741884512, 35.5686403699804 ], [ 128.262705714075651, 35.567390555425874 ] ] ] ] } },
{ "type": "Feature", "properties": { "emd_cd": "48890380", "emd_nm": "덕곡면" }, "geometry": { "type": "MultiPolygon", "coordinates": [ [ [ [ 128.298961184618605, 35.621077345297635 ], [ 128.291556545446468, 35.628480671605296 ], [ 128.287550838185382, 35.630444905051618 ], [ 128.286813151323827, 35.633872650896897 ], [ 128.279108362624783, 35.642038814651464 ], [ 128.276687696775809, 35.647258396667695 ], [ 128.278497974110678, 35.651932339836321 ], [ 128.288228384652058, 35.652441460880901 ], [ 128.295840595290684, 35.650713810565627 ], [ 128.296781136323403, 35.65614176644592 ], [ 128.298101965398843, 35.656157806026485 ], [ 128.302379864438137, 35.654640749803725 ], [ 128.305817448345806, 35.655363816196115 ], [ 128.318026273378138, 35.651285017058939 ], [ 128.323892569259186, 35.646564559533459 ], [ 128.328804843999592, 35.64841642563772 ], [ 128.337731787949991, 35.644447328486685 ], [ 128.341675304738715, 35.644769744925298 ], [ 128.341764291537942, 35.646288363965233 ], [ 128.349167782311127, 35.646445686243979 ], [ 128.354757143185822, 35.641805117304088 ], [ 128.360137995990925, 35.633111408652518 ], [ 128.362767769488755, 35.625998662762022 ], [ 128.36423602093538, 35.614934284330573 ], [ 128.363799203223721, 35.612842193205402 ], [ 128.352387727793371, 35.607676156735486 ], [ 128.351668968835298, 35.604067207210697 ], [ 128.355758132220899, 35.592737812483634 ], [ 128.353801745826956, 35.59205031686885 ], [ 128.345438339832924, 35.600872312554891 ], [ 128.345238701462677, 35.608622768160295 ], [ 128.341048801803879, 35.61177313437431 ], [ 128.33659855655614, 35.6127628402323 ], [ 128.330367049045066, 35.611234248281043 ], [ 128.325933099955932, 35.613840729718277 ], [ 128.325425705568762, 35.616016703910844 ], [ 128.318311800498009, 35.618049725871295 ], [ 128.309698211965042, 35.617935942848526 ], [ 128.301944339429639, 35.621846517835799 ], [ 128.298961184618605, 35.621077345297635 ] ] ] ] } },
{ "type": "Feature", "properties": { "emd_cd": "48890390", "emd_nm": "청덕면" }, "geometry": { "type": "MultiPolygon", "coordinates": [ [ [ [ 128.355758132220899, 35.592737812483634 ], [ 128.359230333108826, 35.58129359608597 ], [ 128.358528372837611, 35.571658202729168 ], [ 128.357367001194376, 35.564441803903982 ], [ 128.350438360361125, 35.550839971060142 ], [ 128.351412155389085, 35.536833223246788 ], [ 128.367820853472381, 35.520659428596005 ], [ 128.374193176734366, 35.515554074058301 ], [ 128.379853399349741, 35.51362709841063 ], [ 128.375350017799207, 35.512288494572502 ], [ 128.369448525901106, 35.515021266255602 ], [ 128.37001356506147, 35.510430840602133 ], [ 128.372864156140821, 35.506841633272671 ], [ 128.372379186773799, 35.502259557974725 ], [ 128.364898880008951, 35.500182267145306 ], [ 128.359407960176043, 35.503194244822822 ], [ 128.353295723735187, 35.503024353289462 ], [ 128.349619317348555, 35.500602174263854 ], [ 128.340549511634805, 35.506269416018306 ], [ 128.338977887134433, 35.509579572363833 ], [ 128.330700054797347, 35.507569246167044 ], [ 128.321763989128016, 35.508245199005756 ], [ 128.317608303758874, 35.511480045516208 ], [ 128.31585926192156, 35.515744180332696 ], [ 128.30782721312471, 35.517078359122664 ], [ 128.303340102769965, 35.515355186236164 ], [ 128.292647517250288, 35.517383747888076 ], [ 128.297464977153879, 35.526452038980864 ], [ 128.302671147131036, 35.526588166891663 ], [ 128.306608445610806, 35.529474001594771 ], [ 128.308998192792416, 35.529440004037561 ], [ 128.30991351963101, 35.532554536987554 ], [ 128.313137509200601, 35.534180929994562 ], [ 128.315084631746629, 35.537496757603336 ], [ 128.309515695982014, 35.542945821973078 ], [ 128.308739141325589, 35.546641424252023 ], [ 128.303280317591572, 35.553892699922088 ], [ 128.29734605066443, 35.558672506465278 ], [ 128.30276438858499, 35.559497921003498 ], [ 128.306481404338257, 35.557594391157856 ], [ 128.308600028975718, 35.560132195166709 ], [ 128.312045895791101, 35.561010094538744 ], [ 128.313117684493164, 35.564233681983978 ], [ 128.319868757084521, 35.569378377860936 ], [ 128.313232006300979, 35.570383959697857 ], [ 128.300802052425894, 35.57680584507942 ], [ 128.300298809606687, 35.578024626775516 ], [ 128.308197518022297, 35.581899095635634 ], [ 128.308716961976444, 35.5858879470915 ], [ 128.304116860607792, 35.59139395883448 ], [ 128.304775300842721, 35.595842495833665 ], [ 128.30217390035736, 35.597520740426774 ], [ 128.299250345272355, 35.606977745656302 ], [ 128.295703551739564, 35.608568623348049 ], [ 128.2902438410851, 35.608058438834732 ], [ 128.28803643429174, 35.611496053071534 ], [ 128.289124710531752, 35.615265656346914 ], [ 128.287625883851433, 35.620993669488854 ], [ 128.293346552540328, 35.622701288190235 ], [ 128.298961184618605, 35.621077345297635 ], [ 128.301944339429639, 35.621846517835799 ], [ 128.309698211965042, 35.617935942848526 ], [ 128.318311800498009, 35.618049725871295 ], [ 128.325425705568762, 35.616016703910844 ], [ 128.325933099955932, 35.613840729718277 ], [ 128.330367049045066, 35.611234248281043 ], [ 128.339489554190237, 35.612420476042551 ], [ 128.345238701462677, 35.608622768160295 ], [ 128.345438339832924, 35.600872312554891 ], [ 128.348831274098075, 35.596170639201411 ], [ 128.353801745826956, 35.59205031686885 ], [ 128.355758132220899, 35.592737812483634 ] ] ] ] } },
{ "type": "Feature", "properties": { "emd_cd": "48890400", "emd_nm": "적중면" }, "geometry": { "type": "MultiPolygon", "coordinates": [ [ [ [ 128.266478519241929, 35.509904810414596 ], [ 128.258796148745773, 35.516140376498498 ], [ 128.256113044979315, 35.524367284011625 ], [ 128.254375959882424, 35.524916085431315 ], [ 128.258173203501656, 35.542754627320392 ], [ 128.263297417341676, 35.543899542215975 ], [ 128.267068270024993, 35.549200804009708 ], [ 128.278496667934121, 35.55766213090719 ], [ 128.279992738730897, 35.560707412545021 ], [ 128.286996305366273, 35.563049170346723 ], [ 128.290815375870181, 35.570120834523074 ], [ 128.296881506525636, 35.574672399921091 ], [ 128.302568403734824, 35.57540742181066 ], [ 128.316056879440339, 35.569355928911349 ], [ 128.319349219532256, 35.569856178257808 ], [ 128.316756909012753, 35.567493398382993 ], [ 128.317442082675626, 35.566562577731837 ], [ 128.313117684493164, 35.564233681983978 ], [ 128.312045895791101, 35.561010094538744 ], [ 128.308600028975718, 35.560132195166709 ], [ 128.306481404338257, 35.557594391157856 ], [ 128.30276438858499, 35.559497921003498 ], [ 128.29734605066443, 35.558672506465278 ], [ 128.303280317591572, 35.553892699922088 ], [ 128.308739141325589, 35.546641424252023 ], [ 128.309515695982014, 35.542945821973078 ], [ 128.314995087352202, 35.537761782181278 ], [ 128.313137509200601, 35.534180929994562 ], [ 128.30991351963101, 35.532554536987554 ], [ 128.308998192792416, 35.529440004037561 ], [ 128.306608445610806, 35.529474001594771 ], [ 128.302671147131036, 35.526588166891663 ], [ 128.297464977153879, 35.526452038980864 ], [ 128.293330804197183, 35.517976556987577 ], [ 128.289432831359619, 35.515026188110774 ], [ 128.290241322550941, 35.512323136811865 ], [ 128.281668610749279, 35.510242370620276 ], [ 128.272494380806876, 35.509937596358505 ], [ 128.269301210214763, 35.511207853892387 ], [ 128.266478519241929, 35.509904810414596 ] ] ] ] } },
{ "type": "Feature", "properties": { "emd_cd": "48890410", "emd_nm": "대양면" }, "geometry": { "type": "MultiPolygon", "coordinates": [ [ [ [ 128.161072572340885, 35.559105415094173 ], [ 128.165774374106803, 35.559266714249624 ], [ 128.169264855429617, 35.561354605720553 ], [ 128.172392601602525, 35.558445811133197 ], [ 128.175594602673613, 35.563812362085912 ], [ 128.177548204155357, 35.554039501667134 ], [ 128.181914577065896, 35.547805549557474 ], [ 128.191384038961218, 35.541711560513555 ], [ 128.192572343578036, 35.537406742120993 ], [ 128.20260517925368, 35.533672708001049 ], [ 128.212426932804192, 35.535340785647456 ], [ 128.218856093781824, 35.532859485372263 ], [ 128.224736086870251, 35.527077377420291 ], [ 128.225275872327757, 35.523844264284868 ], [ 128.238667682825422, 35.512722224189062 ], [ 128.238940466575599, 35.509297369764546 ], [ 128.241921983814109, 35.508818122761298 ], [ 128.243804912822895, 35.506298356929754 ], [ 128.252713000628376, 35.504016198755068 ], [ 128.262268310657532, 35.505009618010902 ], [ 128.260843674797201, 35.502089174995831 ], [ 128.261925769040062, 35.49719323225213 ], [ 128.255091500654913, 35.494171522809204 ], [ 128.252284853479097, 35.495121662410341 ], [ 128.248846131533952, 35.493222052029012 ], [ 128.246477636830917, 35.494698692832998 ], [ 128.237856807040117, 35.494687022766385 ], [ 128.230004865756626, 35.490381658294559 ], [ 128.226804608846095, 35.491121447859776 ], [ 128.227623074617838, 35.488523969904485 ], [ 128.224314106019818, 35.488869787162258 ], [ 128.21718599981233, 35.484360317600817 ], [ 128.210804016539953, 35.484264579303378 ], [ 128.206017435813408, 35.478214002585787 ], [ 128.202081878074949, 35.477832815179546 ], [ 128.194763151066951, 35.481251008202683 ], [ 128.181971155414573, 35.477874038718092 ], [ 128.174702386006203, 35.480988357640264 ], [ 128.172093275032495, 35.47924222349674 ], [ 128.162711150544311, 35.479602732349832 ], [ 128.157733140816561, 35.483453066698324 ], [ 128.156138987524884, 35.488873886487312 ], [ 128.152950751041288, 35.487350296210991 ], [ 128.150634224138429, 35.489335451198691 ], [ 128.146507875684904, 35.489598993164286 ], [ 128.145177149908676, 35.487189586566359 ], [ 128.142194360620863, 35.486461931214663 ], [ 128.133314983631976, 35.49211281832121 ], [ 128.127750251787688, 35.493138028252851 ], [ 128.128866319169845, 35.49761322224483 ], [ 128.125012013790666, 35.502862271284577 ], [ 128.12597914521757, 35.504340037112136 ], [ 128.124863593172648, 35.507605415273822 ], [ 128.133526318705776, 35.507511117771344 ], [ 128.134969077644826, 35.510538863408691 ], [ 128.143802153714262, 35.512783810055581 ], [ 128.145588152663919, 35.51506388771233 ], [ 128.150848665778852, 35.515057536523791 ], [ 128.152344077836887, 35.524902179177573 ], [ 128.15546650050149, 35.529352064184025 ], [ 128.154024059905197, 35.532520327687685 ], [ 128.155412728925285, 35.535498154485012 ], [ 128.159427205292047, 35.53778709377923 ], [ 128.157014705111607, 35.539615702944978 ], [ 128.155597411334782, 35.546075827031288 ], [ 128.159254972195612, 35.548436856263699 ], [ 128.158442570741045, 35.554291739583498 ], [ 128.159301760929822, 35.556261002022332 ], [ 128.161657088570195, 35.556725150390854 ], [ 128.161072572340885, 35.559105415094173 ] ] ] ] } },
{ "type": "Feature", "properties": { "emd_cd": "48890420", "emd_nm": "쌍백면" }, "geometry": { "type": "MultiPolygon", "coordinates": [ [ [ [ 128.076730154132179, 35.469678664832131 ], [ 128.074018355162224, 35.474649950987519 ], [ 128.076817839884541, 35.480277500860318 ], [ 128.080422387955736, 35.481390082815125 ], [ 128.084804183303191, 35.478131479449878 ], [ 128.102448136115953, 35.476351948083312 ], [ 128.105423491377678, 35.478962776687098 ], [ 128.106079511301914, 35.485948135964406 ], [ 128.110512862340045, 35.486693339412867 ], [ 128.111236737772828, 35.491448840989783 ], [ 128.12005675795865, 35.494400588991887 ], [ 128.122850006973039, 35.492602152546745 ], [ 128.127160200831952, 35.493854049572263 ], [ 128.133314983631976, 35.49211281832121 ], [ 128.142194360620863, 35.486461931214663 ], [ 128.145177149908676, 35.487189586566359 ], [ 128.146507875684904, 35.489598993164286 ], [ 128.150634224138429, 35.489335451198691 ], [ 128.152950751041288, 35.487350296210991 ], [ 128.156138987524884, 35.488873886487312 ], [ 128.157733140816561, 35.483453066698324 ], [ 128.162711150544311, 35.479602732349832 ], [ 128.172093275032495, 35.47924222349674 ], [ 128.174702386006203, 35.480988357640264 ], [ 128.181971155414573, 35.477874038718092 ], [ 128.194763151066951, 35.481251008202683 ], [ 128.201652816217063, 35.477920343732066 ], [ 128.200715237402335, 35.475367294643128 ], [ 128.206370957351623, 35.468780732492014 ], [ 128.214995795809102, 35.464669480721447 ], [ 128.216285159693797, 35.461719039816522 ], [ 128.210643609098668, 35.462106247635219 ], [ 128.207768298905279, 35.4601349674817 ], [ 128.208314078613284, 35.453044124117511 ], [ 128.207126520330348, 35.448399307584324 ], [ 128.203003490521155, 35.4426425372422 ], [ 128.203255294108203, 35.436578317982232 ], [ 128.20017178373908, 35.432228972006165 ], [ 128.193042211332937, 35.426796844542515 ], [ 128.192538956631068, 35.424679104624133 ], [ 128.185214239223825, 35.419154458379914 ], [ 128.190890747266451, 35.411564559893762 ], [ 128.189900600956122, 35.398982383798796 ], [ 128.176798829745053, 35.395682907036033 ], [ 128.168308608978776, 35.406971270233363 ], [ 128.160084443708882, 35.408945257493265 ], [ 128.159718614784708, 35.411738611884978 ], [ 128.157011766659537, 35.413715512981028 ], [ 128.163663173582876, 35.41671322457875 ], [ 128.164310930951814, 35.418228277590764 ], [ 128.162570590932887, 35.419764535693659 ], [ 128.167628468054687, 35.422441540486105 ], [ 128.168178783192957, 35.425467640192259 ], [ 128.170995123620173, 35.426052280092939 ], [ 128.17027733999322, 35.427900443594147 ], [ 128.161984538325214, 35.429043616263989 ], [ 128.158537673679831, 35.433004010664213 ], [ 128.152458770419543, 35.434274256910598 ], [ 128.14065476088885, 35.430400785095983 ], [ 128.138221986470512, 35.427482295833357 ], [ 128.134663035791732, 35.427895834783257 ], [ 128.130694964688047, 35.434544994695869 ], [ 128.127187034357917, 35.43540622621471 ], [ 128.126135177211637, 35.439362130682078 ], [ 128.120414693988494, 35.440430358180642 ], [ 128.117002498122503, 35.446336155115993 ], [ 128.113539020888368, 35.447006265825934 ], [ 128.110162295187308, 35.453648423722072 ], [ 128.105393765518869, 35.456509692310846 ], [ 128.103530502979652, 35.461747441064368 ], [ 128.095745183994666, 35.460113898445805 ], [ 128.089159044938611, 35.46736536806727 ], [ 128.084208857347022, 35.469739975808878 ], [ 128.076730154132179, 35.469678664832131 ] ] ] ] } },
{ "type": "Feature", "properties": { "emd_cd": "48890430", "emd_nm": "삼가면" }, "geometry": { "type": "MultiPolygon", "coordinates": [ [ [ [ 128.176798829745053, 35.395682907036033 ], [ 128.167035696514489, 35.394021048043065 ], [ 128.161413968871869, 35.391045855630956 ], [ 128.156751481521923, 35.391153163504086 ], [ 128.147656268717469, 35.385774032288147 ], [ 128.128745605607975, 35.387683639234723 ], [ 128.125365623095774, 35.38461434539721 ], [ 128.126590944604544, 35.383861682191721 ], [ 128.126057263110368, 35.379835744496603 ], [ 128.130045241487323, 35.373229534833278 ], [ 128.127638476205107, 35.37229089451948 ], [ 128.124118176551121, 35.374283325544702 ], [ 128.121939464194298, 35.378124590447662 ], [ 128.116306406286867, 35.378658414867878 ], [ 128.112407857320051, 35.382321251946053 ], [ 128.107038407161753, 35.377085840338857 ], [ 128.104518827110951, 35.376654501477041 ], [ 128.103046988865714, 35.372891541968293 ], [ 128.098930625389073, 35.371136158517295 ], [ 128.097881827614771, 35.368279833510563 ], [ 128.099080117138982, 35.368190474894575 ], [ 128.089315068570698, 35.368125789061232 ], [ 128.080276561454383, 35.370224377060993 ], [ 128.086816327236846, 35.375334467944299 ], [ 128.089255462881283, 35.38116952256722 ], [ 128.084796898772368, 35.383417062594432 ], [ 128.080700156706087, 35.389054832887233 ], [ 128.072150564510622, 35.389698085954095 ], [ 128.071968030300468, 35.392477727580903 ], [ 128.064882148928604, 35.398742467737812 ], [ 128.066035632221912, 35.402220580590679 ], [ 128.059191057209119, 35.405342224800954 ], [ 128.054475833161348, 35.416323273194351 ], [ 128.052175153713165, 35.417997987104393 ], [ 128.053630264123939, 35.423004514971147 ], [ 128.064084171476111, 35.424627155037108 ], [ 128.068139389971833, 35.419530322213312 ], [ 128.084445025957478, 35.417002382916046 ], [ 128.083790769081475, 35.420482528054968 ], [ 128.086421398678169, 35.424775578954076 ], [ 128.082181992821177, 35.432451771249674 ], [ 128.083809706782375, 35.436036140497684 ], [ 128.089097599903852, 35.437826172586256 ], [ 128.088614217509246, 35.44713455110444 ], [ 128.080641192907564, 35.452255304837493 ], [ 128.077805536705114, 35.456846938127633 ], [ 128.074275247162461, 35.456805490695281 ], [ 128.073362607566963, 35.460669355067878 ], [ 128.074600600556579, 35.467708504354093 ], [ 128.076730154132179, 35.469678664832131 ], [ 128.084208857347022, 35.469739975808878 ], [ 128.089159044938611, 35.46736536806727 ], [ 128.095745183994666, 35.460113898445805 ], [ 128.103530502979652, 35.461747441064368 ], [ 128.105393765518869, 35.456509692310846 ], [ 128.110162295187308, 35.453648423722072 ], [ 128.113539020888368, 35.447006265825934 ], [ 128.117002498122503, 35.446336155115993 ], [ 128.120414693988494, 35.440430358180642 ], [ 128.126135177211637, 35.439362130682078 ], [ 128.127187034357917, 35.43540622621471 ], [ 128.130694964688047, 35.434544994695869 ], [ 128.134663035791732, 35.427895834783257 ], [ 128.138221986470512, 35.427482295833357 ], [ 128.14065476088885, 35.430400785095983 ], [ 128.152458770419543, 35.434274256910598 ], [ 128.158537673679831, 35.433004010664213 ], [ 128.161984538325214, 35.429043616263989 ], [ 128.17027733999322, 35.427900443594147 ], [ 128.170995123620173, 35.426052280092939 ], [ 128.168178783192957, 35.425467640192259 ], [ 128.167628468054687, 35.422441540486105 ], [ 128.162570590932887, 35.419764535693659 ], [ 128.164310930951814, 35.418228277590764 ], [ 128.163663173582876, 35.41671322457875 ], [ 128.157011766659537, 35.413715512981028 ], [ 128.159718614784708, 35.411738611884978 ], [ 128.160084443708882, 35.408945257493265 ], [ 128.168308608978776, 35.406971270233363 ], [ 128.176798829745053, 35.395682907036033 ] ] ] ] } },
{ "type": "Feature", "properties": { "emd_cd": "48890440", "emd_nm": "가회면" }, "geometry": { "type": "MultiPolygon", "coordinates": [ [ [ [ 128.076730154132179, 35.469678664832131 ], [ 128.074326586011381, 35.466855466084091 ], [ 128.074275247162461, 35.456805490695281 ], [ 128.077805536705114, 35.456846938127633 ], [ 128.080641192907564, 35.452255304837493 ], [ 128.087666748105818, 35.448333738518812 ], [ 128.089510410809396, 35.44233128590065 ], [ 128.089097599903852, 35.437826172586256 ], [ 128.083809706782375, 35.436036140497684 ], [ 128.082181992821177, 35.432451771249674 ], [ 128.086421398678169, 35.424775578954076 ], [ 128.083790769081475, 35.420482528054968 ], [ 128.084315467604085, 35.416841485399488 ], [ 128.068139389971833, 35.419530322213312 ], [ 128.064084171476111, 35.424627155037108 ], [ 128.053630264123939, 35.423004514971147 ], [ 128.051902535103295, 35.417643184081996 ], [ 128.047640633470024, 35.416232425699604 ], [ 128.045246421273902, 35.415780395282169 ], [ 128.041577183214798, 35.419308970217209 ], [ 128.036176951245409, 35.415949782234996 ], [ 128.031301892454053, 35.416270148612973 ], [ 128.025855275844833, 35.420980848360998 ], [ 128.023100341699234, 35.426335710832134 ], [ 128.018772757857107, 35.425138555038529 ], [ 128.011653261214803, 35.42618412489707 ], [ 128.008155848918648, 35.431592370718569 ], [ 128.007497777447071, 35.436099978029439 ], [ 128.001787683090242, 35.437971060771517 ], [ 127.999918642895381, 35.435977974385253 ], [ 127.99633864311042, 35.436359024300565 ], [ 127.995616823372274, 35.438720074556606 ], [ 127.98672588699651, 35.445678653696504 ], [ 127.986353195881193, 35.451075232080314 ], [ 127.981691129919454, 35.451559025570262 ], [ 127.984256044634549, 35.453406373026652 ], [ 127.984867494738367, 35.456512654657672 ], [ 127.978472293093446, 35.461949047515098 ], [ 127.979223066583927, 35.467338878425366 ], [ 127.974336615806834, 35.475266807094954 ], [ 127.976528950568962, 35.48700568823287 ], [ 127.97455623397606, 35.494931175792068 ], [ 127.982776384808759, 35.500694926041596 ], [ 127.986649893798699, 35.501003127883983 ], [ 127.994667859821902, 35.495917826146737 ], [ 127.999877412082157, 35.494981108505527 ], [ 128.008224773224413, 35.499107652667917 ], [ 128.018796251966876, 35.497608392597286 ], [ 128.01964103948913, 35.499273607051414 ], [ 128.023513315075434, 35.500386351620058 ], [ 128.028085507619153, 35.498517770283478 ], [ 128.031357950923564, 35.49011198986544 ], [ 128.039565671406649, 35.487681141653731 ], [ 128.048891434331011, 35.494366962805607 ], [ 128.05295326606489, 35.491940266853291 ], [ 128.057149686086746, 35.493116740708125 ], [ 128.061692694603835, 35.491748983811341 ], [ 128.064623335132268, 35.493700263595933 ], [ 128.074567865390748, 35.493972818129471 ], [ 128.075227592786007, 35.487936461458112 ], [ 128.079381884548496, 35.481140732620283 ], [ 128.07441428530322, 35.477059478822504 ], [ 128.074018355162224, 35.474649950987519 ], [ 128.076730154132179, 35.469678664832131 ] ] ] ] } },
{ "type": "Feature", "properties": { "emd_cd": "48890450", "emd_nm": "대병면" }, "geometry": { "type": "MultiPolygon", "coordinates": [ [ [ [ 128.020474795087409, 35.560977104293116 ], [ 128.025018184618744, 35.562048100100647 ], [ 128.02769613059769, 35.560570706367919 ], [ 128.026857264317982, 35.558857614710405 ], [ 128.029250727794107, 35.556557411265075 ], [ 128.027273127311901, 35.550356870296781 ], [ 128.029686967846033, 35.547688051424373 ], [ 128.035428712926006, 35.545130821550295 ], [ 128.042862476729681, 35.549836484257504 ], [ 128.050998860094353, 35.551073154686989 ], [ 128.048805214602282, 35.547360894152916 ], [ 128.055588772403269, 35.5448980313164 ], [ 128.061979908281387, 35.533540362058787 ], [ 128.069119353933075, 35.532459528234149 ], [ 128.070839338942335, 35.534500754559424 ], [ 128.07508524062635, 35.53083776162682 ], [ 128.070257464401493, 35.528058094339833 ], [ 128.061720842465832, 35.516198718752193 ], [ 128.061035321996002, 35.512838853435184 ], [ 128.06314969262408, 35.511204953180986 ], [ 128.061170765888193, 35.5086160625292 ], [ 128.061318047778713, 35.505824359213925 ], [ 128.05569562993378, 35.498881427122164 ], [ 128.039565671406649, 35.487681141653731 ], [ 128.031357950923564, 35.49011198986544 ], [ 128.028085507619153, 35.498517770283478 ], [ 128.023513315075434, 35.500386351620058 ], [ 128.01964103948913, 35.499273607051414 ], [ 128.018796251966876, 35.497608392597286 ], [ 128.008224773224413, 35.499107652667917 ], [ 127.999877412082157, 35.494981108505527 ], [ 127.994667859821902, 35.495917826146737 ], [ 127.986649893798699, 35.501003127883983 ], [ 127.982776384808759, 35.500694926041596 ], [ 127.97455623397606, 35.494931175792068 ], [ 127.962609626635796, 35.500022349104718 ], [ 127.962958800298296, 35.504131093129253 ], [ 127.960117793819563, 35.512285976739946 ], [ 127.960964246841115, 35.516638571488265 ], [ 127.95968873888809, 35.518017428774975 ], [ 127.961154009655843, 35.523407024118306 ], [ 127.953473734082962, 35.529827098664036 ], [ 127.955324182626313, 35.549968195595376 ], [ 127.960416126279853, 35.550782606216387 ], [ 127.966123735948329, 35.555375334497711 ], [ 127.969805160136801, 35.555081269200301 ], [ 127.980758897066622, 35.560450816267029 ], [ 127.982733950886541, 35.560901102128703 ], [ 127.985094863858109, 35.559069458054083 ], [ 127.997615976668058, 35.565441302357144 ], [ 128.010018723015833, 35.565930870042898 ], [ 128.01605228499804, 35.568754808534862 ], [ 128.018074008684607, 35.559656905675801 ], [ 128.021007461743295, 35.559098353126373 ], [ 128.020474795087409, 35.560977104293116 ] ] ] ] } },
{ "type": "Feature", "properties": { "emd_cd": "48890460", "emd_nm": "용주면" }, "geometry": { "type": "MultiPolygon", "coordinates": [ [ [ [ 128.04933543377976, 35.494126278755104 ], [ 128.060542503210314, 35.504262453866595 ], [ 128.06314969262408, 35.511204953180986 ], [ 128.061035321996002, 35.512838853435184 ], [ 128.061720842465832, 35.516198718752193 ], [ 128.070257464401493, 35.528058094339833 ], [ 128.07508524062635, 35.53083776162682 ], [ 128.070839338942335, 35.534500754559424 ], [ 128.069119353933075, 35.532459528234149 ], [ 128.061979908281387, 35.533540362058787 ], [ 128.055588772403269, 35.5448980313164 ], [ 128.048805214602282, 35.547360894152916 ], [ 128.050998860094353, 35.551073154686989 ], [ 128.042862476729681, 35.549836484257504 ], [ 128.035428712926006, 35.545130821550295 ], [ 128.029686967846033, 35.547688051424373 ], [ 128.027273127311901, 35.550356870296781 ], [ 128.029250727794107, 35.556557411265075 ], [ 128.026857264317982, 35.558857614710405 ], [ 128.02769613059769, 35.560570706367919 ], [ 128.025018184618744, 35.562048100100647 ], [ 128.020474795087409, 35.560977104293116 ], [ 128.022314445790158, 35.566899849650135 ], [ 128.026437826028797, 35.567486023613505 ], [ 128.02920223525885, 35.562090754951022 ], [ 128.040097521861895, 35.558931152455337 ], [ 128.037971107396714, 35.563897539167513 ], [ 128.041069574147286, 35.569302701561369 ], [ 128.042936602272704, 35.566791503648695 ], [ 128.048055137695144, 35.564808471312674 ], [ 128.051852945469079, 35.559950034578428 ], [ 128.060570432693595, 35.563568205056136 ], [ 128.072532592115095, 35.583571549726848 ], [ 128.080853673773959, 35.591605041260003 ], [ 128.084910803213347, 35.593362951373003 ], [ 128.104487259467732, 35.594680605376347 ], [ 128.110536774530289, 35.597300620615471 ], [ 128.116155620791318, 35.595448978771039 ], [ 128.118643731528294, 35.591806531400124 ], [ 128.131040905792219, 35.585400506550705 ], [ 128.128781350188405, 35.580563830398994 ], [ 128.134787500179897, 35.575786251467648 ], [ 128.136388076678145, 35.571911708118627 ], [ 128.13526330876519, 35.571044560297551 ], [ 128.140614669257843, 35.566181622304526 ], [ 128.15133120319976, 35.560428763451014 ], [ 128.161072572340885, 35.559105415094173 ], [ 128.161657088570195, 35.556725150390854 ], [ 128.159301760929822, 35.556261002022332 ], [ 128.158442570741045, 35.554291739583498 ], [ 128.159254972195612, 35.548436856263699 ], [ 128.155597411334782, 35.546075827031288 ], [ 128.157014705111607, 35.539615702944978 ], [ 128.159427205292047, 35.53778709377923 ], [ 128.155412728925285, 35.535498154485012 ], [ 128.154024059905197, 35.532520327687685 ], [ 128.15546650050149, 35.529352064184025 ], [ 128.152344077836887, 35.524902179177573 ], [ 128.150848665778852, 35.515057536523791 ], [ 128.145588152663919, 35.51506388771233 ], [ 128.143802153714262, 35.512783810055581 ], [ 128.134969077644826, 35.510538863408691 ], [ 128.133526318705776, 35.507511117771344 ], [ 128.124863593172648, 35.507605415273822 ], [ 128.12597914521757, 35.504340037112136 ], [ 128.125012013790666, 35.502862271284577 ], [ 128.128866319169845, 35.49761322224483 ], [ 128.127160200831952, 35.493854049572263 ], [ 128.122850006973039, 35.492602152546745 ], [ 128.12005675795865, 35.494400588991887 ], [ 128.111236737772828, 35.491448840989783 ], [ 128.110512862340045, 35.486693339412867 ], [ 128.106079511301914, 35.485948135964406 ], [ 128.105423491377678, 35.478962776687098 ], [ 128.102448136115953, 35.476351948083312 ], [ 128.084804183303191, 35.478131479449878 ], [ 128.079381884548496, 35.481140732620283 ], [ 128.075227592786007, 35.487936461458112 ], [ 128.074567865390748, 35.493972818129471 ], [ 128.064623335132268, 35.493700263595933 ], [ 128.061692694603835, 35.491748983811341 ], [ 128.057149686086746, 35.493116740708125 ], [ 128.05295326606489, 35.491940266853291 ], [ 128.04933543377976, 35.494126278755104 ] ] ] ] } }
]
}
