{
"type": "FeatureCollection",
"name": "41111",
"crs": { "type": "name", "properties": { "name": "urn:ogc:def:crs:OGC:1.3:CRS84" } },
"features": [
{ "type": "Feature", "properties": { "emd_cd": "41111129", "emd_nm": "파장동" }, "geometry": { "type": "MultiPolygon", "coordinates": [ [ [ [ 127.004875808519216, 37.339234698067749 ], [ 127.006982440112495, 37.334405302892762 ], [ 127.006486359792021, 37.332153673904799 ], [ 127.002197547002169, 37.329121476758573 ], [ 127.002301398399766, 37.327038206811451 ], [ 127.005398533207426, 37.324004437573102 ], [ 127.009113062315549, 37.323988372143404 ], [ 127.010750081942291, 37.319143618160801 ], [ 127.006960189525458, 37.317864413577283 ], [ 127.00239391953312, 37.312700506005029 ], [ 127.003158190051508, 37.310085156726316 ], [ 126.997189998017774, 37.302968892629728 ], [ 126.995927111684182, 37.305400545419857 ], [ 126.992243031843969, 37.306183172992185 ], [ 126.987994803829793, 37.309538283468427 ], [ 126.989585584933579, 37.311813243355836 ], [ 126.986859365998498, 37.324527252611752 ], [ 126.984511559976866, 37.328298135430089 ], [ 126.98967472359115, 37.33016574233605 ], [ 126.991642973514629, 37.334032408375151 ], [ 127.004875808519216, 37.339234698067749 ] ] ] ] } },
{ "type": "Feature", "properties": { "emd_cd": "41111130", "emd_nm": "정자동" }, "geometry": { "type": "MultiPolygon", "coordinates": [ [ [ [ 126.981732105768373, 37.294280194689136 ], [ 126.986217815254221, 37.296195088812652 ], [ 126.982271120979433, 37.304444221270515 ], [ 126.981899005903841, 37.309714121961456 ], [ 126.984623974140291, 37.310643754172773 ], [ 126.986338351447387, 37.313744800736167 ], [ 126.988425478338172, 37.308925993203339 ], [ 126.995951973585576, 37.305379904023646 ], [ 126.998757733468764, 37.297012702134225 ], [ 127.009366160947238, 37.295361534018767 ], [ 127.010939967817862, 37.293244538393083 ], [ 126.990491387969143, 37.286353288899591 ], [ 126.9883911332346, 37.289749097798257 ], [ 126.98654896416231, 37.288698015734298 ], [ 126.983552469930657, 37.290751859768065 ], [ 126.981732105768373, 37.294280194689136 ] ] ] ] } },
{ "type": "Feature", "properties": { "emd_cd": "41111131", "emd_nm": "이목동" }, "geometry": { "type": "MultiPolygon", "coordinates": [ [ [ [ 126.966649199796265, 37.323959189699458 ], [ 126.971331409623502, 37.331778788859388 ], [ 126.9815861872802, 37.326614320588519 ], [ 126.984511559976866, 37.328298135430089 ], [ 126.986859365998498, 37.324527252611752 ], [ 126.989585584933579, 37.311813243355836 ], [ 126.987734683137248, 37.310574994225668 ], [ 126.98616679363235, 37.313622509205359 ], [ 126.984623974140291, 37.310643754172773 ], [ 126.981899005903841, 37.309714121961456 ], [ 126.982356431790421, 37.306030460010184 ], [ 126.973034576238447, 37.305889348421339 ], [ 126.974673710854447, 37.308437335009089 ], [ 126.966649199796265, 37.323959189699458 ] ] ] ] } },
{ "type": "Feature", "properties": { "emd_cd": "41111132", "emd_nm": "율전동" }, "geometry": { "type": "MultiPolygon", "coordinates": [ [ [ [ 126.974571311874456, 37.308495148742573 ], [ 126.972930532738943, 37.306095875121329 ], [ 126.972930934989947, 37.300770127590908 ], [ 126.977173525798847, 37.29970452742635 ], [ 126.974645582454229, 37.297294483161899 ], [ 126.970667923506113, 37.296622120147518 ], [ 126.970065226566064, 37.29099580173164 ], [ 126.971611036819752, 37.290878293368685 ], [ 126.972595851673915, 37.287498779383746 ], [ 126.969633750028322, 37.286635227192008 ], [ 126.968038616762982, 37.294295063208089 ], [ 126.963563485577481, 37.298822172541144 ], [ 126.96389291308752, 37.300929010651537 ], [ 126.960349926929936, 37.302242451181925 ], [ 126.965421901790123, 37.306200352430245 ], [ 126.966833073892232, 37.31083552777141 ], [ 126.966409100376566, 37.317695418671157 ], [ 126.968544603543847, 37.318716923013746 ], [ 126.972110339698446, 37.314921953572714 ], [ 126.974571311874456, 37.308495148742573 ] ] ] ] } },
{ "type": "Feature", "properties": { "emd_cd": "41111133", "emd_nm": "천천동" }, "geometry": { "type": "MultiPolygon", "coordinates": [ [ [ [ 126.981674733343738, 37.306354690959388 ], [ 126.986217815254221, 37.296195088812652 ], [ 126.981732105768373, 37.294280194689136 ], [ 126.983552469930657, 37.290751859768065 ], [ 126.977337991545909, 37.288359327409417 ], [ 126.97839821695537, 37.286640542496862 ], [ 126.973964956436873, 37.285738030805007 ], [ 126.971611036819752, 37.290878293368685 ], [ 126.970065226566064, 37.29099580173164 ], [ 126.970442628711524, 37.295959984385398 ], [ 126.977173525798847, 37.29970452742635 ], [ 126.972930934989947, 37.300770127590908 ], [ 126.972982111098887, 37.305927359191116 ], [ 126.981674733343738, 37.306354690959388 ] ] ] ] } },
{ "type": "Feature", "properties": { "emd_cd": "41111134", "emd_nm": "영화동" }, "geometry": { "type": "MultiPolygon", "coordinates": [ [ [ [ 126.999536820090796, 37.289373753909821 ], [ 127.024745376616067, 37.297353394452266 ], [ 127.027483222646921, 37.298990654118981 ], [ 127.017581008121851, 37.287620434859782 ], [ 127.014759026821409, 37.289359684546035 ], [ 127.007169754888409, 37.285198795995278 ], [ 126.999536820090796, 37.289373753909821 ] ] ], [ [ [ 127.020283339059048, 37.296464220979082 ], [ 127.02027242185622, 37.296374290904147 ], [ 127.020204135374101, 37.296434941029169 ], [ 127.020283339059048, 37.296464220979082 ] ] ], [ [ [ 127.02030320165143, 37.296470056501505 ], [ 127.020868453270367, 37.29653041550678 ], [ 127.020312478125348, 37.296402270540305 ], [ 127.02030320165143, 37.296470056501505 ] ] ] ] } },
{ "type": "Feature", "properties": { "emd_cd": "41111135", "emd_nm": "송죽동" }, "geometry": { "type": "MultiPolygon", "coordinates": [ [ [ [ 126.997151422289974, 37.303173280634489 ], [ 127.000184574616242, 37.305493700872212 ], [ 127.003158190051508, 37.310085156726316 ], [ 127.002089742093176, 37.312291720692841 ], [ 127.006960189525458, 37.317864413577283 ], [ 127.011340271590711, 37.318953607180553 ], [ 127.012865710827555, 37.316307281163354 ], [ 127.012349522137526, 37.313152085439086 ], [ 127.007089796817269, 37.310454169779817 ], [ 127.008374939765048, 37.308204433412513 ], [ 127.004425651121906, 37.306267926228287 ], [ 127.004389595012611, 37.304338824745102 ], [ 127.008897058034051, 37.301485610926328 ], [ 127.006707277069253, 37.298971134379094 ], [ 127.009366160947238, 37.295361534018767 ], [ 126.998852756566507, 37.296942478031809 ], [ 126.997151422289974, 37.303173280634489 ] ] ] ] } },
{ "type": "Feature", "properties": { "emd_cd": "41111136", "emd_nm": "조원동" }, "geometry": { "type": "MultiPolygon", "coordinates": [ [ [ [ 127.012865710827555, 37.316307281163354 ], [ 127.017091210417973, 37.314177438896856 ], [ 127.024962350191913, 37.306502600033703 ], [ 127.023604568731841, 37.304092402417915 ], [ 127.024723745255272, 37.298860560173367 ], [ 127.024000072511257, 37.297199588447917 ], [ 127.011291978029675, 37.292767846644722 ], [ 127.006707277069253, 37.298971134379094 ], [ 127.008897058034051, 37.301485610926328 ], [ 127.004389595012611, 37.304338824745102 ], [ 127.004425651121906, 37.306267926228287 ], [ 127.008374939765048, 37.308204433412513 ], [ 127.007089796817269, 37.310454169779817 ], [ 127.011510775945865, 37.312257411924222 ], [ 127.012865710827555, 37.316307281163354 ] ] ] ] } },
{ "type": "Feature", "properties": { "emd_cd": "41111137", "emd_nm": "연무동" }, "geometry": { "type": "MultiPolygon", "coordinates": [ [ [ [ 127.035249630466012, 37.294197918744928 ], [ 127.026687563882135, 37.291369372008901 ], [ 127.025410871872964, 37.288827287668738 ], [ 127.021336449164721, 37.287380479401371 ], [ 127.017581008121851, 37.287620434859782 ], [ 127.027613990872283, 37.299129555105303 ], [ 127.032901563346257, 37.301606453084254 ], [ 127.035249630466012, 37.294197918744928 ] ] ] ] } },
{ "type": "Feature", "properties": { "emd_cd": "41111138", "emd_nm": "상광교동" }, "geometry": { "type": "MultiPolygon", "coordinates": [ [ [ [ 127.018374214940437, 37.351065249617179 ], [ 127.033608893919904, 37.344545770145416 ], [ 127.032059363664629, 37.342190176968181 ], [ 127.031829135448646, 37.33654807265669 ], [ 127.02793450062866, 37.333395917754039 ], [ 127.024896233968988, 37.32629680553913 ], [ 127.020943283463254, 37.3254517461083 ], [ 127.019806326306465, 37.319899435795378 ], [ 127.010949735047717, 37.319057644471656 ], [ 127.009113062315549, 37.323988372143404 ], [ 127.005398533207426, 37.324004437573102 ], [ 127.002301398399766, 37.327038206811451 ], [ 127.002197547002169, 37.329121476758573 ], [ 127.006486359792021, 37.332153673904799 ], [ 127.006982440112495, 37.334405302892762 ], [ 127.004875808519216, 37.339234698067749 ], [ 127.008885153891782, 37.339310958945923 ], [ 127.014291251218211, 37.349425523097629 ], [ 127.018374214940437, 37.351065249617179 ] ] ] ] } },
{ "type": "Feature", "properties": { "emd_cd": "41111139", "emd_nm": "하광교동" }, "geometry": { "type": "MultiPolygon", "coordinates": [ [ [ [ 127.02403003130685, 37.297324014978514 ], [ 127.023604568731841, 37.304092402417915 ], [ 127.024962350191913, 37.306502600033703 ], [ 127.011340271590711, 37.318953607180553 ], [ 127.019806326306465, 37.319899435795378 ], [ 127.020943283463254, 37.3254517461083 ], [ 127.024896233968988, 37.32629680553913 ], [ 127.02793450062866, 37.333395917754039 ], [ 127.031829135448646, 37.33654807265669 ], [ 127.03825434367927, 37.328405450855684 ], [ 127.037200483353999, 37.326314619967413 ], [ 127.039946794303276, 37.323303487244402 ], [ 127.040095861720047, 37.320863901712926 ], [ 127.038747406395117, 37.32045267282664 ], [ 127.037955070758528, 37.315858548561927 ], [ 127.03299450497633, 37.311648597490141 ], [ 127.032901563346257, 37.301606453084254 ], [ 127.02403003130685, 37.297324014978514 ] ] ] ] } }
]
}
