{
"type": "FeatureCollection",
"name": "41113",
"crs": { "type": "name", "properties": { "name": "urn:ogc:def:crs:OGC:1.3:CRS84" } },
"features": [
{ "type": "Feature", "properties": { "emd_cd": "41113126", "emd_nm": "세류동" }, "geometry": { "type": "MultiPolygon", "coordinates": [ [ [ [ 126.997822150512022, 37.250398140654376 ], [ 126.998651819335237, 37.255499328740996 ], [ 127.003708712824732, 37.259574250975412 ], [ 127.000633745825155, 37.26335320159388 ], [ 127.002148977564204, 37.264409891907171 ], [ 127.007037320430399, 37.263900085108766 ], [ 127.006131515621078, 37.265498370620747 ], [ 127.00811571808336, 37.264800343957987 ], [ 127.009827984413192, 37.267847481121073 ], [ 127.014036182954129, 37.265720317656466 ], [ 127.013780248304272, 37.263925537061709 ], [ 127.015862870104328, 37.265376014125408 ], [ 127.020689986200381, 37.264718881587335 ], [ 127.016941444169632, 37.257461462914421 ], [ 127.021909363379876, 37.256243141136309 ], [ 127.016006769651895, 37.240621644651071 ], [ 127.012454113761621, 37.247786504080082 ], [ 127.009879189040618, 37.246739681416962 ], [ 127.006547742277391, 37.248594664769634 ], [ 127.006782947433564, 37.2464624213071 ], [ 127.00434988730639, 37.243629136937088 ], [ 127.000637994437326, 37.245833494127616 ], [ 126.997822150512022, 37.250398140654376 ] ] ] ] } },
{ "type": "Feature", "properties": { "emd_cd": "41113127", "emd_nm": "평동" }, "geometry": { "type": "MultiPolygon", "coordinates": [ [ [ [ 127.000854815208641, 37.263565270637194 ], [ 127.003708712824732, 37.259574250975412 ], [ 126.998651819335237, 37.255499328740996 ], [ 126.998206418434307, 37.252952951980767 ], [ 126.994400843085458, 37.252937304913708 ], [ 126.99089440621097, 37.260440087388979 ], [ 127.000854815208641, 37.263565270637194 ] ] ] ] } },
{ "type": "Feature", "properties": { "emd_cd": "41113128", "emd_nm": "고색동" }, "geometry": { "type": "MultiPolygon", "coordinates": [ [ [ [ 126.967442822861784, 37.255631393663229 ], [ 126.973568476013526, 37.256389282191066 ], [ 126.973387193835464, 37.260150216938008 ], [ 126.980951677290221, 37.258293412710678 ], [ 126.991127768004759, 37.260273623738748 ], [ 126.991610035976066, 37.256908674677987 ], [ 126.994627522933641, 37.254762052473737 ], [ 126.992179451405192, 37.24950429907728 ], [ 126.993103594882513, 37.245480496870741 ], [ 126.989915264042665, 37.24488747991817 ], [ 126.990673269981031, 37.242217424318312 ], [ 126.991910821099964, 37.242576874156597 ], [ 126.989979130392797, 37.240106153508989 ], [ 126.989611884891971, 37.234893092671847 ], [ 126.992689573552468, 37.2312774623189 ], [ 126.97407504208617, 37.23954233452649 ], [ 126.969752368576948, 37.245991426484238 ], [ 126.971564401267088, 37.252536041724632 ], [ 126.967442822861784, 37.255631393663229 ] ], [ [ 126.973369962706144, 37.248769978635984 ], [ 126.971928646809943, 37.248388785947178 ], [ 126.971917654861258, 37.24833769438299 ], [ 126.973369962706144, 37.248769978635984 ] ], [ [ 126.974131049670689, 37.24883804118241 ], [ 126.973786669325648, 37.248928217970857 ], [ 126.973732683227965, 37.24891962744595 ], [ 126.974131049670689, 37.24883804118241 ] ] ] ] } },
{ "type": "Feature", "properties": { "emd_cd": "41113129", "emd_nm": "오목천동" }, "geometry": { "type": "MultiPolygon", "coordinates": [ [ [ [ 126.966292434908596, 37.257494931359993 ], [ 126.971651957967268, 37.252313796091357 ], [ 126.969454900058238, 37.24763710951806 ], [ 126.971221896704904, 37.242481700808867 ], [ 126.976650666911027, 37.237919249144532 ], [ 126.986229282947505, 37.234094563825302 ], [ 126.984754271440423, 37.230818318734961 ], [ 126.981084559046295, 37.232522339176477 ], [ 126.978985614323236, 37.229476028855771 ], [ 126.971380820870579, 37.229023962698122 ], [ 126.967316887391334, 37.235251900835657 ], [ 126.95756160181574, 37.240021540297562 ], [ 126.957753236882766, 37.243470227330938 ], [ 126.956171237008661, 37.24676903448546 ], [ 126.952892449353755, 37.2487488267383 ], [ 126.952485987452334, 37.251723144522337 ], [ 126.95699795455522, 37.253962795041424 ], [ 126.961229226901523, 37.253363561838952 ], [ 126.966292434908596, 37.257494931359993 ] ] ], [ [ [ 126.971917654861258, 37.24833769438299 ], [ 126.973348634323074, 37.248808970460274 ], [ 126.973369962706144, 37.248769978635984 ], [ 126.971917654861258, 37.24833769438299 ] ] ], [ [ [ 126.974103075844752, 37.24902102637207 ], [ 126.973826343696771, 37.248898502031928 ], [ 126.973732683227965, 37.24891962744595 ], [ 126.974103075844752, 37.24902102637207 ] ] ] ] } },
{ "type": "Feature", "properties": { "emd_cd": "41113130", "emd_nm": "평리동" }, "geometry": { "type": "MultiPolygon", "coordinates": [ [ [ [ 126.995465094621622, 37.253100577790825 ], [ 126.99822002295862, 37.252966512961493 ], [ 126.998434581019026, 37.248840246788959 ], [ 127.004086213781193, 37.243922890402594 ], [ 126.999757597906083, 37.243480495828592 ], [ 126.998996520107852, 37.238628308632634 ], [ 126.997275845955926, 37.237283152604022 ], [ 126.997005155886143, 37.229263375626545 ], [ 126.993359428377147, 37.230618606728349 ], [ 126.989563293565666, 37.23524228561125 ], [ 126.990051256315908, 37.240340286387415 ], [ 126.991910821099964, 37.242576874156597 ], [ 126.990673269981031, 37.242217424318312 ], [ 126.989915264042665, 37.24488747991817 ], [ 126.993103594882513, 37.245480496870741 ], [ 126.992179451405192, 37.24950429907728 ], [ 126.995465094621622, 37.253100577790825 ] ] ] ] } },
{ "type": "Feature", "properties": { "emd_cd": "41113131", "emd_nm": "서둔동" }, "geometry": { "type": "MultiPolygon", "coordinates": [ [ [ [ 126.983763611182724, 37.283625805266318 ], [ 126.987319847368511, 37.282160026407247 ], [ 126.985484230065339, 37.275294193102397 ], [ 126.987293663422179, 37.274607800767335 ], [ 126.993244107668943, 37.27735932804201 ], [ 126.997376830065562, 37.270145437716884 ], [ 126.994747561545736, 37.27063297439517 ], [ 126.99826014579925, 37.269621189549696 ], [ 126.998538257091084, 37.26656002268647 ], [ 127.001167448724175, 37.263801793649918 ], [ 126.983765076851626, 37.25849760092354 ], [ 126.97934562783918, 37.270153391851736 ], [ 126.978480082405028, 37.277809911508079 ], [ 126.978566489605271, 37.282890940456369 ], [ 126.983763611182724, 37.283625805266318 ] ] ], [ [ [ 126.980532605484001, 37.284590651420551 ], [ 126.980282144904962, 37.28461989030879 ], [ 126.980272218669128, 37.284630070187937 ], [ 126.980532605484001, 37.284590651420551 ] ] ] ] } },
{ "type": "Feature", "properties": { "emd_cd": "41113132", "emd_nm": "구운동" }, "geometry": { "type": "MultiPolygon", "coordinates": [ [ [ [ 126.96024058903771, 37.280143453535189 ], [ 126.9619385388296, 37.279943787799958 ], [ 126.961652263048364, 37.281747991016104 ], [ 126.965084083878168, 37.283321767118053 ], [ 126.963515371077122, 37.289110527750069 ], [ 126.967159429781105, 37.287321112006566 ], [ 126.969895134750359, 37.28841844732672 ], [ 126.969633750028322, 37.286635227192008 ], [ 126.972595851673915, 37.287498779383746 ], [ 126.97468413858077, 37.285554637792487 ], [ 126.97839821695537, 37.286640542496862 ], [ 126.981339605957899, 37.283558389318344 ], [ 126.978566489605271, 37.282890940456369 ], [ 126.979291508233189, 37.276262830763336 ], [ 126.969524875712722, 37.274234180352082 ], [ 126.962113149873289, 37.273227843393855 ], [ 126.964171919053385, 37.27685465577197 ], [ 126.96024058903771, 37.280143453535189 ] ] ] ] } },
{ "type": "Feature", "properties": { "emd_cd": "41113133", "emd_nm": "탑동" }, "geometry": { "type": "MultiPolygon", "coordinates": [ [ [ [ 126.961777216002019, 37.273076357501672 ], [ 126.978714457547511, 37.276159084238493 ], [ 126.979395795677959, 37.269971779799896 ], [ 126.983765076851626, 37.25849760092354 ], [ 126.973387193835464, 37.260150216938008 ], [ 126.973568476013526, 37.256389282191066 ], [ 126.967442822861784, 37.255631393663229 ], [ 126.966982147509512, 37.258672716250963 ], [ 126.971050525870723, 37.261147679884928 ], [ 126.970649197757922, 37.263348021121217 ], [ 126.966035238781529, 37.270239867991457 ], [ 126.961777216002019, 37.273076357501672 ] ] ] ] } },
{ "type": "Feature", "properties": { "emd_cd": "41113134", "emd_nm": "금곡동" }, "geometry": { "type": "MultiPolygon", "coordinates": [ [ [ [ 126.926987436396544, 37.272079967300314 ], [ 126.928549865393293, 37.276526557164381 ], [ 126.927366444396625, 37.278808083663073 ], [ 126.941377433293312, 37.277117051049061 ], [ 126.942408265246684, 37.27751006003151 ], [ 126.940518385964765, 37.279499437502352 ], [ 126.941448783739659, 37.281474741752113 ], [ 126.949684453891479, 37.28261590727238 ], [ 126.956916680138704, 37.281578268444342 ], [ 126.964171919053385, 37.27685465577197 ], [ 126.962290719979833, 37.2726799928517 ], [ 126.95646059122646, 37.268963351889575 ], [ 126.951723294854929, 37.269290971846623 ], [ 126.949924876974237, 37.266566375323201 ], [ 126.948806449506264, 37.266651931566116 ], [ 126.949588168991411, 37.272087584711457 ], [ 126.942674036762057, 37.271124479504707 ], [ 126.937058457810096, 37.263368614867495 ], [ 126.930619010167291, 37.261078873499002 ], [ 126.928215010256864, 37.268896002669251 ], [ 126.92961033993204, 37.270616526481689 ], [ 126.926987436396544, 37.272079967300314 ] ] ] ] } },
{ "type": "Feature", "properties": { "emd_cd": "41113135", "emd_nm": "호매실동" }, "geometry": { "type": "MultiPolygon", "coordinates": [ [ [ [ 126.930619010167291, 37.261078873499002 ], [ 126.937058457810096, 37.263368614867495 ], [ 126.942764204276784, 37.271161646868684 ], [ 126.949588168991411, 37.272087584711457 ], [ 126.948806449506264, 37.266651931566116 ], [ 126.949924876974237, 37.266566375323201 ], [ 126.951723294854929, 37.269290971846623 ], [ 126.95646059122646, 37.268963351889575 ], [ 126.961628460572427, 37.273024471027675 ], [ 126.969111984932894, 37.266707217844264 ], [ 126.971113501186963, 37.261558586213162 ], [ 126.962178542738201, 37.253804577908866 ], [ 126.95699795455522, 37.253962795041424 ], [ 126.952485987452334, 37.251723144522337 ], [ 126.947883376743746, 37.257032975248407 ], [ 126.935808316473114, 37.256854072440909 ], [ 126.930619010167291, 37.261078873499002 ] ] ] ] } },
{ "type": "Feature", "properties": { "emd_cd": "41113136", "emd_nm": "곡반정동" }, "geometry": { "type": "MultiPolygon", "coordinates": [ [ [ [ 127.0396216369451, 37.246064418000017 ], [ 127.040410317826144, 37.244934980984176 ], [ 127.036881083526964, 37.240183732703983 ], [ 127.037399958570177, 37.236704214955672 ], [ 127.034695643948353, 37.236672485143814 ], [ 127.030455911878079, 37.233497424408156 ], [ 127.029996755618882, 37.23121288618789 ], [ 127.022606488560669, 37.231009789056792 ], [ 127.021614513916148, 37.233888081050267 ], [ 127.026472738461777, 37.23709900150574 ], [ 127.032273896996898, 37.246447441527174 ], [ 127.040128707151382, 37.244731726927057 ], [ 127.0396216369451, 37.246064418000017 ] ] ] ] } },
{ "type": "Feature", "properties": { "emd_cd": "41113137", "emd_nm": "권선동" }, "geometry": { "type": "MultiPolygon", "coordinates": [ [ [ [ 127.015058002637332, 37.241557224196448 ], [ 127.016006769651895, 37.240621644651085 ], [ 127.017374832225471, 37.24221828961096 ], [ 127.017872497062399, 37.248338881990904 ], [ 127.021909363379905, 37.256243141136309 ], [ 127.016941444169632, 37.257461462914407 ], [ 127.020598342953264, 37.26453946430977 ], [ 127.031813938876596, 37.261659759315329 ], [ 127.030477870435931, 37.258190115542902 ], [ 127.036676360329793, 37.256520979619822 ], [ 127.036062495902655, 37.255078979792472 ], [ 127.039961556308839, 37.253966583668245 ], [ 127.042171030514567, 37.25097802583084 ], [ 127.039157197227865, 37.247032208899832 ], [ 127.040128707151382, 37.244731726927057 ], [ 127.032273896996898, 37.246447441527174 ], [ 127.026472738461777, 37.23709900150574 ], [ 127.021614513916148, 37.233888081050267 ], [ 127.019491987575392, 37.237927943736793 ], [ 127.015834653097599, 37.238889319559256 ], [ 127.015058002637332, 37.241557224196448 ] ] ] ] } },
{ "type": "Feature", "properties": { "emd_cd": "41113138", "emd_nm": "장지동" }, "geometry": { "type": "MultiPolygon", "coordinates": [ [ [ [ 127.008202543809517, 37.247306765981655 ], [ 127.012454113761621, 37.247786504080075 ], [ 127.015507945338541, 37.241521697976893 ], [ 127.015732800640066, 37.237288699183082 ], [ 127.012278868814832, 37.235731437191589 ], [ 127.009352715066498, 37.236317721144452 ], [ 127.005185227147948, 37.234043033619827 ], [ 127.005344512052048, 37.232431464971654 ], [ 127.002793644162963, 37.232566459869531 ], [ 127.003375757299636, 37.228928565794867 ], [ 126.99828769004985, 37.225621501419447 ], [ 126.996616659287071, 37.227850213462048 ], [ 126.997879275662186, 37.228970675639317 ], [ 126.997275845955926, 37.237283152604022 ], [ 126.998996520107852, 37.238628308632634 ], [ 126.999757597906083, 37.243480495828592 ], [ 127.004349887306418, 37.243629136937088 ], [ 127.006782947433564, 37.2464624213071 ], [ 127.006547742277419, 37.248594664769655 ], [ 127.008202543809517, 37.247306765981655 ] ] ] ] } },
{ "type": "Feature", "properties": { "emd_cd": "41113139", "emd_nm": "대황교동" }, "geometry": { "type": "MultiPolygon", "coordinates": [ [ [ [ 127.0161762405194, 37.23854737854397 ], [ 127.019491987575392, 37.237927943736793 ], [ 127.024346797561634, 37.229595121543298 ], [ 127.022560507449995, 37.224910437751056 ], [ 127.008454039002643, 37.226976326577152 ], [ 127.002689044914817, 37.230260564454575 ], [ 127.002793644162963, 37.232566459869531 ], [ 127.005344512052048, 37.232431464971654 ], [ 127.005204249941855, 37.234056900026872 ], [ 127.009352715066498, 37.236317721144452 ], [ 127.015255763070613, 37.23679648180277 ], [ 127.0161762405194, 37.23854737854397 ] ] ] ] } },
{ "type": "Feature", "properties": { "emd_cd": "41113140", "emd_nm": "입북동" }, "geometry": { "type": "MultiPolygon", "coordinates": [ [ [ [ 126.951167982579264, 37.302655826134426 ], [ 126.96389291308752, 37.300929010651537 ], [ 126.963563485577481, 37.298822172541144 ], [ 126.968038616762982, 37.294295063208089 ], [ 126.969958851537356, 37.288524083203392 ], [ 126.967159429781105, 37.287321112006566 ], [ 126.963006645426546, 37.288886078713652 ], [ 126.965084083878168, 37.283321767118053 ], [ 126.961652263048364, 37.281747991016104 ], [ 126.9619385388296, 37.279943787799958 ], [ 126.953820779715755, 37.282203459361433 ], [ 126.948805590620452, 37.291270781483959 ], [ 126.949481972882111, 37.294596045235224 ], [ 126.947389648239181, 37.296876316839345 ], [ 126.946959288842578, 37.300544697138534 ], [ 126.950970932559557, 37.30043283120952 ], [ 126.953231854470516, 37.301782949098651 ], [ 126.951167982579264, 37.302655826134426 ] ] ] ] } },
{ "type": "Feature", "properties": { "emd_cd": "41113141", "emd_nm": "당수동" }, "geometry": { "type": "MultiPolygon", "coordinates": [ [ [ [ 126.927366444396625, 37.278808083663073 ], [ 126.929168559563365, 37.285971600773706 ], [ 126.931319857066399, 37.287008289021138 ], [ 126.933016663808999, 37.291583816964753 ], [ 126.939608658211711, 37.295396661482286 ], [ 126.932353524293475, 37.300879473594939 ], [ 126.934353232429217, 37.303365906258115 ], [ 126.942331164688326, 37.300361970461516 ], [ 126.947068808033407, 37.300559380278187 ], [ 126.950099654875217, 37.287940815779208 ], [ 126.953820779715755, 37.282203459361433 ], [ 126.956780282376954, 37.281619682490181 ], [ 126.95399966590314, 37.28173617492353 ], [ 126.9530120930241, 37.282928110232845 ], [ 126.941448783739659, 37.281474741752113 ], [ 126.940518385964765, 37.279499437502352 ], [ 126.942408265246684, 37.27751006003151 ], [ 126.941210801872998, 37.277092458203597 ], [ 126.927366444396625, 37.278808083663073 ] ] ] ] } }
]
}
