{
"type": "FeatureCollection",
"name": "41133",
"crs": { "type": "name", "properties": { "name": "urn:ogc:def:crs:OGC:1.3:CRS84" } },
"features": [
{ "type": "Feature", "properties": { "emd_cd": "41133101", "emd_nm": "성남동" }, "geometry": { "type": "MultiPolygon", "coordinates": [ [ [ [ 127.128654262553013, 37.427570413465048 ], [ 127.128764213491095, 37.427556581804545 ], [ 127.128628992842508, 37.427512532768304 ], [ 127.128654262553013, 37.427570413465048 ] ] ], [ [ [ 127.148542381142903, 37.434002718407498 ], [ 127.142364238397619, 37.431136456635649 ], [ 127.141048738814249, 37.428492005897617 ], [ 127.12938837872646, 37.429834037892014 ], [ 127.128541003865863, 37.427324974124993 ], [ 127.129102083536935, 37.423903939123058 ], [ 127.12826234895509, 37.422745485799346 ], [ 127.119916203749497, 37.427698826614176 ], [ 127.118001355708969, 37.426204854875024 ], [ 127.118454137888264, 37.432344118572608 ], [ 127.136212753708861, 37.435274956612858 ], [ 127.144577479355917, 37.439668209615668 ], [ 127.148542381142903, 37.434002718407498 ] ] ] ] } },
{ "type": "Feature", "properties": { "emd_cd": "41133103", "emd_nm": "금광동" }, "geometry": { "type": "MultiPolygon", "coordinates": [ [ [ [ 127.156905712689507, 37.445005752718515 ], [ 127.160922579631645, 37.454149701482521 ], [ 127.162876469859015, 37.453117255413254 ], [ 127.162034427270072, 37.451460777690656 ], [ 127.163190261417981, 37.450338018196881 ], [ 127.171085323209155, 37.452004338564088 ], [ 127.175019431914848, 37.454984450860387 ], [ 127.174628443904041, 37.452584639214372 ], [ 127.178640728545759, 37.452802981569356 ], [ 127.177530698142476, 37.44830941638935 ], [ 127.173150685125634, 37.444035097186493 ], [ 127.162578961880357, 37.440423044661536 ], [ 127.159926371668931, 37.441158445159182 ], [ 127.156905712689507, 37.445005752718515 ] ] ] ] } },
{ "type": "Feature", "properties": { "emd_cd": "41133104", "emd_nm": "은행동" }, "geometry": { "type": "MultiPolygon", "coordinates": [ [ [ [ 127.184758917110059, 37.458834402197922 ], [ 127.178755214406095, 37.454627569883755 ], [ 127.178640728545759, 37.452802981569356 ], [ 127.174628443904041, 37.452584639214372 ], [ 127.175019431914848, 37.454984450860387 ], [ 127.171085323209155, 37.452004338564088 ], [ 127.163190261417981, 37.450338018196881 ], [ 127.162034427270072, 37.451460777690656 ], [ 127.162876469859015, 37.453117255413254 ], [ 127.160922579631645, 37.454149701482521 ], [ 127.166349878540672, 37.460530296851559 ], [ 127.173934501541098, 37.4656680066146 ], [ 127.17688317582261, 37.471376420290767 ], [ 127.175625949443614, 37.471974688645311 ], [ 127.178982346191333, 37.473330361743876 ], [ 127.178805373593505, 37.47482086611263 ], [ 127.182095500004593, 37.470588077142679 ], [ 127.181579676149781, 37.464370026921159 ], [ 127.184676924220582, 37.462549691661998 ], [ 127.184758917110059, 37.458834402197922 ] ] ] ] } },
{ "type": "Feature", "properties": { "emd_cd": "41133105", "emd_nm": "상대원동" }, "geometry": { "type": "MultiPolygon", "coordinates": [ [ [ [ 127.152153863438301, 37.437028242939348 ], [ 127.153032882251836, 37.438668007364896 ], [ 127.159926371668931, 37.441158445159182 ], [ 127.162578961880357, 37.440423044661536 ], [ 127.17398677236892, 37.444479229571783 ], [ 127.177530698142476, 37.44830941638935 ], [ 127.178755214406095, 37.454627569883755 ], [ 127.184758917110059, 37.458834402197922 ], [ 127.191656749730939, 37.45705910593199 ], [ 127.190991641537366, 37.455765620255583 ], [ 127.194846347896942, 37.451195771270847 ], [ 127.195836362491988, 37.443589652049432 ], [ 127.193657211969608, 37.439249354093626 ], [ 127.193809651725701, 37.434950247980318 ], [ 127.179993022317092, 37.426311766598452 ], [ 127.159399978202416, 37.427847054095103 ], [ 127.158003431951101, 37.433535176028315 ], [ 127.152153863438301, 37.437028242939348 ] ] ] ] } },
{ "type": "Feature", "properties": { "emd_cd": "41133106", "emd_nm": "여수동" }, "geometry": { "type": "MultiPolygon", "coordinates": [ [ [ [ 127.116979108763232, 37.421986806437317 ], [ 127.117531575141044, 37.425855166453331 ], [ 127.119916203749497, 37.427698826614176 ], [ 127.128085780397626, 37.422763208621511 ], [ 127.130544910937601, 37.425577034991854 ], [ 127.134460962240595, 37.42320618486842 ], [ 127.138229604448213, 37.424528218361147 ], [ 127.146877533056227, 37.420411692770941 ], [ 127.140503123374316, 37.415969374846561 ], [ 127.131938683777591, 37.417318999053926 ], [ 127.119205701648198, 37.415661362394964 ], [ 127.119693212384533, 37.420342925110461 ], [ 127.116979108763232, 37.421986806437317 ] ] ] ] } },
{ "type": "Feature", "properties": { "emd_cd": "41133107", "emd_nm": "도촌동" }, "geometry": { "type": "MultiPolygon", "coordinates": [ [ [ [ 127.137100769922768, 37.416319872411492 ], [ 127.143743562832881, 37.417066268102417 ], [ 127.148107708661044, 37.423188537399511 ], [ 127.154101692692095, 37.425303461469035 ], [ 127.156469933154142, 37.418395311229546 ], [ 127.161393263128247, 37.418012088625858 ], [ 127.166543712832862, 37.413503931298514 ], [ 127.172855325078586, 37.413133719885764 ], [ 127.177228442761233, 37.414801848483592 ], [ 127.177907808553229, 37.412556824085982 ], [ 127.175165325727164, 37.406571634332472 ], [ 127.172584676216673, 37.405224346344404 ], [ 127.165064984879237, 37.406457930411399 ], [ 127.155637912057259, 37.411098641853783 ], [ 127.149255260410158, 37.41079792261678 ], [ 127.143368263219131, 37.415089621618719 ], [ 127.137100769922768, 37.416319872411492 ] ] ] ] } },
{ "type": "Feature", "properties": { "emd_cd": "41133108", "emd_nm": "갈현동" }, "geometry": { "type": "MultiPolygon", "coordinates": [ [ [ [ 127.15377792037863, 37.42391721621447 ], [ 127.154638226654114, 37.42566905510764 ], [ 127.157432810212214, 37.425577815341114 ], [ 127.161854895942369, 37.428402555716787 ], [ 127.166146030946237, 37.426477742907018 ], [ 127.179993022317092, 37.426311766598452 ], [ 127.193809651725701, 37.434950247980318 ], [ 127.195429673036713, 37.430945289103491 ], [ 127.19339072612938, 37.42614457416601 ], [ 127.194328444041602, 37.424622388703433 ], [ 127.185561680049489, 37.418534237956145 ], [ 127.18470461050282, 37.415529969748484 ], [ 127.180375413196757, 37.416182838994509 ], [ 127.175184249001248, 37.413487726027668 ], [ 127.166543712832862, 37.413503931298514 ], [ 127.161393263128247, 37.418012088625858 ], [ 127.156469933154142, 37.418395311229546 ], [ 127.15377792037863, 37.42391721621447 ] ] ] ] } },
{ "type": "Feature", "properties": { "emd_cd": "41133109", "emd_nm": "하대원동" }, "geometry": { "type": "MultiPolygon", "coordinates": [ [ [ [ 127.128541003865863, 37.427324974124993 ], [ 127.12938837872646, 37.429834037892014 ], [ 127.141048738814249, 37.428492005897617 ], [ 127.142364238397619, 37.431136456635649 ], [ 127.147449337110032, 37.432613078239619 ], [ 127.15215197693351, 37.437005936393795 ], [ 127.158003431951101, 37.433535176028315 ], [ 127.159411264645627, 37.427841551876455 ], [ 127.157432810212214, 37.425577815341114 ], [ 127.148107708661044, 37.423188537399511 ], [ 127.146740553970048, 37.420918391038128 ], [ 127.138229604448213, 37.424528218361147 ], [ 127.134460962240595, 37.42320618486842 ], [ 127.130544910937601, 37.425577034991854 ], [ 127.129096205820474, 37.423922109825689 ], [ 127.128541003865863, 37.427324974124993 ] ], [ [ 127.128654262553013, 37.427570413465048 ], [ 127.128628992842508, 37.427512532768304 ], [ 127.128764213491095, 37.427556581804545 ], [ 127.128654262553013, 37.427570413465048 ] ] ] ] } },
{ "type": "Feature", "properties": { "emd_cd": "41133132", "emd_nm": "중앙동" }, "geometry": { "type": "MultiPolygon", "coordinates": [ [ [ [ 127.144659982542194, 37.439539535987883 ], [ 127.156906594337158, 37.445005850670192 ], [ 127.15992107347121, 37.441341428745247 ], [ 127.153032882251836, 37.438668007364896 ], [ 127.148164915114094, 37.434221339373188 ], [ 127.144659982542194, 37.439539535987883 ] ] ] ] } }
]
}
