{
"type": "FeatureCollection",
"name": "41150",
"crs": { "type": "name", "properties": { "name": "urn:ogc:def:crs:OGC:1.3:CRS84" } },
"features": [
{ "type": "Feature", "properties": { "emd_cd": "41150101", "emd_nm": "의정부동" }, "geometry": { "type": "MultiPolygon", "coordinates": [ [ [ [ 127.044500661917311, 37.75072986654019 ], [ 127.054075046193859, 37.747172707308081 ], [ 127.053224040673726, 37.737165726758278 ], [ 127.054362219258238, 37.730518153587283 ], [ 127.051381720898192, 37.72734099678739 ], [ 127.042075421206704, 37.732143050887132 ], [ 127.039228196780954, 37.729509849746208 ], [ 127.024796900834673, 37.727865323022193 ], [ 127.031232281219701, 37.741306230642863 ], [ 127.039719136988182, 37.740524589657639 ], [ 127.039843214865812, 37.738465310945429 ], [ 127.041120320128059, 37.738453266490929 ], [ 127.041271280702603, 37.741918539849699 ], [ 127.036235035908135, 37.74337158818021 ], [ 127.038648265194155, 37.74487432280943 ], [ 127.038566030848145, 37.746744473215244 ], [ 127.045009657069187, 37.746785022841678 ], [ 127.044500661917311, 37.75072986654019 ] ] ] ] } },
{ "type": "Feature", "properties": { "emd_cd": "41150102", "emd_nm": "호원동" }, "geometry": { "type": "MultiPolygon", "coordinates": [ [ [ [ 127.052023413990256, 37.726505575307193 ], [ 127.049000106472249, 37.720482227358815 ], [ 127.050844817604272, 37.716015566264993 ], [ 127.049670803179524, 37.710830398371705 ], [ 127.052027011100165, 37.707876828465302 ], [ 127.052154349316027, 37.704988454091229 ], [ 127.048332861489214, 37.700684705780183 ], [ 127.048928847407211, 37.69438737497687 ], [ 127.047814877196231, 37.693289176058741 ], [ 127.044902723038447, 37.692404964002307 ], [ 127.041837665821973, 37.695371734845288 ], [ 127.032462489701075, 37.691844786998281 ], [ 127.027710025949318, 37.700946179675888 ], [ 127.022240524238356, 37.69972029325104 ], [ 127.015471791235385, 37.701451804208361 ], [ 127.018096507715043, 37.705663063854864 ], [ 127.011682730580148, 37.715579466181453 ], [ 127.01475373116881, 37.719802751605897 ], [ 127.021138680287137, 37.722449103872258 ], [ 127.025058266556243, 37.728050247990183 ], [ 127.039228196780954, 37.729509849746208 ], [ 127.042075421206704, 37.732143050887132 ], [ 127.052023413990256, 37.726505575307193 ] ] ] ] } },
{ "type": "Feature", "properties": { "emd_cd": "41150103", "emd_nm": "장암동" }, "geometry": { "type": "MultiPolygon", "coordinates": [ [ [ [ 127.080604611120833, 37.711454864176574 ], [ 127.079353988686364, 37.706366866733553 ], [ 127.084021130706148, 37.701856263393104 ], [ 127.08022208871968, 37.699513127517157 ], [ 127.0810329525561, 37.696130169052026 ], [ 127.072790812844104, 37.693778621254033 ], [ 127.063423176192515, 37.694937078104381 ], [ 127.059713921250108, 37.690283803905054 ], [ 127.050929871335342, 37.686153197778374 ], [ 127.048121867032478, 37.697869624610085 ], [ 127.048332861489214, 37.700684705780183 ], [ 127.052154349316027, 37.704988454091229 ], [ 127.052027011100165, 37.707876828465302 ], [ 127.049670803179524, 37.710830398371705 ], [ 127.050844817604272, 37.716015566264993 ], [ 127.049000106472249, 37.720482227358815 ], [ 127.052023413990256, 37.726505575307193 ], [ 127.064050787084511, 37.726463510262782 ], [ 127.06142940589281, 37.721408759406486 ], [ 127.072266901505998, 37.721822640368124 ], [ 127.080604611120833, 37.711454864176574 ] ] ] ] } },
{ "type": "Feature", "properties": { "emd_cd": "41150104", "emd_nm": "신곡동" }, "geometry": { "type": "MultiPolygon", "coordinates": [ [ [ [ 127.052023413990256, 37.726505575307193 ], [ 127.054362219258238, 37.730518153587283 ], [ 127.053224040673726, 37.737165726758278 ], [ 127.054342528365012, 37.744047154452723 ], [ 127.060627179511343, 37.748257108606616 ], [ 127.072931500817191, 37.751468346488224 ], [ 127.07635727415186, 37.754266160770044 ], [ 127.081789330457255, 37.753232600966079 ], [ 127.083288539269333, 37.750884912712124 ], [ 127.081876121594149, 37.75156007228918 ], [ 127.079821694554354, 37.749686376908144 ], [ 127.082333929953705, 37.746614388641788 ], [ 127.078496339510821, 37.745032797724413 ], [ 127.078882427596668, 37.746847115929597 ], [ 127.073017474074476, 37.743892432960301 ], [ 127.074945143000249, 37.739659108090201 ], [ 127.07104771752563, 37.732063799997533 ], [ 127.074445698957405, 37.729000571781036 ], [ 127.073554704872606, 37.720871802535719 ], [ 127.069179192161243, 37.722276024998273 ], [ 127.06142940589281, 37.721408759406486 ], [ 127.064050787084511, 37.726463510262782 ], [ 127.052023413990256, 37.726505575307193 ] ] ] ] } },
{ "type": "Feature", "properties": { "emd_cd": "41150105", "emd_nm": "용현동" }, "geometry": { "type": "MultiPolygon", "coordinates": [ [ [ [ 127.074450273568999, 37.717572729537331 ], [ 127.074445698957405, 37.729000571781036 ], [ 127.07104771752563, 37.732063799997533 ], [ 127.074945143000249, 37.739659108090201 ], [ 127.073017474074476, 37.743892432960301 ], [ 127.078882427596668, 37.746847115929597 ], [ 127.078496339510821, 37.745032797724413 ], [ 127.082333929953705, 37.746614388641788 ], [ 127.079821694554354, 37.749686376908144 ], [ 127.081876121594149, 37.75156007228918 ], [ 127.083695660424382, 37.750057638414418 ], [ 127.090170485146203, 37.731708479909393 ], [ 127.087599052802915, 37.729860816445758 ], [ 127.091480889422428, 37.727367079138588 ], [ 127.086469284409588, 37.721834661246767 ], [ 127.085410479440071, 37.714849265087707 ], [ 127.080604611120833, 37.711454864176574 ], [ 127.074450273568999, 37.717572729537331 ] ] ] ] } },
{ "type": "Feature", "properties": { "emd_cd": "41150106", "emd_nm": "민락동" }, "geometry": { "type": "MultiPolygon", "coordinates": [ [ [ [ 127.084649740980254, 37.745833177051459 ], [ 127.096837757674805, 37.747946723157561 ], [ 127.104927604543676, 37.746743248594179 ], [ 127.106655457664687, 37.74997850979274 ], [ 127.112307130218497, 37.751084036827905 ], [ 127.118020448256431, 37.75810907322866 ], [ 127.117657992183268, 37.757049335901236 ], [ 127.122315458420388, 37.755194265531969 ], [ 127.126307195558908, 37.75699498003015 ], [ 127.131278284992788, 37.75443971861808 ], [ 127.13296580484247, 37.755429002820051 ], [ 127.140506492878345, 37.752715457270931 ], [ 127.146615498059191, 37.753747442173527 ], [ 127.147245184238969, 37.752022085418758 ], [ 127.146504471427491, 37.749871949116333 ], [ 127.141791183512211, 37.747686157387818 ], [ 127.138383786205935, 37.747400954627828 ], [ 127.136349305568103, 37.749513455477818 ], [ 127.127236185486424, 37.746811168616723 ], [ 127.115200039267975, 37.746714761551935 ], [ 127.112308873114628, 37.74273055588931 ], [ 127.106960511004672, 37.74176041381093 ], [ 127.098395734915826, 37.734296672368146 ], [ 127.095033499304634, 37.735782389215061 ], [ 127.089585464720528, 37.732447428552142 ], [ 127.084649740980254, 37.745833177051459 ] ] ] ] } },
{ "type": "Feature", "properties": { "emd_cd": "41150107", "emd_nm": "낙양동" }, "geometry": { "type": "MultiPolygon", "coordinates": [ [ [ [ 127.083288539269333, 37.750884912712124 ], [ 127.085343670958935, 37.750228282110768 ], [ 127.086900719084625, 37.754890712031845 ], [ 127.090623701894046, 37.752495909151484 ], [ 127.094899259607047, 37.752248637828387 ], [ 127.099448326879866, 37.755664420546722 ], [ 127.0992422759156, 37.758822227147277 ], [ 127.103934695534022, 37.760719499961475 ], [ 127.104028595419848, 37.763879672875028 ], [ 127.107875321106619, 37.764995488245027 ], [ 127.112510977629341, 37.76930614154908 ], [ 127.114916932412996, 37.767292176289764 ], [ 127.114719988254606, 37.765529092977737 ], [ 127.121531427379509, 37.766551544734121 ], [ 127.122737651537122, 37.763870997954626 ], [ 127.125321538857136, 37.76318303476107 ], [ 127.132641427708975, 37.763347625164045 ], [ 127.133717395790811, 37.762095569537507 ], [ 127.139657070788388, 37.764016933412158 ], [ 127.142770419305663, 37.760307505003659 ], [ 127.143137004249212, 37.757085932007151 ], [ 127.146615498059191, 37.753747442173527 ], [ 127.140506492878345, 37.752715457270931 ], [ 127.13296580484247, 37.755429002820051 ], [ 127.131278284992788, 37.75443971861808 ], [ 127.126307195558908, 37.75699498003015 ], [ 127.122315458420388, 37.755194265531969 ], [ 127.117657992183268, 37.757049335901236 ], [ 127.118044448210853, 37.757638028329858 ], [ 127.118020448256431, 37.75810907322866 ], [ 127.112307130218497, 37.751084036827905 ], [ 127.106655457664687, 37.74997850979274 ], [ 127.10484519791089, 37.746719895882201 ], [ 127.096749816244738, 37.747941929048096 ], [ 127.086341137313426, 37.745455821063871 ], [ 127.084649740980254, 37.745833177051459 ], [ 127.083288539269333, 37.750884912712124 ] ] ] ] } },
{ "type": "Feature", "properties": { "emd_cd": "41150108", "emd_nm": "자일동" }, "geometry": { "type": "MultiPolygon", "coordinates": [ [ [ [ 127.125809762515445, 37.763649676517481 ], [ 127.122737651537122, 37.763870997954626 ], [ 127.121531427379509, 37.766551544734121 ], [ 127.114719988254606, 37.765529092977737 ], [ 127.114916932412996, 37.767292176289764 ], [ 127.111808724391508, 37.769092949653263 ], [ 127.108566034831696, 37.765449918596822 ], [ 127.104028595419848, 37.763879672875028 ], [ 127.103934695534022, 37.760719499961475 ], [ 127.0992422759156, 37.758822227147277 ], [ 127.099448326879866, 37.755664420546722 ], [ 127.094523708385609, 37.752026172451892 ], [ 127.085265148144245, 37.754787193914403 ], [ 127.082627891033326, 37.7594241297056 ], [ 127.082874511967731, 37.763787760251311 ], [ 127.078575583986165, 37.767698003445965 ], [ 127.078996811551505, 37.769767063858829 ], [ 127.084435980795476, 37.773542885365522 ], [ 127.103138286866368, 37.778297814378774 ], [ 127.10566434452177, 37.780305271326114 ], [ 127.115128470195046, 37.777030320835919 ], [ 127.116135447981065, 37.772686260202036 ], [ 127.120430417993461, 37.774008753159478 ], [ 127.127441255913553, 37.77147544175935 ], [ 127.129083004324102, 37.767130307702566 ], [ 127.126318191874105, 37.765682492284085 ], [ 127.125809762515445, 37.763649676517481 ] ] ] ] } },
{ "type": "Feature", "properties": { "emd_cd": "41150109", "emd_nm": "금오동" }, "geometry": { "type": "MultiPolygon", "coordinates": [ [ [ [ 127.054342528365012, 37.744047154452723 ], [ 127.053769629105787, 37.747695742586529 ], [ 127.047657052401988, 37.752002901220223 ], [ 127.049315678998241, 37.753744453354706 ], [ 127.048525968632646, 37.75652333881073 ], [ 127.050683986682927, 37.760906686577563 ], [ 127.066686208828557, 37.764095066204632 ], [ 127.07330137559326, 37.768412639408389 ], [ 127.078996811551505, 37.769767063858829 ], [ 127.078593275995601, 37.766766537018633 ], [ 127.082874511967731, 37.763787760251311 ], [ 127.082976588244605, 37.758119742475863 ], [ 127.086428371437975, 37.754528056707322 ], [ 127.085343670958935, 37.750228282110768 ], [ 127.081206085778405, 37.753556008714369 ], [ 127.07635727415186, 37.754266160770044 ], [ 127.072931500817191, 37.751468346488224 ], [ 127.060627179511343, 37.748257108606616 ], [ 127.054342528365012, 37.744047154452723 ] ] ] ] } },
{ "type": "Feature", "properties": { "emd_cd": "41150110", "emd_nm": "가능동" }, "geometry": { "type": "MultiPolygon", "coordinates": [ [ [ [ 127.001699514359146, 37.76142997113201 ], [ 127.005019566355045, 37.763342735192431 ], [ 127.013136750782962, 37.761839659737952 ], [ 127.017941292892715, 37.755747335742051 ], [ 127.031458656252937, 37.756430641357746 ], [ 127.036460826305728, 37.754759516796916 ], [ 127.041054497839639, 37.759106022642342 ], [ 127.05308848746148, 37.747577340959971 ], [ 127.044500661917311, 37.75072986654019 ], [ 127.045009657069187, 37.746785022841678 ], [ 127.038566030848145, 37.746744473215244 ], [ 127.038648265194155, 37.74487432280943 ], [ 127.036227245710037, 37.743332326581175 ], [ 127.041271280702603, 37.741918539849699 ], [ 127.041120320128059, 37.738453266490929 ], [ 127.039843214865812, 37.738465310945429 ], [ 127.039719136988182, 37.740524589657639 ], [ 127.031232281219701, 37.741306230642863 ], [ 127.022808966738296, 37.724462235277088 ], [ 127.013333931086905, 37.718333824794122 ], [ 127.010478794128034, 37.721922880655754 ], [ 127.012232130487476, 37.726084874149187 ], [ 127.009131800413513, 37.728897887787653 ], [ 127.007746813209977, 37.733059031623498 ], [ 127.005673400205509, 37.73374380053766 ], [ 127.004795607419581, 37.73625481994528 ], [ 127.006480182687099, 37.736589072265311 ], [ 127.002398897969996, 37.740756257751201 ], [ 127.004381238125745, 37.742649894434372 ], [ 127.002588399987189, 37.744711638957881 ], [ 127.006650609875791, 37.747702416084579 ], [ 127.005384080306513, 37.751991044465058 ], [ 127.00242437264545, 37.755166221477474 ], [ 127.001699514359146, 37.76142997113201 ] ] ] ] } },
{ "type": "Feature", "properties": { "emd_cd": "41150111", "emd_nm": "녹양동" }, "geometry": { "type": "MultiPolygon", "coordinates": [ [ [ [ 127.008511358214193, 37.762401907390391 ], [ 127.015960267381587, 37.768576296812029 ], [ 127.027248138411295, 37.766457195457271 ], [ 127.033834863535333, 37.768440095028055 ], [ 127.046397241196559, 37.764763182514145 ], [ 127.045513589602123, 37.763532626740393 ], [ 127.051186384924009, 37.761112552203869 ], [ 127.047657052401988, 37.752002901220223 ], [ 127.041054497839639, 37.759106022642342 ], [ 127.036460826305728, 37.754759516796916 ], [ 127.031458656252937, 37.756430641357746 ], [ 127.017941292892715, 37.755747335742051 ], [ 127.013284508508178, 37.761760198570286 ], [ 127.008511358214193, 37.762401907390391 ] ] ] ] } },
{ "type": "Feature", "properties": { "emd_cd": "41150112", "emd_nm": "고산동" }, "geometry": { "type": "MultiPolygon", "coordinates": [ [ [ [ 127.085410479440071, 37.714849265087707 ], [ 127.086469284409588, 37.721834661246767 ], [ 127.091480889422428, 37.727367079138588 ], [ 127.087599052802915, 37.729860816445758 ], [ 127.090142563003397, 37.730943123894377 ], [ 127.090544158119869, 37.733235195037686 ], [ 127.095033499304634, 37.735782389215061 ], [ 127.098395734915826, 37.734296672368146 ], [ 127.106960511004672, 37.74176041381093 ], [ 127.112308873114628, 37.74273055588931 ], [ 127.115200039267975, 37.746714761551935 ], [ 127.128477446408397, 37.747048565743825 ], [ 127.129040640540026, 37.74554466948841 ], [ 127.125018760976104, 37.742554734842621 ], [ 127.122330248686254, 37.73275280486294 ], [ 127.111770992744809, 37.734197484553107 ], [ 127.1051088715558, 37.728119324442915 ], [ 127.101925500014346, 37.727960472624289 ], [ 127.103215887359582, 37.724660758701809 ], [ 127.101015165871502, 37.723033080788369 ], [ 127.102712200207819, 37.719437743630714 ], [ 127.099359273748803, 37.715428981807193 ], [ 127.080075570563935, 37.710790800363924 ], [ 127.085410479440071, 37.714849265087707 ] ] ] ] } },
{ "type": "Feature", "properties": { "emd_cd": "41150113", "emd_nm": "산곡동" }, "geometry": { "type": "MultiPolygon", "coordinates": [ [ [ [ 127.080075570563935, 37.710790800363924 ], [ 127.099359273748803, 37.715428981807193 ], [ 127.102712200207819, 37.719437743630714 ], [ 127.101015165871502, 37.723033080788369 ], [ 127.103215887359582, 37.724660758701809 ], [ 127.101925500014346, 37.727960472624289 ], [ 127.1051088715558, 37.728119324442915 ], [ 127.110291365397941, 37.733304662791845 ], [ 127.117969798625211, 37.734012323230864 ], [ 127.122330248686254, 37.73275280486294 ], [ 127.123874989388923, 37.735003698599861 ], [ 127.12544147581724, 37.734433303029988 ], [ 127.125811203078428, 37.727456408102498 ], [ 127.123540159971114, 37.725948765734728 ], [ 127.123783663282424, 37.722760660462235 ], [ 127.118035582636082, 37.720890250025093 ], [ 127.115992721959543, 37.717020265420928 ], [ 127.111546158406924, 37.717296238511217 ], [ 127.109003772148682, 37.713311442806592 ], [ 127.108428924625585, 37.708174828646911 ], [ 127.1039144431697, 37.70717235648803 ], [ 127.096524286897662, 37.702136496482446 ], [ 127.094009679983458, 37.70367568980064 ], [ 127.084021130706148, 37.701856263393104 ], [ 127.079353988686364, 37.706366866733553 ], [ 127.080075570563935, 37.710790800363924 ] ] ] ] } }
]
}
