{
"type": "FeatureCollection",
"name": "41285",
"crs": { "type": "name", "properties": { "name": "urn:ogc:def:crs:OGC:1.3:CRS84" } },
"features": [
{ "type": "Feature", "properties": { "emd_cd": "41285101", "emd_nm": "식사동" }, "geometry": { "type": "MultiPolygon", "coordinates": [ [ [ [ 126.83474855476544, 37.68316056645417 ], [ 126.833553747270543, 37.677799406031973 ], [ 126.828032917440495, 37.676808906507446 ], [ 126.827162811339193, 37.674074069482629 ], [ 126.820957668425365, 37.671568692718267 ], [ 126.820365229757584, 37.66737668117927 ], [ 126.822727101704686, 37.663159311249991 ], [ 126.817412337654147, 37.664280838290608 ], [ 126.814321452231766, 37.660510503313709 ], [ 126.811109260292454, 37.659361766384812 ], [ 126.81157624919976, 37.664351906980897 ], [ 126.802136278421841, 37.667757724141396 ], [ 126.804950356000532, 37.674759297955177 ], [ 126.802936542675454, 37.675772669714448 ], [ 126.800371157228938, 37.67453294814942 ], [ 126.798317218613562, 37.676190059946123 ], [ 126.798721832576149, 37.684293085298961 ], [ 126.803587147679011, 37.686715046270663 ], [ 126.809064887356072, 37.685716198511145 ], [ 126.812559683654754, 37.688732976981932 ], [ 126.812700404829386, 37.692211750343851 ], [ 126.818650059637235, 37.694222806425678 ], [ 126.828044759152277, 37.690709079726432 ], [ 126.831635535446509, 37.691207587120907 ], [ 126.830975724743382, 37.686283651934367 ], [ 126.83474855476544, 37.68316056645417 ] ] ] ] } },
{ "type": "Feature", "properties": { "emd_cd": "41285102", "emd_nm": "중산동" }, "geometry": { "type": "MultiPolygon", "coordinates": [ [ [ [ 126.773298003237102, 37.680516077297085 ], [ 126.778122022644695, 37.679818782045231 ], [ 126.777147193248638, 37.690833063591022 ], [ 126.779422346516171, 37.697674178812647 ], [ 126.781825733710065, 37.699129597224335 ], [ 126.785172001624247, 37.698346537236972 ], [ 126.785465510470587, 37.695688998158168 ], [ 126.78923360489091, 37.69402932250383 ], [ 126.789778704240717, 37.688402182374986 ], [ 126.794649616609746, 37.684677754068687 ], [ 126.793871376610284, 37.679500588764107 ], [ 126.791300456398048, 37.678744175379997 ], [ 126.786496008679549, 37.673107064572577 ], [ 126.773298003237102, 37.680516077297085 ] ] ] ] } },
{ "type": "Feature", "properties": { "emd_cd": "41285103", "emd_nm": "정발산동" }, "geometry": { "type": "MultiPolygon", "coordinates": [ [ [ [ 126.767224387007161, 37.66609586339176 ], [ 126.777469302598675, 37.678695287477346 ], [ 126.784161510849543, 37.675258447171068 ], [ 126.788528678051847, 37.668086938982484 ], [ 126.78323527971159, 37.666130893788086 ], [ 126.7816104004377, 37.668909173969624 ], [ 126.770781685449904, 37.662474915169597 ], [ 126.767224387007161, 37.66609586339176 ] ] ] ] } },
{ "type": "Feature", "properties": { "emd_cd": "41285104", "emd_nm": "장항동" }, "geometry": { "type": "MultiPolygon", "coordinates": [ [ [ [ 126.732423992922548, 37.647478693929031 ], [ 126.743056144015952, 37.655078117216924 ], [ 126.745420762116709, 37.65477622270366 ], [ 126.745887068258213, 37.657128141367643 ], [ 126.743317233702413, 37.657534649361388 ], [ 126.748461852933985, 37.665004581179453 ], [ 126.755288527224167, 37.662028434279243 ], [ 126.758090267625562, 37.666084115547115 ], [ 126.762694595690789, 37.663287362071728 ], [ 126.767224387007161, 37.66609586339176 ], [ 126.781038879884605, 37.648303674625623 ], [ 126.776292072876657, 37.644330510918728 ], [ 126.78152555785482, 37.640466012342976 ], [ 126.779223211111088, 37.6380174855191 ], [ 126.782999194186104, 37.634934623829174 ], [ 126.780566101615037, 37.634084139057293 ], [ 126.780375054462482, 37.631841250570865 ], [ 126.782170741671038, 37.630702370925448 ], [ 126.762871120000682, 37.63532636902498 ], [ 126.759515938297824, 37.629688622872557 ], [ 126.745877277093825, 37.635286890921833 ], [ 126.732423992922548, 37.647478693929031 ] ] ] ] } },
{ "type": "Feature", "properties": { "emd_cd": "41285105", "emd_nm": "마두동" }, "geometry": { "type": "MultiPolygon", "coordinates": [ [ [ [ 126.781038879884605, 37.648303674625623 ], [ 126.770986086449597, 37.66260245093801 ], [ 126.7816104004377, 37.668909173969624 ], [ 126.78323527971159, 37.666130893788086 ], [ 126.788528678051847, 37.668086938982484 ], [ 126.796107201673451, 37.655187733965647 ], [ 126.781038879884605, 37.648303674625623 ] ] ] ] } },
{ "type": "Feature", "properties": { "emd_cd": "41285106", "emd_nm": "백석동" }, "geometry": { "type": "MultiPolygon", "coordinates": [ [ [ [ 126.781038879884605, 37.648303674625623 ], [ 126.796107201673451, 37.655187733965647 ], [ 126.793082962075601, 37.660855044697243 ], [ 126.803300257771667, 37.643412105144492 ], [ 126.802087581679316, 37.644908482316474 ], [ 126.798144362759203, 37.64396665604049 ], [ 126.795224357852604, 37.640429456871502 ], [ 126.794647418293579, 37.629006641753108 ], [ 126.790940058696577, 37.625623003806083 ], [ 126.780375054462482, 37.631841250570865 ], [ 126.780566101615037, 37.634084139057293 ], [ 126.782999194186104, 37.634934623829174 ], [ 126.779223211111088, 37.6380174855191 ], [ 126.78152555785482, 37.640466012342976 ], [ 126.776292072876657, 37.644330510918728 ], [ 126.781038879884605, 37.648303674625623 ] ] ] ] } },
{ "type": "Feature", "properties": { "emd_cd": "41285107", "emd_nm": "풍동" }, "geometry": { "type": "MultiPolygon", "coordinates": [ [ [ [ 126.797988028013776, 37.653835226992861 ], [ 126.785556475566935, 37.673096518576131 ], [ 126.788197878221098, 37.67381192062372 ], [ 126.787503845243634, 37.675383757424484 ], [ 126.793871376610284, 37.679500588764107 ], [ 126.793790778122471, 37.683200006968093 ], [ 126.796657356594039, 37.6851357072822 ], [ 126.799387506274229, 37.682086673566516 ], [ 126.798517009491476, 37.675294749472535 ], [ 126.804950356000532, 37.674759297955177 ], [ 126.802636032167385, 37.666940755911028 ], [ 126.807352886728154, 37.666750580841509 ], [ 126.811761498669696, 37.663866797342337 ], [ 126.809660947861943, 37.657852209036584 ], [ 126.806169422601585, 37.657175614312074 ], [ 126.804195182168996, 37.654598517961496 ], [ 126.797988028013776, 37.653835226992861 ] ] ] ] } },
{ "type": "Feature", "properties": { "emd_cd": "41285108", "emd_nm": "산황동" }, "geometry": { "type": "MultiPolygon", "coordinates": [ [ [ [ 126.797066093788658, 37.654090302180514 ], [ 126.804195182168996, 37.654598517961496 ], [ 126.811077295597016, 37.659355119664475 ], [ 126.812241071610558, 37.656657271697966 ], [ 126.816414647510726, 37.657015724333 ], [ 126.815567267147358, 37.653032628714278 ], [ 126.817769396124788, 37.649224327308389 ], [ 126.815507090012801, 37.648581720806909 ], [ 126.816003538821761, 37.644973377137177 ], [ 126.813041598385198, 37.644597661012988 ], [ 126.811872939893135, 37.64803183642583 ], [ 126.80364607300487, 37.643302802678633 ], [ 126.797066093788658, 37.654090302180514 ] ] ], [ [ [ 126.802340900418429, 37.655059493300683 ], [ 126.802476798593489, 37.655076129394338 ], [ 126.802535321055856, 37.655032792188592 ], [ 126.802340900418429, 37.655059493300683 ] ] ] ] } },
{ "type": "Feature", "properties": { "emd_cd": "41285109", "emd_nm": "사리현동" }, "geometry": { "type": "MultiPolygon", "coordinates": [ [ [ [ 126.829866986423667, 37.692395835868254 ], [ 126.833586378449937, 37.695858384813512 ], [ 126.838578177273476, 37.704973172565595 ], [ 126.831634862391653, 37.705401774795675 ], [ 126.838540845500944, 37.712145961215199 ], [ 126.838783445956935, 37.717542056998973 ], [ 126.842808648848404, 37.715396608359313 ], [ 126.84814446533386, 37.701459484945239 ], [ 126.855678355756694, 37.694659080401451 ], [ 126.856070460763348, 37.692730916128305 ], [ 126.853431491166504, 37.689823648089735 ], [ 126.853839060017236, 37.687963361067226 ], [ 126.849125672099873, 37.690430506058028 ], [ 126.848158031899658, 37.686091987235841 ], [ 126.841705483296579, 37.685551767141511 ], [ 126.839698476174988, 37.682311324438061 ], [ 126.83474855476544, 37.68316056645417 ], [ 126.831604075170588, 37.685516482723202 ], [ 126.832100038607408, 37.690862103303225 ], [ 126.829866986423667, 37.692395835868254 ] ] ] ] } },
{ "type": "Feature", "properties": { "emd_cd": "41285110", "emd_nm": "지영동" }, "geometry": { "type": "MultiPolygon", "coordinates": [ [ [ [ 126.8198783838385, 37.710793927439155 ], [ 126.818639187480841, 37.714982957805788 ], [ 126.824614553605997, 37.718394052619168 ], [ 126.825204293473661, 37.726427610447203 ], [ 126.831605527197027, 37.728991149038698 ], [ 126.833530221903999, 37.725412940693523 ], [ 126.834956049814608, 37.727891440401109 ], [ 126.836745019081221, 37.727482484675249 ], [ 126.841185077147202, 37.720401556845623 ], [ 126.840585435915671, 37.716357915207922 ], [ 126.838783445956935, 37.717542056998973 ], [ 126.838080274818722, 37.7164215009374 ], [ 126.838540845500944, 37.712145961215199 ], [ 126.831634862391653, 37.705401774795675 ], [ 126.829230957122491, 37.706772395203025 ], [ 126.826646595204664, 37.704546673500616 ], [ 126.824463190660495, 37.705006574934345 ], [ 126.8198783838385, 37.710793927439155 ] ] ] ] } },
{ "type": "Feature", "properties": { "emd_cd": "41285111", "emd_nm": "설문동" }, "geometry": { "type": "MultiPolygon", "coordinates": [ [ [ [ 126.785250941453882, 37.720759353481498 ], [ 126.793818231373791, 37.726149361053615 ], [ 126.795782022670963, 37.730185150501626 ], [ 126.795618657747184, 37.733250900608539 ], [ 126.793940003637729, 37.734580775688144 ], [ 126.798517354066462, 37.736996204733984 ], [ 126.801339843729536, 37.733956323568457 ], [ 126.800862352331691, 37.730133722760677 ], [ 126.804022384419881, 37.727271026136215 ], [ 126.809233254045651, 37.726666364145203 ], [ 126.814290377991199, 37.723437425409379 ], [ 126.816382348932919, 37.725426000979702 ], [ 126.821469053942749, 37.725459736793596 ], [ 126.822980130321071, 37.729163910086143 ], [ 126.825099895270128, 37.726157886195914 ], [ 126.824614553605997, 37.718394052619182 ], [ 126.818639187480784, 37.714982957805788 ], [ 126.819878383838471, 37.710793927439148 ], [ 126.813698896143535, 37.707825656283319 ], [ 126.810046068999512, 37.708040157425224 ], [ 126.809142791468048, 37.713244868460691 ], [ 126.802670183327379, 37.712957399000949 ], [ 126.796887418604285, 37.718660157387482 ], [ 126.793729322438409, 37.715218357878889 ], [ 126.790710048492727, 37.716159731208847 ], [ 126.785250941453882, 37.720759353481498 ] ] ] ] } },
{ "type": "Feature", "properties": { "emd_cd": "41285112", "emd_nm": "문봉동" }, "geometry": { "type": "MultiPolygon", "coordinates": [ [ [ [ 126.8198783838385, 37.710793927439155 ], [ 126.824958508457883, 37.704575880992159 ], [ 126.829230957122491, 37.706772395203025 ], [ 126.833551302707534, 37.704439936839449 ], [ 126.838578177273476, 37.704973172565595 ], [ 126.833586378449937, 37.695858384813512 ], [ 126.830590941169433, 37.69418882255917 ], [ 126.829580395011448, 37.69061348342904 ], [ 126.819075131831454, 37.694269143868404 ], [ 126.812700404829386, 37.692211750343851 ], [ 126.810806310001368, 37.694458689137278 ], [ 126.813963068241463, 37.696912085758889 ], [ 126.815079523177047, 37.700334602376842 ], [ 126.819464481954611, 37.703012864443707 ], [ 126.816842271172348, 37.705061322870769 ], [ 126.811346969384502, 37.706713518715681 ], [ 126.810503767146912, 37.707775024859664 ], [ 126.814255371706068, 37.707914115202719 ], [ 126.8198783838385, 37.710793927439155 ] ] ] ] } },
{ "type": "Feature", "properties": { "emd_cd": "41285113", "emd_nm": "성석동" }, "geometry": { "type": "MultiPolygon", "coordinates": [ [ [ [ 126.785250941453882, 37.720759353481505 ], [ 126.790710048492727, 37.716159731208833 ], [ 126.793729322438409, 37.715218357878889 ], [ 126.796887418604285, 37.718660157387482 ], [ 126.802670183327379, 37.712957399000928 ], [ 126.809142791468048, 37.713244868460684 ], [ 126.811208548001247, 37.706807851734084 ], [ 126.819374563257753, 37.703636644729123 ], [ 126.81080551529719, 37.694901783663362 ], [ 126.813001896659827, 37.691802742751094 ], [ 126.810959076358856, 37.686888641662897 ], [ 126.808046830112815, 37.685452621181881 ], [ 126.803388238065168, 37.686663708442566 ], [ 126.798900923983652, 37.683178624160291 ], [ 126.796657356594039, 37.6851357072822 ], [ 126.794649616609746, 37.684677754068687 ], [ 126.789778704240717, 37.688402182374986 ], [ 126.789844409776094, 37.692768210178706 ], [ 126.785465510470587, 37.695688998158168 ], [ 126.785172001624247, 37.698346537236972 ], [ 126.777117952914978, 37.700235137721094 ], [ 126.773686871627675, 37.702739820844194 ], [ 126.774410483079777, 37.711388318813214 ], [ 126.779354053046276, 37.717365001784238 ], [ 126.781851494991301, 37.717334543648143 ], [ 126.785250941453882, 37.720759353481505 ] ] ] ] } }
]
}
