{
"type": "FeatureCollection",
"name": "41290",
"crs": { "type": "name", "properties": { "name": "urn:ogc:def:crs:OGC:1.3:CRS84" } },
"features": [
{ "type": "Feature", "properties": { "emd_cd": "41290101", "emd_nm": "관문동" }, "geometry": { "type": "MultiPolygon", "coordinates": [ [ [ [ 126.999643092337436, 37.438442071167763 ], [ 126.993794001307649, 37.439534801781654 ], [ 126.993016960387351, 37.436147497842619 ], [ 126.988306553882765, 37.433933151786967 ], [ 126.970560121912172, 37.449470588578222 ], [ 126.971844053089256, 37.45165776831297 ], [ 126.974141251330011, 37.449135946378455 ], [ 126.984142763145172, 37.445087426174616 ], [ 126.995770698280552, 37.445513342996001 ], [ 126.999643092337436, 37.438442071167763 ] ] ] ] } },
{ "type": "Feature", "properties": { "emd_cd": "41290102", "emd_nm": "문원동" }, "geometry": { "type": "MultiPolygon", "coordinates": [ [ [ [ 126.991898294551135, 37.417638315321987 ], [ 126.987372478385041, 37.41737840538007 ], [ 126.990993671894515, 37.417725636397478 ], [ 126.991523349639095, 37.417750478174241 ], [ 126.992346321209666, 37.417847052179035 ], [ 127.001507888768984, 37.43106642804451 ], [ 127.004637742531074, 37.43083749435533 ], [ 127.012971708379169, 37.423552080700368 ], [ 127.013798989788967, 37.412958843586232 ], [ 127.009007189342142, 37.412297027459061 ], [ 127.006395303375456, 37.408138901098503 ], [ 127.000298412316297, 37.406308407497242 ], [ 126.990616990965094, 37.411873692526889 ], [ 126.991898294551135, 37.417638315321987 ] ] ] ] } },
{ "type": "Feature", "properties": { "emd_cd": "41290103", "emd_nm": "갈현동" }, "geometry": { "type": "MultiPolygon", "coordinates": [ [ [ [ 126.960936331253137, 37.42556872875786 ], [ 126.963981285930672, 37.431211280788823 ], [ 126.972460742844575, 37.421354159136953 ], [ 126.976983048743421, 37.423114677613391 ], [ 126.989181654135606, 37.423747196654546 ], [ 126.988646151172119, 37.419823868385578 ], [ 126.992699310233164, 37.418750595143443 ], [ 126.992346321209666, 37.417847052179035 ], [ 126.991523349639095, 37.417750478174241 ], [ 126.990993671894515, 37.417725636397478 ], [ 126.987372478385041, 37.41737840538007 ], [ 126.987173204869734, 37.417342133687342 ], [ 126.987011190879258, 37.417286557559173 ], [ 126.987011462438105, 37.417284251003167 ], [ 126.992098450819057, 37.417415331102156 ], [ 126.990616990965094, 37.411873692526889 ], [ 127.001472809158486, 37.406114056179732 ], [ 126.999679298166058, 37.404552865219564 ], [ 126.994295275523001, 37.404994335906927 ], [ 126.992106557431157, 37.407602552052417 ], [ 126.988273051614144, 37.407951021098924 ], [ 126.985753513321896, 37.406618204011195 ], [ 126.984659363879587, 37.402522631819664 ], [ 126.981991739780256, 37.400739187175297 ], [ 126.98015723703007, 37.403107860650771 ], [ 126.977302719412464, 37.403031030846165 ], [ 126.978649144190101, 37.40530013183858 ], [ 126.975923769828015, 37.405878096025674 ], [ 126.975808502274162, 37.411447257952148 ], [ 126.973235907180467, 37.415896768899977 ], [ 126.963933281747344, 37.418952715255536 ], [ 126.960936331253137, 37.42556872875786 ] ] ] ] } },
{ "type": "Feature", "properties": { "emd_cd": "41290104", "emd_nm": "막계동" }, "geometry": { "type": "MultiPolygon", "coordinates": [ [ [ [ 127.000207815180374, 37.437638829874814 ], [ 127.005771231192753, 37.435110620585661 ], [ 127.011083788752856, 37.44143455885628 ], [ 127.017174936114912, 37.440737222535461 ], [ 127.017545232913463, 37.439030564644575 ], [ 127.02060727628735, 37.438306771346852 ], [ 127.023278375367582, 37.440344227815181 ], [ 127.034590111538236, 37.441591860320003 ], [ 127.03568447127131, 37.439115390130112 ], [ 127.041197913546739, 37.437876403372719 ], [ 127.046391966856376, 37.433569724816977 ], [ 127.047394489515241, 37.430768823427968 ], [ 127.0423227132638, 37.428053778788737 ], [ 127.042271273903353, 37.415527143479032 ], [ 127.02787968135074, 37.41196774427182 ], [ 127.021823509213263, 37.412299025500005 ], [ 127.013334376795569, 37.413851532612284 ], [ 127.012971708379169, 37.423552080700368 ], [ 127.005797643763941, 37.43046717918633 ], [ 127.001507888768984, 37.43106642804451 ], [ 127.00230525679126, 37.43316501095898 ], [ 127.000207815180374, 37.437638829874814 ] ] ] ] } },
{ "type": "Feature", "properties": { "emd_cd": "41290105", "emd_nm": "과천동" }, "geometry": { "type": "MultiPolygon", "coordinates": [ [ [ [ 127.010790507389004, 37.455440641045975 ], [ 127.015878967510915, 37.453562427169572 ], [ 127.011339391715879, 37.447452338600399 ], [ 127.007287093504459, 37.445964863288957 ], [ 127.008744408252596, 37.442153161607429 ], [ 127.011083788752856, 37.44143455885628 ], [ 127.005771231192753, 37.435110620585661 ], [ 127.000207815180374, 37.437638829874814 ], [ 126.995770698280552, 37.445513342996001 ], [ 126.984142763145172, 37.445087426174616 ], [ 126.974141251330011, 37.449135946378455 ], [ 126.971844053089256, 37.45165776831297 ], [ 126.974637436749902, 37.454331712189877 ], [ 126.986649791080282, 37.457133753251526 ], [ 126.993319007930154, 37.461464336665919 ], [ 126.996721317078126, 37.461876895454054 ], [ 126.996201828866219, 37.466619867751803 ], [ 126.99738816614105, 37.467251536849894 ], [ 127.003662946962976, 37.467644760415276 ], [ 127.008531272291592, 37.457965350862715 ], [ 127.010790507389004, 37.455440641045975 ] ] ] ] } },
{ "type": "Feature", "properties": { "emd_cd": "41290106", "emd_nm": "주암동" }, "geometry": { "type": "MultiPolygon", "coordinates": [ [ [ [ 127.013404803917368, 37.455476230943511 ], [ 127.026109706159005, 37.457837751307657 ], [ 127.028444062236886, 37.460017494504839 ], [ 127.029526940448662, 37.465374570352729 ], [ 127.033140341793072, 37.46501740161834 ], [ 127.034693075126356, 37.464154714907544 ], [ 127.033731932740409, 37.461237077869477 ], [ 127.037173457459559, 37.455191984894633 ], [ 127.034801691375762, 37.452554126183017 ], [ 127.037762626716585, 37.449432358745312 ], [ 127.037468319458597, 37.443292023087608 ], [ 127.035223762332421, 37.441060843592275 ], [ 127.023278375367582, 37.440344227815181 ], [ 127.02060727628735, 37.438306771346852 ], [ 127.017545232913463, 37.439030564644575 ], [ 127.017174936114912, 37.440737222535461 ], [ 127.008744408252596, 37.442153161607429 ], [ 127.007287093504459, 37.445964863288957 ], [ 127.011339391715879, 37.447452338600399 ], [ 127.015878967510915, 37.453562427169572 ], [ 127.013404803917368, 37.455476230943511 ] ] ] ] } },
{ "type": "Feature", "properties": { "emd_cd": "41290107", "emd_nm": "중앙동" }, "geometry": { "type": "MultiPolygon", "coordinates": [ [ [ [ 126.997354827669184, 37.434652416052359 ], [ 126.989181654135606, 37.423747196654546 ], [ 126.987398213238009, 37.423328928297352 ], [ 126.971495136985467, 37.421758561845422 ], [ 126.970756605226839, 37.42462034184117 ], [ 126.966070968371525, 37.42740122293506 ], [ 126.963981285930672, 37.431211280788823 ], [ 126.963215809450915, 37.434852697368804 ], [ 126.965488215585822, 37.439223437537727 ], [ 126.96375201406893, 37.44081978801546 ], [ 126.964220576663479, 37.446264679307284 ], [ 126.970560121912172, 37.449470588578222 ], [ 126.989270187530082, 37.433694623310089 ], [ 126.993082827350548, 37.436216159411465 ], [ 126.99426859341807, 37.439514559144463 ], [ 126.997354827669184, 37.434652416052359 ] ] ] ] } },
{ "type": "Feature", "properties": { "emd_cd": "41290108", "emd_nm": "원문동" }, "geometry": { "type": "MultiPolygon", "coordinates": [ [ [ [ 126.989543877301159, 37.425695758802505 ], [ 126.995913892266941, 37.422112913588435 ], [ 126.992480766377327, 37.418648313871763 ], [ 126.988646151172119, 37.419823868385578 ], [ 126.989543877301159, 37.425695758802505 ] ] ] ] } },
{ "type": "Feature", "properties": { "emd_cd": "41290109", "emd_nm": "별양동" }, "geometry": { "type": "MultiPolygon", "coordinates": [ [ [ [ 126.997354827669184, 37.434652416052359 ], [ 126.998753331398348, 37.430961112864253 ], [ 127.000943210856533, 37.429820555849936 ], [ 126.995913892266941, 37.422112913588435 ], [ 126.989543877301159, 37.425695758802505 ], [ 126.997354827669184, 37.434652416052359 ] ] ] ] } },
{ "type": "Feature", "properties": { "emd_cd": "41290110", "emd_nm": "부림동" }, "geometry": { "type": "MultiPolygon", "coordinates": [ [ [ [ 126.998753331398348, 37.430961112864253 ], [ 126.99426859341807, 37.439514559144463 ], [ 126.99788315847789, 37.439577075201257 ], [ 127.000831633668213, 37.436751476988654 ], [ 127.00230525679126, 37.43316501095898 ], [ 127.000943210856533, 37.429820555849936 ], [ 126.998753331398348, 37.430961112864253 ] ] ] ] } }
]
}
