{
"type": "FeatureCollection",
"name": "41310",
"crs": { "type": "name", "properties": { "name": "urn:ogc:def:crs:OGC:1.3:CRS84" } },
"features": [
{ "type": "Feature", "properties": { "emd_cd": "41310101", "emd_nm": "갈매동" }, "geometry": { "type": "MultiPolygon", "coordinates": [ [ [ [ 127.10407551736553, 37.621638720014197 ], [ 127.105908490201756, 37.627573070405703 ], [ 127.112193926268816, 37.632709649624104 ], [ 127.112432942221616, 37.636550094705441 ], [ 127.110549308961993, 37.639126194310151 ], [ 127.112284748804399, 37.64018091925373 ], [ 127.111884178998466, 37.643462615158278 ], [ 127.127247364301198, 37.641217120613518 ], [ 127.131585688569288, 37.641906169847154 ], [ 127.127828593994536, 37.633098227332468 ], [ 127.126811062087299, 37.625866564488085 ], [ 127.116942777270793, 37.620838307890658 ], [ 127.116187506449407, 37.618884016926614 ], [ 127.110484463191241, 37.62101149853823 ], [ 127.105711583557024, 37.620227334550961 ], [ 127.10407551736553, 37.621638720014197 ] ] ] ] } },
{ "type": "Feature", "properties": { "emd_cd": "41310102", "emd_nm": "사노동" }, "geometry": { "type": "MultiPolygon", "coordinates": [ [ [ [ 127.127429615777459, 37.627132033578967 ], [ 127.127828593994536, 37.633098227332468 ], [ 127.131585688569288, 37.641906169847154 ], [ 127.140424163631778, 37.646279118381457 ], [ 127.146060492810761, 37.644252873993366 ], [ 127.149407599023178, 37.63937552592175 ], [ 127.149305829501898, 37.6350660195248 ], [ 127.144730056002601, 37.630068235429825 ], [ 127.143309764987379, 37.625202910026019 ], [ 127.135692446878309, 37.623995999680403 ], [ 127.135733356400308, 37.627313195050952 ], [ 127.127429615777459, 37.627132033578967 ] ] ] ] } },
{ "type": "Feature", "properties": { "emd_cd": "41310103", "emd_nm": "인창동" }, "geometry": { "type": "MultiPolygon", "coordinates": [ [ [ [ 127.115854889036655, 37.618533353851213 ], [ 127.116942777270793, 37.620838307890658 ], [ 127.12935404612, 37.627860856390612 ], [ 127.135733356400308, 37.627313195050952 ], [ 127.135692446878309, 37.623995999680403 ], [ 127.143309764987379, 37.625202910026019 ], [ 127.142989014088016, 37.622014540819265 ], [ 127.145960966293998, 37.618146215682053 ], [ 127.145542578014584, 37.613447177967934 ], [ 127.148014643801787, 37.609840211819474 ], [ 127.148832141997559, 37.604242522001265 ], [ 127.139069081831693, 37.600446707042693 ], [ 127.133880841151196, 37.60219626574461 ], [ 127.129358580787112, 37.601516017197255 ], [ 127.12186837242875, 37.606541696750732 ], [ 127.118063578676129, 37.605475301654351 ], [ 127.118417897978432, 37.607682537148023 ], [ 127.116665278478095, 37.60892652454443 ], [ 127.117133976170663, 37.617836920425709 ], [ 127.115854889036655, 37.618533353851213 ] ] ] ] } },
{ "type": "Feature", "properties": { "emd_cd": "41310104", "emd_nm": "교문동" }, "geometry": { "type": "MultiPolygon", "coordinates": [ [ [ [ 127.108960102667325, 37.58329390541202 ], [ 127.113223965982726, 37.593234900559573 ], [ 127.116594195756036, 37.59393873726124 ], [ 127.113943367477219, 37.599977150957258 ], [ 127.118063578676129, 37.605475301654351 ], [ 127.12186837242875, 37.606541696750732 ], [ 127.129358580787112, 37.601516017197255 ], [ 127.135476330096566, 37.601606124180805 ], [ 127.13883694579819, 37.592562742880155 ], [ 127.137935916991026, 37.584521419591738 ], [ 127.139842917849705, 37.582585532910045 ], [ 127.137865691413438, 37.580760670416645 ], [ 127.129009971380214, 37.577329619427367 ], [ 127.12683251369431, 37.579514211413333 ], [ 127.121446111476729, 37.578951986689262 ], [ 127.116185766717479, 37.581158069815814 ], [ 127.112429606363946, 37.58030931678303 ], [ 127.108960102667325, 37.58329390541202 ] ] ] ] } },
{ "type": "Feature", "properties": { "emd_cd": "41310105", "emd_nm": "수택동" }, "geometry": { "type": "MultiPolygon", "coordinates": [ [ [ [ 127.135866091672455, 37.600582029791816 ], [ 127.14019278796988, 37.60059828892846 ], [ 127.148832141997559, 37.604242522001265 ], [ 127.150606564292232, 37.599952780438656 ], [ 127.153656130216163, 37.597432209898983 ], [ 127.166651682961472, 37.594830229430428 ], [ 127.16896006295589, 37.591792708451308 ], [ 127.162011012474835, 37.589358919645782 ], [ 127.154974187262965, 37.592531118346677 ], [ 127.156622610027213, 37.593468365440607 ], [ 127.150749434297282, 37.594858604010419 ], [ 127.149519021082682, 37.590855821008155 ], [ 127.145537983743168, 37.591242564280392 ], [ 127.141896450922275, 37.588982867724866 ], [ 127.141728688851757, 37.583984907984188 ], [ 127.139237042420547, 37.582743985803667 ], [ 127.137935916991026, 37.584521419591738 ], [ 127.13883694579819, 37.592562742880155 ], [ 127.135866091672455, 37.600582029791816 ] ] ] ] } },
{ "type": "Feature", "properties": { "emd_cd": "41310106", "emd_nm": "아천동" }, "geometry": { "type": "MultiPolygon", "coordinates": [ [ [ [ 127.100802013210142, 37.574436667602335 ], [ 127.103428958916908, 37.580534297069121 ], [ 127.108960102667325, 37.58329390541202 ], [ 127.112429606363946, 37.58030931678303 ], [ 127.116185766717479, 37.581158069815814 ], [ 127.121446111476729, 37.578951986689262 ], [ 127.12683251369431, 37.579514211413333 ], [ 127.131700234796909, 37.571602029996193 ], [ 127.128781302135238, 37.569729032440371 ], [ 127.130955387757268, 37.566499150735993 ], [ 127.123436883843837, 37.563333080193324 ], [ 127.115770180486066, 37.556880187516441 ], [ 127.11229700466329, 37.559000615014703 ], [ 127.104930242980259, 37.556421799078294 ], [ 127.10116661490909, 37.561072915184994 ], [ 127.104282107123765, 37.571460350868101 ], [ 127.100802013210142, 37.574436667602335 ] ] ] ] } },
{ "type": "Feature", "properties": { "emd_cd": "41310107", "emd_nm": "토평동" }, "geometry": { "type": "MultiPolygon", "coordinates": [ [ [ [ 127.128660305769898, 37.576679123958364 ], [ 127.141398245382604, 37.583512228693834 ], [ 127.141836192592706, 37.588909959630151 ], [ 127.145537983743168, 37.591242564280392 ], [ 127.149519021082682, 37.590855821008155 ], [ 127.150749434297282, 37.594858604010419 ], [ 127.156622610027213, 37.593468365440607 ], [ 127.154974187262965, 37.592531118346677 ], [ 127.162011012474835, 37.589358919645782 ], [ 127.16068011869568, 37.5877712952474 ], [ 127.161260562901049, 37.585378343076023 ], [ 127.170602998676429, 37.580978552441543 ], [ 127.149361805112861, 37.568186467600057 ], [ 127.138063020980553, 37.568200688008119 ], [ 127.130955387757268, 37.566499150735993 ], [ 127.128781302135238, 37.569729032440371 ], [ 127.131700234796909, 37.571602029996193 ], [ 127.128660305769898, 37.576679123958364 ] ] ] ] } }
]
}
