{
"type": "FeatureCollection",
"name": "41410",
"crs": { "type": "name", "properties": { "name": "urn:ogc:def:crs:OGC:1.3:CRS84" } },
"features": [
{ "type": "Feature", "properties": { "emd_cd": "41410101", "emd_nm": "당동" }, "geometry": { "type": "MultiPolygon", "coordinates": [ [ [ [ 126.926983084734729, 37.34012357760276 ], [ 126.942214183218567, 37.35839409154341 ], [ 126.94983809603076, 37.361252748104114 ], [ 126.949596233221698, 37.354394101270294 ], [ 126.951058556920898, 37.351774194822383 ], [ 126.949754584470497, 37.34687129809253 ], [ 126.945777397761447, 37.344126743234256 ], [ 126.946605361659678, 37.342210952365505 ], [ 126.94093344295905, 37.339449521978274 ], [ 126.936181723246847, 37.340860852217169 ], [ 126.93307938706549, 37.339478010326445 ], [ 126.926983084734729, 37.34012357760276 ] ] ] ] } },
{ "type": "Feature", "properties": { "emd_cd": "41410102", "emd_nm": "당정동" }, "geometry": { "type": "MultiPolygon", "coordinates": [ [ [ [ 126.949838096030774, 37.361252748104135 ], [ 126.952864901845871, 37.365742541947768 ], [ 126.957017973918724, 37.36603465662256 ], [ 126.962086552819258, 37.361579912431949 ], [ 126.960582146789093, 37.356549743756759 ], [ 126.962440715612146, 37.355112847498567 ], [ 126.961417141319984, 37.349856469043772 ], [ 126.958364279298479, 37.347281490704034 ], [ 126.957685665450555, 37.344372678016398 ], [ 126.954433478417087, 37.341284416370684 ], [ 126.950482975985182, 37.341831483507242 ], [ 126.94832170146212, 37.340336707493805 ], [ 126.947187406571871, 37.331585052200033 ], [ 126.946200955902356, 37.338181406360448 ], [ 126.94093344295905, 37.339449521978295 ], [ 126.946605361659678, 37.342210952365505 ], [ 126.945777397761447, 37.344126743234263 ], [ 126.949754584470497, 37.346871298092559 ], [ 126.95105855692087, 37.351774194822362 ], [ 126.949596233221669, 37.354394101270294 ], [ 126.949838096030774, 37.361252748104135 ] ] ] ] } },
{ "type": "Feature", "properties": { "emd_cd": "41410103", "emd_nm": "부곡동" }, "geometry": { "type": "MultiPolygon", "coordinates": [ [ [ [ 126.936181723246847, 37.340860852217169 ], [ 126.946200955902356, 37.338181406360448 ], [ 126.947187406571871, 37.331585052200033 ], [ 126.948238123221813, 37.33423610014966 ], [ 126.948055664623112, 37.326745817733077 ], [ 126.946607791165988, 37.326421893983273 ], [ 126.945448072694688, 37.320139218329494 ], [ 126.935740400092882, 37.322831821019705 ], [ 126.934911897931983, 37.320594344447613 ], [ 126.929742239676798, 37.317254172805946 ], [ 126.924056156429984, 37.321150121588765 ], [ 126.923958729782697, 37.333046670297655 ], [ 126.92709566328837, 37.336450842907773 ], [ 126.926900713815044, 37.340035117302051 ], [ 126.93307938706549, 37.339478010326445 ], [ 126.936181723246847, 37.340860852217169 ] ] ] ] } },
{ "type": "Feature", "properties": { "emd_cd": "41410104", "emd_nm": "산본동" }, "geometry": { "type": "MultiPolygon", "coordinates": [ [ [ [ 126.903775112188939, 37.359955824343288 ], [ 126.906439086344363, 37.361528031356222 ], [ 126.912348675425889, 37.373483467355499 ], [ 126.918759899121838, 37.377346392201886 ], [ 126.922192154467183, 37.376317574397696 ], [ 126.932179363239911, 37.377774461537165 ], [ 126.934857773265449, 37.376089647950344 ], [ 126.939933956144969, 37.375922873202605 ], [ 126.941636729701102, 37.377364204235526 ], [ 126.940252102529072, 37.378672367043286 ], [ 126.945017826891714, 37.376645621163796 ], [ 126.945466811271189, 37.374047858114949 ], [ 126.942611875834544, 37.372638693208714 ], [ 126.942992083406068, 37.369218372620189 ], [ 126.939047883869904, 37.366601148178383 ], [ 126.939266658313969, 37.365237931351004 ], [ 126.938627295811386, 37.366196007337081 ], [ 126.935171707356844, 37.363347313098174 ], [ 126.934197774457942, 37.365064232081671 ], [ 126.931941802127142, 37.361950985514163 ], [ 126.934721115093112, 37.358693417741854 ], [ 126.926899228048214, 37.353570675359883 ], [ 126.93248039792617, 37.346807896202783 ], [ 126.92726721908808, 37.340428734527372 ], [ 126.915575239180953, 37.341361037531541 ], [ 126.909345857457268, 37.345448838142886 ], [ 126.910043519008923, 37.351882836527757 ], [ 126.903775112188939, 37.359955824343288 ] ] ] ] } },
{ "type": "Feature", "properties": { "emd_cd": "41410105", "emd_nm": "금정동" }, "geometry": { "type": "MultiPolygon", "coordinates": [ [ [ [ 126.953813722205012, 37.366071980586021 ], [ 126.948436645783474, 37.360079368929931 ], [ 126.946214977703178, 37.360226578099436 ], [ 126.940134603001169, 37.356536514150676 ], [ 126.93248039792617, 37.346807896202783 ], [ 126.926899228048185, 37.353570675359883 ], [ 126.934721115093083, 37.358693417741847 ], [ 126.931941802127142, 37.361950985514163 ], [ 126.934197774457942, 37.365064232081643 ], [ 126.935171707356844, 37.363347313098167 ], [ 126.942083655364442, 37.368197786229338 ], [ 126.942611875834544, 37.372638693208735 ], [ 126.945466811271189, 37.374047858114949 ], [ 126.944278061729875, 37.375130708822013 ], [ 126.945143719387218, 37.376728944263007 ], [ 126.947064373521712, 37.375325004275531 ], [ 126.945618898528451, 37.374031891961799 ], [ 126.947931837442184, 37.369310815225617 ], [ 126.953813722205012, 37.366071980586021 ] ] ] ] } },
{ "type": "Feature", "properties": { "emd_cd": "41410106", "emd_nm": "둔대동" }, "geometry": { "type": "MultiPolygon", "coordinates": [ [ [ [ 126.88186210528761, 37.33440535781267 ], [ 126.89535155710098, 37.333683020996858 ], [ 126.896209646972977, 37.335893341149507 ], [ 126.899878097224587, 37.337253057871315 ], [ 126.904425441183605, 37.328542333996211 ], [ 126.907493597604827, 37.327541736621534 ], [ 126.912433080939621, 37.330579326249911 ], [ 126.91533151846744, 37.327618479956023 ], [ 126.912808273274095, 37.323585221270662 ], [ 126.895214853855322, 37.318510745045764 ], [ 126.891420011085671, 37.319879700508046 ], [ 126.887904507070616, 37.317711887937584 ], [ 126.887363528834385, 37.317657377882377 ], [ 126.882791556359251, 37.321015724819723 ], [ 126.878009381047988, 37.319518632862319 ], [ 126.873738472808128, 37.321240238654589 ], [ 126.872755003929186, 37.329647582392838 ], [ 126.88186210528761, 37.33440535781267 ] ] ] ] } },
{ "type": "Feature", "properties": { "emd_cd": "41410107", "emd_nm": "속달동" }, "geometry": { "type": "MultiPolygon", "coordinates": [ [ [ [ 126.916331206251741, 37.341196742063104 ], [ 126.911673113406081, 37.334943763097087 ], [ 126.913763923579197, 37.332474237733187 ], [ 126.907493597604827, 37.327541736621534 ], [ 126.904425441183605, 37.328542333996211 ], [ 126.899878097224587, 37.337253057871315 ], [ 126.896209646972977, 37.335893341149507 ], [ 126.89535155710098, 37.333683020996858 ], [ 126.890291935022717, 37.334896656590125 ], [ 126.885075636620471, 37.333471688218225 ], [ 126.880976333762078, 37.335302689196524 ], [ 126.886160346107758, 37.339874755660453 ], [ 126.886855288034695, 37.346911613429143 ], [ 126.891711603246307, 37.351184926484478 ], [ 126.891220523497765, 37.352838717252084 ], [ 126.893868641455541, 37.353733824769044 ], [ 126.896382286700174, 37.359489010095828 ], [ 126.903775112188939, 37.359955824343288 ], [ 126.905618942401802, 37.358528369668768 ], [ 126.910043519008923, 37.351882836527757 ], [ 126.909345857457268, 37.345448838142886 ], [ 126.916331206251741, 37.341196742063104 ] ] ] ] } },
{ "type": "Feature", "properties": { "emd_cd": "41410108", "emd_nm": "대야미동" }, "geometry": { "type": "MultiPolygon", "coordinates": [ [ [ [ 126.907664359927381, 37.321848094832973 ], [ 126.914732359817322, 37.325762714305036 ], [ 126.915153965729687, 37.328578104182412 ], [ 126.912433080939621, 37.330579326249911 ], [ 126.913958173676477, 37.333542915121726 ], [ 126.911673113406081, 37.334943763097087 ], [ 126.916331206251741, 37.341196742063104 ], [ 126.92726721908808, 37.340428734527372 ], [ 126.92709566328837, 37.336450842907773 ], [ 126.923958729782697, 37.333046670297655 ], [ 126.924944618320893, 37.32897613234676 ], [ 126.923270000673156, 37.319498005544361 ], [ 126.9180847189498, 37.319498437241556 ], [ 126.914606986835238, 37.31578694911429 ], [ 126.912563371930304, 37.315567211125433 ], [ 126.910233045543478, 37.316645875838191 ], [ 126.911834413151141, 37.318371115158996 ], [ 126.907664359927381, 37.321848094832973 ] ] ] ] } },
{ "type": "Feature", "properties": { "emd_cd": "41410109", "emd_nm": "도마교동" }, "geometry": { "type": "MultiPolygon", "coordinates": [ [ [ [ 126.914266710228816, 37.311248594675583 ], [ 126.915079890400918, 37.317170731752029 ], [ 126.9180847189498, 37.319498437241556 ], [ 126.923270000673156, 37.319498005544361 ], [ 126.924310580785658, 37.320981120207115 ], [ 126.929300317827057, 37.318403947213049 ], [ 126.930040691444717, 37.312903059987164 ], [ 126.932879367188988, 37.308408215774996 ], [ 126.916366723572708, 37.305040176487367 ], [ 126.915042136274238, 37.30557251686556 ], [ 126.916576603813084, 37.306895166065381 ], [ 126.914266710228816, 37.311248594675583 ] ] ] ] } }
]
}
