{
"type": "FeatureCollection",
"name": "41430",
"crs": { "type": "name", "properties": { "name": "urn:ogc:def:crs:OGC:1.3:CRS84" } },
"features": [
{ "type": "Feature", "properties": { "emd_cd": "41430101", "emd_nm": "고천동" }, "geometry": { "type": "MultiPolygon", "coordinates": [ [ [ [ 126.961794153678028, 37.355782811537701 ], [ 126.970332988471185, 37.353651455009619 ], [ 126.97331265581731, 37.349671390627016 ], [ 126.98130170183758, 37.349359838903801 ], [ 126.974753410716687, 37.34711494013812 ], [ 126.979284276115408, 37.340321130460019 ], [ 126.976813566631165, 37.336416478411138 ], [ 126.971725537925607, 37.334228792010357 ], [ 126.969657015928576, 37.337757311584575 ], [ 126.964470042823606, 37.340322330647453 ], [ 126.964297244252506, 37.342595629668573 ], [ 126.958380547614524, 37.347114375046893 ], [ 126.961456432964681, 37.349870195904309 ], [ 126.961794153678028, 37.355782811537701 ] ] ] ] } },
{ "type": "Feature", "properties": { "emd_cd": "41430102", "emd_nm": "이동" }, "geometry": { "type": "MultiPolygon", "coordinates": [ [ [ [ 126.947287915095785, 37.326222711570459 ], [ 126.947353062569505, 37.326363193231252 ], [ 126.947441426774276, 37.326303910133305 ], [ 126.947287915095785, 37.326222711570459 ] ] ], [ [ [ 126.971821006803353, 37.333438185250515 ], [ 126.968611821075626, 37.326116374364993 ], [ 126.956495418131922, 37.329755941777009 ], [ 126.956227623773501, 37.332231711124919 ], [ 126.948069831575737, 37.32675190605238 ], [ 126.948340603064537, 37.34032152473884 ], [ 126.950492529237664, 37.341822540469188 ], [ 126.954468624068014, 37.341314074007983 ], [ 126.958380547614524, 37.347114375046893 ], [ 126.964297244252506, 37.342595629668573 ], [ 126.964470042823606, 37.340322330647453 ], [ 126.969657015928576, 37.337757311584575 ], [ 126.971821006803353, 37.333438185250515 ] ] ] ] } },
{ "type": "Feature", "properties": { "emd_cd": "41430103", "emd_nm": "삼동" }, "geometry": { "type": "MultiPolygon", "coordinates": [ [ [ [ 126.945537152093394, 37.316962340172154 ], [ 126.946651260395271, 37.326380034487762 ], [ 126.953015362830996, 37.329022096559804 ], [ 126.956144719778237, 37.332217668438666 ], [ 126.956495418131922, 37.329755941777009 ], [ 126.968611821075626, 37.326116374364993 ], [ 126.966873464726135, 37.32316397413625 ], [ 126.969632461711356, 37.320555260880951 ], [ 126.965047690312161, 37.316745225703734 ], [ 126.950069255543994, 37.314716082459221 ], [ 126.945537152093394, 37.316962340172154 ] ] ] ] } },
{ "type": "Feature", "properties": { "emd_cd": "41430104", "emd_nm": "왕곡동" }, "geometry": { "type": "MultiPolygon", "coordinates": [ [ [ [ 126.971301402368198, 37.331732774888096 ], [ 126.972227271960364, 37.334190876005096 ], [ 126.976813566631165, 37.336416478411138 ], [ 126.979284567406538, 37.340213422192761 ], [ 126.974753410716687, 37.34711494013812 ], [ 126.98380473570657, 37.349094402499261 ], [ 126.987913543634207, 37.35166160561986 ], [ 126.990753332293224, 37.350357461881018 ], [ 126.992523152733966, 37.35261254219936 ], [ 126.994219465505964, 37.351826409573313 ], [ 126.996358891807986, 37.35340841833488 ], [ 127.000804565869615, 37.352138313545439 ], [ 127.017249547791465, 37.353651182923443 ], [ 127.018294653605011, 37.350798954970983 ], [ 127.014219036187114, 37.349191292211621 ], [ 127.008871574235812, 37.339153091471928 ], [ 127.000539448964432, 37.338486757256447 ], [ 126.991457004571245, 37.333934613567735 ], [ 126.989432893495319, 37.33012641519602 ], [ 126.982559402627345, 37.326691770408615 ], [ 126.971301402368198, 37.331732774888096 ] ] ] ] } },
{ "type": "Feature", "properties": { "emd_cd": "41430105", "emd_nm": "오전동" }, "geometry": { "type": "MultiPolygon", "coordinates": [ [ [ [ 126.96060400265921, 37.356563852290833 ], [ 126.962066603900581, 37.361650167317514 ], [ 126.966182552345586, 37.362253628799721 ], [ 126.964414467304692, 37.364998854814978 ], [ 126.966560290408736, 37.373809507661925 ], [ 126.976594468193866, 37.368082425096908 ], [ 126.981348171328847, 37.369176789506973 ], [ 126.990966378009148, 37.36420797091813 ], [ 126.994099073491213, 37.364544919733547 ], [ 127.00548201958857, 37.360799527803884 ], [ 127.015873770195157, 37.35402151548049 ], [ 127.010171466742605, 37.352281468339683 ], [ 126.996358891807986, 37.35340841833488 ], [ 126.994219465505964, 37.351826409573313 ], [ 126.992523152733966, 37.35261254219936 ], [ 126.990753332293224, 37.350357461881018 ], [ 126.987913543634207, 37.35166160561986 ], [ 126.981810141737213, 37.348601876886562 ], [ 126.97331265581731, 37.349671390627016 ], [ 126.970332988471185, 37.353651455009619 ], [ 126.96060400265921, 37.356563852290833 ] ] ] ] } },
{ "type": "Feature", "properties": { "emd_cd": "41430106", "emd_nm": "학의동" }, "geometry": { "type": "MultiPolygon", "coordinates": [ [ [ [ 126.994099073491213, 37.364544919733547 ], [ 127.000411676333897, 37.373870349626294 ], [ 127.001419228637005, 37.377391640657464 ], [ 126.993876716666705, 37.381100855456921 ], [ 126.993349009777603, 37.385890255334026 ], [ 127.004189631941856, 37.38536253824617 ], [ 127.0064541899566, 37.386890904231436 ], [ 127.002587060187096, 37.389625567914102 ], [ 127.007544701128722, 37.392947841403334 ], [ 127.029784896423308, 37.390243740991096 ], [ 127.035202476750328, 37.387975113797687 ], [ 127.031979978291162, 37.379593758471792 ], [ 127.02821489224138, 37.37918179529801 ], [ 127.027937323294779, 37.369370122396489 ], [ 127.01660793503352, 37.357602792957877 ], [ 127.017249547791465, 37.353651182923443 ], [ 127.00548201958857, 37.360799527803884 ], [ 126.995079150936647, 37.363515445013448 ], [ 126.994099073491213, 37.364544919733547 ] ] ] ] } },
{ "type": "Feature", "properties": { "emd_cd": "41430107", "emd_nm": "내손동" }, "geometry": { "type": "MultiPolygon", "coordinates": [ [ [ [ 126.974221142137623, 37.38882790805566 ], [ 126.985258416794409, 37.391868029507201 ], [ 126.988079504960865, 37.388877101936039 ], [ 126.986599761359201, 37.387377255653234 ], [ 126.990951545041185, 37.383053629551441 ], [ 126.990919633866568, 37.381221453960272 ], [ 126.997061875164192, 37.380471666786775 ], [ 127.001067989546414, 37.37822131482465 ], [ 127.000411676333897, 37.373870349626294 ], [ 126.9951759334635, 37.367992038887891 ], [ 126.994099073491213, 37.364544919733547 ], [ 126.990966378009148, 37.36420797091813 ], [ 126.981348171328847, 37.369176789506973 ], [ 126.976594468193866, 37.368082425096908 ], [ 126.966560290408736, 37.373809507661925 ], [ 126.972550979725696, 37.380657499305912 ], [ 126.974221142137623, 37.38882790805566 ] ] ] ] } },
{ "type": "Feature", "properties": { "emd_cd": "41430108", "emd_nm": "청계동" }, "geometry": { "type": "MultiPolygon", "coordinates": [ [ [ [ 127.032518336073935, 37.388897307892385 ], [ 127.007544701128722, 37.392947841403334 ], [ 127.002587060187096, 37.389625567914102 ], [ 127.0064541899566, 37.386890904231436 ], [ 127.002863995634698, 37.384803921635474 ], [ 126.998272820012673, 37.38581481635309 ], [ 126.996527161976914, 37.389323239998475 ], [ 126.99208648373903, 37.39048934321854 ], [ 126.997721559076822, 37.393219085973605 ], [ 126.997496826917512, 37.396069250125166 ], [ 127.000039787279022, 37.399246970989218 ], [ 126.997810213481614, 37.402283600689756 ], [ 127.00196168553849, 37.407108854901232 ], [ 127.00684700990449, 37.408864034723571 ], [ 127.008765477342678, 37.412456864079822 ], [ 127.012000048639166, 37.412074691366442 ], [ 127.013338719278707, 37.413954274575083 ], [ 127.027590830160094, 37.412034348086749 ], [ 127.041327825346343, 37.415731562107702 ], [ 127.046893501632724, 37.413707848604624 ], [ 127.046731412352131, 37.410693286102195 ], [ 127.042302984892473, 37.40726119140637 ], [ 127.043366491564939, 37.403890129307456 ], [ 127.037220753125467, 37.401276375993888 ], [ 127.038869949782224, 37.391967178275742 ], [ 127.037284543149084, 37.389587149461306 ], [ 127.032518336073935, 37.388897307892385 ] ] ] ] } },
{ "type": "Feature", "properties": { "emd_cd": "41430109", "emd_nm": "포일동" }, "geometry": { "type": "MultiPolygon", "coordinates": [ [ [ [ 126.987971452583238, 37.388801584486842 ], [ 126.984015408430963, 37.392487660560519 ], [ 126.977192149222702, 37.390725068192658 ], [ 126.982742380872693, 37.394803425515093 ], [ 126.979773277465952, 37.396339264302341 ], [ 126.984670928073243, 37.402527426860324 ], [ 126.985773136612039, 37.406652183828761 ], [ 126.990045770541045, 37.408251946389228 ], [ 126.994335457375115, 37.405038920493496 ], [ 126.999757950298843, 37.404674620356204 ], [ 126.997810213481614, 37.402283600689756 ], [ 127.000039787279022, 37.399246970989218 ], [ 126.997496826917512, 37.396069250125166 ], [ 126.997721559076822, 37.393219085973605 ], [ 126.99208648373903, 37.39048934321854 ], [ 126.996527161976914, 37.389323239998475 ], [ 126.998174237265246, 37.386464329197565 ], [ 126.993349009777603, 37.385890255334026 ], [ 126.993876716666705, 37.381100855456921 ], [ 126.990919633866568, 37.381221453960272 ], [ 126.990951545041185, 37.383053629551441 ], [ 126.986599761359201, 37.387377255653234 ], [ 126.987971452583238, 37.388801584486842 ] ] ] ] } },
{ "type": "Feature", "properties": { "emd_cd": "41430110", "emd_nm": "월암동" }, "geometry": { "type": "MultiPolygon", "coordinates": [ [ [ [ 126.96643418790525, 37.317676585641188 ], [ 126.966599622377615, 37.309034430516412 ], [ 126.96198159513078, 37.302397894243661 ], [ 126.954363452935127, 37.303141715488628 ], [ 126.950960350367666, 37.300419806817196 ], [ 126.945241990481676, 37.300652034745944 ], [ 126.948483221957474, 37.303160842809824 ], [ 126.94681021382533, 37.305000802046202 ], [ 126.948615118496434, 37.309978704040248 ], [ 126.946119800660099, 37.312074677338501 ], [ 126.945796605420909, 37.316253895127382 ], [ 126.951548656972179, 37.314778544737642 ], [ 126.96643418790525, 37.317676585641188 ] ] ] ] } },
{ "type": "Feature", "properties": { "emd_cd": "41430111", "emd_nm": "초평동" }, "geometry": { "type": "MultiPolygon", "coordinates": [ [ [ [ 126.929277131592642, 37.316708831774456 ], [ 126.934911325065869, 37.320591496882649 ], [ 126.935739490351068, 37.322840037869355 ], [ 126.945994538365071, 37.320668026939536 ], [ 126.945845670870966, 37.312837637867105 ], [ 126.948615118496434, 37.309978704040248 ], [ 126.94681021382533, 37.305000802046202 ], [ 126.94822307561266, 37.302761002522274 ], [ 126.942386933849392, 37.300339607754211 ], [ 126.931749808317278, 37.303623869692814 ], [ 126.930222949589563, 37.307245238397812 ], [ 126.932887248544347, 37.308412004662578 ], [ 126.929277131592642, 37.316708831774456 ] ] ] ] } }
]
}
