{
"type": "FeatureCollection",
"name": "41500",
"crs": { "type": "name", "properties": { "name": "urn:ogc:def:crs:OGC:1.3:CRS84" } },
"features": [
{ "type": "Feature", "properties": { "emd_cd": "41500101", "emd_nm": "창전동" }, "geometry": { "type": "MultiPolygon", "coordinates": [ [ [ [ 127.45310303707042, 37.284939906256227 ], [ 127.455056951761165, 37.282857620098184 ], [ 127.452455848959602, 37.282130383739336 ], [ 127.452162468595176, 37.277527018968406 ], [ 127.449135128785244, 37.27708835191082 ], [ 127.443809359531642, 37.28029241364829 ], [ 127.44040607810031, 37.280504206712195 ], [ 127.440819937299537, 37.282915977706153 ], [ 127.434313249991916, 37.287657189418709 ], [ 127.435406357029947, 37.288996696234527 ], [ 127.446239902938871, 37.286483169511406 ], [ 127.4466859394404, 37.287472169124527 ], [ 127.449438844669686, 37.287051728011932 ], [ 127.450412338444465, 37.284589153916173 ], [ 127.45310303707042, 37.284939906256227 ] ] ] ] } },
{ "type": "Feature", "properties": { "emd_cd": "41500102", "emd_nm": "관고동" }, "geometry": { "type": "MultiPolygon", "coordinates": [ [ [ [ 127.429074722222381, 37.272730397073317 ], [ 127.41831286248896, 37.266887963955568 ], [ 127.416648868316329, 37.269373340359223 ], [ 127.416925063989211, 37.272589175467743 ], [ 127.414274644718091, 37.274328364167395 ], [ 127.413272196172258, 37.282224983601999 ], [ 127.416293542005434, 37.284905962000501 ], [ 127.419267872650053, 37.285307848105838 ], [ 127.424403443219376, 37.290674011238302 ], [ 127.430493155696936, 37.291189171839029 ], [ 127.435217739563825, 37.289284228556447 ], [ 127.435348984789329, 37.286367500682623 ], [ 127.440819937299537, 37.282915977706153 ], [ 127.44040607810031, 37.280504206712195 ], [ 127.437932599394202, 37.280327469625753 ], [ 127.436862463159542, 37.276362210571733 ], [ 127.433001619606372, 37.276965373330292 ], [ 127.429074722222381, 37.272730397073317 ] ] ] ] } },
{ "type": "Feature", "properties": { "emd_cd": "41500103", "emd_nm": "중리동" }, "geometry": { "type": "MultiPolygon", "coordinates": [ [ [ [ 127.429070773266176, 37.273184492890906 ], [ 127.433001619606372, 37.276965373330277 ], [ 127.436862463159542, 37.276362210571719 ], [ 127.437932599394202, 37.28032746962576 ], [ 127.439369086424364, 37.28055165641122 ], [ 127.444447208355527, 37.27999953821044 ], [ 127.449450605537052, 37.277068056903246 ], [ 127.451130291761871, 37.274223908540826 ], [ 127.448854976526604, 37.271332637633087 ], [ 127.446033336563801, 37.270917206100513 ], [ 127.445437472430015, 37.268678083298745 ], [ 127.435919220690678, 37.268865717491146 ], [ 127.436098740061311, 37.271537811626281 ], [ 127.432832205365656, 37.270417139067192 ], [ 127.429070773266176, 37.273184492890906 ] ] ] ] } },
{ "type": "Feature", "properties": { "emd_cd": "41500104", "emd_nm": "증일동" }, "geometry": { "type": "MultiPolygon", "coordinates": [ [ [ [ 127.417392009600064, 37.264334479804404 ], [ 127.41831286248896, 37.266887963955568 ], [ 127.429074722222381, 37.272730397073303 ], [ 127.432832205365656, 37.270417139067192 ], [ 127.436098740061311, 37.271537811626281 ], [ 127.435919220690678, 37.268865717491146 ], [ 127.445836598913118, 37.268802964142289 ], [ 127.445629898564206, 37.265957799914418 ], [ 127.440145044148878, 37.266064601454005 ], [ 127.435112110870335, 37.26071579607499 ], [ 127.436497794416638, 37.257925200929513 ], [ 127.433505634920365, 37.253613844902532 ], [ 127.435588353214413, 37.249962300816357 ], [ 127.432678963875858, 37.248151406754218 ], [ 127.423961232339551, 37.250601203226267 ], [ 127.420796538643145, 37.255776489718265 ], [ 127.421777229060794, 37.259033154312583 ], [ 127.419494880157004, 37.260080768767814 ], [ 127.417392009600064, 37.264334479804404 ] ] ] ] } },
{ "type": "Feature", "properties": { "emd_cd": "41500105", "emd_nm": "율현동" }, "geometry": { "type": "MultiPolygon", "coordinates": [ [ [ [ 127.435392440916942, 37.249601570500431 ], [ 127.433505634920337, 37.253613844902532 ], [ 127.43649779441661, 37.257925200929478 ], [ 127.435112110870335, 37.260715796074969 ], [ 127.440145044148878, 37.266064601453998 ], [ 127.445629898564235, 37.265957799914418 ], [ 127.446116691348308, 37.268129611261848 ], [ 127.452000686158016, 37.263236667529952 ], [ 127.453341844287309, 37.26099252092957 ], [ 127.448720958592475, 37.256583428285772 ], [ 127.448214527807878, 37.253471401370739 ], [ 127.443486828083167, 37.250263951159106 ], [ 127.437903480083477, 37.252071113110603 ], [ 127.435392440916942, 37.249601570500431 ] ] ] ] } },
{ "type": "Feature", "properties": { "emd_cd": "41500106", "emd_nm": "진리동" }, "geometry": { "type": "MultiPolygon", "coordinates": [ [ [ [ 127.445794109015168, 37.268216140466826 ], [ 127.446033291202241, 37.270917161219487 ], [ 127.448854976526604, 37.271332637633087 ], [ 127.450842284845137, 37.274705726419477 ], [ 127.463392126418967, 37.271451804682464 ], [ 127.460975333948014, 37.26567336511377 ], [ 127.453341844287309, 37.260992520929577 ], [ 127.445794109015168, 37.268216140466826 ] ] ] ] } },
{ "type": "Feature", "properties": { "emd_cd": "41500107", "emd_nm": "안흥동" }, "geometry": { "type": "MultiPolygon", "coordinates": [ [ [ [ 127.449447838759482, 37.277038784036733 ], [ 127.452162468595176, 37.277527018968406 ], [ 127.451389614212133, 37.279631356921591 ], [ 127.453454634266123, 37.281505083946456 ], [ 127.465919727257926, 37.280938245677028 ], [ 127.468421381663489, 37.278010517852465 ], [ 127.470176834701761, 37.280137811443787 ], [ 127.47128517349087, 37.27728489185057 ], [ 127.462607411641571, 37.269198279198463 ], [ 127.463037602086871, 37.272078373195896 ], [ 127.450842284845166, 37.274705726419469 ], [ 127.449447838759482, 37.277038784036733 ] ] ] ] } },
{ "type": "Feature", "properties": { "emd_cd": "41500108", "emd_nm": "갈산동" }, "geometry": { "type": "MultiPolygon", "coordinates": [ [ [ [ 127.452524633153061, 37.281024870484124 ], [ 127.455056951761165, 37.282857620098184 ], [ 127.452968188246203, 37.283983983153135 ], [ 127.454213877311872, 37.285764749821197 ], [ 127.462938192088117, 37.288887205787212 ], [ 127.461901307312871, 37.293621668583448 ], [ 127.463923598905751, 37.294979663713697 ], [ 127.46116828184185, 37.296861567044708 ], [ 127.468832035477817, 37.2951981300791 ], [ 127.472513852278396, 37.296183779120234 ], [ 127.477071374669677, 37.29242949443379 ], [ 127.475887051575754, 37.283750483168802 ], [ 127.470972258673683, 37.276680139778755 ], [ 127.470176834701761, 37.280137811443787 ], [ 127.468421381663489, 37.278010517852465 ], [ 127.465919727257926, 37.280938245677021 ], [ 127.457665487528232, 37.280398675097295 ], [ 127.452524633153061, 37.281024870484124 ] ] ] ] } },
{ "type": "Feature", "properties": { "emd_cd": "41500109", "emd_nm": "증포동" }, "geometry": { "type": "MultiPolygon", "coordinates": [ [ [ [ 127.445002495874647, 37.287169544974375 ], [ 127.446293125247806, 37.287844768604202 ], [ 127.445969367187786, 37.291543759665103 ], [ 127.450482962694352, 37.295821353380916 ], [ 127.449505552237355, 37.298344829690457 ], [ 127.452593430055487, 37.302456349930026 ], [ 127.459768354477916, 37.302145560238472 ], [ 127.460375627555308, 37.297737219603519 ], [ 127.463923598905751, 37.29497966371369 ], [ 127.461901307312871, 37.293621668583448 ], [ 127.462938192088146, 37.288887205787226 ], [ 127.450412338444465, 37.284589153916173 ], [ 127.449438844669686, 37.287051728011932 ], [ 127.445002495874647, 37.287169544974375 ] ] ] ] } },
{ "type": "Feature", "properties": { "emd_cd": "41500110", "emd_nm": "송정동" }, "geometry": { "type": "MultiPolygon", "coordinates": [ [ [ [ 127.452525580544346, 37.302355315635751 ], [ 127.449505552237355, 37.298344829690457 ], [ 127.450482962694352, 37.295821353380916 ], [ 127.445969367187786, 37.291543759665103 ], [ 127.445534165764116, 37.287371075227334 ], [ 127.438648620965424, 37.287668911312622 ], [ 127.430493155696936, 37.291189171839029 ], [ 127.429297021899671, 37.296696305136983 ], [ 127.430368233577255, 37.298420807462932 ], [ 127.429321003802031, 37.302936207316158 ], [ 127.427970994885698, 37.302874331596463 ], [ 127.430697285867637, 37.305826767374803 ], [ 127.438043697809377, 37.302771221932936 ], [ 127.452525580544346, 37.302355315635751 ] ] ] ] } },
{ "type": "Feature", "properties": { "emd_cd": "41500111", "emd_nm": "사음동" }, "geometry": { "type": "MultiPolygon", "coordinates": [ [ [ [ 127.405794649053604, 37.285038035674297 ], [ 127.409369980191443, 37.297180703949444 ], [ 127.405582780914642, 37.300730644000147 ], [ 127.409656432163118, 37.303222294916402 ], [ 127.41320550032124, 37.302432330074176 ], [ 127.417521686755762, 37.304903258537372 ], [ 127.430697285867637, 37.305826767374803 ], [ 127.427970994885698, 37.302874331596463 ], [ 127.429321003802031, 37.302936207316158 ], [ 127.430368233577255, 37.298420807462932 ], [ 127.429297021899671, 37.296696305136983 ], [ 127.430283292838439, 37.290839289642221 ], [ 127.424403443219376, 37.290674011238302 ], [ 127.419267872650053, 37.285307848105838 ], [ 127.416293542005434, 37.284905962000501 ], [ 127.413123967793879, 37.281965480988042 ], [ 127.405794649053604, 37.285038035674297 ] ] ] ] } },
{ "type": "Feature", "properties": { "emd_cd": "41500112", "emd_nm": "단월동" }, "geometry": { "type": "MultiPolygon", "coordinates": [ [ [ [ 127.441427079005237, 37.229150799368789 ], [ 127.448858176410809, 37.238768786076861 ], [ 127.45354583342484, 37.237148555799813 ], [ 127.457283370556411, 37.229378840397871 ], [ 127.465812824209976, 37.226558861625129 ], [ 127.46487206072932, 37.221008963933443 ], [ 127.462678026787302, 37.219961136378515 ], [ 127.459838596684023, 37.221026952706453 ], [ 127.455385248949241, 37.217878848583062 ], [ 127.450532144847202, 37.220136785078246 ], [ 127.44961971775912, 37.218521135497042 ], [ 127.451135752259546, 37.213043594296629 ], [ 127.443286424408839, 37.211631488471241 ], [ 127.441102976357172, 37.212154958681495 ], [ 127.440377310870034, 37.214271641362181 ], [ 127.442510293881455, 37.21832336077199 ], [ 127.444450195012735, 37.218998998788784 ], [ 127.441427079005237, 37.229150799368789 ] ] ] ] } },
{ "type": "Feature", "properties": { "emd_cd": "41500113", "emd_nm": "대포동" }, "geometry": { "type": "MultiPolygon", "coordinates": [ [ [ [ 127.472086582184716, 37.197040968638056 ], [ 127.468005191216108, 37.19535872593265 ], [ 127.460634998292988, 37.201104390860642 ], [ 127.451100801243456, 37.205424404502217 ], [ 127.449238117857206, 37.20988629043368 ], [ 127.451429343764843, 37.213577505337597 ], [ 127.449652847467831, 37.218139286833519 ], [ 127.450532144847202, 37.220136785078246 ], [ 127.455385248949241, 37.217878848583062 ], [ 127.460677394183492, 37.221285922935067 ], [ 127.465983934384525, 37.219998640988919 ], [ 127.467369236115644, 37.215408711988211 ], [ 127.469902713790361, 37.213052445193242 ], [ 127.467799924940294, 37.210386153815705 ], [ 127.471731199321354, 37.203691146980645 ], [ 127.470903189745556, 37.198858279267739 ], [ 127.472086582184716, 37.197040968638056 ] ] ] ] } },
{ "type": "Feature", "properties": { "emd_cd": "41500114", "emd_nm": "고담동" }, "geometry": { "type": "MultiPolygon", "coordinates": [ [ [ [ 127.474914357712024, 37.250241737341725 ], [ 127.474881870293146, 37.242229624254989 ], [ 127.470265551591297, 37.238908172920951 ], [ 127.470193402209546, 37.233319298621417 ], [ 127.465596337405202, 37.226673150107828 ], [ 127.457283370556411, 37.229378840397871 ], [ 127.45354583342484, 37.237148555799813 ], [ 127.448858176410809, 37.238768786076861 ], [ 127.448096097749584, 37.237129108506799 ], [ 127.44859852495189, 37.246105519527845 ], [ 127.464748320520968, 37.249720628774874 ], [ 127.468552397074177, 37.252790944722115 ], [ 127.4716059316453, 37.252686307953105 ], [ 127.474914357712024, 37.250241737341725 ] ] ] ] } },
{ "type": "Feature", "properties": { "emd_cd": "41500115", "emd_nm": "장록동" }, "geometry": { "type": "MultiPolygon", "coordinates": [ [ [ [ 127.44657260900388, 37.251396602255355 ], [ 127.448720958592475, 37.256583428285772 ], [ 127.453800490552595, 37.261397052356038 ], [ 127.457164183713331, 37.262326648593124 ], [ 127.456911617769279, 37.260305893996168 ], [ 127.463498404944843, 37.25762912012113 ], [ 127.464125002739721, 37.254918695957514 ], [ 127.467947179818921, 37.25253050918004 ], [ 127.464748320520968, 37.249720628774874 ], [ 127.44859852495189, 37.246105519527845 ], [ 127.44657260900388, 37.251396602255355 ] ] ] ] } },
{ "type": "Feature", "properties": { "emd_cd": "41500250", "emd_nm": "장호원읍" }, "geometry": { "type": "MultiPolygon", "coordinates": [ [ [ [ 127.566692062023463, 37.16608522320341 ], [ 127.57780069436005, 37.176284822314692 ], [ 127.572720742387418, 37.183655671964132 ], [ 127.573795358481746, 37.187151106555412 ], [ 127.577943050337808, 37.189388596244804 ], [ 127.580378155664434, 37.187447808125384 ], [ 127.587775280064534, 37.187080461184671 ], [ 127.59568889768677, 37.189888378503063 ], [ 127.59799955953838, 37.188374673522191 ], [ 127.59924386690976, 37.183138036649808 ], [ 127.602584968829035, 37.182659075739537 ], [ 127.605253510908994, 37.177968942231708 ], [ 127.612798982012507, 37.173412289016063 ], [ 127.613950639031188, 37.165986909310774 ], [ 127.616018496801814, 37.16333468194555 ], [ 127.619173434213764, 37.161267467967079 ], [ 127.621303426113116, 37.163896258184401 ], [ 127.62675370291656, 37.16603597133021 ], [ 127.630487793566175, 37.165260846723569 ], [ 127.63243865586368, 37.163000374638983 ], [ 127.627357412167484, 37.151959106955204 ], [ 127.637776913775383, 37.140925636342317 ], [ 127.633109432189471, 37.120166239984393 ], [ 127.636275120032892, 37.114473135398896 ], [ 127.63412342833638, 37.10727630486754 ], [ 127.635172078656893, 37.103666528365629 ], [ 127.634293457821229, 37.099042146730859 ], [ 127.631826639481091, 37.096478636108792 ], [ 127.613672204533501, 37.086593459449297 ], [ 127.605444652494867, 37.08573618725918 ], [ 127.601197219964192, 37.087733811621312 ], [ 127.597740897988288, 37.085839689731245 ], [ 127.59542260304525, 37.088013893099358 ], [ 127.590693674648847, 37.088837016814843 ], [ 127.59000937147259, 37.094624397643265 ], [ 127.585692963947309, 37.093214108260831 ], [ 127.582132157626091, 37.096720012703372 ], [ 127.579269053821392, 37.096743709439103 ], [ 127.579631308155086, 37.094661486519243 ], [ 127.564250537297127, 37.098666213162495 ], [ 127.562412379300326, 37.101056906244068 ], [ 127.559185865951193, 37.101477784693721 ], [ 127.56242165483151, 37.107160677136065 ], [ 127.559172259541882, 37.108956508909245 ], [ 127.567699422777025, 37.12157047704406 ], [ 127.55817254429293, 37.133423389548199 ], [ 127.55943210910371, 37.137017919725622 ], [ 127.558998995533045, 37.138359060193743 ], [ 127.55710576460784, 37.137642951651316 ], [ 127.556797488057271, 37.142484048848544 ], [ 127.55512577839535, 37.144626797345104 ], [ 127.556398815493111, 37.146393329047484 ], [ 127.553924425030885, 37.150712468166972 ], [ 127.555312477103172, 37.155093229914478 ], [ 127.554230577932117, 37.157998007647691 ], [ 127.557183152621803, 37.158913497724697 ], [ 127.561406893648282, 37.164462356294855 ], [ 127.566527798381145, 37.164001256007793 ], [ 127.566692062023463, 37.16608522320341 ] ] ] ] } },
{ "type": "Feature", "properties": { "emd_cd": "41500253", "emd_nm": "부발읍" }, "geometry": { "type": "MultiPolygon", "coordinates": [ [ [ [ 127.456704317808558, 37.261403043886389 ], [ 127.474381829187791, 37.280940372844185 ], [ 127.477047813314286, 37.292432697620036 ], [ 127.483244580043106, 37.292580294086605 ], [ 127.485512886537379, 37.295905749675818 ], [ 127.488979555412413, 37.293761913655786 ], [ 127.49808356770032, 37.297285320685731 ], [ 127.501410334821244, 37.302533591512962 ], [ 127.521138632480557, 37.314037808311419 ], [ 127.523449346222193, 37.318828952515844 ], [ 127.527212024154352, 37.318594061880844 ], [ 127.528429756638772, 37.316086630614912 ], [ 127.533529192203758, 37.314119528906737 ], [ 127.542662939660175, 37.313136372373123 ], [ 127.5459197624143, 37.311147703587203 ], [ 127.54623883394153, 37.30135947083 ], [ 127.542450405455227, 37.294354636127373 ], [ 127.536693433574925, 37.289519891691917 ], [ 127.534206657905003, 37.289431483042222 ], [ 127.528856428154484, 37.274165048728349 ], [ 127.53246079397023, 37.257541932171307 ], [ 127.535759063724242, 37.253500204519781 ], [ 127.538072052794888, 37.252952671504715 ], [ 127.535455841630338, 37.249350371934078 ], [ 127.537218031416145, 37.247453779515546 ], [ 127.535998687363872, 37.245196800957686 ], [ 127.52557665931198, 37.239924999789139 ], [ 127.525619217757011, 37.231789265170761 ], [ 127.528619370457719, 37.231439434097673 ], [ 127.519073608327218, 37.220752966695734 ], [ 127.519869501317146, 37.223247010722822 ], [ 127.518300411834375, 37.224360892382649 ], [ 127.513118817447946, 37.221798147082289 ], [ 127.510460487147668, 37.222352020601008 ], [ 127.510494578360536, 37.223687933043557 ], [ 127.5140374136612, 37.225167097427132 ], [ 127.513519528270237, 37.228588200601777 ], [ 127.517289098445701, 37.232591620702649 ], [ 127.513821976477772, 37.234144727474963 ], [ 127.512976817235199, 37.235113743861596 ], [ 127.514474774101856, 37.236155703406233 ], [ 127.509254221023198, 37.239342165731131 ], [ 127.50153692619574, 37.24112050269445 ], [ 127.49976790654155, 37.242835012860027 ], [ 127.500564149999562, 37.248467360335255 ], [ 127.499308251940306, 37.249946413290544 ], [ 127.495496850242986, 37.249439525736101 ], [ 127.495301996282649, 37.246176903056991 ], [ 127.493067379733617, 37.245148926406088 ], [ 127.485954077146502, 37.247424730485911 ], [ 127.48177289491089, 37.245438953829769 ], [ 127.471826006108529, 37.252576616825536 ], [ 127.467947179818921, 37.25253050918004 ], [ 127.464125002739692, 37.254918695957514 ], [ 127.463498404944843, 37.25762912012113 ], [ 127.459857936563495, 37.258410655880141 ], [ 127.456704317808558, 37.261403043886389 ] ] ] ] } },
{ "type": "Feature", "properties": { "emd_cd": "41500310", "emd_nm": "신둔면" }, "geometry": { "type": "MultiPolygon", "coordinates": [ [ [ [ 127.46016733096107, 37.300934762707755 ], [ 127.459271940135963, 37.302279670092965 ], [ 127.437955282963529, 37.302785351657995 ], [ 127.428690427247389, 37.306276267445718 ], [ 127.41692941566113, 37.304764698260925 ], [ 127.41320550032124, 37.302432330074176 ], [ 127.409656432163118, 37.303222294916402 ], [ 127.405252184557256, 37.30023041566799 ], [ 127.409369980191443, 37.297180703949444 ], [ 127.405794649053604, 37.285038035674297 ], [ 127.401684423342189, 37.287297321903004 ], [ 127.391386495551899, 37.286522493493869 ], [ 127.387048579087505, 37.285070398061428 ], [ 127.381237455539519, 37.27900681669319 ], [ 127.378871050691529, 37.280833224427909 ], [ 127.375015676959251, 37.27992798907912 ], [ 127.369967193079503, 37.281828786241945 ], [ 127.363125554891056, 37.288963400854321 ], [ 127.358893210721305, 37.288082219845876 ], [ 127.356769882865763, 37.29351755624355 ], [ 127.357448438785838, 37.297640205593652 ], [ 127.354348710165581, 37.301019689632312 ], [ 127.35786681136095, 37.30585176816156 ], [ 127.364879510718552, 37.308597218814434 ], [ 127.36340353557425, 37.315952168677903 ], [ 127.369802563673161, 37.315238342983612 ], [ 127.375898238947087, 37.320734720895473 ], [ 127.381489706495358, 37.319025528892688 ], [ 127.390883362961048, 37.31981140882889 ], [ 127.393768714894676, 37.323599402366298 ], [ 127.400039963810087, 37.327442417508365 ], [ 127.405101685045551, 37.327352441198784 ], [ 127.407282731331506, 37.331215075177944 ], [ 127.416544632187822, 37.334656213980075 ], [ 127.420485103297949, 37.338187271921548 ], [ 127.421444244736506, 37.342947331707116 ], [ 127.429643712893295, 37.346329587776623 ], [ 127.433745699400191, 37.350323559966533 ], [ 127.435150342433502, 37.354265026118107 ], [ 127.442503061685031, 37.358347865116066 ], [ 127.448814674597457, 37.352085061541509 ], [ 127.445873201748412, 37.347248813638387 ], [ 127.447324897007405, 37.343606205509495 ], [ 127.445620931002324, 37.339232676111223 ], [ 127.446824140435282, 37.336179474088937 ], [ 127.45567202342086, 37.328692116272812 ], [ 127.457283966558208, 37.325363397152806 ], [ 127.45300113297786, 37.325143055136415 ], [ 127.449149788020819, 37.322904392921473 ], [ 127.460384690229731, 37.315033658536038 ], [ 127.46228631098765, 37.311337503823061 ], [ 127.463467432533406, 37.306659937404802 ], [ 127.46016733096107, 37.300934762707755 ] ] ] ] } },
{ "type": "Feature", "properties": { "emd_cd": "41500320", "emd_nm": "백사면" }, "geometry": { "type": "MultiPolygon", "coordinates": [ [ [ [ 127.445620931002338, 37.339232676111216 ], [ 127.447323764987075, 37.342145140687343 ], [ 127.445873201748384, 37.347248813638402 ], [ 127.448635537303559, 37.352570844800844 ], [ 127.470506131205369, 37.361709668027814 ], [ 127.478216514002938, 37.355959185008743 ], [ 127.481655972479771, 37.351314554977385 ], [ 127.48537171621804, 37.350006741082204 ], [ 127.489634952344588, 37.342699629866758 ], [ 127.498129259356034, 37.341263391824988 ], [ 127.50276900853423, 37.338081535628064 ], [ 127.513923077939637, 37.33912371145739 ], [ 127.520854405214521, 37.329811328959195 ], [ 127.526948480240677, 37.329250951570749 ], [ 127.527896144878852, 37.326997409386927 ], [ 127.525040028387451, 37.324055830300921 ], [ 127.527913832279665, 37.319200218498906 ], [ 127.523449346222193, 37.318828952515844 ], [ 127.521138632480557, 37.314037808311419 ], [ 127.516482689025736, 37.310469694016213 ], [ 127.510806543924431, 37.309160506113237 ], [ 127.507782936159472, 37.305804415802626 ], [ 127.501255883982125, 37.302860007542812 ], [ 127.49808356770032, 37.297285320685731 ], [ 127.488979555412413, 37.293761913655786 ], [ 127.485512886537379, 37.295905749675818 ], [ 127.482677240449007, 37.29235616579674 ], [ 127.476219805219216, 37.292439120721774 ], [ 127.472513852278396, 37.296183779120234 ], [ 127.464687764306831, 37.295643928055355 ], [ 127.460375627555294, 37.297737219603512 ], [ 127.459956098750382, 37.300672590851875 ], [ 127.463467432533406, 37.306659937404802 ], [ 127.46228631098765, 37.311337503823061 ], [ 127.460384690229731, 37.315033658536045 ], [ 127.449149788020819, 37.322904392921473 ], [ 127.45300113297786, 37.325143055136415 ], [ 127.457283966558151, 37.325363397152806 ], [ 127.45567202342086, 37.328692116272798 ], [ 127.448498399910022, 37.333805261481743 ], [ 127.445620931002338, 37.339232676111216 ] ] ] ] } },
{ "type": "Feature", "properties": { "emd_cd": "41500330", "emd_nm": "호법면" }, "geometry": { "type": "MultiPolygon", "coordinates": [ [ [ [ 127.449747149703953, 37.212199684925032 ], [ 127.441680531889361, 37.20239624563164 ], [ 127.440054005606754, 37.19465319799798 ], [ 127.434767599764527, 37.190166749299081 ], [ 127.433226017445421, 37.191507194094072 ], [ 127.426568751909386, 37.191848898713708 ], [ 127.416918009543181, 37.184599767289377 ], [ 127.413023822177337, 37.183234943112552 ], [ 127.409299335014126, 37.183923167889382 ], [ 127.403234828831174, 37.180074883113875 ], [ 127.397488966668988, 37.181681165687927 ], [ 127.388311545641486, 37.181384463949001 ], [ 127.372169900851901, 37.185857200070181 ], [ 127.372016587025328, 37.189659678900611 ], [ 127.375299758009163, 37.190397771633727 ], [ 127.378564383053913, 37.19524620839627 ], [ 127.368904177234327, 37.205063814942982 ], [ 127.368079073453899, 37.210096653926428 ], [ 127.37383081496678, 37.215901834700411 ], [ 127.378634276310649, 37.214663634424376 ], [ 127.381897295500949, 37.215602146503414 ], [ 127.381709834101486, 37.217709751223168 ], [ 127.384093467118618, 37.21883335502271 ], [ 127.392835665890402, 37.219103435709968 ], [ 127.392411348775326, 37.222448347247109 ], [ 127.394704175412386, 37.223529578726811 ], [ 127.395247849741011, 37.22593771790573 ], [ 127.392437033428607, 37.22854910957075 ], [ 127.392552454405347, 37.230919260672771 ], [ 127.395561307564137, 37.234177600409723 ], [ 127.394120938915947, 37.238864704175349 ], [ 127.392933755470267, 37.23867465948279 ], [ 127.390204985777032, 37.2436866056361 ], [ 127.393183465634635, 37.247116185408125 ], [ 127.403966517044168, 37.242523077969032 ], [ 127.404163496550012, 37.241188060372579 ], [ 127.409400214732642, 37.243926541292403 ], [ 127.410744212720331, 37.24814542725516 ], [ 127.415022579066218, 37.24992762604932 ], [ 127.419919442728826, 37.255881147326434 ], [ 127.422999695370848, 37.253898318963635 ], [ 127.423961232339551, 37.250601203226267 ], [ 127.430958837825642, 37.248171992759055 ], [ 127.436051326708181, 37.249668641944069 ], [ 127.437645580559149, 37.252029219302592 ], [ 127.443486828083167, 37.250263951159106 ], [ 127.448214527807878, 37.253471401370739 ], [ 127.44657260900388, 37.251396602255355 ], [ 127.448392979827389, 37.2486840888728 ], [ 127.448072627966908, 37.236319764015214 ], [ 127.441427079005237, 37.229150799368789 ], [ 127.444450195012735, 37.218998998788784 ], [ 127.442510293881455, 37.21832336077199 ], [ 127.440377310870034, 37.214271641362181 ], [ 127.441102976357172, 37.212154958681495 ], [ 127.443286424408839, 37.211631488471241 ], [ 127.449747149703953, 37.212199684925032 ] ] ] ] } },
{ "type": "Feature", "properties": { "emd_cd": "41500340", "emd_nm": "마장면" }, "geometry": { "type": "MultiPolygon", "coordinates": [ [ [ [ 127.384946540223353, 37.218535831528868 ], [ 127.378634276310649, 37.214663634424376 ], [ 127.37383081496678, 37.215901834700411 ], [ 127.368079073453899, 37.210096653926428 ], [ 127.369457905584838, 37.204676902188773 ], [ 127.368500833590247, 37.203332537852496 ], [ 127.361306274202093, 37.200188199455532 ], [ 127.349895876220771, 37.203504791857398 ], [ 127.344385531010502, 37.208066775275626 ], [ 127.34190285846843, 37.208189664461429 ], [ 127.337419892382343, 37.217230094301456 ], [ 127.330386262935406, 37.220320514794878 ], [ 127.331760883699488, 37.226336357973018 ], [ 127.333535324414825, 37.227334854608884 ], [ 127.33481208402732, 37.238608541557035 ], [ 127.331033367313694, 37.243076849443923 ], [ 127.333317013864757, 37.245806624976346 ], [ 127.333314200733653, 37.249201069452575 ], [ 127.338985958149394, 37.252250328372895 ], [ 127.335146979369711, 37.257145442345895 ], [ 127.336968717141147, 37.258767919202484 ], [ 127.336631239735993, 37.261127523134164 ], [ 127.340478353021695, 37.262052410145664 ], [ 127.340970801187964, 37.265851033779455 ], [ 127.338658934465187, 37.270594986198049 ], [ 127.349150200847433, 37.276976179494554 ], [ 127.340120660388394, 37.288089229575007 ], [ 127.343077347269883, 37.291184592314949 ], [ 127.348635612507266, 37.290162670168634 ], [ 127.354112629517203, 37.292661264523886 ], [ 127.354410548550291, 37.294198428049803 ], [ 127.356985738987149, 37.294320208774067 ], [ 127.358893210721305, 37.288082219845876 ], [ 127.363125554891056, 37.288963400854321 ], [ 127.369967193079503, 37.281828786241945 ], [ 127.375015676959251, 37.27992798907912 ], [ 127.378871050691529, 37.280833224427909 ], [ 127.381237455539519, 37.27900681669319 ], [ 127.387048579087505, 37.285070398061428 ], [ 127.398407895086208, 37.287261995338646 ], [ 127.39990476950922, 37.286261486726616 ], [ 127.401684423342189, 37.287297321903004 ], [ 127.413123967793879, 37.281965480988042 ], [ 127.414791932118519, 37.277825139003689 ], [ 127.414274644718091, 37.274328364167395 ], [ 127.416925063989211, 37.272589175467743 ], [ 127.416648868316329, 37.269373340359223 ], [ 127.41831286248896, 37.266887963955568 ], [ 127.41742055516599, 37.264137883202082 ], [ 127.419494880157032, 37.2600807687678 ], [ 127.421777229060794, 37.259033154312597 ], [ 127.42076089432102, 37.255938918434794 ], [ 127.417620480214993, 37.254401837171358 ], [ 127.415022579066218, 37.24992762604932 ], [ 127.410744212720331, 37.24814542725516 ], [ 127.409400214732642, 37.243926541292403 ], [ 127.406163872034995, 37.2417264118357 ], [ 127.404163496550012, 37.241188060372579 ], [ 127.403966517044168, 37.242523077969032 ], [ 127.393183465634635, 37.247116185408125 ], [ 127.390959098214097, 37.245118959204994 ], [ 127.390596924739057, 37.241717679272668 ], [ 127.394120938915947, 37.238864704175349 ], [ 127.395561307564137, 37.234177600409723 ], [ 127.393081260454849, 37.232731980459185 ], [ 127.392437033428607, 37.22854910957075 ], [ 127.394915319419965, 37.227456868718868 ], [ 127.395224979263403, 37.22490218906286 ], [ 127.392411348775326, 37.222448347247109 ], [ 127.392835665890402, 37.219103435709968 ], [ 127.384946540223353, 37.218535831528868 ] ] ] ] } },
{ "type": "Feature", "properties": { "emd_cd": "41500350", "emd_nm": "대월면" }, "geometry": { "type": "MultiPolygon", "coordinates": [ [ [ [ 127.474914357712024, 37.250241737341725 ], [ 127.481010499966288, 37.245671166088698 ], [ 127.484049391290597, 37.245442611223297 ], [ 127.486194212465421, 37.247413746439484 ], [ 127.490974452168359, 37.244869266181972 ], [ 127.495050010632184, 37.245939180885721 ], [ 127.495496850242986, 37.249439525736094 ], [ 127.497366190162339, 37.25059528255121 ], [ 127.499308251940278, 37.249946413290566 ], [ 127.500564149999562, 37.248467360335255 ], [ 127.499767906541564, 37.242835012860027 ], [ 127.501536926195769, 37.241120502694436 ], [ 127.509254221023198, 37.239342165731131 ], [ 127.514474774101856, 37.236155703406233 ], [ 127.512976817235199, 37.235113743861596 ], [ 127.513821976477772, 37.234144727474941 ], [ 127.517289098445701, 37.232591620702657 ], [ 127.513519528270237, 37.228588200601763 ], [ 127.5140374136612, 37.225167097427125 ], [ 127.510494578360536, 37.223687933043557 ], [ 127.510750190596568, 37.222189752017535 ], [ 127.513118817447946, 37.221798147082289 ], [ 127.518300411834375, 37.224360892382656 ], [ 127.519869501317146, 37.223247010722829 ], [ 127.519073608327247, 37.220752966695713 ], [ 127.524299360622749, 37.227206962305274 ], [ 127.526990115620833, 37.22786243018674 ], [ 127.527752488415828, 37.226362965284295 ], [ 127.528699056607749, 37.222098645721061 ], [ 127.527430142686072, 37.21952649872464 ], [ 127.529638555214476, 37.21749608201322 ], [ 127.531483840445759, 37.208136122785767 ], [ 127.529895178714526, 37.203573311953804 ], [ 127.530722855054549, 37.198005721158339 ], [ 127.526228813148023, 37.195300547533982 ], [ 127.517370194607977, 37.184273576595729 ], [ 127.513222388443154, 37.182607297311229 ], [ 127.505189853566804, 37.171907420900723 ], [ 127.500351488642906, 37.17260928915838 ], [ 127.498635305114504, 37.178792855954192 ], [ 127.493434724603048, 37.180223063992266 ], [ 127.491646398226521, 37.183867066893654 ], [ 127.491528216844458, 37.190511304823914 ], [ 127.484927532843926, 37.188256658729685 ], [ 127.478069264985734, 37.194903717364561 ], [ 127.478209422398379, 37.198341393477108 ], [ 127.475740228355463, 37.199512495986838 ], [ 127.472086582184716, 37.197040968638056 ], [ 127.470903189745556, 37.198858279267739 ], [ 127.471731199321354, 37.203691146980645 ], [ 127.467799924940294, 37.210386153815705 ], [ 127.469902713790361, 37.213052445193242 ], [ 127.467369236115644, 37.215408711988211 ], [ 127.464680571692455, 37.222559445631653 ], [ 127.465596337405202, 37.226673150107828 ], [ 127.470193402209546, 37.233319298621417 ], [ 127.469659221474402, 37.237792797403266 ], [ 127.474881870293146, 37.242229624254989 ], [ 127.474914357712024, 37.250241737341725 ] ] ] ] } },
{ "type": "Feature", "properties": { "emd_cd": "41500360", "emd_nm": "모가면" }, "geometry": { "type": "MultiPolygon", "coordinates": [ [ [ [ 127.468005191216108, 37.19535872593265 ], [ 127.475740228355463, 37.199512495986838 ], [ 127.478209422398379, 37.198341393477108 ], [ 127.477396114704177, 37.196606788293025 ], [ 127.47896862827524, 37.193280301587336 ], [ 127.484927532843926, 37.188256658729685 ], [ 127.491528216844458, 37.190511304823914 ], [ 127.491646398226521, 37.183867066893654 ], [ 127.493434724603048, 37.180223063992266 ], [ 127.498635305114504, 37.178792855954192 ], [ 127.500351488642906, 37.17260928915838 ], [ 127.505189853566804, 37.171907420900723 ], [ 127.502111815520109, 37.16913837621032 ], [ 127.497831222136256, 37.157956176534611 ], [ 127.499553000134014, 37.154766463284204 ], [ 127.497914837856115, 37.150604029708113 ], [ 127.499400376094258, 37.147103507204591 ], [ 127.494419263327288, 37.144190318570665 ], [ 127.483036613949821, 37.144348347792423 ], [ 127.482523613363767, 37.145689707405801 ], [ 127.474999712252199, 37.144063537764382 ], [ 127.474556883008859, 37.141350167963822 ], [ 127.46323110855117, 37.141133881154516 ], [ 127.460501033549818, 37.141933709773326 ], [ 127.460541913584834, 37.14445037040602 ], [ 127.455243517490402, 37.148084962514197 ], [ 127.450228718389468, 37.148028365077955 ], [ 127.447436572689938, 37.145139193220039 ], [ 127.441718565983024, 37.148422748649395 ], [ 127.432358396307748, 37.148986136465972 ], [ 127.427482601822192, 37.146948968740134 ], [ 127.424985706267208, 37.152006520967731 ], [ 127.416854388994423, 37.151562677194093 ], [ 127.412094870957489, 37.155007261453868 ], [ 127.409748086470103, 37.164471743336968 ], [ 127.413982882924614, 37.173343691981728 ], [ 127.410883789076252, 37.183342101243632 ], [ 127.418512904538915, 37.185438503326239 ], [ 127.426568751909386, 37.191848898713708 ], [ 127.436295589070582, 37.19075710849016 ], [ 127.440054005606754, 37.19465319799798 ], [ 127.443484332054666, 37.205452902706924 ], [ 127.449136160181141, 37.211189735765814 ], [ 127.451100801243456, 37.205424404502217 ], [ 127.454554939626078, 37.202841452803227 ], [ 127.460634998292988, 37.201104390860642 ], [ 127.468005191216108, 37.19535872593265 ] ] ] ] } },
{ "type": "Feature", "properties": { "emd_cd": "41500370", "emd_nm": "설성면" }, "geometry": { "type": "MultiPolygon", "coordinates": [ [ [ [ 127.447436572689938, 37.145139193220025 ], [ 127.450228718389468, 37.14802836507797 ], [ 127.455243517490402, 37.148084962514197 ], [ 127.460541913584834, 37.14445037040602 ], [ 127.460501033549789, 37.141933709773333 ], [ 127.463231108551142, 37.141133881154509 ], [ 127.47455688300883, 37.141350167963836 ], [ 127.474999712252199, 37.144063537764382 ], [ 127.482523613363767, 37.145689707405815 ], [ 127.483036613949821, 37.14434834779243 ], [ 127.494419263327288, 37.144190318570658 ], [ 127.499931584251016, 37.148068076504451 ], [ 127.497914837856115, 37.15060402970812 ], [ 127.499553000134014, 37.154766463284211 ], [ 127.497831222136256, 37.157956176534611 ], [ 127.502111815520109, 37.16913837621032 ], [ 127.513222388443154, 37.182607297311243 ], [ 127.516682150016706, 37.184480790223375 ], [ 127.517346661272811, 37.182261977529308 ], [ 127.523241596884574, 37.180432777390287 ], [ 127.523305648128257, 37.177906336323005 ], [ 127.5263798866294, 37.176134437240393 ], [ 127.527785523736398, 37.172876562191213 ], [ 127.536595950992165, 37.173484917628514 ], [ 127.539280901864359, 37.175476600026499 ], [ 127.542275443537889, 37.17426100594237 ], [ 127.5463250003979, 37.175123104266589 ], [ 127.547191691979947, 37.173226828947641 ], [ 127.557759576852931, 37.177426039506564 ], [ 127.559059153692345, 37.180793268510897 ], [ 127.566692822738503, 37.176096060813677 ], [ 127.570852940870452, 37.170195375118709 ], [ 127.566692062023463, 37.16608522320341 ], [ 127.566527798381145, 37.164001256007793 ], [ 127.561406893648282, 37.164462356294855 ], [ 127.557183152621803, 37.158913497724697 ], [ 127.554230577932117, 37.157998007647691 ], [ 127.555312477103172, 37.155093229914478 ], [ 127.553924425030885, 37.150712468166972 ], [ 127.556398815493111, 37.146393329047484 ], [ 127.55512577839535, 37.144626797345104 ], [ 127.556797488057271, 37.142484048848544 ], [ 127.55710576460784, 37.137642951651316 ], [ 127.558998995533045, 37.138359060193743 ], [ 127.55943210910371, 37.137017919725622 ], [ 127.55817254429293, 37.133423389548199 ], [ 127.567699422777025, 37.12157047704406 ], [ 127.559172259541882, 37.108956508909245 ], [ 127.56242165483151, 37.107160677136065 ], [ 127.560945207583941, 37.102887999864336 ], [ 127.556537886873883, 37.098763337551603 ], [ 127.54684785998451, 37.102503126593248 ], [ 127.54585032501376, 37.104695248467081 ], [ 127.533781877915217, 37.106386320746182 ], [ 127.529959914116532, 37.101658427378176 ], [ 127.51913636131124, 37.098257604590778 ], [ 127.518351461726184, 37.100820226975706 ], [ 127.514167981206285, 37.103190289264049 ], [ 127.513625863497708, 37.105697928292912 ], [ 127.507757944051647, 37.105716385371032 ], [ 127.50377038973599, 37.109595267774353 ], [ 127.503713584942872, 37.114294136116499 ], [ 127.500063244869736, 37.116093058505832 ], [ 127.498223559619447, 37.123939698260251 ], [ 127.492062567619769, 37.123141792782945 ], [ 127.488992021967547, 37.125718064202239 ], [ 127.485066222923535, 37.125146901597986 ], [ 127.479282202021835, 37.127776433590469 ], [ 127.475679668945403, 37.12706464362811 ], [ 127.466280033553588, 37.130669735040158 ], [ 127.458441505036163, 37.130274289938839 ], [ 127.456821869828531, 37.132980222226323 ], [ 127.454555552782196, 37.133108410773595 ], [ 127.451217447748064, 37.140947993159621 ], [ 127.447436572689938, 37.145139193220025 ] ] ] ] } },
{ "type": "Feature", "properties": { "emd_cd": "41500380", "emd_nm": "율면" }, "geometry": { "type": "MultiPolygon", "coordinates": [ [ [ [ 127.486939428154358, 37.054438652397437 ], [ 127.504830681025581, 37.060480834927816 ], [ 127.509946678547649, 37.066197214281452 ], [ 127.508044759076839, 37.066025959634693 ], [ 127.506951371581565, 37.069598514878344 ], [ 127.511360748577857, 37.070176764843524 ], [ 127.512985174066927, 37.072096596199046 ], [ 127.514902774037949, 37.076851807180077 ], [ 127.512744805460045, 37.078655017853336 ], [ 127.516668609825956, 37.081643278481863 ], [ 127.514345340473994, 37.083211654720081 ], [ 127.516145208416589, 37.0883265129021 ], [ 127.511756725165839, 37.099177184398101 ], [ 127.517529560767827, 37.101000276961145 ], [ 127.51913636131124, 37.098257604590778 ], [ 127.521096826552508, 37.098309951134382 ], [ 127.524372774493955, 37.100746192281633 ], [ 127.529959914116532, 37.101658427378176 ], [ 127.533397256904138, 37.106353067891554 ], [ 127.54585032501376, 37.104695248467081 ], [ 127.54684785998451, 37.102503126593248 ], [ 127.554809442967183, 37.09875311436285 ], [ 127.561335223677517, 37.101355981301758 ], [ 127.564250537297127, 37.098666213162495 ], [ 127.579631308155086, 37.094661486519243 ], [ 127.579269053821392, 37.096743709439103 ], [ 127.582132157626091, 37.096720012703372 ], [ 127.585692963947309, 37.093214108260831 ], [ 127.59000937147259, 37.094624397643265 ], [ 127.590693674648847, 37.088837016814843 ], [ 127.599556230746018, 37.085830549831137 ], [ 127.599559782708795, 37.081576840592916 ], [ 127.605079229702952, 37.075744453958691 ], [ 127.604108076401815, 37.070548374255338 ], [ 127.605185820019713, 37.06887599478712 ], [ 127.60372914999688, 37.068531033871622 ], [ 127.596273309446971, 37.073711032374966 ], [ 127.589280401975429, 37.072818068649745 ], [ 127.583057324534536, 37.075474676258459 ], [ 127.577980080057927, 37.07534734516895 ], [ 127.564960717601423, 37.060592528078253 ], [ 127.568263000163796, 37.055908722628992 ], [ 127.567153223551074, 37.051755658364129 ], [ 127.569547722974605, 37.048173523542651 ], [ 127.556842763359043, 37.041250145514439 ], [ 127.554615212738611, 37.041862348529556 ], [ 127.555630492936842, 37.043290004329457 ], [ 127.553214960512108, 37.045017306195646 ], [ 127.540972704694866, 37.050736122394191 ], [ 127.534677042814693, 37.052007571437137 ], [ 127.531996917650574, 37.055645662731443 ], [ 127.522987572395664, 37.055465730164585 ], [ 127.518212838640622, 37.058401954702184 ], [ 127.512520223322241, 37.056350081322364 ], [ 127.508896478441727, 37.049420723536734 ], [ 127.50454609119825, 37.048004168505699 ], [ 127.496659942434434, 37.048124573634595 ], [ 127.486939428154358, 37.054438652397437 ] ] ] ] } }
]
}
