{
"type": "FeatureCollection",
"name": "41595",
"crs": { "type": "name", "properties": { "name": "urn:ogc:def:crs:OGC:1.3:CRS84" } },
"features": [
{ "type": "Feature", "properties": { "emd_cd": "41595101", "emd_nm": "진안동" }, "geometry": { "type": "MultiPolygon", "coordinates": [ [ [ [ 127.024342790945283, 37.204342630852437 ], [ 127.021400895593899, 37.208477339665443 ], [ 127.028810336819632, 37.211133193498014 ], [ 127.023299216210773, 37.216569578120982 ], [ 127.034863253147037, 37.227128452365655 ], [ 127.036510784809508, 37.223357922673507 ], [ 127.045521800897447, 37.220055663733341 ], [ 127.045345154629942, 37.217713786299633 ], [ 127.046873609469586, 37.216519302941023 ], [ 127.041865171649761, 37.214072622537522 ], [ 127.043473370988806, 37.211984167436043 ], [ 127.038950666874968, 37.210928759873077 ], [ 127.033807674323796, 37.207193106266153 ], [ 127.03444263518729, 37.204513812610102 ], [ 127.031212257799467, 37.207284412470784 ], [ 127.024342790945283, 37.204342630852437 ] ] ] ] } },
{ "type": "Feature", "properties": { "emd_cd": "41595102", "emd_nm": "병점동" }, "geometry": { "type": "MultiPolygon", "coordinates": [ [ [ [ 127.045548597248214, 37.218724508712867 ], [ 127.05335714456649, 37.213808694657686 ], [ 127.049115582992698, 37.209994333265435 ], [ 127.049081465351648, 37.205175385715393 ], [ 127.042756249878281, 37.200972231840424 ], [ 127.042529460027353, 37.197686380183349 ], [ 127.036819892971877, 37.19995033796495 ], [ 127.022791094625859, 37.200504272300144 ], [ 127.024288075129689, 37.205792322101907 ], [ 127.024342790945283, 37.204342630852437 ], [ 127.031212257799467, 37.207284412470784 ], [ 127.03444263518729, 37.204513812610102 ], [ 127.033905548287834, 37.20728002124342 ], [ 127.038950666874968, 37.210928759873077 ], [ 127.043473370988806, 37.211984167436043 ], [ 127.041865171649761, 37.214072622537522 ], [ 127.046873609469586, 37.216519302941023 ], [ 127.045548597248214, 37.218724508712867 ] ] ] ] } },
{ "type": "Feature", "properties": { "emd_cd": "41595103", "emd_nm": "능동" }, "geometry": { "type": "MultiPolygon", "coordinates": [ [ [ [ 127.064463109651911, 37.199074095842732 ], [ 127.063954050065433, 37.19905765988505 ], [ 127.06346973251415, 37.199186952802066 ], [ 127.062832829262774, 37.199130545399598 ], [ 127.062445663112356, 37.199123500773759 ], [ 127.062134083244942, 37.199152007497673 ], [ 127.060607931425025, 37.199465648429538 ], [ 127.049579828109401, 37.195973698553111 ], [ 127.04159584659331, 37.198591448111792 ], [ 127.043269635385215, 37.201628796326723 ], [ 127.049081465351648, 37.2051753857154 ], [ 127.049278532379162, 37.210253948312975 ], [ 127.050705876540874, 37.211999855823656 ], [ 127.051454485642537, 37.210769564810114 ], [ 127.05277849800629, 37.214738912524417 ], [ 127.055514365641784, 37.216059363734111 ], [ 127.055182666990248, 37.217657053191601 ], [ 127.060173379480489, 37.221290840450273 ], [ 127.064121921131346, 37.212142376503252 ], [ 127.059478923866891, 37.205467377694539 ], [ 127.059479772243449, 37.199506698790586 ], [ 127.060145099966405, 37.199613235269538 ], [ 127.064463109651911, 37.199074095842732 ] ] ] ] } },
{ "type": "Feature", "properties": { "emd_cd": "41595104", "emd_nm": "기산동" }, "geometry": { "type": "MultiPolygon", "coordinates": [ [ [ [ 127.034863253147037, 37.227128452365655 ], [ 127.040342045798781, 37.227171330178614 ], [ 127.045714250204853, 37.229262194425353 ], [ 127.051155524409111, 37.221350026168295 ], [ 127.056620177460957, 37.218610812746675 ], [ 127.055514365641784, 37.216059363734111 ], [ 127.05284868486423, 37.21482015615512 ], [ 127.05335714456649, 37.213808694657686 ], [ 127.051031507058852, 37.214507511192657 ], [ 127.04554863406652, 37.218225791007818 ], [ 127.045521800897447, 37.220055663733341 ], [ 127.036510784809508, 37.223357922673507 ], [ 127.034863253147037, 37.227128452365655 ] ] ] ] } },
{ "type": "Feature", "properties": { "emd_cd": "41595105", "emd_nm": "반월동" }, "geometry": { "type": "MultiPolygon", "coordinates": [ [ [ [ 127.04435376995265, 37.229062474230915 ], [ 127.044988901903878, 37.233234048853056 ], [ 127.051511599059893, 37.2343194438156 ], [ 127.053566706665578, 37.233404084283073 ], [ 127.05269818842882, 37.231254906337114 ], [ 127.065241292980943, 37.24013459024264 ], [ 127.067421452751717, 37.240124837046693 ], [ 127.068871421549318, 37.229892864164469 ], [ 127.074835671535666, 37.228211765205756 ], [ 127.075895453661147, 37.225585328165927 ], [ 127.073068701363397, 37.226173286789631 ], [ 127.068479807595452, 37.223046565261185 ], [ 127.070491374602085, 37.213147826203958 ], [ 127.064121921131346, 37.21214237650323 ], [ 127.061518305449184, 37.220270223758256 ], [ 127.060173379480489, 37.221290840450251 ], [ 127.056512277148144, 37.218674476455227 ], [ 127.051155524409111, 37.221350026168295 ], [ 127.045714250204853, 37.229262194425353 ], [ 127.04435376995265, 37.229062474230915 ] ] ] ] } },
{ "type": "Feature", "properties": { "emd_cd": "41595106", "emd_nm": "반정동" }, "geometry": { "type": "MultiPolygon", "coordinates": [ [ [ [ 127.046481699360584, 37.232844972101411 ], [ 127.045885833573919, 37.232782277265684 ], [ 127.045770857251341, 37.233321421343774 ], [ 127.044988901903878, 37.233234048853056 ], [ 127.04445868975013, 37.228825462626546 ], [ 127.040124417165103, 37.227130241798477 ], [ 127.035362729652064, 37.227607366897615 ], [ 127.026239881162013, 37.220100724790363 ], [ 127.023127597121089, 37.226210366389878 ], [ 127.024402494411177, 37.22947445248748 ], [ 127.023229854811248, 37.23089175725692 ], [ 127.030006494856863, 37.231191348988737 ], [ 127.030455122008249, 37.233494694451075 ], [ 127.034804355232666, 37.236764099322208 ], [ 127.037401309414037, 37.236701078930047 ], [ 127.037618836728328, 37.238601583376969 ], [ 127.044047307669317, 37.238572318511807 ], [ 127.046481699360584, 37.232844972101411 ] ] ] ] } },
{ "type": "Feature", "properties": { "emd_cd": "41595107", "emd_nm": "황계동" }, "geometry": { "type": "MultiPolygon", "coordinates": [ [ [ [ 127.026239881162013, 37.220100724790363 ], [ 127.023569718169099, 37.21608828135799 ], [ 127.02044509663736, 37.214964474348371 ], [ 127.020257232038261, 37.218693836901949 ], [ 127.015236323566995, 37.214606280296607 ], [ 127.010754494182237, 37.217534940403134 ], [ 127.004086446751785, 37.216684905713691 ], [ 127.00293788279491, 37.222912646593578 ], [ 127.009487003710205, 37.224582033739253 ], [ 127.008254731017544, 37.226343474125493 ], [ 127.009395726196388, 37.226759801587363 ], [ 127.021877448609942, 37.224527551688901 ], [ 127.023291002980841, 37.225894656803789 ], [ 127.026239881162013, 37.220100724790363 ] ] ] ] } },
{ "type": "Feature", "properties": { "emd_cd": "41595108", "emd_nm": "송산동" }, "geometry": { "type": "MultiPolygon", "coordinates": [ [ [ [ 126.99426054900195, 37.213423280714117 ], [ 126.997574369859493, 37.219158913781882 ], [ 127.000268073516182, 37.219135031898809 ], [ 127.006640045976738, 37.216068239332984 ], [ 127.00975448877017, 37.217572957134557 ], [ 127.01317112046128, 37.21682388590731 ], [ 127.015236323566995, 37.214606280296607 ], [ 127.020467437137199, 37.218699732297672 ], [ 127.02044509663736, 37.214964474348371 ], [ 127.023075578513769, 37.216810125247285 ], [ 127.028810336819632, 37.211133193498014 ], [ 127.021400895593899, 37.208477339665443 ], [ 127.024288075129689, 37.205792322101907 ], [ 127.023321118684123, 37.205026391465978 ], [ 127.013176613895681, 37.205967154434433 ], [ 127.012115585352291, 37.208276052584793 ], [ 127.005888501790992, 37.204580346783885 ], [ 127.000298996512839, 37.2095138163101 ], [ 126.997749896057002, 37.208695110896038 ], [ 126.997130020530676, 37.211704231662523 ], [ 126.99426054900195, 37.213423280714117 ] ] ] ] } },
{ "type": "Feature", "properties": { "emd_cd": "41595109", "emd_nm": "안녕동" }, "geometry": { "type": "MultiPolygon", "coordinates": [ [ [ [ 127.023321118684123, 37.205026391465978 ], [ 127.022791094625859, 37.200504272300144 ], [ 127.027374802913073, 37.199709332449018 ], [ 127.016489835306942, 37.195840247052494 ], [ 127.01600946400302, 37.194245906698335 ], [ 127.013506370521014, 37.195012580034216 ], [ 127.011508339497752, 37.19242993586986 ], [ 127.008055073465712, 37.193076010743525 ], [ 127.009872538852235, 37.187658472678798 ], [ 127.007276721543491, 37.185916120092529 ], [ 127.001706701079883, 37.190286174447003 ], [ 126.999263373586018, 37.189602592601602 ], [ 126.994715657676124, 37.194209963278162 ], [ 126.984930837510831, 37.194151628880356 ], [ 126.983718921822685, 37.197540897719364 ], [ 126.985143567393621, 37.202380272277011 ], [ 126.979894777883175, 37.206964844359966 ], [ 126.97916686815843, 37.209867015488989 ], [ 126.980058664091686, 37.212925140179401 ], [ 126.993271190635085, 37.216573008378532 ], [ 126.994949091002582, 37.216283013574149 ], [ 126.99426054900195, 37.213423280714117 ], [ 126.997130020530676, 37.211704231662523 ], [ 126.997749896057002, 37.208695110896038 ], [ 127.000298996512839, 37.2095138163101 ], [ 127.005888501790992, 37.204580346783885 ], [ 127.012115585352291, 37.208276052584793 ], [ 127.013176613895681, 37.205967154434433 ], [ 127.023321118684123, 37.205026391465978 ] ] ] ] } }
]
}
