{
"type": "FeatureCollection",
"name": "41591",
"crs": { "type": "name", "properties": { "name": "urn:ogc:def:crs:OGC:1.3:CRS84" } },
"features": [
{ "type": "Feature", "properties": { "emd_cd": "41591101", "emd_nm": "새솔동" }, "geometry": { "type": "MultiPolygon", "coordinates": [ [ [ [ 126.845027740859607, 37.263509238279809 ], [ 126.837371791293236, 37.270719935268325 ], [ 126.831284966249981, 37.273782492003292 ], [ 126.827329933560179, 37.270532796837728 ], [ 126.820646569256041, 37.275664219637733 ], [ 126.811674079449745, 37.279002100021721 ], [ 126.809646637307409, 37.280580105255993 ], [ 126.814065835075766, 37.284764309547043 ], [ 126.812584992305617, 37.286078595101216 ], [ 126.808393064867801, 37.285890741748553 ], [ 126.804513024391582, 37.28293073480431 ], [ 126.804470933096766, 37.293439447452172 ], [ 126.813407215191177, 37.293404131585959 ], [ 126.820185652117843, 37.290206575732405 ], [ 126.824399421037086, 37.285819172141835 ], [ 126.826308422336723, 37.277447559388868 ], [ 126.836976919947091, 37.276328584766929 ], [ 126.839395409017527, 37.269517654786263 ], [ 126.846355035029489, 37.263972116214362 ], [ 126.845337732821491, 37.260109504178786 ], [ 126.848722689917068, 37.260874528694934 ], [ 126.849836824308852, 37.259558819560489 ], [ 126.849336491753078, 37.256470871225403 ], [ 126.844878000982135, 37.259843001602952 ], [ 126.845027740859607, 37.263509238279809 ] ] ] ] } },
{ "type": "Feature", "properties": { "emd_cd": "41591250", "emd_nm": "우정읍" }, "geometry": { "type": "MultiPolygon", "coordinates": [ [ [ [ 126.730149948531533, 37.046222102176579 ], [ 126.731437318822145, 37.045514999655381 ], [ 126.729948362117199, 37.046010251021208 ], [ 126.730149948531533, 37.046222102176579 ] ] ], [ [ [ 126.549092585428298, 37.05297947879744 ], [ 126.549018303467079, 37.054535045639319 ], [ 126.550649671702146, 37.054864907726746 ], [ 126.549092585428298, 37.05297947879744 ] ] ], [ [ [ 126.551868464631127, 37.058282266937894 ], [ 126.556777570189055, 37.064402062743042 ], [ 126.560594117612737, 37.061235095488499 ], [ 126.557794101013542, 37.05995337051214 ], [ 126.557867289199976, 37.061155295955018 ], [ 126.552407797240093, 37.056731244717795 ], [ 126.551868464631127, 37.058282266937894 ] ] ], [ [ [ 126.55434110408666, 37.071482576172855 ], [ 126.555657982352173, 37.069521904210994 ], [ 126.554817420953469, 37.068298169908026 ], [ 126.55434110408666, 37.071482576172855 ] ] ], [ [ [ 126.682593880956588, 37.112862750885029 ], [ 126.68640338430383, 37.112964572660573 ], [ 126.686121772584841, 37.111634858812948 ], [ 126.756276015835056, 37.056274842697867 ], [ 126.763782606001712, 37.058274300990398 ], [ 126.764842056971332, 37.056317739195194 ], [ 126.764246570656113, 37.058522923305524 ], [ 126.770023923344169, 37.060071425769522 ], [ 126.772402101152181, 37.057932157704748 ], [ 126.776167640113684, 37.058225709727765 ], [ 126.769698861437362, 37.060795138482085 ], [ 126.770111065385265, 37.063197584720022 ], [ 126.771531641610011, 37.065937660761811 ], [ 126.775322656231538, 37.065576711698135 ], [ 126.774836396966393, 37.065410357373977 ], [ 126.774760120008196, 37.064748407521023 ], [ 126.77679885744962, 37.067614235032821 ], [ 126.780315681735203, 37.069011851518496 ], [ 126.779255953273747, 37.070367727506842 ], [ 126.781411732322425, 37.070977116801394 ], [ 126.779026230652718, 37.071281452000747 ], [ 126.780059110850942, 37.074528722946319 ], [ 126.777662164904982, 37.072236264792544 ], [ 126.777900732449012, 37.068465460886628 ], [ 126.774798038601233, 37.066281116755633 ], [ 126.7722032319584, 37.067341096188819 ], [ 126.773652185188936, 37.071054437714899 ], [ 126.769528108035601, 37.064396113276587 ], [ 126.763124820250312, 37.063066776447506 ], [ 126.761637380842004, 37.068125023035222 ], [ 126.76450526555945, 37.068757917916848 ], [ 126.763708950074289, 37.072223756796774 ], [ 126.764934521433588, 37.072144120504127 ], [ 126.763649194541017, 37.07269172075727 ], [ 126.762909618486873, 37.080207305197199 ], [ 126.765108813169363, 37.081264399965804 ], [ 126.764721002206045, 37.086899416743869 ], [ 126.767332994043187, 37.091091998058388 ], [ 126.76654114586168, 37.094266440042304 ], [ 126.768258360454226, 37.094836100153479 ], [ 126.771703010373514, 37.101105333735063 ], [ 126.769993333805502, 37.103866813775049 ], [ 126.771348162614444, 37.106504863338181 ], [ 126.768851242731245, 37.103329773976547 ], [ 126.766589905691959, 37.103824240467695 ], [ 126.766060004925308, 37.106022021500024 ], [ 126.758286648164272, 37.11142173662325 ], [ 126.760409416709322, 37.117926800619855 ], [ 126.765155853715385, 37.123909295665484 ], [ 126.772466710605414, 37.129893559155214 ], [ 126.772134558324822, 37.127493311891115 ], [ 126.7743458489783, 37.128176657604151 ], [ 126.776397111, 37.132139159646037 ], [ 126.782572086760283, 37.134890330798342 ], [ 126.786547221759406, 37.132527547039018 ], [ 126.787222646080409, 37.129610815849816 ], [ 126.795247117270804, 37.128821623110738 ], [ 126.796115608045781, 37.134306240605284 ], [ 126.801367058708394, 37.138359598833027 ], [ 126.806638820105604, 37.138104535462752 ], [ 126.810174616675027, 37.139753833065782 ], [ 126.812296313749883, 37.139734108454817 ], [ 126.824354214147803, 37.129467664344041 ], [ 126.829021116155786, 37.129828930584694 ], [ 126.828584849133449, 37.127885351162746 ], [ 126.825847427883346, 37.127685563853184 ], [ 126.830474105236561, 37.118255169075304 ], [ 126.814178171181382, 37.116337640659324 ], [ 126.813901399199793, 37.109722148927858 ], [ 126.818338867589816, 37.108480085580062 ], [ 126.819540754714211, 37.106566918075714 ], [ 126.817915564212811, 37.106520855991519 ], [ 126.817685893707932, 37.104737639911235 ], [ 126.819872385764981, 37.103371959172058 ], [ 126.828421519870147, 37.102821790801926 ], [ 126.833857454001716, 37.099071148356188 ], [ 126.827919360029895, 37.096570464629693 ], [ 126.82908099523975, 37.09147098889617 ], [ 126.82762852371269, 37.088127943281165 ], [ 126.823213143765855, 37.086014338407985 ], [ 126.821026651731103, 37.082283557262244 ], [ 126.815196606044751, 37.0792829011001 ], [ 126.812267809285473, 37.081281162808573 ], [ 126.808134982595149, 37.07968823229433 ], [ 126.806535269416585, 37.076348899905014 ], [ 126.807533647693717, 37.074206530695918 ], [ 126.811865982874792, 37.073990117335057 ], [ 126.812560306324173, 37.071734828675581 ], [ 126.79622723950861, 37.06211784099726 ], [ 126.795918245121726, 37.05656267457119 ], [ 126.801702266838959, 37.052133862273266 ], [ 126.801035930526069, 37.049991237699636 ], [ 126.810559690949447, 37.047121235794997 ], [ 126.810893416247424, 37.036768343583411 ], [ 126.813097964147374, 37.034394277594906 ], [ 126.81266153655811, 37.027988567342135 ], [ 126.809185156017037, 37.024550583933987 ], [ 126.812609647695794, 37.020712306014218 ], [ 126.812620458078371, 37.01340231825629 ], [ 126.797671757129436, 37.013405449426003 ], [ 126.798141568839057, 37.01669165211873 ], [ 126.795864764072448, 37.018454945868847 ], [ 126.795255188036748, 37.025825436765871 ], [ 126.789146749521308, 37.02987740560301 ], [ 126.749534850228486, 37.030328947492798 ], [ 126.747969215098465, 37.032938998759015 ], [ 126.748851508002176, 37.036819507964324 ], [ 126.747669077811651, 37.033318851065467 ], [ 126.745822951224639, 37.036644134115498 ], [ 126.746041193029541, 37.042606575878686 ], [ 126.748892940482236, 37.048785352443467 ], [ 126.75668090921458, 37.055455800268419 ], [ 126.733539420605823, 37.073477685726594 ], [ 126.730954390215601, 37.072283507195827 ], [ 126.732463116917828, 37.074312876090836 ], [ 126.684377323375486, 37.111880149700077 ], [ 126.683562288646115, 37.110513058743209 ], [ 126.685367920177271, 37.109507984262279 ], [ 126.684353843201635, 37.109794424835535 ], [ 126.683482797177518, 37.110500951655546 ], [ 126.684256564853072, 37.111975302402477 ], [ 126.682593880956588, 37.112862750885029 ] ] ], [ [ [ 126.537541004352775, 37.111846193736362 ], [ 126.540567798929047, 37.111772975348764 ], [ 126.541678050878431, 37.10517907168645 ], [ 126.538434684572522, 37.094446040893587 ], [ 126.537541004352775, 37.111846193736362 ] ] ], [ [ [ 126.535585285450622, 37.113088479673642 ], [ 126.537017256068566, 37.113963043178401 ], [ 126.537285057685438, 37.11257834935045 ], [ 126.535585285450622, 37.113088479673642 ] ] ], [ [ [ 126.528278375471629, 37.120810050872734 ], [ 126.528886456042656, 37.12093956922471 ], [ 126.528843581347616, 37.120694069860932 ], [ 126.528278375471629, 37.120810050872734 ] ] ], [ [ [ 126.761941845651393, 37.121678331017065 ], [ 126.763052415200733, 37.122023042556734 ], [ 126.763024583169923, 37.12184524455477 ], [ 126.761941845651393, 37.121678331017065 ] ] ] ] } },
{ "type": "Feature", "properties": { "emd_cd": "41591253", "emd_nm": "향남읍" }, "geometry": { "type": "MultiPolygon", "coordinates": [ [ [ [ 126.879967307969793, 37.093537730600481 ], [ 126.883910192389351, 37.098827748009306 ], [ 126.886905348224062, 37.100063068451178 ], [ 126.888526013979288, 37.103804677444629 ], [ 126.884575913904953, 37.106398591927132 ], [ 126.890577441207625, 37.116448990699048 ], [ 126.889640506845637, 37.122762003502757 ], [ 126.88700685419991, 37.124475676738335 ], [ 126.888905903974361, 37.126989900014948 ], [ 126.887840904715404, 37.127970268282283 ], [ 126.888555402928475, 37.127883413597871 ], [ 126.889252655327738, 37.128409021624556 ], [ 126.88966316907181, 37.12878163551531 ], [ 126.892465731198016, 37.135500248625284 ], [ 126.894328394862441, 37.134881733528523 ], [ 126.895622652027285, 37.13862028854556 ], [ 126.89808278429949, 37.138371147411043 ], [ 126.896950877830008, 37.141379808656374 ], [ 126.898110446789261, 37.140762757132173 ], [ 126.901966292579914, 37.146102634473813 ], [ 126.904137805347148, 37.146549485970397 ], [ 126.903526041254693, 37.148608066966013 ], [ 126.905377340487476, 37.15018818114909 ], [ 126.911920593663865, 37.14649350470561 ], [ 126.910359461340533, 37.140649741989051 ], [ 126.914205936705798, 37.140058896736747 ], [ 126.92914781007525, 37.146175423854736 ], [ 126.928673060957379, 37.143211290242569 ], [ 126.932724280692952, 37.143468636075305 ], [ 126.935564758840258, 37.145609521486044 ], [ 126.942064552868914, 37.142818252306554 ], [ 126.94587232817068, 37.144152947580857 ], [ 126.94635685114352, 37.150463156339178 ], [ 126.952360515129669, 37.148435329879945 ], [ 126.953013391880873, 37.145421126473465 ], [ 126.958368846701617, 37.1425788863381 ], [ 126.959949487963314, 37.144688258264523 ], [ 126.964625226676901, 37.143560217700518 ], [ 126.96918407309515, 37.14463038681027 ], [ 126.974900122593866, 37.142644110699401 ], [ 126.978576032815567, 37.143418451150325 ], [ 126.982254635580219, 37.141591669769042 ], [ 126.982260966907987, 37.134813589225125 ], [ 126.98703736711947, 37.130149109351592 ], [ 126.996133173018194, 37.129328125657899 ], [ 126.997384379482213, 37.127888000310293 ], [ 126.996768888079629, 37.124717773622208 ], [ 126.999527451544083, 37.123579601165027 ], [ 126.995633693740984, 37.123122816866257 ], [ 126.990817018515543, 37.119068670645362 ], [ 126.986791346515048, 37.12151451916062 ], [ 126.984317782771313, 37.119617308331428 ], [ 126.976012758093148, 37.119760388319534 ], [ 126.973316794076638, 37.116580802817126 ], [ 126.973609828833958, 37.112781931134172 ], [ 126.971402056226495, 37.109127004668622 ], [ 126.96445026153981, 37.105483784898944 ], [ 126.960344433252033, 37.108166613632292 ], [ 126.955213444567107, 37.108530749787676 ], [ 126.953842588990327, 37.099452528625768 ], [ 126.948521253822307, 37.097094583733629 ], [ 126.94741949931273, 37.098059167130586 ], [ 126.94528177494206, 37.096723729556558 ], [ 126.94568017591601, 37.100823200973366 ], [ 126.938134026221604, 37.103818864994409 ], [ 126.937155196096271, 37.105992071153281 ], [ 126.932826790554373, 37.105770668043718 ], [ 126.93139766613524, 37.102222352234726 ], [ 126.925695141290333, 37.099354699347437 ], [ 126.927703065918365, 37.087020035989191 ], [ 126.926963422778741, 37.081911622586453 ], [ 126.912880067676738, 37.079148675696189 ], [ 126.89766148251951, 37.068635693097981 ], [ 126.883720395544344, 37.067002583638974 ], [ 126.878342067512591, 37.087394097903811 ], [ 126.879967307969793, 37.093537730600481 ] ] ] ] } },
{ "type": "Feature", "properties": { "emd_cd": "41591256", "emd_nm": "남양읍" }, "geometry": { "type": "MultiPolygon", "coordinates": [ [ [ [ 126.778290237858883, 37.239112848431503 ], [ 126.77830359846817, 37.24579946470643 ], [ 126.789564713908177, 37.244129900469801 ], [ 126.7883063508026, 37.255191834530201 ], [ 126.793369422060849, 37.259230817729929 ], [ 126.791596684203412, 37.26183317184821 ], [ 126.79238127708669, 37.264742771751976 ], [ 126.790323896096226, 37.267168584296677 ], [ 126.795064577924578, 37.26867136210489 ], [ 126.796283655464549, 37.270726952598139 ], [ 126.808877964046573, 37.26639324152957 ], [ 126.811220567847016, 37.267628354518308 ], [ 126.810692519047606, 37.269007679896639 ], [ 126.808560113406799, 37.268565889518264 ], [ 126.805506989206165, 37.274696499463104 ], [ 126.806598480386356, 37.274343294873013 ], [ 126.806834034438992, 37.274292107368254 ], [ 126.806882471367985, 37.274393039512468 ], [ 126.800282509840287, 37.277966093059469 ], [ 126.803303377599889, 37.279552643174114 ], [ 126.805147861613932, 37.284617428355297 ], [ 126.812584992305617, 37.286078595101216 ], [ 126.814065835075766, 37.284764309547043 ], [ 126.809646637307409, 37.280580105255993 ], [ 126.811674079449745, 37.279002100021721 ], [ 126.820646569256041, 37.275664219637733 ], [ 126.827329933560179, 37.270532796837728 ], [ 126.831284966249981, 37.273782492003292 ], [ 126.837371791293236, 37.270719935268325 ], [ 126.841439521922908, 37.266288059754828 ], [ 126.833696740728115, 37.257513789796342 ], [ 126.834185306165139, 37.254591577265195 ], [ 126.826955948489825, 37.25146076514568 ], [ 126.827330783457001, 37.243087238014404 ], [ 126.823764899954256, 37.23674590732621 ], [ 126.826946910114813, 37.235308438472678 ], [ 126.829260825540644, 37.229963468074104 ], [ 126.839175689576081, 37.232283320985985 ], [ 126.842386679380041, 37.229154909577687 ], [ 126.848545087304004, 37.227243313075768 ], [ 126.85074300317369, 37.228284020700983 ], [ 126.848989070222771, 37.220186352534611 ], [ 126.852872221396481, 37.220188657738966 ], [ 126.854655994601828, 37.218247192937497 ], [ 126.854399495194215, 37.215724328280224 ], [ 126.861112231372132, 37.213882995993195 ], [ 126.866996776896386, 37.209440251790099 ], [ 126.865987406759359, 37.20449749313498 ], [ 126.862372259638363, 37.200031099883773 ], [ 126.863189294855871, 37.195947856710688 ], [ 126.859726064441332, 37.193151343916185 ], [ 126.861051017497388, 37.189871684280249 ], [ 126.857827492427091, 37.1878849510422 ], [ 126.856680445895833, 37.18481580805593 ], [ 126.861123957884971, 37.181532605883788 ], [ 126.85974328675303, 37.178502038332972 ], [ 126.86065142699222, 37.176940542802996 ], [ 126.863313953114428, 37.176911726481343 ], [ 126.865074776691642, 37.175068402957614 ], [ 126.862172890914266, 37.171024095791196 ], [ 126.862444034698882, 37.168621317448974 ], [ 126.858661556962247, 37.164987663283775 ], [ 126.845069320074018, 37.158700321904668 ], [ 126.839463406705917, 37.153030336271826 ], [ 126.829812397467833, 37.150085296914767 ], [ 126.819011117363445, 37.150496581961505 ], [ 126.806013413009666, 37.148764743950679 ], [ 126.804497267746385, 37.152403569581082 ], [ 126.800011191421291, 37.153907873883938 ], [ 126.791110582529669, 37.150433771976573 ], [ 126.791423377137335, 37.148672889534872 ], [ 126.788693019693255, 37.151139682260826 ], [ 126.781533509419759, 37.15221481933046 ], [ 126.785848601351134, 37.154718801906434 ], [ 126.791331830511595, 37.154436314943361 ], [ 126.789083410002974, 37.155088712631503 ], [ 126.792130859817547, 37.156785856157505 ], [ 126.79209122731659, 37.156232892986182 ], [ 126.79284180264095, 37.155677106617233 ], [ 126.792556030459977, 37.155441266955293 ], [ 126.792541994167735, 37.155219782149643 ], [ 126.792894913912988, 37.155714341384218 ], [ 126.792276359235572, 37.156791447307221 ], [ 126.795375123297333, 37.157963177664982 ], [ 126.797813618518347, 37.162332346656306 ], [ 126.802099462926634, 37.163891268292772 ], [ 126.803083168510909, 37.163797281982959 ], [ 126.803490890774114, 37.163920776849288 ], [ 126.803382539484573, 37.163385336705026 ], [ 126.803375659909264, 37.162997342545552 ], [ 126.803420605797797, 37.162949058376405 ], [ 126.803474652001398, 37.162929622962892 ], [ 126.803581154883005, 37.162934702576173 ], [ 126.803618658238577, 37.162908220297766 ], [ 126.803617896218157, 37.164306196347574 ], [ 126.803238715062307, 37.163888521198466 ], [ 126.801851717931413, 37.163981100247376 ], [ 126.801170025863968, 37.163565467455179 ], [ 126.796110409619985, 37.16554893531729 ], [ 126.795870522608084, 37.169308187859144 ], [ 126.798114570615652, 37.170309709572926 ], [ 126.799001326741077, 37.170178864224276 ], [ 126.799733121809183, 37.170303934413226 ], [ 126.799975656580273, 37.170471896935162 ], [ 126.796393896674587, 37.170456597234555 ], [ 126.800183538970472, 37.17270557782718 ], [ 126.796694853370226, 37.17118675009052 ], [ 126.792300478037859, 37.173236453594058 ], [ 126.793072844813395, 37.176757637405586 ], [ 126.798491958036948, 37.178023969238339 ], [ 126.794295663223963, 37.17819794239189 ], [ 126.798490761306056, 37.179780016616448 ], [ 126.796460895012615, 37.180618522269974 ], [ 126.796721199902095, 37.183161282612339 ], [ 126.798488617242313, 37.183265970890069 ], [ 126.796909866797932, 37.183635819881303 ], [ 126.797161608009617, 37.189232691549279 ], [ 126.798601131548523, 37.19220716205529 ], [ 126.800786401403641, 37.192148973424914 ], [ 126.798731768250505, 37.192405264060625 ], [ 126.800649855959733, 37.196165506741522 ], [ 126.797794577692699, 37.192522792526354 ], [ 126.795488348504207, 37.193275510921929 ], [ 126.790072770579272, 37.199998478281216 ], [ 126.791755458919809, 37.20375542996608 ], [ 126.794980218114901, 37.205052604715732 ], [ 126.796330954897613, 37.210233943023042 ], [ 126.801868358074685, 37.214309650860088 ], [ 126.798352383789975, 37.219995483583524 ], [ 126.79928845252887, 37.222299287550683 ], [ 126.791598522290442, 37.231797835668445 ], [ 126.783051172294776, 37.234557926960363 ], [ 126.778290237858883, 37.239112848431503 ] ] ] ] } },
{ "type": "Feature", "properties": { "emd_cd": "41591310", "emd_nm": "마도면" }, "geometry": { "type": "MultiPolygon", "coordinates": [ [ [ [ 126.796335788779658, 37.189181454701057 ], [ 126.79589644211265, 37.190740347469671 ], [ 126.797254752414943, 37.190669450852951 ], [ 126.796335788779658, 37.189181454701057 ] ] ], [ [ [ 126.715319693457729, 37.182309642250935 ], [ 126.720532072446844, 37.188415300515643 ], [ 126.71851742341083, 37.19009298828891 ], [ 126.719441886145361, 37.193658214055844 ], [ 126.728878735562247, 37.197727589299518 ], [ 126.728733843143885, 37.202294448295561 ], [ 126.733448942664324, 37.203504947499844 ], [ 126.735875379874926, 37.202602919710976 ], [ 126.738931160720327, 37.205146830608378 ], [ 126.743771531803205, 37.206280256626101 ], [ 126.748833657217091, 37.206155644846682 ], [ 126.750896945120076, 37.211382921057783 ], [ 126.754625583926369, 37.210290759786034 ], [ 126.75438373403874, 37.208032210559772 ], [ 126.757511871868473, 37.205844235174361 ], [ 126.761609500620921, 37.210673796558936 ], [ 126.773807760495075, 37.2099817774805 ], [ 126.77339308035512, 37.207275746790287 ], [ 126.774296470064215, 37.207676941673284 ], [ 126.774925336028545, 37.213090043142188 ], [ 126.773369220885257, 37.216122094551686 ], [ 126.77468978932491, 37.218603446078077 ], [ 126.778712467537716, 37.217426410884947 ], [ 126.775486082688758, 37.220111443767415 ], [ 126.780652045712316, 37.223173306922206 ], [ 126.781215032609481, 37.22615620026923 ], [ 126.783645892845655, 37.226216722992511 ], [ 126.784177537143322, 37.228967588904034 ], [ 126.782971598410896, 37.22974839945693 ], [ 126.786280263238936, 37.232899522985534 ], [ 126.791598522290442, 37.231797835668445 ], [ 126.79928845252887, 37.222299287550683 ], [ 126.798352372523098, 37.21999548356419 ], [ 126.801868358074685, 37.214309650860088 ], [ 126.796330954897613, 37.210233943023042 ], [ 126.794980218114901, 37.205052604715732 ], [ 126.791755458919809, 37.20375542996608 ], [ 126.790072770579272, 37.199998478281216 ], [ 126.792337373759906, 37.195614047015113 ], [ 126.797794577692699, 37.192522792526354 ], [ 126.797156385844104, 37.190723560171826 ], [ 126.79419893529662, 37.190909732405629 ], [ 126.796412641490619, 37.187516078203707 ], [ 126.795530254207748, 37.186148472982694 ], [ 126.790569414842508, 37.187404236290135 ], [ 126.79476538194713, 37.185738949372478 ], [ 126.795096284746251, 37.181506314560359 ], [ 126.788493807379396, 37.171211254263341 ], [ 126.785761374131454, 37.172575362675978 ], [ 126.788428091609688, 37.170956139685735 ], [ 126.787289200088566, 37.168316179275486 ], [ 126.775485079626094, 37.158463185488927 ], [ 126.751667005277284, 37.155591123856937 ], [ 126.746950396606834, 37.160260774856567 ], [ 126.74734100527148, 37.163300758561327 ], [ 126.743970477656546, 37.163200052762136 ], [ 126.741629766552009, 37.167921433021093 ], [ 126.737519020386301, 37.168446154862046 ], [ 126.73700514035049, 37.170199554477385 ], [ 126.732730823054439, 37.169555898057546 ], [ 126.726553328825474, 37.174222977273466 ], [ 126.725999844928964, 37.176348727278537 ], [ 126.71848067436062, 37.177080875306281 ], [ 126.715319693457729, 37.182309642250935 ] ] ] ] } },
{ "type": "Feature", "properties": { "emd_cd": "41591320", "emd_nm": "송산면" }, "geometry": { "type": "MultiPolygon", "coordinates": [ [ [ [ 126.658050403586017, 37.20232574294279 ], [ 126.658407851514411, 37.202293530289161 ], [ 126.65818968989997, 37.202200541686189 ], [ 126.658050403586017, 37.20232574294279 ] ] ], [ [ [ 126.660041770223884, 37.204655362127319 ], [ 126.660266018980579, 37.204521780388625 ], [ 126.660049477077195, 37.204537420226757 ], [ 126.660041770223884, 37.204655362127319 ] ] ], [ [ [ 126.66105750646426, 37.204829320790942 ], [ 126.663486034444489, 37.204923171129664 ], [ 126.663260528214408, 37.203936015077588 ], [ 126.66105750646426, 37.204829320790942 ] ] ], [ [ [ 126.629678057347519, 37.28493939722506 ], [ 126.630818538359676, 37.28746272147751 ], [ 126.63290677881632, 37.289027422976261 ], [ 126.647900625920869, 37.292761306114151 ], [ 126.649735316408481, 37.292965376873468 ], [ 126.661665971169811, 37.292511668220484 ], [ 126.661921927834896, 37.245274712179473 ], [ 126.661357170390232, 37.292287642078328 ], [ 126.648693416740429, 37.292686228618393 ], [ 126.631807010904552, 37.287901945484514 ], [ 126.651471797123747, 37.273664246163442 ], [ 126.654016645416618, 37.269665947056701 ], [ 126.653330218927394, 37.265097330624336 ], [ 126.6477002785454, 37.258570334336952 ], [ 126.648674447966073, 37.24472131295915 ], [ 126.650985933607416, 37.239487134533647 ], [ 126.659242791040711, 37.230426058833594 ], [ 126.661890630453343, 37.220830523930701 ], [ 126.657055080990858, 37.202757496898883 ], [ 126.656862008290531, 37.196241512486836 ], [ 126.653370467482716, 37.194871093138026 ], [ 126.658169934397577, 37.212077478302575 ], [ 126.65670340199128, 37.22598163176054 ], [ 126.655106876346707, 37.23043962415548 ], [ 126.644666839274521, 37.242694414133005 ], [ 126.640699140298622, 37.25000103097149 ], [ 126.640766967021349, 37.253718625107204 ], [ 126.646352205023348, 37.265168870326576 ], [ 126.646194066439037, 37.271113299076525 ], [ 126.64506858645683, 37.275000648565374 ], [ 126.629678057347519, 37.28493939722506 ] ] ], [ [ [ 126.650061112325261, 37.244189186317278 ], [ 126.651467736423328, 37.250900100595096 ], [ 126.651866886127422, 37.248813443240856 ], [ 126.655169695629212, 37.247811829703274 ], [ 126.653445680822813, 37.245637952365136 ], [ 126.652946705963103, 37.23996200907753 ], [ 126.650061112325261, 37.244189186317278 ] ] ], [ [ [ 126.676986348842775, 37.257105364886229 ], [ 126.677234929644598, 37.258916957915154 ], [ 126.678731738193036, 37.25731867043033 ], [ 126.676986348842775, 37.257105364886229 ] ] ], [ [ [ 126.704709583642426, 37.264626247598287 ], [ 126.705417896784951, 37.264137553470675 ], [ 126.704593489834195, 37.264433559253803 ], [ 126.704709583642426, 37.264626247598287 ] ] ], [ [ [ 126.668102122752501, 37.27565874108425 ], [ 126.675543006433841, 37.281189163176933 ], [ 126.679259358879008, 37.282311432075069 ], [ 126.684993360294442, 37.281239459671099 ], [ 126.681065591145796, 37.281084295892093 ], [ 126.682107461527082, 37.279108830944217 ], [ 126.678687714633014, 37.27524806139003 ], [ 126.669594973074709, 37.273908361712124 ], [ 126.668102122752501, 37.27565874108425 ] ] ], [ [ [ 126.652942191380191, 37.295512251509685 ], [ 126.653520986199666, 37.29567116549083 ], [ 126.653559893418247, 37.295590881355551 ], [ 126.652942191380191, 37.295512251509685 ] ] ], [ [ [ 126.647213990684392, 37.298309975099102 ], [ 126.64786932304861, 37.299188551094375 ], [ 126.64836087320927, 37.298374933507709 ], [ 126.647213990684392, 37.298309975099102 ] ] ], [ [ [ 126.643687405748793, 37.303259389433606 ], [ 126.64341937804744, 37.302757005676412 ], [ 126.64319986046921, 37.303035514666213 ], [ 126.643687405748793, 37.303259389433606 ] ] ], [ [ [ 126.661516444097614, 37.238442107044399 ], [ 126.664864591187026, 37.242145272649267 ], [ 126.662465629914493, 37.243919682823595 ], [ 126.662527303863584, 37.245585149676295 ], [ 126.662929536175326, 37.24447318152027 ], [ 126.666692372814751, 37.2450636860112 ], [ 126.668691807847352, 37.242050678196293 ], [ 126.673698020794035, 37.243530326676769 ], [ 126.677170493981421, 37.246268552004317 ], [ 126.681183886637712, 37.256664350247348 ], [ 126.689450796522536, 37.262283897504005 ], [ 126.702095481344244, 37.260019618950551 ], [ 126.703660394939291, 37.257481645143734 ], [ 126.709737736273354, 37.258191832808194 ], [ 126.716102053271328, 37.254786229676327 ], [ 126.725663720893337, 37.256535188695231 ], [ 126.727458840221715, 37.252704458880004 ], [ 126.729353218147949, 37.253998946148222 ], [ 126.733722966508168, 37.24936707805356 ], [ 126.740729531252455, 37.254399980140668 ], [ 126.741869442241736, 37.25334741029809 ], [ 126.745327961040985, 37.255073791541136 ], [ 126.746667523093976, 37.253522794830801 ], [ 126.757277789567127, 37.253855911678521 ], [ 126.757721207319548, 37.24891173991216 ], [ 126.76367665176582, 37.249142883092205 ], [ 126.765098761122189, 37.245172353589737 ], [ 126.763408556944995, 37.244710232052313 ], [ 126.766714166928111, 37.244959985578532 ], [ 126.766594067001023, 37.239516299221009 ], [ 126.763160583551098, 37.239544687473682 ], [ 126.758965924255079, 37.235175405205304 ], [ 126.757068662095392, 37.235167341839308 ], [ 126.75856766963318, 37.234487719274853 ], [ 126.761896874575513, 37.237451543049623 ], [ 126.766442012549078, 37.237517101448226 ], [ 126.766783680854175, 37.231810211816253 ], [ 126.764103404354245, 37.228568422182313 ], [ 126.764710070602789, 37.227206653865458 ], [ 126.767620992374617, 37.23079086614247 ], [ 126.767016949201548, 37.247878472141807 ], [ 126.773568701776966, 37.248332068928725 ], [ 126.77599155296015, 37.245866581579634 ], [ 126.776410080519284, 37.236490344441975 ], [ 126.780777917119906, 37.233703610049439 ], [ 126.781547879092727, 37.230150249133374 ], [ 126.78015195896549, 37.227273921270438 ], [ 126.772180497195777, 37.220563025593023 ], [ 126.766004221644991, 37.221060111549242 ], [ 126.77284620515772, 37.218032967247389 ], [ 126.771600292599828, 37.214967676521319 ], [ 126.773901437051677, 37.212538355256626 ], [ 126.773406746996841, 37.210299334881753 ], [ 126.761330467182461, 37.210964546711743 ], [ 126.760343830570193, 37.212429571815477 ], [ 126.760739927819117, 37.208240735083486 ], [ 126.757765804139225, 37.205822889614133 ], [ 126.75438373403874, 37.208032210559772 ], [ 126.754625583926369, 37.210290759786034 ], [ 126.750896945120076, 37.211382921057783 ], [ 126.748833657217091, 37.206155644846682 ], [ 126.743771531803205, 37.206280256626101 ], [ 126.738931160720327, 37.205146830608378 ], [ 126.735875379874926, 37.202602919710976 ], [ 126.733448942664324, 37.203504947499844 ], [ 126.728733843143885, 37.202294448295561 ], [ 126.728878735562247, 37.197727589299518 ], [ 126.719441886145361, 37.193658214055844 ], [ 126.713240371317895, 37.197857183585626 ], [ 126.707023923749048, 37.191319240891438 ], [ 126.700713247302701, 37.196940678053195 ], [ 126.701796319856868, 37.201411147029212 ], [ 126.697454539221695, 37.204028275803694 ], [ 126.695302322117954, 37.202903414802371 ], [ 126.69321106595784, 37.204212384269788 ], [ 126.694774311280383, 37.205254269462429 ], [ 126.694575561031584, 37.209467531770329 ], [ 126.699030960734973, 37.214085799416182 ], [ 126.691788193222777, 37.214357209641044 ], [ 126.691155285166573, 37.215510612891997 ], [ 126.688361908646399, 37.207660633376079 ], [ 126.684083355216174, 37.2094508302335 ], [ 126.679005809208263, 37.207371699203868 ], [ 126.676740069076075, 37.200995461968461 ], [ 126.672713181591178, 37.200155847953013 ], [ 126.666575273057205, 37.208494430183656 ], [ 126.665658760677218, 37.212114354361454 ], [ 126.667846990753915, 37.215097370958496 ], [ 126.666278769722723, 37.216756430882668 ], [ 126.670101869882259, 37.217741931443449 ], [ 126.671580865119367, 37.220776267947002 ], [ 126.676153858077413, 37.22139308072699 ], [ 126.677430238351448, 37.223726743462016 ], [ 126.673337132881286, 37.229506148022082 ], [ 126.667266584801069, 37.229797128571057 ], [ 126.664765371985638, 37.233241226606118 ], [ 126.664741773855752, 37.236821512748435 ], [ 126.661516444097614, 37.238442107044399 ] ] ], [ [ [ 126.756979092376227, 37.258181177221395 ], [ 126.756089920913055, 37.257698365879634 ], [ 126.755871637493186, 37.258112226545066 ], [ 126.756979092376227, 37.258181177221395 ] ] ], [ [ [ 126.757745221905409, 37.258625777092441 ], [ 126.75849540120673, 37.258146536558577 ], [ 126.757377480309088, 37.258264011351272 ], [ 126.757745221905409, 37.258625777092441 ] ] ], [ [ [ 126.725779778830045, 37.258345111935789 ], [ 126.725357178574697, 37.258481372446873 ], [ 126.725478730630897, 37.258741081268951 ], [ 126.725779778830045, 37.258345111935789 ] ] ], [ [ [ 126.758680292725657, 37.259699234457663 ], [ 126.757733634708416, 37.259765848910071 ], [ 126.758686464301448, 37.259915305911981 ], [ 126.758680292725657, 37.259699234457663 ] ] ], [ [ [ 126.762755967217217, 37.260600005262162 ], [ 126.765524475157889, 37.261881030975857 ], [ 126.766405774539265, 37.259230042648895 ], [ 126.762755967217217, 37.260600005262162 ] ] ], [ [ [ 126.767840170355385, 37.266384219526209 ], [ 126.767725952227124, 37.266268508712258 ], [ 126.767661248689691, 37.266386217974222 ], [ 126.767840170355385, 37.266384219526209 ] ] ], [ [ [ 126.760973637650693, 37.270045860170164 ], [ 126.76180335743291, 37.269969387433825 ], [ 126.761721971189587, 37.269509687335756 ], [ 126.760973637650693, 37.270045860170164 ] ] ], [ [ [ 126.721582186797491, 37.273498455661937 ], [ 126.721778052802662, 37.273818712372424 ], [ 126.721829209747824, 37.273500994705778 ], [ 126.721582186797491, 37.273498455661937 ] ] ], [ [ [ 126.72650263247003, 37.277040620968755 ], [ 126.726590677289565, 37.276775273851108 ], [ 126.726347453378054, 37.276974413113912 ], [ 126.72650263247003, 37.277040620968755 ] ] ], [ [ [ 126.734969243992396, 37.283987967472633 ], [ 126.739177970306656, 37.288942332872487 ], [ 126.741542840748735, 37.287197923461981 ], [ 126.745133354661533, 37.287300929845451 ], [ 126.745870796278055, 37.283517652262134 ], [ 126.740287341796673, 37.282041470514315 ], [ 126.734969243992396, 37.283987967472633 ] ] ] ] } },
{ "type": "Feature", "properties": { "emd_cd": "41591330", "emd_nm": "서신면" }, "geometry": { "type": "MultiPolygon", "coordinates": [ [ [ [ 126.611119978061922, 37.109847894440335 ], [ 126.61139451358585, 37.109997021134099 ], [ 126.611319750031271, 37.109767457213977 ], [ 126.611119978061922, 37.109847894440335 ] ] ], [ [ [ 126.612118995796976, 37.118972709923376 ], [ 126.614571153023178, 37.118638482257417 ], [ 126.611816686114395, 37.117869460440538 ], [ 126.612118995796976, 37.118972709923376 ] ] ], [ [ [ 126.637592191240174, 37.140921755002516 ], [ 126.637789473316786, 37.143300498092806 ], [ 126.638208515581837, 37.140075848567712 ], [ 126.637592191240174, 37.140921755002516 ] ] ], [ [ [ 126.643097576098597, 37.143178265075363 ], [ 126.643262297893884, 37.142904213484819 ], [ 126.643092787000597, 37.142833509390627 ], [ 126.643097576098597, 37.143178265075363 ] ] ], [ [ [ 126.647970713235566, 37.147320872057762 ], [ 126.648177841383983, 37.14724481044928 ], [ 126.648058668561518, 37.147045053209837 ], [ 126.647970713235566, 37.147320872057762 ] ] ], [ [ [ 126.606316127643936, 37.155650763149133 ], [ 126.606895797714813, 37.15620795483926 ], [ 126.606413799296803, 37.155585231341576 ], [ 126.606316127643936, 37.155650763149133 ] ] ], [ [ [ 126.603456409251123, 37.155840144549508 ], [ 126.605894800371615, 37.158740501969227 ], [ 126.606472936326625, 37.158932181412275 ], [ 126.603456409251123, 37.155840144549508 ] ] ], [ [ [ 126.646328206694037, 37.157842896906878 ], [ 126.646904254794592, 37.15851905499116 ], [ 126.647142007746567, 37.158400737849668 ], [ 126.646328206694037, 37.157842896906878 ] ] ], [ [ [ 126.617202094858428, 37.173394419893491 ], [ 126.623014591400931, 37.179909078819662 ], [ 126.623224785717071, 37.177251178638791 ], [ 126.624896266089081, 37.176467936853491 ], [ 126.626007439849232, 37.177744961137336 ], [ 126.626128961076674, 37.176466432812852 ], [ 126.632460703356173, 37.174865406843374 ], [ 126.619825199330919, 37.159608871957154 ], [ 126.617202094858428, 37.173394419893491 ] ] ], [ [ [ 126.629853958044862, 37.177553965327967 ], [ 126.628389021498165, 37.177971644558276 ], [ 126.629872362295316, 37.177601327804631 ], [ 126.629853958044862, 37.177553965327967 ] ] ], [ [ [ 126.627830845281139, 37.178060449543146 ], [ 126.626367753136648, 37.178483497750982 ], [ 126.627850374921422, 37.178107716761168 ], [ 126.627830845281139, 37.178060449543146 ] ] ], [ [ [ 126.625802257236899, 37.178530182279587 ], [ 126.625777636663059, 37.178631174178456 ], [ 126.625884896445029, 37.178603599919327 ], [ 126.625802257236899, 37.178530182279587 ] ] ], [ [ [ 126.649734800964282, 37.187667701127168 ], [ 126.648952500643361, 37.186851825185464 ], [ 126.648863157170254, 37.186908054657813 ], [ 126.649645008713279, 37.187723479327119 ], [ 126.649734800964282, 37.187667701127168 ] ] ], [ [ [ 126.689962433893115, 37.111639434235663 ], [ 126.690987631901152, 37.110986092471592 ], [ 126.690778483924277, 37.110732014820272 ], [ 126.689962433893115, 37.111639434235663 ] ] ], [ [ [ 126.675163036227673, 37.115998761976279 ], [ 126.676521499182201, 37.116191984633431 ], [ 126.676528567762617, 37.116012333918775 ], [ 126.675163036227673, 37.115998761976279 ] ] ], [ [ [ 126.673410726965599, 37.117129586928975 ], [ 126.673640762816603, 37.115786482186728 ], [ 126.673296043041717, 37.11711043751778 ], [ 126.673410726965599, 37.117129586928975 ] ] ], [ [ [ 126.671408371829799, 37.123529631914394 ], [ 126.67154378559421, 37.123415485095364 ], [ 126.671386704956731, 37.123414326993206 ], [ 126.671408371829799, 37.123529631914394 ] ] ], [ [ [ 126.668137044392452, 37.125500901343791 ], [ 126.66830012098238, 37.125393053323208 ], [ 126.668148135563854, 37.125281165952991 ], [ 126.668137044392452, 37.125500901343791 ] ] ], [ [ [ 126.668424562192058, 37.143069808798366 ], [ 126.669013992684143, 37.143151116305589 ], [ 126.668469052374007, 37.143011365597388 ], [ 126.668424562192058, 37.143069808798366 ] ] ], [ [ [ 126.651945197343437, 37.147305267593488 ], [ 126.652632320554687, 37.146852893292127 ], [ 126.652720365785981, 37.146774310666913 ], [ 126.652159835570131, 37.146672283229805 ], [ 126.651945197343437, 37.147305267593488 ] ] ], [ [ [ 126.650132939863809, 37.185061176238726 ], [ 126.650619768632623, 37.187742048077773 ], [ 126.651696786096068, 37.187079930174782 ], [ 126.655425370777394, 37.189787526777678 ], [ 126.650680882950198, 37.191475461124703 ], [ 126.653370467482716, 37.194871093138026 ], [ 126.654877025566222, 37.195462448438562 ], [ 126.652974314884958, 37.191446476333155 ], [ 126.656559502237158, 37.190825572324407 ], [ 126.661882373798989, 37.1967676209796 ], [ 126.673062577597918, 37.193613924594558 ], [ 126.683413822663667, 37.201025227948129 ], [ 126.697454539221695, 37.204028275803694 ], [ 126.701838081879515, 37.201364065144055 ], [ 126.700713247302701, 37.196940678053195 ], [ 126.705822120993204, 37.191700776846957 ], [ 126.707023923749048, 37.191319240891438 ], [ 126.713240371317895, 37.197857183585626 ], [ 126.719289291119495, 37.19398918210856 ], [ 126.71851742341083, 37.19009298828891 ], [ 126.720532072446844, 37.188415300515643 ], [ 126.716445389335178, 37.184945405063459 ], [ 126.715159249945415, 37.181734847831564 ], [ 126.71733978094295, 37.177889608192054 ], [ 126.719971125978944, 37.176386566073305 ], [ 126.725999844928964, 37.176348727278537 ], [ 126.726553328825474, 37.174222977273466 ], [ 126.732730823054439, 37.169555898057546 ], [ 126.73700514035049, 37.170199554477385 ], [ 126.737519020386301, 37.168446154862046 ], [ 126.741629766552009, 37.167921433021093 ], [ 126.743970477656546, 37.163200052762136 ], [ 126.74734100527148, 37.163300758561327 ], [ 126.746950396606834, 37.160260774856567 ], [ 126.751667005277284, 37.155591123856937 ], [ 126.754403893365151, 37.156143798149792 ], [ 126.743949303427712, 37.149883756214841 ], [ 126.725021645939705, 37.132495888209228 ], [ 126.706997545637634, 37.120050843268956 ], [ 126.695784216154877, 37.11539798186282 ], [ 126.689896112957072, 37.11595536402389 ], [ 126.683700800798746, 37.113524663756444 ], [ 126.682846608393405, 37.114950001292677 ], [ 126.677681301073548, 37.11530982747837 ], [ 126.676456243616897, 37.115775374821219 ], [ 126.680832320132509, 37.115515857047257 ], [ 126.680961950636615, 37.117658453566548 ], [ 126.674422787270913, 37.117226579189378 ], [ 126.679401348009833, 37.118121177245115 ], [ 126.683777967580767, 37.116832675537815 ], [ 126.685326241960055, 37.119170605956263 ], [ 126.68218607718903, 37.129082418450558 ], [ 126.677939321428454, 37.135361493881277 ], [ 126.674975007739519, 37.135281047750745 ], [ 126.67393518821909, 37.137176404119543 ], [ 126.679517572241508, 37.140752864547665 ], [ 126.678994645316735, 37.14436986006659 ], [ 126.68109807895506, 37.144372942205777 ], [ 126.684260851186309, 37.149388740889826 ], [ 126.694660344389533, 37.152193808126519 ], [ 126.69679767141956, 37.150506386526054 ], [ 126.697587601140285, 37.151412274607949 ], [ 126.693012786499708, 37.154171837883588 ], [ 126.691401129937134, 37.156996715514211 ], [ 126.682615856639757, 37.160538956341007 ], [ 126.66968799437123, 37.156036031540047 ], [ 126.664054546824957, 37.156996978729239 ], [ 126.657757999538362, 37.154089712999152 ], [ 126.649793424686166, 37.154568824808742 ], [ 126.650423057909919, 37.156473360173635 ], [ 126.653491749533259, 37.156433636585021 ], [ 126.660982040176009, 37.162255799453213 ], [ 126.655088827709733, 37.175006087311914 ], [ 126.66002564854594, 37.17641442145522 ], [ 126.665199957067841, 37.182365393743936 ], [ 126.665576059912738, 37.188369495719229 ], [ 126.670046214327115, 37.189198762673257 ], [ 126.665108275302146, 37.192091409241485 ], [ 126.658000754310649, 37.189946360102866 ], [ 126.652584599124523, 37.182835439125228 ], [ 126.649588249709296, 37.183205808944066 ], [ 126.650383435112772, 37.184834585786618 ], [ 126.648782660123359, 37.185812688414742 ], [ 126.648650741506827, 37.186620800794039 ], [ 126.650132939863809, 37.185061176238726 ] ] ], [ [ [ 126.654871028621741, 37.167155540372192 ], [ 126.654854620627944, 37.167368337285772 ], [ 126.655184511957657, 37.167501413019558 ], [ 126.654871028621741, 37.167155540372192 ] ] ], [ [ [ 126.655253049022335, 37.167782108650279 ], [ 126.653970494743689, 37.166632387157996 ], [ 126.652892144080141, 37.167025031178547 ], [ 126.653565042146298, 37.167888867372987 ], [ 126.655253049022335, 37.167782108650279 ] ] ], [ [ [ 126.65337822982643, 37.18068378510732 ], [ 126.656924547100473, 37.179860153993985 ], [ 126.655313899543259, 37.179864794221587 ], [ 126.65780014651196, 37.178148488662593 ], [ 126.655469161454405, 37.177989176092971 ], [ 126.65337822982643, 37.18068378510732 ] ] ], [ [ [ 126.692523620942879, 37.204202222663405 ], [ 126.694130432972116, 37.207167968929298 ], [ 126.694774311280383, 37.205254269462429 ], [ 126.692523620942879, 37.204202222663405 ] ] ] ] } },
{ "type": "Feature", "properties": { "emd_cd": "41591340", "emd_nm": "팔탄면" }, "geometry": { "type": "MultiPolygon", "coordinates": [ [ [ [ 126.879967307969793, 37.093537730600481 ], [ 126.877351004015054, 37.096488588120486 ], [ 126.876438511541465, 37.102041968114172 ], [ 126.873328549707864, 37.101460212577763 ], [ 126.865704289733017, 37.104442053287293 ], [ 126.861914806330944, 37.112082266125945 ], [ 126.853766537267575, 37.116792968885264 ], [ 126.851599069190911, 37.121080051580371 ], [ 126.848538062591686, 37.122349955699995 ], [ 126.848601850213882, 37.127979372319729 ], [ 126.841382992372417, 37.132678780295493 ], [ 126.84119187482311, 37.137134629408528 ], [ 126.847671128189305, 37.140754167083081 ], [ 126.839837630686759, 37.146024775227175 ], [ 126.839506789567409, 37.148735300222604 ], [ 126.830548306645426, 37.150319705835258 ], [ 126.839463406705917, 37.153030336271826 ], [ 126.845069320074018, 37.158700321904668 ], [ 126.858661556962247, 37.164987663283775 ], [ 126.862444034698882, 37.168621317448974 ], [ 126.862172890914266, 37.171024095791196 ], [ 126.865074776691642, 37.175068402957614 ], [ 126.863313953114428, 37.176911726481343 ], [ 126.86065142699222, 37.176940542802996 ], [ 126.85974328675303, 37.178502038332972 ], [ 126.861123957884971, 37.181532605883788 ], [ 126.856680445895833, 37.18481580805593 ], [ 126.857827492427091, 37.1878849510422 ], [ 126.861051017497388, 37.189871684280249 ], [ 126.859726064441332, 37.193151343916185 ], [ 126.863189294855871, 37.195947856710688 ], [ 126.862639906835952, 37.200207108474906 ], [ 126.865757691242507, 37.200230463718249 ], [ 126.873271565964487, 37.196564835245987 ], [ 126.876392130494523, 37.192882933626322 ], [ 126.878987608832347, 37.1931760528106 ], [ 126.882143027216642, 37.19713059022844 ], [ 126.889461807695582, 37.197452850939676 ], [ 126.894703752509884, 37.191904217459111 ], [ 126.896714255555722, 37.194202813532641 ], [ 126.90626471510933, 37.191167269746224 ], [ 126.914693542820388, 37.19187824588451 ], [ 126.919954648384305, 37.189665780200613 ], [ 126.920991209459544, 37.179829300711617 ], [ 126.917155597222163, 37.175973301128288 ], [ 126.919480315395404, 37.17319312621602 ], [ 126.918623857875971, 37.169709120291515 ], [ 126.923274597387007, 37.16830439202478 ], [ 126.915582525633312, 37.166142727121496 ], [ 126.914163475744402, 37.160669486347643 ], [ 126.915879785927515, 37.159153819937266 ], [ 126.914948946712272, 37.157348762338017 ], [ 126.919591790631699, 37.15437967393261 ], [ 126.925012350832517, 37.1605168859994 ], [ 126.929869503321484, 37.161755171450594 ], [ 126.937288836743505, 37.158574281310521 ], [ 126.934476310443998, 37.150677602047907 ], [ 126.92472525682264, 37.143894329283611 ], [ 126.915540408453111, 37.140016125797217 ], [ 126.910359461340533, 37.140649741989051 ], [ 126.911920593663865, 37.14649350470561 ], [ 126.905377340487476, 37.15018818114909 ], [ 126.903526041254693, 37.148608066966013 ], [ 126.904137805347148, 37.146549485970397 ], [ 126.901966292579914, 37.146102634473813 ], [ 126.898110446789261, 37.140762757132173 ], [ 126.896950877830008, 37.141379808656374 ], [ 126.89808278429949, 37.138371147411043 ], [ 126.895622652027285, 37.13862028854556 ], [ 126.894328394862441, 37.134881733528523 ], [ 126.892465731198016, 37.135500248625284 ], [ 126.88700685419991, 37.124475676738335 ], [ 126.889640506845637, 37.122762003502757 ], [ 126.890577441207625, 37.116448990699048 ], [ 126.884575913904953, 37.106398591927132 ], [ 126.888526013979288, 37.103804677444629 ], [ 126.886905348224062, 37.100063068451178 ], [ 126.883910192389351, 37.098827748009306 ], [ 126.879967307969793, 37.093537730600481 ] ] ] ] } },
{ "type": "Feature", "properties": { "emd_cd": "41591350", "emd_nm": "장안면" }, "geometry": { "type": "MultiPolygon", "coordinates": [ [ [ [ 126.830548306645426, 37.150319705835258 ], [ 126.839506789567409, 37.148735300222604 ], [ 126.839837630686759, 37.146024775227175 ], [ 126.847671128189305, 37.140754167083081 ], [ 126.84119187482311, 37.137134629408528 ], [ 126.841119322490144, 37.1335430032658 ], [ 126.848793310690183, 37.127745452927712 ], [ 126.848538062591686, 37.122349955699995 ], [ 126.851599069190911, 37.121080051580371 ], [ 126.853766537267575, 37.116792968885264 ], [ 126.861914806330944, 37.112082266125945 ], [ 126.865704289733017, 37.104442053287293 ], [ 126.873328549707864, 37.101460212577763 ], [ 126.876438511541465, 37.102041968114172 ], [ 126.877351004015054, 37.096488588120486 ], [ 126.879967307969793, 37.093537730600481 ], [ 126.87825814750785, 37.088007966943678 ], [ 126.88301581886661, 37.073082109753351 ], [ 126.883588410930784, 37.064168964015863 ], [ 126.877440224140031, 37.052730889004494 ], [ 126.851117692112041, 37.018402087817705 ], [ 126.84209119472564, 37.014329392508657 ], [ 126.812620458078371, 37.01340231825629 ], [ 126.812609647695794, 37.020712306014218 ], [ 126.809185156017037, 37.024550583933987 ], [ 126.81266153655811, 37.027988567342135 ], [ 126.813097964147374, 37.034394277594906 ], [ 126.810893416247424, 37.036768343583411 ], [ 126.810559690949447, 37.047121235794997 ], [ 126.801035930526069, 37.049991237699636 ], [ 126.801702266838959, 37.052133862273266 ], [ 126.795918245121726, 37.05656267457119 ], [ 126.79632254489259, 37.062537595445626 ], [ 126.812560306324173, 37.071734828675581 ], [ 126.811865982874792, 37.073990117335057 ], [ 126.807533647693717, 37.074206530695918 ], [ 126.806535269416585, 37.076348899905014 ], [ 126.808134982595149, 37.07968823229433 ], [ 126.812267809285473, 37.081281162808573 ], [ 126.815196606044751, 37.0792829011001 ], [ 126.821026651731103, 37.082283557262244 ], [ 126.823213143765855, 37.086014338407985 ], [ 126.82762852371269, 37.088127943281165 ], [ 126.82908099523975, 37.09147098889617 ], [ 126.827919360029895, 37.096570464629693 ], [ 126.833857454001716, 37.099071148356188 ], [ 126.828421519870147, 37.102821790801926 ], [ 126.819872385764981, 37.103371959172058 ], [ 126.817685893707932, 37.104737639911235 ], [ 126.817915564212811, 37.106520855991519 ], [ 126.819540754714211, 37.106566918075714 ], [ 126.818338867589816, 37.108480085580062 ], [ 126.813910378624669, 37.109685057595293 ], [ 126.814178171181382, 37.116337640659324 ], [ 126.830474105236561, 37.118255169075304 ], [ 126.825847427883346, 37.127685563853184 ], [ 126.828584849133449, 37.127885351162746 ], [ 126.829021116155786, 37.129828930584694 ], [ 126.824354214147803, 37.129467664344041 ], [ 126.812198474720219, 37.139824156634539 ], [ 126.816395240990516, 37.143697506445818 ], [ 126.808035396323646, 37.144837900024868 ], [ 126.806013413009666, 37.148764743950679 ], [ 126.830548306645426, 37.150319705835258 ] ] ] ] } },
{ "type": "Feature", "properties": { "emd_cd": "41591360", "emd_nm": "양감면" }, "geometry": { "type": "MultiPolygon", "coordinates": [ [ [ [ 126.904547281791835, 37.073378198928232 ], [ 126.912880067676738, 37.079148675696189 ], [ 126.926963422778741, 37.081911622586453 ], [ 126.927703065918365, 37.087020035989191 ], [ 126.925695141290333, 37.099354699347437 ], [ 126.93139766613524, 37.102222352234726 ], [ 126.932826790554373, 37.105770668043718 ], [ 126.937155196096271, 37.105992071153281 ], [ 126.938134026221604, 37.103818864994409 ], [ 126.94568017591601, 37.100823200973366 ], [ 126.94528177494206, 37.096723729556558 ], [ 126.94741949931273, 37.098059167130586 ], [ 126.948521253822307, 37.097094583733629 ], [ 126.953842588990327, 37.099452528625768 ], [ 126.955213444567107, 37.108530749787676 ], [ 126.960344433252033, 37.108166613632292 ], [ 126.96445026153981, 37.105483784898944 ], [ 126.971402056226495, 37.109127004668622 ], [ 126.973609828833958, 37.112781931134172 ], [ 126.973316794076638, 37.116580802817126 ], [ 126.976012758093148, 37.119760388319534 ], [ 126.984317782771313, 37.119617308331428 ], [ 126.986791346515048, 37.12151451916062 ], [ 126.990817018515543, 37.119068670645362 ], [ 126.995633693740984, 37.123122816866257 ], [ 126.999162117683227, 37.123041330354688 ], [ 126.999767268031377, 37.120605342741015 ], [ 126.997863829546375, 37.118861835178492 ], [ 126.997872158530313, 37.116452119535843 ], [ 126.995047591786772, 37.116242359324303 ], [ 126.99751218872305, 37.114701109480585 ], [ 126.998846276637707, 37.115762097385677 ], [ 126.998524310715155, 37.114453005904274 ], [ 126.994186438080803, 37.114544500215942 ], [ 126.995390109520628, 37.111645891428502 ], [ 126.999463136860953, 37.111637417338216 ], [ 126.999394003758383, 37.109889723094092 ], [ 126.995282253043129, 37.109101710986756 ], [ 126.998137370386686, 37.106515345734358 ], [ 126.99534698576042, 37.103294865509163 ], [ 126.99762324309863, 37.103376174328943 ], [ 126.996662884219361, 37.101244592013501 ], [ 126.998107546082039, 37.099967380559761 ], [ 126.996805706181817, 37.098685217535809 ], [ 126.998745617345492, 37.097859600819845 ], [ 126.997032220682613, 37.097056983013964 ], [ 126.998355051788153, 37.09311610056691 ], [ 126.995368691770054, 37.090109024635623 ], [ 127.000165791696446, 37.085763939477943 ], [ 126.998699336431557, 37.084509004272341 ], [ 126.996491872801386, 37.087222120239559 ], [ 126.990485431789068, 37.087391744819726 ], [ 126.996279744931684, 37.078763745093894 ], [ 126.995395586427847, 37.077330921814159 ], [ 126.990418833812242, 37.076826605325216 ], [ 126.992907874184752, 37.0737121311763 ], [ 126.996862802246824, 37.072168251995812 ], [ 126.996206107165051, 37.069691648494555 ], [ 126.990621916977958, 37.070709443837359 ], [ 126.987682003465665, 37.06941531697759 ], [ 126.984765676940967, 37.071664070780884 ], [ 126.975612213188526, 37.070709018845193 ], [ 126.968991687719608, 37.073119051965755 ], [ 126.964686453118787, 37.067741276617788 ], [ 126.959085826109288, 37.069143995258571 ], [ 126.949074106923192, 37.068739622897247 ], [ 126.947178539520948, 37.06408690402867 ], [ 126.948581772584475, 37.061606949462579 ], [ 126.940058176068675, 37.06068662830139 ], [ 126.931546714394358, 37.062632514997212 ], [ 126.930311362615313, 37.067088854581577 ], [ 126.928517838103161, 37.068104246986252 ], [ 126.922113920493359, 37.065333044800425 ], [ 126.914970438256674, 37.065659343925347 ], [ 126.911484932357808, 37.068915991861324 ], [ 126.905629755890899, 37.069474623677912 ], [ 126.904547281791835, 37.073378198928232 ] ] ] ] } }
]
}
