{
"type": "FeatureCollection",
"name": "41597",
"crs": { "type": "name", "properties": { "name": "urn:ogc:def:crs:OGC:1.3:CRS84" } },
"features": [
{ "type": "Feature", "properties": { "emd_cd": "41597101", "emd_nm": "능동" }, "geometry": { "type": "MultiPolygon", "coordinates": [ [ [ [ 127.064463109651911, 37.199074095842732 ], [ 127.063954050065433, 37.19905765988505 ], [ 127.06346973251415, 37.199186952802066 ], [ 127.062832829262774, 37.199130545399598 ], [ 127.062445663112356, 37.199123500773759 ], [ 127.062134083244942, 37.199152007497673 ], [ 127.060607931425025, 37.199465648429538 ], [ 127.049579828109401, 37.195973698553111 ], [ 127.04159584659331, 37.198591448111792 ], [ 127.043269635385215, 37.201628796326723 ], [ 127.049081465351648, 37.2051753857154 ], [ 127.049278532379162, 37.210253948312975 ], [ 127.050705876540874, 37.211999855823656 ], [ 127.051454485642537, 37.210769564810114 ], [ 127.05277849800629, 37.214738912524417 ], [ 127.055514365641784, 37.216059363734111 ], [ 127.055182666990248, 37.217657053191601 ], [ 127.060173379480489, 37.221290840450273 ], [ 127.064121921131346, 37.212142376503252 ], [ 127.059478923866891, 37.205467377694539 ], [ 127.059479772243449, 37.199506698790586 ], [ 127.060145099966405, 37.199613235269538 ], [ 127.064463109651911, 37.199074095842732 ] ] ] ] } },
{ "type": "Feature", "properties": { "emd_cd": "41597102", "emd_nm": "반송동" }, "geometry": { "type": "MultiPolygon", "coordinates": [ [ [ [ 127.082991858671022, 37.184247588719593 ], [ 127.074241242758035, 37.187092238533673 ], [ 127.071176159734961, 37.184021690803746 ], [ 127.065785416583367, 37.184765308338008 ], [ 127.065210280826491, 37.186373537111216 ], [ 127.068688352743251, 37.190622753174516 ], [ 127.065652803096228, 37.192147383402244 ], [ 127.066330587377919, 37.195428532572052 ], [ 127.064451894867105, 37.199119595554443 ], [ 127.059479772243449, 37.199506698790579 ], [ 127.059478923866891, 37.205467377694532 ], [ 127.063513623706342, 37.212208382489855 ], [ 127.067916696625048, 37.211387578717137 ], [ 127.075972161886938, 37.206415697874213 ], [ 127.074123195191106, 37.203535127142906 ], [ 127.079418885807854, 37.202468260403862 ], [ 127.080083431481611, 37.19839933511939 ], [ 127.082706691323224, 37.196343724318595 ], [ 127.082991858671022, 37.184247588719593 ] ] ] ] } },
{ "type": "Feature", "properties": { "emd_cd": "41597103", "emd_nm": "석우동" }, "geometry": { "type": "MultiPolygon", "coordinates": [ [ [ [ 127.064017811711722, 37.2119891641007 ], [ 127.070491374602085, 37.213147826203958 ], [ 127.068421637267619, 37.222756823302888 ], [ 127.073068701363397, 37.226173286789631 ], [ 127.075895453661147, 37.225585328165927 ], [ 127.078036461394575, 37.222705138479121 ], [ 127.088291761259725, 37.216603081288717 ], [ 127.087696311374955, 37.214763912335364 ], [ 127.084618261815379, 37.210962820085584 ], [ 127.084289609813268, 37.210013179717677 ], [ 127.08594509379553, 37.20511241656483 ], [ 127.082955940789461, 37.201996077025825 ], [ 127.082706691323224, 37.196343724318595 ], [ 127.080083431481611, 37.19839933511939 ], [ 127.079418885807854, 37.202468260403862 ], [ 127.074123195191106, 37.203535127142906 ], [ 127.075972161886938, 37.206415697874213 ], [ 127.067916696625048, 37.211387578717137 ], [ 127.064017811711722, 37.2119891641007 ] ] ] ] } },
{ "type": "Feature", "properties": { "emd_cd": "41597105", "emd_nm": "청계동" }, "geometry": { "type": "MultiPolygon", "coordinates": [ [ [ [ 127.09879165243828, 37.204077617426051 ], [ 127.116637604998289, 37.203675431332258 ], [ 127.130354275201924, 37.201247807318722 ], [ 127.131500517517452, 37.195692021604685 ], [ 127.122730550634259, 37.195136192843449 ], [ 127.119816014424643, 37.193508697743766 ], [ 127.121438149031221, 37.191254002668252 ], [ 127.11595043486993, 37.189249827748156 ], [ 127.11557299780209, 37.186305842944073 ], [ 127.113080398257551, 37.183933958322818 ], [ 127.108036071417189, 37.184304245533518 ], [ 127.102779127685181, 37.186654369730086 ], [ 127.104077657263659, 37.19000282907286 ], [ 127.101097831541409, 37.18897355627935 ], [ 127.099143375728971, 37.190816560587869 ], [ 127.09879165243828, 37.204077617426051 ] ] ] ] } },
{ "type": "Feature", "properties": { "emd_cd": "41597106", "emd_nm": "영천동" }, "geometry": { "type": "MultiPolygon", "coordinates": [ [ [ [ 127.084255943379759, 37.209822641642837 ], [ 127.087993647509748, 37.216599541975363 ], [ 127.104637229124606, 37.219846505092939 ], [ 127.117835646563535, 37.22000754891782 ], [ 127.118808368952941, 37.21551965473526 ], [ 127.130506325173926, 37.201278151208307 ], [ 127.116637604998289, 37.203675431332258 ], [ 127.085827677202147, 37.204713536014133 ], [ 127.084255943379759, 37.209822641642837 ] ] ] ] } },
{ "type": "Feature", "properties": { "emd_cd": "41597107", "emd_nm": "중동" }, "geometry": { "type": "MultiPolygon", "coordinates": [ [ [ [ 127.11783524465811, 37.220017298579066 ], [ 127.136456993096488, 37.215538058691457 ], [ 127.151198274391035, 37.219976862025653 ], [ 127.151646199538121, 37.213914827349591 ], [ 127.157557604478555, 37.206939084689147 ], [ 127.152235094676684, 37.198409534238934 ], [ 127.137621455920595, 37.19534787763078 ], [ 127.131500517517452, 37.195692021604685 ], [ 127.129696556289261, 37.202949745767761 ], [ 127.118808368952941, 37.21551965473526 ], [ 127.11783524465811, 37.220017298579066 ] ] ] ] } },
{ "type": "Feature", "properties": { "emd_cd": "41597108", "emd_nm": "신동" }, "geometry": { "type": "MultiPolygon", "coordinates": [ [ [ [ 127.123454534820752, 37.16843517232153 ], [ 127.13150050625417, 37.195692021617042 ], [ 127.137621455920595, 37.19534787763078 ], [ 127.152235094676684, 37.198409534238934 ], [ 127.153125374116755, 37.197060967548545 ], [ 127.155503169886543, 37.197404640689371 ], [ 127.160943760820246, 37.191922354021841 ], [ 127.160257661336885, 37.186097637062844 ], [ 127.158485051426794, 37.183730499376367 ], [ 127.160623123925859, 37.179844361591975 ], [ 127.157799450274112, 37.177007676210557 ], [ 127.153838646808509, 37.175953823746354 ], [ 127.15187356052941, 37.171599550087251 ], [ 127.148472375554064, 37.169697711744128 ], [ 127.13353915162331, 37.169355960636238 ], [ 127.132152531711554, 37.16809927254954 ], [ 127.127738266033518, 37.169061781660169 ], [ 127.126384202914437, 37.171038946030485 ], [ 127.125618393673207, 37.168811276449169 ], [ 127.123454534820752, 37.16843517232153 ] ] ] ] } },
{ "type": "Feature", "properties": { "emd_cd": "41597109", "emd_nm": "목동" }, "geometry": { "type": "MultiPolygon", "coordinates": [ [ [ [ 127.111593502706128, 37.180188344547496 ], [ 127.116984928596622, 37.183658101321782 ], [ 127.113080398257551, 37.183933958322818 ], [ 127.11557299780209, 37.186305842944073 ], [ 127.11595043486993, 37.189249827748156 ], [ 127.121438149031221, 37.191254002668252 ], [ 127.119816014424643, 37.193508697743766 ], [ 127.125230323321418, 37.19603294178475 ], [ 127.131500517517452, 37.195692021604685 ], [ 127.126155174123909, 37.179534268165526 ], [ 127.111593502706128, 37.180188344547496 ] ] ] ] } },
{ "type": "Feature", "properties": { "emd_cd": "41597110", "emd_nm": "산척동" }, "geometry": { "type": "MultiPolygon", "coordinates": [ [ [ [ 127.104441317033633, 37.178048207469359 ], [ 127.111593502706128, 37.180188344547496 ], [ 127.126155174123909, 37.179534268165526 ], [ 127.123454534820752, 37.16843517232153 ], [ 127.127592702736763, 37.17083610181357 ], [ 127.127738266033518, 37.169061781660169 ], [ 127.132420292581145, 37.16823945062022 ], [ 127.133891971565916, 37.165002327936278 ], [ 127.129542884123978, 37.16208721827536 ], [ 127.115822159377615, 37.163989433121657 ], [ 127.114653270873248, 37.165940336337393 ], [ 127.106724854111988, 37.165689489820558 ], [ 127.106619823619852, 37.173260738217323 ], [ 127.104441317033633, 37.178048207469359 ] ] ] ] } },
{ "type": "Feature", "properties": { "emd_cd": "41597111", "emd_nm": "장지동" }, "geometry": { "type": "MultiPolygon", "coordinates": [ [ [ [ 127.089191044043773, 37.160489832640877 ], [ 127.091119779233537, 37.164808646660497 ], [ 127.114653270873248, 37.165940336337393 ], [ 127.115822159377615, 37.163989433121657 ], [ 127.128908512499194, 37.162128341025003 ], [ 127.12790746565382, 37.159781564324895 ], [ 127.130110666632518, 37.157682233267131 ], [ 127.12896765958719, 37.155661302582182 ], [ 127.130445053245936, 37.151271151998024 ], [ 127.127743706407415, 37.145390846923632 ], [ 127.118985238440644, 37.143633084474189 ], [ 127.114039030659526, 37.144640971444986 ], [ 127.110334133287893, 37.142400826705206 ], [ 127.10439743074572, 37.141735375267963 ], [ 127.097656175064301, 37.151768219092517 ], [ 127.098167926512517, 37.155726023308475 ], [ 127.094605032975153, 37.158904990298034 ], [ 127.089191044043773, 37.160489832640877 ] ] ] ] } },
{ "type": "Feature", "properties": { "emd_cd": "41597112", "emd_nm": "송동" }, "geometry": { "type": "MultiPolygon", "coordinates": [ [ [ [ 127.091119779233537, 37.164808646660497 ], [ 127.098155064723997, 37.177667933892394 ], [ 127.104441317033633, 37.178048207469359 ], [ 127.106619823619852, 37.173260738217323 ], [ 127.106724854111988, 37.165689489820558 ], [ 127.091119779233537, 37.164808646660497 ] ] ] ] } },
{ "type": "Feature", "properties": { "emd_cd": "41597113", "emd_nm": "방교동" }, "geometry": { "type": "MultiPolygon", "coordinates": [ [ [ [ 127.076803530206874, 37.162255885136204 ], [ 127.082263326936996, 37.172339910314946 ], [ 127.083313919337712, 37.182661091375103 ], [ 127.089313158181923, 37.184689568840241 ], [ 127.095397959673903, 37.183988583527857 ], [ 127.098123945235173, 37.177194287374427 ], [ 127.089331538711235, 37.160951453955462 ], [ 127.076803530206874, 37.162255885136204 ] ] ] ] } },
{ "type": "Feature", "properties": { "emd_cd": "41597114", "emd_nm": "금곡동" }, "geometry": { "type": "MultiPolygon", "coordinates": [ [ [ [ 127.071176159734961, 37.184021690803746 ], [ 127.073485347909852, 37.187106576246784 ], [ 127.082991858671022, 37.184247588719593 ], [ 127.083936032934943, 37.17957334722108 ], [ 127.082263326936996, 37.172339910314946 ], [ 127.076495069122601, 37.162160091808794 ], [ 127.07074487829486, 37.170600074858342 ], [ 127.070772139670424, 37.173969945762266 ], [ 127.073111747999789, 37.174562958889055 ], [ 127.071176159734961, 37.184021690803746 ] ] ] ] } },
{ "type": "Feature", "properties": { "emd_cd": "41597115", "emd_nm": "여울동" }, "geometry": { "type": "MultiPolygon", "coordinates": [ [ [ [ 127.08213834548863, 37.192292867915562 ], [ 127.082955940789461, 37.201996077025832 ], [ 127.085827677202147, 37.204713536014133 ], [ 127.098796976829462, 37.204715371862228 ], [ 127.098824433272242, 37.192582962764959 ], [ 127.100115767995717, 37.18941507931725 ], [ 127.104120115880363, 37.189968858918128 ], [ 127.102779127685181, 37.186654369730093 ], [ 127.105178168934145, 37.185182057271504 ], [ 127.116984928596622, 37.18365810132179 ], [ 127.108793595438073, 37.179096139906029 ], [ 127.098155064723997, 37.177667933892394 ], [ 127.095397959673903, 37.183988583527857 ], [ 127.089313158181923, 37.184689568840234 ], [ 127.083232433853425, 37.182631503149665 ], [ 127.08355471984089, 37.18912482698002 ], [ 127.08213834548863, 37.192292867915562 ] ] ] ] } }
]
}
