{
"type": "FeatureCollection",
"name": "41610",
"crs": { "type": "name", "properties": { "name": "urn:ogc:def:crs:OGC:1.3:CRS84" } },
"features": [
{ "type": "Feature", "properties": { "emd_cd": "41610101", "emd_nm": "경안동" }, "geometry": { "type": "MultiPolygon", "coordinates": [ [ [ [ 127.243823240635251, 37.405859329127232 ], [ 127.247543299130683, 37.414600791847974 ], [ 127.251497835981326, 37.414798566741418 ], [ 127.249709783997943, 37.416704013477101 ], [ 127.25052840914347, 37.417002175095774 ], [ 127.256978228585936, 37.41368544920573 ], [ 127.265627904810231, 37.412775489476196 ], [ 127.261780746132999, 37.410438772841808 ], [ 127.262121755519843, 37.408916611867234 ], [ 127.249118554684514, 37.406523766024861 ], [ 127.24941230540216, 37.403817549166462 ], [ 127.244657201021482, 37.404410665208914 ], [ 127.243823240635251, 37.405859329127232 ] ] ] ] } },
{ "type": "Feature", "properties": { "emd_cd": "41610102", "emd_nm": "쌍령동" }, "geometry": { "type": "MultiPolygon", "coordinates": [ [ [ [ 127.261658575428797, 37.409952027685556 ], [ 127.26769238237641, 37.414979648559864 ], [ 127.274760728365024, 37.415211058545147 ], [ 127.274472833130488, 37.409796376717289 ], [ 127.284441286852044, 37.398326891855767 ], [ 127.270035832152629, 37.391773873476033 ], [ 127.267831261514644, 37.388896707023626 ], [ 127.265760867860777, 37.389371725291348 ], [ 127.263930447490907, 37.390836271406705 ], [ 127.264061205394398, 37.402052799581163 ], [ 127.262182418444866, 37.402685006138405 ], [ 127.263521877546921, 37.4067919442546 ], [ 127.261658575428797, 37.409952027685556 ] ] ] ] } },
{ "type": "Feature", "properties": { "emd_cd": "41610103", "emd_nm": "송정동" }, "geometry": { "type": "MultiPolygon", "coordinates": [ [ [ [ 127.248486255261056, 37.425977369482418 ], [ 127.25116498830981, 37.43119776701667 ], [ 127.251020684671218, 37.4357594816343 ], [ 127.258767351111004, 37.438166403200441 ], [ 127.269380975350387, 37.434646699947407 ], [ 127.272875678627059, 37.428665667797041 ], [ 127.271447393966881, 37.425939975614625 ], [ 127.281252412524978, 37.421187962834523 ], [ 127.280846609112714, 37.419635476007549 ], [ 127.273815481733678, 37.415815834217518 ], [ 127.26247241436954, 37.412854018240935 ], [ 127.2516350570545, 37.416567579897809 ], [ 127.254979636476207, 37.41854797515937 ], [ 127.248889206271144, 37.423125773099351 ], [ 127.248486255261056, 37.425977369482418 ] ] ] ] } },
{ "type": "Feature", "properties": { "emd_cd": "41610104", "emd_nm": "회덕동" }, "geometry": { "type": "MultiPolygon", "coordinates": [ [ [ [ 127.234650224857035, 37.445032213250322 ], [ 127.236637417792863, 37.445981783821956 ], [ 127.23809125808171, 37.452887984159389 ], [ 127.240500144585226, 37.455558614613288 ], [ 127.247365032875976, 37.457207975382289 ], [ 127.245734869417618, 37.452766740516942 ], [ 127.24760192946637, 37.449904161999257 ], [ 127.247856813630534, 37.444704824746879 ], [ 127.252577238323838, 37.437137032204461 ], [ 127.251020684671218, 37.4357594816343 ], [ 127.248808553751616, 37.423915513476366 ], [ 127.242493293039956, 37.42603544543001 ], [ 127.240273805993382, 37.429096708101966 ], [ 127.236166616092632, 37.430877925591659 ], [ 127.237495139912085, 37.435411968848626 ], [ 127.234650224857035, 37.445032213250322 ] ] ] ] } },
{ "type": "Feature", "properties": { "emd_cd": "41610105", "emd_nm": "탄벌동" }, "geometry": { "type": "MultiPolygon", "coordinates": [ [ [ [ 127.217664220908446, 37.419374662232137 ], [ 127.222978497853802, 37.420559132918349 ], [ 127.227288559389891, 37.424368357130582 ], [ 127.236603671448052, 37.425699334616667 ], [ 127.240091624089814, 37.428655564118941 ], [ 127.254979636476207, 37.41854797515937 ], [ 127.249709783997943, 37.416704013477101 ], [ 127.251497835981326, 37.414798566741418 ], [ 127.247543299130683, 37.414600791847974 ], [ 127.24448035973343, 37.407875929963616 ], [ 127.238560953954249, 37.408278001859046 ], [ 127.237561912587879, 37.4062383004594 ], [ 127.2338182069373, 37.407274777643998 ], [ 127.234232118831372, 37.408998165344507 ], [ 127.223324282194625, 37.41046814561664 ], [ 127.221959003584473, 37.415195714858072 ], [ 127.217664220908446, 37.419374662232137 ] ] ] ] } },
{ "type": "Feature", "properties": { "emd_cd": "41610106", "emd_nm": "목현동" }, "geometry": { "type": "MultiPolygon", "coordinates": [ [ [ [ 127.217664220908446, 37.419374662232123 ], [ 127.214080066113652, 37.423451226624159 ], [ 127.193402908687617, 37.426150410950079 ], [ 127.195457040151396, 37.430959299934422 ], [ 127.193373289419895, 37.437932299880735 ], [ 127.195512781393091, 37.444773276562437 ], [ 127.210288601936398, 37.445862276638124 ], [ 127.218741427629098, 37.443471984487566 ], [ 127.234650224857063, 37.445032213250322 ], [ 127.237495139912085, 37.435411968848619 ], [ 127.236166616092632, 37.430877925591659 ], [ 127.240523006938574, 37.428800836203727 ], [ 127.236603671448066, 37.425699334616667 ], [ 127.227288559389891, 37.424368357130582 ], [ 127.222978497853802, 37.420559132918349 ], [ 127.217664220908446, 37.419374662232123 ] ] ] ] } },
{ "type": "Feature", "properties": { "emd_cd": "41610107", "emd_nm": "삼동" }, "geometry": { "type": "MultiPolygon", "coordinates": [ [ [ [ 127.184739335018648, 37.415479026863885 ], [ 127.185576368360387, 37.418539972544536 ], [ 127.195110382785259, 37.425576279433777 ], [ 127.214080066113681, 37.423451226624131 ], [ 127.217859237925524, 37.419041481621939 ], [ 127.209948132809856, 37.414543480203761 ], [ 127.205227755200482, 37.408420823849909 ], [ 127.202053510902985, 37.408933168085532 ], [ 127.201294997370425, 37.404819919256063 ], [ 127.195392230405105, 37.404699062204308 ], [ 127.187781563422391, 37.408270157925784 ], [ 127.184739335018648, 37.415479026863885 ] ] ] ] } },
{ "type": "Feature", "properties": { "emd_cd": "41610108", "emd_nm": "중대동" }, "geometry": { "type": "MultiPolygon", "coordinates": [ [ [ [ 127.201030637588516, 37.405940269347859 ], [ 127.202053510902985, 37.408933168085532 ], [ 127.205227755200482, 37.408420823849909 ], [ 127.209948132809856, 37.414543480203761 ], [ 127.218086966730581, 37.419009862724337 ], [ 127.221959003584473, 37.415195714858072 ], [ 127.225281816062846, 37.404531920020538 ], [ 127.229398028741358, 37.400330235732838 ], [ 127.233693874979593, 37.398866852241191 ], [ 127.235368298846467, 37.394928812373408 ], [ 127.230756435682423, 37.393041561207916 ], [ 127.201030637588516, 37.405940269347859 ] ] ] ] } },
{ "type": "Feature", "properties": { "emd_cd": "41610109", "emd_nm": "직동" }, "geometry": { "type": "MultiPolygon", "coordinates": [ [ [ [ 127.168238374142319, 37.395510055771638 ], [ 127.177331139483798, 37.409854522876209 ], [ 127.177240626237435, 37.414799731021205 ], [ 127.180387948987118, 37.416153059652018 ], [ 127.184739335018648, 37.415479026863885 ], [ 127.187781563422391, 37.408270157925784 ], [ 127.195392230405105, 37.404699062204308 ], [ 127.205883047458187, 37.403903615103175 ], [ 127.207642408904917, 37.40207272287973 ], [ 127.196878587868582, 37.392185211954931 ], [ 127.189140617925531, 37.388834453714601 ], [ 127.18439414977216, 37.390424863339469 ], [ 127.179814575519742, 37.387598832143155 ], [ 127.175957276164453, 37.387471279563506 ], [ 127.173014515446653, 37.388788497535309 ], [ 127.17212016140553, 37.391337419015606 ], [ 127.168255349576981, 37.392584385088654 ], [ 127.168238374142319, 37.395510055771638 ] ] ] ] } },
{ "type": "Feature", "properties": { "emd_cd": "41610110", "emd_nm": "태전동" }, "geometry": { "type": "MultiPolygon", "coordinates": [ [ [ [ 127.198645669094162, 37.393456628463589 ], [ 127.207642408904917, 37.40207272287973 ], [ 127.215360059590637, 37.400083638167843 ], [ 127.232750608147782, 37.392437072185487 ], [ 127.230796373477489, 37.389224501711169 ], [ 127.239575978097633, 37.389205748546814 ], [ 127.237332794467434, 37.385058513857935 ], [ 127.239083196032638, 37.381996660555622 ], [ 127.233445297180808, 37.376943135556665 ], [ 127.221878402372141, 37.37652560133575 ], [ 127.218185276865754, 37.38006801052169 ], [ 127.221942617829683, 37.385902645192942 ], [ 127.217544503498786, 37.387756281826 ], [ 127.209639816785469, 37.385884408243541 ], [ 127.203987770878868, 37.393219844385264 ], [ 127.198645669094162, 37.393456628463589 ] ] ] ] } },
{ "type": "Feature", "properties": { "emd_cd": "41610111", "emd_nm": "장지동" }, "geometry": { "type": "MultiPolygon", "coordinates": [ [ [ [ 127.222959861022247, 37.40958604528312 ], [ 127.230514871745385, 37.409899784520412 ], [ 127.237561912587879, 37.4062383004594 ], [ 127.238560953954249, 37.408278001859046 ], [ 127.24448035973343, 37.407875929963616 ], [ 127.24478972781246, 37.404731323851188 ], [ 127.24195884491715, 37.403765103080758 ], [ 127.241564691731995, 37.400510404245175 ], [ 127.244567866392075, 37.400408032445107 ], [ 127.24527206722594, 37.39576836069282 ], [ 127.248554954464183, 37.395206794593605 ], [ 127.247845750946567, 37.39235331543567 ], [ 127.251959155104927, 37.390920453116721 ], [ 127.243150916012297, 37.382999286182162 ], [ 127.239083196032638, 37.381996660555622 ], [ 127.237332794467434, 37.385058513857935 ], [ 127.24002685259849, 37.388500012993852 ], [ 127.230796373477489, 37.389224501711169 ], [ 127.232758418575088, 37.392255592811509 ], [ 127.231276773985826, 37.393023648373671 ], [ 127.234229900395803, 37.393546903779345 ], [ 127.235357216891799, 37.396098258911202 ], [ 127.233693874979593, 37.398866852241191 ], [ 127.229398028741358, 37.400330235732838 ], [ 127.225281816062846, 37.404531920020538 ], [ 127.222959861022247, 37.40958604528312 ] ] ] ] } },
{ "type": "Feature", "properties": { "emd_cd": "41610112", "emd_nm": "역동" }, "geometry": { "type": "MultiPolygon", "coordinates": [ [ [ [ 127.241766503120914, 37.400132182018851 ], [ 127.24238045507623, 37.404214093005642 ], [ 127.249412305372502, 37.403817540156403 ], [ 127.249118554684514, 37.406523766024861 ], [ 127.254174730328501, 37.407963445119044 ], [ 127.262121755519843, 37.408916611867234 ], [ 127.263521877546921, 37.4067919442546 ], [ 127.261678771012697, 37.402013780645561 ], [ 127.255471506447208, 37.398662121888421 ], [ 127.249520322957935, 37.391491609384609 ], [ 127.247845750946567, 37.39235331543567 ], [ 127.248554954464183, 37.395206794593605 ], [ 127.24527206722594, 37.39576836069282 ], [ 127.244567866392075, 37.400408032445107 ], [ 127.241766503120914, 37.400132182018851 ] ] ] ] } },
{ "type": "Feature", "properties": { "emd_cd": "41610113", "emd_nm": "목동" }, "geometry": { "type": "MultiPolygon", "coordinates": [ [ [ [ 127.176568704815693, 37.385204818551202 ], [ 127.177237074902791, 37.387100743606943 ], [ 127.18439414977216, 37.390424863339469 ], [ 127.189140617925531, 37.38883445371463 ], [ 127.197984975469197, 37.39354926196917 ], [ 127.203987770878868, 37.393219844385278 ], [ 127.209639816785469, 37.385884408243541 ], [ 127.217544503498786, 37.387756281826 ], [ 127.221978777613188, 37.385730384892717 ], [ 127.216649259613007, 37.378695251918778 ], [ 127.208284111170215, 37.378057259884812 ], [ 127.201429194843044, 37.3731002457654 ], [ 127.188000115975683, 37.369788246084937 ], [ 127.185528719706454, 37.370304705581198 ], [ 127.18488819510506, 37.374270365225748 ], [ 127.182264068971833, 37.377516136359191 ], [ 127.178454746966821, 37.378186423178889 ], [ 127.178931968470479, 37.381255830665062 ], [ 127.176568704815693, 37.385204818551202 ] ] ] ] } },
{ "type": "Feature", "properties": { "emd_cd": "41610114", "emd_nm": "고산동" }, "geometry": { "type": "MultiPolygon", "coordinates": [ [ [ [ 127.191203360888792, 37.370286586926241 ], [ 127.197093971051544, 37.372980477355391 ], [ 127.201429194843044, 37.373100245765428 ], [ 127.208115418773048, 37.378003466688263 ], [ 127.218300756065929, 37.379745208310823 ], [ 127.221878402372141, 37.37652560133575 ], [ 127.232441523079629, 37.376609759587808 ], [ 127.245591191742022, 37.385901010756832 ], [ 127.245946191712008, 37.378814769893552 ], [ 127.242693101116231, 37.371415773437953 ], [ 127.238474205566391, 37.370248077552688 ], [ 127.238688491571111, 37.367308161437073 ], [ 127.237242610657702, 37.368651008292872 ], [ 127.222785138424754, 37.368611739255911 ], [ 127.221280842493485, 37.370604728301004 ], [ 127.214295658440093, 37.36869654084348 ], [ 127.21236899139187, 37.366780607506733 ], [ 127.208387271589132, 37.368074534683075 ], [ 127.202281119410586, 37.36573606699659 ], [ 127.191203360888792, 37.370286586926241 ] ] ] ] } },
{ "type": "Feature", "properties": { "emd_cd": "41610115", "emd_nm": "신현동" }, "geometry": { "type": "MultiPolygon", "coordinates": [ [ [ [ 127.132620858389046, 37.349540193145806 ], [ 127.134321958393272, 37.351790010500828 ], [ 127.133648992361898, 37.355439663408944 ], [ 127.13520278596279, 37.358446910390157 ], [ 127.150506089956437, 37.361442797298281 ], [ 127.154833210958287, 37.367961616686024 ], [ 127.160606970091067, 37.372679406766594 ], [ 127.161813083891019, 37.379730037467894 ], [ 127.167923740775521, 37.380286498694673 ], [ 127.176568704815693, 37.385204818551202 ], [ 127.178931968470479, 37.381255830665062 ], [ 127.178454746966821, 37.378186423178889 ], [ 127.182264068971833, 37.377516136359191 ], [ 127.18488819510506, 37.374270365225748 ], [ 127.185528719706454, 37.370304705581198 ], [ 127.188000115975683, 37.369788246084937 ], [ 127.187778882355559, 37.366012519031742 ], [ 127.186027151709879, 37.364037601406089 ], [ 127.179041626575227, 37.361640877614512 ], [ 127.165516924733438, 37.361745449028859 ], [ 127.160113618284001, 37.358207125432031 ], [ 127.158129870822123, 37.355064434009073 ], [ 127.150538582281214, 37.353709392963275 ], [ 127.146251764898096, 37.348751090537462 ], [ 127.147377553926404, 37.347039974734578 ], [ 127.137137371824096, 37.34100049617016 ], [ 127.136193089230957, 37.342409413397647 ], [ 127.137428364057115, 37.344506048921353 ], [ 127.132620858389046, 37.349540193145806 ] ] ] ] } },
{ "type": "Feature", "properties": { "emd_cd": "41610116", "emd_nm": "능평동" }, "geometry": { "type": "MultiPolygon", "coordinates": [ [ [ [ 127.137137371824096, 37.34100049617016 ], [ 127.147377553926404, 37.347039974734578 ], [ 127.146251764898096, 37.348751090537462 ], [ 127.150538582281214, 37.353709392963275 ], [ 127.158129870822123, 37.355064434009073 ], [ 127.160113618284001, 37.358207125432031 ], [ 127.16679398882971, 37.362038106568349 ], [ 127.179041626575227, 37.361640877614512 ], [ 127.187118266347596, 37.36471990250368 ], [ 127.192503009986709, 37.34852388475646 ], [ 127.178836038276657, 37.343190091724566 ], [ 127.173914543953401, 37.344583551390897 ], [ 127.162159325149219, 37.343352172773251 ], [ 127.144106455185906, 37.336278502146349 ], [ 127.141528224369068, 37.336442458915208 ], [ 127.137137371824096, 37.34100049617016 ] ] ] ] } },
{ "type": "Feature", "properties": { "emd_cd": "41610117", "emd_nm": "문형동" }, "geometry": { "type": "MultiPolygon", "coordinates": [ [ [ [ 127.187105344291922, 37.364927508388654 ], [ 127.187787548850025, 37.369591393337103 ], [ 127.190158148621819, 37.370386379316194 ], [ 127.197019719229715, 37.3685997550525 ], [ 127.198824680890226, 37.36637224424306 ], [ 127.203547021996997, 37.366056872487761 ], [ 127.20377671919033, 37.364195778583067 ], [ 127.208266055629466, 37.361662012219099 ], [ 127.210018724343286, 37.35575944236647 ], [ 127.216553160075676, 37.354752983294659 ], [ 127.222556807337654, 37.347946705275213 ], [ 127.22221340725315, 37.346161064174773 ], [ 127.21994240897547, 37.347079499406213 ], [ 127.215874499996858, 37.338993768925967 ], [ 127.211922528142807, 37.337370616710366 ], [ 127.208108739224727, 37.330640570551083 ], [ 127.200714308658661, 37.328734475442694 ], [ 127.197421911486273, 37.333649026692832 ], [ 127.198209543090641, 37.341159795747899 ], [ 127.191827432718668, 37.347261769256804 ], [ 127.191167056088844, 37.354250711597324 ], [ 127.189350429712661, 37.355608743772748 ], [ 127.187105344291922, 37.364927508388654 ] ] ] ] } },
{ "type": "Feature", "properties": { "emd_cd": "41610118", "emd_nm": "추자동" }, "geometry": { "type": "MultiPolygon", "coordinates": [ [ [ [ 127.203485547778882, 37.365561426613951 ], [ 127.208387271589132, 37.368074534683075 ], [ 127.21236899139187, 37.366780607506733 ], [ 127.214295658440093, 37.36869654084348 ], [ 127.221280842493485, 37.370604728301004 ], [ 127.222785138424754, 37.368611739255911 ], [ 127.237548928410249, 37.368575090435527 ], [ 127.241210589193628, 37.364167095604614 ], [ 127.240418254209388, 37.361510596869053 ], [ 127.235186441671189, 37.358036710309953 ], [ 127.228914217062197, 37.359162331479666 ], [ 127.224771590225643, 37.355221083469687 ], [ 127.220522720113252, 37.354408512507995 ], [ 127.218484954985371, 37.355756236966691 ], [ 127.216553160075676, 37.354752983294667 ], [ 127.210018724343286, 37.35575944236647 ], [ 127.208266055629437, 37.361662012219078 ], [ 127.203485547778882, 37.365561426613951 ] ] ] ] } },
{ "type": "Feature", "properties": { "emd_cd": "41610119", "emd_nm": "매산동" }, "geometry": { "type": "MultiPolygon", "coordinates": [ [ [ [ 127.238474205566391, 37.370248077552688 ], [ 127.243857076019083, 37.370785043448365 ], [ 127.245615186556876, 37.368505442109701 ], [ 127.245893874728765, 37.364194472576784 ], [ 127.248840828933169, 37.363147618267448 ], [ 127.260867409060751, 37.365468920836037 ], [ 127.264467235376088, 37.364300562324175 ], [ 127.27736806252301, 37.36714366678401 ], [ 127.279640867498784, 37.360758784424775 ], [ 127.278512335361597, 37.358120198383411 ], [ 127.283302926804879, 37.35576226377357 ], [ 127.282232200348218, 37.351826809357512 ], [ 127.286935280925761, 37.346472008595875 ], [ 127.283114653785091, 37.345091116240233 ], [ 127.280554911624776, 37.345879176254037 ], [ 127.275012521430909, 37.342614135704238 ], [ 127.264833256427593, 37.342566985274345 ], [ 127.261550532830285, 37.348141558970937 ], [ 127.253587892765225, 37.350454527815884 ], [ 127.247450753885261, 37.355619067474997 ], [ 127.242218098082731, 37.353617836682062 ], [ 127.23886477857161, 37.356519171761903 ], [ 127.238712661746604, 37.36013181332352 ], [ 127.241210589193628, 37.364167095604614 ], [ 127.238688491571111, 37.367308161437073 ], [ 127.238474205566391, 37.370248077552688 ] ] ] ] } },
{ "type": "Feature", "properties": { "emd_cd": "41610120", "emd_nm": "양벌동" }, "geometry": { "type": "MultiPolygon", "coordinates": [ [ [ [ 127.242693101116231, 37.371415773437953 ], [ 127.246006413888537, 37.379068064965196 ], [ 127.245591191742022, 37.385901010756832 ], [ 127.251959155104927, 37.390920453116721 ], [ 127.251339814100632, 37.393627036935413 ], [ 127.255471506447208, 37.398662121888421 ], [ 127.263962882396996, 37.402465095386425 ], [ 127.263930447490907, 37.390836271406705 ], [ 127.267417723541399, 37.38881745638416 ], [ 127.270758949246073, 37.383120679855956 ], [ 127.268927962722685, 37.378574638598984 ], [ 127.272384136784368, 37.374685290740381 ], [ 127.278124100306641, 37.372730948629993 ], [ 127.27736806252301, 37.36714366678401 ], [ 127.264467235376088, 37.364300562324175 ], [ 127.260867409060751, 37.365468920836037 ], [ 127.248840828933169, 37.363147618267448 ], [ 127.245893874728765, 37.364194472576784 ], [ 127.245615186556876, 37.368505442109701 ], [ 127.242693101116231, 37.371415773437953 ] ] ] ] } },
{ "type": "Feature", "properties": { "emd_cd": "41610253", "emd_nm": "초월읍" }, "geometry": { "type": "MultiPolygon", "coordinates": [ [ [ [ 127.26719824295553, 37.388159453041723 ], [ 127.270035832152629, 37.391773873476033 ], [ 127.284441286852044, 37.398326891855767 ], [ 127.274054730959321, 37.41084185494551 ], [ 127.275161840711149, 37.414708007451715 ], [ 127.273527671376598, 37.415701564006163 ], [ 127.280846609112714, 37.419635476007549 ], [ 127.281252412524978, 37.421187962834523 ], [ 127.271508373840675, 37.426992582522999 ], [ 127.276128365840819, 37.430994368465122 ], [ 127.294407305477662, 37.434482166856263 ], [ 127.295984919544452, 37.435750116083 ], [ 127.295308730785123, 37.438608544221346 ], [ 127.301821956704558, 37.444178423100801 ], [ 127.31361880504366, 37.438709094296165 ], [ 127.314567502537315, 37.437321524968382 ], [ 127.313197659137913, 37.432733747902631 ], [ 127.314925243218013, 37.432262567489929 ], [ 127.31556441015681, 37.428877152398073 ], [ 127.328597886328851, 37.4295084551268 ], [ 127.32920133965402, 37.433099525404501 ], [ 127.334518383985483, 37.436175311877378 ], [ 127.342677048199803, 37.427103351293482 ], [ 127.349161817708662, 37.424708434851325 ], [ 127.350472325484276, 37.422020674575457 ], [ 127.354788096706002, 37.41944361966852 ], [ 127.359069983975118, 37.419146831293148 ], [ 127.359114935114036, 37.413112011080003 ], [ 127.362802711803681, 37.406514368527361 ], [ 127.360390960745477, 37.403855925530038 ], [ 127.352712525940674, 37.402083341154778 ], [ 127.352927375826951, 37.397050319888002 ], [ 127.350945561921463, 37.39357061558546 ], [ 127.351842647786626, 37.390502478811648 ], [ 127.347071686956852, 37.386474739948909 ], [ 127.347741643910638, 37.376246601617765 ], [ 127.345335027143477, 37.37258663992128 ], [ 127.336154905480839, 37.372236299951382 ], [ 127.331527039864469, 37.370377084420284 ], [ 127.33130423427788, 37.368845223659115 ], [ 127.32915378187721, 37.369348515116663 ], [ 127.327197933287238, 37.366726844462498 ], [ 127.328241903319807, 37.361809699127384 ], [ 127.325742750654769, 37.359495377083029 ], [ 127.320631393041893, 37.361022839972712 ], [ 127.319528600449701, 37.359673059564209 ], [ 127.316270589998652, 37.360187351888371 ], [ 127.315319230769333, 37.356294053069959 ], [ 127.305125641606807, 37.355106226644274 ], [ 127.300465353119179, 37.351460646679008 ], [ 127.292104001087338, 37.349089149467453 ], [ 127.289660527878496, 37.346854210356035 ], [ 127.286935280925761, 37.346472008595875 ], [ 127.283588093779755, 37.349519940273872 ], [ 127.282232200348218, 37.351826809357512 ], [ 127.283302926804879, 37.35576226377357 ], [ 127.278512335361597, 37.358120198383411 ], [ 127.279640867498784, 37.360758784424775 ], [ 127.277151137934226, 37.368329333376266 ], [ 127.278332731623038, 37.372297063013356 ], [ 127.272384136784368, 37.374685290740381 ], [ 127.268927962722685, 37.378574638598984 ], [ 127.270758949246073, 37.383120679855956 ], [ 127.26719824295553, 37.388159453041723 ] ] ] ] } },
{ "type": "Feature", "properties": { "emd_cd": "41610259", "emd_nm": "곤지암읍" }, "geometry": { "type": "MultiPolygon", "coordinates": [ [ [ [ 127.30174296566193, 37.352552328653751 ], [ 127.305125641606807, 37.355106226644295 ], [ 127.315319230769347, 37.356294053069966 ], [ 127.316270589998652, 37.360187351888378 ], [ 127.319528600449701, 37.359673059564223 ], [ 127.320631393041893, 37.361022839972712 ], [ 127.32574275065474, 37.359495377083057 ], [ 127.328241903319807, 37.361809699127377 ], [ 127.327197933287238, 37.366726844462505 ], [ 127.32915378187721, 37.369348515116663 ], [ 127.33130423427788, 37.3688452236591 ], [ 127.331527039864469, 37.370377084420262 ], [ 127.335495080633976, 37.372100571000338 ], [ 127.34595218100182, 37.373128381057832 ], [ 127.347741643910638, 37.376246601617765 ], [ 127.347071686956852, 37.386474739948909 ], [ 127.351842647786626, 37.390502478811648 ], [ 127.350945561921463, 37.39357061558546 ], [ 127.352927375826951, 37.397050319887981 ], [ 127.353066810800129, 37.402484832337279 ], [ 127.360390960745477, 37.403855925530024 ], [ 127.362802711803681, 37.406514368527368 ], [ 127.368963457517211, 37.404859134460779 ], [ 127.372366858057603, 37.407750458557913 ], [ 127.375308373427032, 37.406411245135189 ], [ 127.379444028251683, 37.407004981826674 ], [ 127.393613112271694, 37.415416353404311 ], [ 127.398226166338475, 37.415732967587992 ], [ 127.404108977374889, 37.410238225129213 ], [ 127.411187849102575, 37.406682764934565 ], [ 127.414769816963727, 37.393742412230765 ], [ 127.42025528060671, 37.386890671557282 ], [ 127.42438224973597, 37.385787458918699 ], [ 127.429559635070277, 37.387851192467551 ], [ 127.44328569599314, 37.387250405397737 ], [ 127.446643647053662, 37.380489910604517 ], [ 127.44345449096096, 37.37606631326797 ], [ 127.443903613571692, 37.363766986645629 ], [ 127.445876850779641, 37.36356338590555 ], [ 127.445855101056836, 37.361036622223253 ], [ 127.435088157972245, 37.354297519370455 ], [ 127.430311139272135, 37.346984758903844 ], [ 127.42149001399622, 37.34297507372834 ], [ 127.420507668145646, 37.338249506370332 ], [ 127.416537923856666, 37.334644929735312 ], [ 127.407329689860973, 37.331203993787028 ], [ 127.403657086345135, 37.32666084441626 ], [ 127.400087449313432, 37.32741172201753 ], [ 127.393847942294315, 37.3235630808812 ], [ 127.391003087975051, 37.319768279408343 ], [ 127.381598624380132, 37.318930175423269 ], [ 127.376015560473107, 37.320593970552977 ], [ 127.36928870510495, 37.314954668360976 ], [ 127.362270778696285, 37.316400272729069 ], [ 127.361793657627189, 37.32045569439908 ], [ 127.355394761357459, 37.327186476507677 ], [ 127.349619352870675, 37.327222511176593 ], [ 127.343921832151423, 37.331803120547299 ], [ 127.342553225710162, 37.336201104774375 ], [ 127.335485459219981, 37.337967829315616 ], [ 127.338811169031217, 37.342576479061499 ], [ 127.336275327230851, 37.345946030700361 ], [ 127.334166956801255, 37.343415087581455 ], [ 127.327395000203325, 37.341809306709195 ], [ 127.317939031700931, 37.343791483670365 ], [ 127.316062069614446, 37.345952483165568 ], [ 127.308488595120764, 37.346878134745218 ], [ 127.304651091170712, 37.351732851917347 ], [ 127.30174296566193, 37.352552328653751 ] ] ] ] } },
{ "type": "Feature", "properties": { "emd_cd": "41610330", "emd_nm": "도척면" }, "geometry": { "type": "MultiPolygon", "coordinates": [ [ [ [ 127.275842028206242, 37.27418305964089 ], [ 127.28172551865984, 37.277811145784113 ], [ 127.277581191901533, 37.289739796382356 ], [ 127.281554710195124, 37.297610715059712 ], [ 127.277228788281604, 37.308468659745508 ], [ 127.283012925606272, 37.315872684730465 ], [ 127.281103837334769, 37.325124063550085 ], [ 127.281922498162203, 37.327260901884493 ], [ 127.279615427144833, 37.328004680373922 ], [ 127.279367908443376, 37.329943378763723 ], [ 127.28296613612018, 37.336296951906689 ], [ 127.283114653785091, 37.345091116240233 ], [ 127.30177608787811, 37.352197036179099 ], [ 127.304651091170697, 37.351732851917347 ], [ 127.308488595120764, 37.346878134745218 ], [ 127.316062069614446, 37.345952483165583 ], [ 127.317939031700902, 37.343791483670351 ], [ 127.327395000203325, 37.341809306709209 ], [ 127.334166956801255, 37.343415087581441 ], [ 127.336275327230851, 37.345946030700375 ], [ 127.338811169031217, 37.342576479061492 ], [ 127.335485459219981, 37.337967829315602 ], [ 127.342553225710162, 37.336201104774354 ], [ 127.343921832151452, 37.331803120547328 ], [ 127.346564290252829, 37.330894171595538 ], [ 127.348628408512155, 37.327827583513958 ], [ 127.355394761357459, 37.32718647650767 ], [ 127.361793657627189, 37.320455694399058 ], [ 127.364750927230233, 37.308613255296144 ], [ 127.35776957377324, 37.305838374342905 ], [ 127.354363893978999, 37.301449955787504 ], [ 127.357281713351554, 37.297684136264856 ], [ 127.356860266606176, 37.294343093145542 ], [ 127.354259533360889, 37.294226638797525 ], [ 127.353463191104211, 37.292252023040461 ], [ 127.348518874874671, 37.290122087814545 ], [ 127.34299542823166, 37.291172259348592 ], [ 127.339943070823011, 37.288026521372295 ], [ 127.348935445379823, 37.277831399486416 ], [ 127.344929040284597, 37.273898078349987 ], [ 127.338677561011892, 37.270587670853189 ], [ 127.330314174521604, 37.270211919643458 ], [ 127.320695203309782, 37.274464632169703 ], [ 127.311968699846929, 37.273682028594095 ], [ 127.303739802033121, 37.270613390732372 ], [ 127.302148541779516, 37.266158680910152 ], [ 127.298357462365004, 37.264994436651286 ], [ 127.296529431774076, 37.265273351815758 ], [ 127.295082937798597, 37.269349041416504 ], [ 127.292068353158029, 37.271641258227334 ], [ 127.281682225785417, 37.268638692095259 ], [ 127.275842028206242, 37.27418305964089 ] ] ] ] } },
{ "type": "Feature", "properties": { "emd_cd": "41610340", "emd_nm": "퇴촌면" }, "geometry": { "type": "MultiPolygon", "coordinates": [ [ [ [ 127.258766379366293, 37.474310363451963 ], [ 127.264437227737218, 37.471461775664515 ], [ 127.269506223676714, 37.472917118545958 ], [ 127.275685222805976, 37.471877164043043 ], [ 127.279489448971006, 37.473584348641239 ], [ 127.283874146372042, 37.479226950523511 ], [ 127.2862722463544, 37.47670664184038 ], [ 127.289544943231192, 37.476273041731645 ], [ 127.291536334965926, 37.478181731274979 ], [ 127.294066485744835, 37.476161175180373 ], [ 127.301910857543589, 37.48673124403377 ], [ 127.302711240877244, 37.484330398897477 ], [ 127.311642399752969, 37.479523733377192 ], [ 127.324774278763016, 37.483571310842635 ], [ 127.327866341659259, 37.482838922532586 ], [ 127.331409266311425, 37.479030657151007 ], [ 127.337220613078145, 37.47903816618367 ], [ 127.340772001638769, 37.479575406389053 ], [ 127.343953594823091, 37.482622727807204 ], [ 127.342835419728829, 37.48838824366527 ], [ 127.346120865881431, 37.491068108394359 ], [ 127.351363255818313, 37.489908698110511 ], [ 127.35617560172858, 37.491426448825855 ], [ 127.365011834813828, 37.489212922445944 ], [ 127.368213787438705, 37.491013921048292 ], [ 127.372759300596272, 37.489427272517311 ], [ 127.37285100325235, 37.487869559311257 ], [ 127.380381599108333, 37.490043702137449 ], [ 127.383411966831261, 37.48725360039419 ], [ 127.383770792174971, 37.483538796449338 ], [ 127.388858710778308, 37.475360765104952 ], [ 127.386674541899851, 37.470169535235406 ], [ 127.387513135059123, 37.46605698495889 ], [ 127.385439895046346, 37.459995806137066 ], [ 127.383129924307639, 37.45849896927475 ], [ 127.367826258203451, 37.456597718574592 ], [ 127.372464536778111, 37.451870989686384 ], [ 127.372384731226731, 37.444992722012138 ], [ 127.38252902942277, 37.443238606030924 ], [ 127.384074535828191, 37.434923781227447 ], [ 127.390773866954135, 37.428081581339647 ], [ 127.397307327037709, 37.424945710033569 ], [ 127.401287194626448, 37.41940031914455 ], [ 127.398226166338475, 37.415732967587992 ], [ 127.392394875354256, 37.414903218606824 ], [ 127.379444028251683, 37.407004981826674 ], [ 127.375308373427032, 37.406411245135189 ], [ 127.372366858057603, 37.407750458557913 ], [ 127.368963457517211, 37.404859134460779 ], [ 127.365220448291751, 37.405038726959333 ], [ 127.3599165206072, 37.411048159439865 ], [ 127.359069983975118, 37.419146831293176 ], [ 127.354788096706002, 37.41944361966852 ], [ 127.350472325484276, 37.422020674575435 ], [ 127.349161817708662, 37.424708434851325 ], [ 127.342677048199818, 37.427103351293503 ], [ 127.334518383985483, 37.436175311877378 ], [ 127.32920133965402, 37.433099525404508 ], [ 127.328597886328879, 37.429508455126815 ], [ 127.31556441015681, 37.428877152398087 ], [ 127.314925243218013, 37.4322625674899 ], [ 127.313197659137913, 37.432733747902617 ], [ 127.314567502537315, 37.437321524968397 ], [ 127.31361880504366, 37.438709094296165 ], [ 127.302933999505171, 37.443542240675285 ], [ 127.300755648257933, 37.445920596810289 ], [ 127.291791079559232, 37.443822042246573 ], [ 127.286365420305188, 37.447139936434077 ], [ 127.283128856640218, 37.45184795823635 ], [ 127.283677291794604, 37.455850446490196 ], [ 127.281391306713388, 37.459382567982317 ], [ 127.273459901607268, 37.460367400461465 ], [ 127.269698027719144, 37.455734274288361 ], [ 127.261503305894081, 37.459360849343817 ], [ 127.259899603842456, 37.461882497084254 ], [ 127.260756699742927, 37.469993157751446 ], [ 127.258766379366293, 37.474310363451963 ] ] ] ] } },
{ "type": "Feature", "properties": { "emd_cd": "41610350", "emd_nm": "남종면" }, "geometry": { "type": "MultiPolygon", "coordinates": [ [ [ [ 127.380381599108333, 37.490043702137449 ], [ 127.37285100325235, 37.487869559311257 ], [ 127.372759300596272, 37.489427272517311 ], [ 127.368213787438705, 37.491013921048292 ], [ 127.365011834813828, 37.489212922445944 ], [ 127.35617560172858, 37.491426448825855 ], [ 127.351363255818313, 37.489908698110511 ], [ 127.346120865881431, 37.491068108394359 ], [ 127.342835419728829, 37.48838824366527 ], [ 127.343953594823091, 37.482622727807204 ], [ 127.340772001638769, 37.479575406389053 ], [ 127.337220613078145, 37.47903816618367 ], [ 127.331409266311425, 37.479030657151007 ], [ 127.327866341659259, 37.482838922532586 ], [ 127.324774278763016, 37.483571310842635 ], [ 127.311642399752969, 37.479523733377192 ], [ 127.302711240877244, 37.484330398897477 ], [ 127.301910857543589, 37.48673124403377 ], [ 127.294066485744835, 37.476161175180373 ], [ 127.291536334965926, 37.478181731274979 ], [ 127.289544943231192, 37.476273041731645 ], [ 127.2862722463544, 37.47670664184038 ], [ 127.283874146372042, 37.479226950523511 ], [ 127.279489448971006, 37.473584348641239 ], [ 127.275685222805976, 37.471877164043043 ], [ 127.269506223676714, 37.472917118545958 ], [ 127.264437227737218, 37.471461775664515 ], [ 127.257275583168067, 37.475996199519976 ], [ 127.257396226058319, 37.479684956187988 ], [ 127.253617166033195, 37.485052240872712 ], [ 127.259214252711118, 37.491052428610253 ], [ 127.257992433832868, 37.494617757730474 ], [ 127.255100376943531, 37.496974071438444 ], [ 127.253266409628225, 37.503220755377356 ], [ 127.254647942581656, 37.50630503830206 ], [ 127.262137408774194, 37.507361612931376 ], [ 127.267920527795511, 37.506283222806609 ], [ 127.276148622282861, 37.508407109214595 ], [ 127.277972751189651, 37.511274990827971 ], [ 127.283562036060829, 37.514404697272838 ], [ 127.285644593865655, 37.514404058184425 ], [ 127.287050127382628, 37.507204752319751 ], [ 127.294841054702417, 37.505677984573694 ], [ 127.302164568997043, 37.50863771154183 ], [ 127.305410382562471, 37.512233381873408 ], [ 127.306692024095469, 37.519438022298807 ], [ 127.309326180501671, 37.520704244382991 ], [ 127.308934158685744, 37.527126868011209 ], [ 127.316681855973769, 37.529360970801264 ], [ 127.325464999654443, 37.535496807661822 ], [ 127.349609239115722, 37.535866272585061 ], [ 127.363288201024019, 37.53115875127498 ], [ 127.372618094017355, 37.519972340408422 ], [ 127.379186738490347, 37.506592192001222 ], [ 127.386652460306593, 37.497258223938488 ], [ 127.382115343282621, 37.494905466047328 ], [ 127.380381599108333, 37.490043702137449 ] ] ] ] } },
{ "type": "Feature", "properties": { "emd_cd": "41610370", "emd_nm": "남한산성면" }, "geometry": { "type": "MultiPolygon", "coordinates": [ [ [ [ 127.175395098094754, 37.476752607857726 ], [ 127.17567146324393, 37.485334105709882 ], [ 127.178745004664606, 37.487200569695908 ], [ 127.178795205582446, 37.485012920901404 ], [ 127.183874308796803, 37.483984331155412 ], [ 127.185656895544767, 37.481183834595569 ], [ 127.188452723813597, 37.480388248945729 ], [ 127.193167342051254, 37.481455896002984 ], [ 127.198385877014672, 37.479601770345219 ], [ 127.20204218605673, 37.484123733438686 ], [ 127.204999770310138, 37.480332053156445 ], [ 127.219282623361835, 37.481996437237818 ], [ 127.221372701593467, 37.47994845905253 ], [ 127.22598564404538, 37.479826052745565 ], [ 127.228402910524707, 37.477498161810573 ], [ 127.238683671846161, 37.476016533934519 ], [ 127.244617905940075, 37.476639535575394 ], [ 127.247022737639128, 37.480512863852958 ], [ 127.245127795488926, 37.481681715235609 ], [ 127.244418267516664, 37.485120947603924 ], [ 127.249242982429067, 37.486287490877999 ], [ 127.253617166033195, 37.485052240872719 ], [ 127.257041812661143, 37.480468619659099 ], [ 127.257275583168067, 37.475996199519976 ], [ 127.260756699742927, 37.469993157751439 ], [ 127.259899603842456, 37.461882497084254 ], [ 127.261503305894081, 37.459360849343817 ], [ 127.269698027719144, 37.455734274288361 ], [ 127.273459901607268, 37.460367400461479 ], [ 127.28139130671336, 37.459382567982317 ], [ 127.283677291794575, 37.455850446490196 ], [ 127.283128856640189, 37.45184795823635 ], [ 127.286365420305188, 37.447139936434091 ], [ 127.291791079559232, 37.443822042246573 ], [ 127.300755648257933, 37.445920596810282 ], [ 127.301821956704558, 37.444178423100801 ], [ 127.295308730785123, 37.438608544221346 ], [ 127.295984919544452, 37.435750116083 ], [ 127.294407305477662, 37.434482166856263 ], [ 127.276314977537069, 37.431045607553642 ], [ 127.272875678627059, 37.428665667797041 ], [ 127.267125053964804, 37.43623673230524 ], [ 127.258767351111004, 37.438166403200441 ], [ 127.253667540369904, 37.436827918878976 ], [ 127.251786860159299, 37.437843457241087 ], [ 127.247856813630534, 37.444704824746879 ], [ 127.24760192946637, 37.449904161999257 ], [ 127.245734869417618, 37.452766740516942 ], [ 127.247365032875976, 37.457207975382289 ], [ 127.240500144585226, 37.455558614613288 ], [ 127.23809125808171, 37.452887984159389 ], [ 127.236637417792863, 37.445981783821956 ], [ 127.233606361016072, 37.444546778585597 ], [ 127.218741427629098, 37.443471984487566 ], [ 127.210288601936398, 37.445862276638131 ], [ 127.195512781393091, 37.444773276562444 ], [ 127.194851504788701, 37.451153181340921 ], [ 127.19128893256601, 37.455272834499041 ], [ 127.191683554010524, 37.457021427864241 ], [ 127.184765298105717, 37.458813822384542 ], [ 127.184623853575985, 37.46249785808741 ], [ 127.181559240434709, 37.464361011985069 ], [ 127.18100280565973, 37.473269907325943 ], [ 127.175395098094754, 37.476752607857726 ] ] ] ] } }
]
}
