{
"type": "FeatureCollection",
"name": "41630",
"crs": { "type": "name", "properties": { "name": "urn:ogc:def:crs:OGC:1.3:CRS84" } },
"features": [
{ "type": "Feature", "properties": { "emd_cd": "41630101", "emd_nm": "유양동" }, "geometry": { "type": "MultiPolygon", "coordinates": [ [ [ [ 127.023888513642319, 37.779273432100034 ], [ 127.0202155720566, 37.782396207134909 ], [ 127.020052899091127, 37.784751906094002 ], [ 127.010527961334901, 37.786426956697092 ], [ 127.013425148508261, 37.789431229661929 ], [ 127.010498989802045, 37.7935602812356 ], [ 127.011338157853942, 37.795359130056781 ], [ 127.01510291315067, 37.795375216818798 ], [ 127.021813552765266, 37.801060535315081 ], [ 127.044559118393167, 37.787586350019033 ], [ 127.041136240807077, 37.783408859025585 ], [ 127.043436816063448, 37.782297906274088 ], [ 127.042997622756531, 37.781190319037449 ], [ 127.035637599502181, 37.778906891928649 ], [ 127.023888513642319, 37.779273432100034 ] ] ] ] } },
{ "type": "Feature", "properties": { "emd_cd": "41630102", "emd_nm": "어둔동" }, "geometry": { "type": "MultiPolygon", "coordinates": [ [ [ [ 126.996077519824922, 37.770116160267492 ], [ 127.000105934629786, 37.777119711008126 ], [ 127.005926650151395, 37.783338015147933 ], [ 127.009010701494759, 37.78323661928183 ], [ 127.011438937229954, 37.786717459477131 ], [ 127.020052899091127, 37.784751906094002 ], [ 127.020257150284195, 37.782338323164844 ], [ 127.027238140493324, 37.77530992960466 ], [ 127.024801778656979, 37.767028334570917 ], [ 127.016002158068048, 37.768571949058973 ], [ 127.008462917839068, 37.762479266537746 ], [ 127.000018056213563, 37.763667834069118 ], [ 126.996077519824922, 37.770116160267492 ] ] ] ] } },
{ "type": "Feature", "properties": { "emd_cd": "41630103", "emd_nm": "남방동" }, "geometry": { "type": "MultiPolygon", "coordinates": [ [ [ [ 127.046594643855229, 37.764889340409461 ], [ 127.043965408360975, 37.764541843995268 ], [ 127.041740722694058, 37.766567409741633 ], [ 127.033788303384085, 37.768378635458085 ], [ 127.024801778656979, 37.767028334570917 ], [ 127.027238140493324, 37.77530992960466 ], [ 127.023888513642319, 37.779273432100034 ], [ 127.035637599502181, 37.778906891928649 ], [ 127.042997622756531, 37.781190319037449 ], [ 127.043436816063448, 37.782297906274088 ], [ 127.041136240807077, 37.783408859025585 ], [ 127.04463841174281, 37.786543349045445 ], [ 127.049077614250521, 37.780568831783846 ], [ 127.048421128532041, 37.775436105774205 ], [ 127.04618711783975, 37.772980164318831 ], [ 127.046594643855229, 37.764889340409461 ] ] ] ] } },
{ "type": "Feature", "properties": { "emd_cd": "41630104", "emd_nm": "마전동" }, "geometry": { "type": "MultiPolygon", "coordinates": [ [ [ [ 127.055734504039606, 37.78908428730464 ], [ 127.058360606109105, 37.785304320753355 ], [ 127.06143074964416, 37.789070960874234 ], [ 127.068004488694243, 37.785832243417154 ], [ 127.066854522559495, 37.780876210453819 ], [ 127.062762279469268, 37.779683137421031 ], [ 127.06060249406265, 37.773549206536927 ], [ 127.065763931834198, 37.763880486796467 ], [ 127.051364780161677, 37.760972440919147 ], [ 127.045510432925141, 37.76352977188116 ], [ 127.047201798639861, 37.766147078058225 ], [ 127.04618711783975, 37.772980164318831 ], [ 127.048421128532041, 37.775436105774205 ], [ 127.049077614250521, 37.780568831783846 ], [ 127.042683088946006, 37.788408879818661 ], [ 127.046928498959005, 37.790037948459606 ], [ 127.049697932388924, 37.788692931521261 ], [ 127.055734504039606, 37.78908428730464 ] ] ] ] } },
{ "type": "Feature", "properties": { "emd_cd": "41630105", "emd_nm": "산북동" }, "geometry": { "type": "MultiPolygon", "coordinates": [ [ [ [ 127.018074880744194, 37.803166275782125 ], [ 127.022386016856203, 37.811391188063141 ], [ 127.026590736613599, 37.81303224305632 ], [ 127.026235381896612, 37.81538299677463 ], [ 127.032113045168018, 37.817488957495087 ], [ 127.037364868134304, 37.815193531933708 ], [ 127.043279674532698, 37.809393561261452 ], [ 127.056369664392122, 37.810072241902724 ], [ 127.058292788209329, 37.806509474393025 ], [ 127.056864368235992, 37.799681424208032 ], [ 127.059568980737652, 37.794957913392324 ], [ 127.058057559560979, 37.790565778655441 ], [ 127.055734504039606, 37.78908428730464 ], [ 127.049697932388924, 37.788692931521247 ], [ 127.046928498959005, 37.79003794845962 ], [ 127.041917013355317, 37.788518574817978 ], [ 127.029429302085077, 37.795795962896889 ], [ 127.024463182454511, 37.800463177293814 ], [ 127.018074880744194, 37.803166275782125 ] ] ] ] } },
{ "type": "Feature", "properties": { "emd_cd": "41630106", "emd_nm": "광사동" }, "geometry": { "type": "MultiPolygon", "coordinates": [ [ [ [ 127.055572696639061, 37.788715312769419 ], [ 127.058057559560979, 37.790565778655456 ], [ 127.059568980737652, 37.794957913392331 ], [ 127.056864368235992, 37.79968142420806 ], [ 127.059495062167912, 37.802069971404613 ], [ 127.063386519812752, 37.802040315225561 ], [ 127.066168651868239, 37.799460467204234 ], [ 127.068974309128237, 37.802075827642156 ], [ 127.072795521282472, 37.801583937668852 ], [ 127.076368239802648, 37.799681406695925 ], [ 127.077817462544303, 37.795589178608068 ], [ 127.079581341987137, 37.796951615622021 ], [ 127.087221849182995, 37.792031174067873 ], [ 127.082381114931849, 37.784506186012955 ], [ 127.076337458268895, 37.782891540370734 ], [ 127.072165720374073, 37.779649937096316 ], [ 127.071963178025712, 37.776526867993859 ], [ 127.077950398836109, 37.773611580023136 ], [ 127.079897160626743, 37.770166556549235 ], [ 127.073282815214341, 37.768373513125717 ], [ 127.065763931834198, 37.763880486796467 ], [ 127.06060249406265, 37.773549206536927 ], [ 127.062762279469268, 37.779683137421031 ], [ 127.066854522559495, 37.780876210453819 ], [ 127.068004488694243, 37.785832243417154 ], [ 127.06143074964416, 37.789070960874234 ], [ 127.058360606109105, 37.785304320753355 ], [ 127.055572696639061, 37.788715312769419 ] ] ] ] } },
{ "type": "Feature", "properties": { "emd_cd": "41630107", "emd_nm": "만송동" }, "geometry": { "type": "MultiPolygon", "coordinates": [ [ [ [ 127.071888481246873, 37.778745930910226 ], [ 127.076337458268895, 37.782891540370734 ], [ 127.082381114931849, 37.784506186012955 ], [ 127.087221849182995, 37.792031174067873 ], [ 127.079581341987137, 37.796951615622021 ], [ 127.081948967497226, 37.799342052681233 ], [ 127.083247711842745, 37.804155261466811 ], [ 127.08594501640836, 37.80240534186661 ], [ 127.086797077697071, 37.799744793056277 ], [ 127.096787522409215, 37.797275484506343 ], [ 127.0995345901609, 37.795586791905649 ], [ 127.101855638025725, 37.79085709488632 ], [ 127.104060229798847, 37.790627381954756 ], [ 127.106418898464099, 37.787712630015321 ], [ 127.110062641177734, 37.787239671703006 ], [ 127.103105542989425, 37.77834230476698 ], [ 127.090817085583012, 37.775978733480592 ], [ 127.080443207958027, 37.770277505395569 ], [ 127.076705438033073, 37.774573340907644 ], [ 127.071963178025712, 37.776526867993859 ], [ 127.071888481246873, 37.778745930910226 ] ] ] ] } },
{ "type": "Feature", "properties": { "emd_cd": "41630108", "emd_nm": "삼숭동" }, "geometry": { "type": "MultiPolygon", "coordinates": [ [ [ [ 127.083247711842745, 37.804155261466811 ], [ 127.095733925575416, 37.810962670431088 ], [ 127.102097073034571, 37.811183638913178 ], [ 127.103452991722179, 37.813326825562243 ], [ 127.102176171587914, 37.816255506261868 ], [ 127.104026315065994, 37.813525798497956 ], [ 127.106299414552737, 37.815568414730805 ], [ 127.110590097269025, 37.815695086194197 ], [ 127.119477967597803, 37.809570773505229 ], [ 127.11699321719631, 37.804386459654545 ], [ 127.11765412954324, 37.796088491570522 ], [ 127.113455226756813, 37.791278654372185 ], [ 127.112743649215474, 37.788120746406292 ], [ 127.110062641177734, 37.787239671703006 ], [ 127.106418898464099, 37.787712630015321 ], [ 127.104060229798847, 37.790627381954756 ], [ 127.101855638025725, 37.79085709488632 ], [ 127.0995345901609, 37.795586791905649 ], [ 127.096787522409215, 37.797275484506343 ], [ 127.086797077697071, 37.799744793056277 ], [ 127.08594501640836, 37.80240534186661 ], [ 127.083247711842745, 37.804155261466811 ] ] ] ] } },
{ "type": "Feature", "properties": { "emd_cd": "41630109", "emd_nm": "고읍동" }, "geometry": { "type": "MultiPolygon", "coordinates": [ [ [ [ 127.063386519812752, 37.802040315225561 ], [ 127.067377889639403, 37.811172889560993 ], [ 127.072273397725866, 37.808844598071595 ], [ 127.076191964246334, 37.810308144067285 ], [ 127.078357067033551, 37.813275420193698 ], [ 127.081648625620588, 37.807827980259283 ], [ 127.090806287577706, 37.808133242588262 ], [ 127.083299717218011, 37.804298629868761 ], [ 127.081872284594482, 37.799199304027994 ], [ 127.078055963571529, 37.7954386548667 ], [ 127.076368239802648, 37.799681406695925 ], [ 127.072795521282472, 37.801583937668852 ], [ 127.068974309128237, 37.802075827642156 ], [ 127.066168651868239, 37.799460467204234 ], [ 127.063386519812752, 37.802040315225561 ] ] ] ] } },
{ "type": "Feature", "properties": { "emd_cd": "41630110", "emd_nm": "덕정동" }, "geometry": { "type": "MultiPolygon", "coordinates": [ [ [ [ 127.0549333983721, 37.857499623221813 ], [ 127.05760134914604, 37.857610622627014 ], [ 127.075629994460471, 37.849115574642497 ], [ 127.077141307062149, 37.846533631712106 ], [ 127.074138054704022, 37.841978448652945 ], [ 127.070108819816085, 37.839932968185622 ], [ 127.068873060977012, 37.831833015275272 ], [ 127.065787302033101, 37.831834739156484 ], [ 127.065454762696547, 37.830207781566834 ], [ 127.05709511021594, 37.841479084541639 ], [ 127.0549333983721, 37.857499623221813 ] ] ] ] } },
{ "type": "Feature", "properties": { "emd_cd": "41630111", "emd_nm": "봉양동" }, "geometry": { "type": "MultiPolygon", "coordinates": [ [ [ [ 127.055278566702626, 37.858357434743219 ], [ 127.059707029622786, 37.866858960173545 ], [ 127.059694140233418, 37.870962774741457 ], [ 127.06091961161431, 37.868773955772895 ], [ 127.066149128042241, 37.871630619532212 ], [ 127.068304981431126, 37.870700392814697 ], [ 127.073725040982879, 37.872784242961536 ], [ 127.079248072895098, 37.869997944206624 ], [ 127.085832290560433, 37.872316788908158 ], [ 127.092354383375721, 37.871411862231582 ], [ 127.101523591780676, 37.86323203353556 ], [ 127.101363270184663, 37.86128861999719 ], [ 127.094518602406907, 37.853808501187594 ], [ 127.091936160762998, 37.852964300301672 ], [ 127.090156306011281, 37.847477504173106 ], [ 127.085110925657176, 37.849679291277894 ], [ 127.080163479037225, 37.84633367889991 ], [ 127.055278566702626, 37.858357434743219 ] ] ] ] } },
{ "type": "Feature", "properties": { "emd_cd": "41630112", "emd_nm": "회암동" }, "geometry": { "type": "MultiPolygon", "coordinates": [ [ [ [ 127.073568181516464, 37.841779770630815 ], [ 127.077117872405722, 37.845001715312229 ], [ 127.076279020255868, 37.848447276009942 ], [ 127.080163479037225, 37.84633367889991 ], [ 127.085110925657176, 37.849679291277894 ], [ 127.090156306011281, 37.847477504173106 ], [ 127.091936160762998, 37.852964300301672 ], [ 127.094518602406907, 37.853808501187594 ], [ 127.101363270184663, 37.86128861999719 ], [ 127.101223792637896, 37.864040604304797 ], [ 127.098542499132961, 37.86601023149418 ], [ 127.100543562175403, 37.867030684570025 ], [ 127.109317230566347, 37.859821026382988 ], [ 127.110747723986393, 37.853549024649617 ], [ 127.114796208466004, 37.850574346012188 ], [ 127.116463409305041, 37.842677533663341 ], [ 127.11605972070015, 37.840488862984451 ], [ 127.109459452790844, 37.843589124233574 ], [ 127.105533271216004, 37.843497093538097 ], [ 127.099899192652543, 37.840365075063396 ], [ 127.087902811094153, 37.839265473058866 ], [ 127.087385297292883, 37.838158507251073 ], [ 127.082853919306572, 37.838897165864317 ], [ 127.081892678673455, 37.836297810936841 ], [ 127.080116782419495, 37.836085935350461 ], [ 127.079683921650272, 37.838379231723522 ], [ 127.077914325908765, 37.837709565914551 ], [ 127.073568181516464, 37.841779770630815 ] ], [ [ 127.082005265917545, 37.838628104545151 ], [ 127.079953449879355, 37.838404909726705 ], [ 127.080376630813902, 37.836929426253455 ], [ 127.082005265917545, 37.838628104545151 ] ] ] ] } },
{ "type": "Feature", "properties": { "emd_cd": "41630113", "emd_nm": "율정동" }, "geometry": { "type": "MultiPolygon", "coordinates": [ [ [ [ 127.095167097608098, 37.839964785955118 ], [ 127.108500555147344, 37.843623325058928 ], [ 127.11605972070015, 37.840488862984451 ], [ 127.115857388980757, 37.83861284838369 ], [ 127.118038932031581, 37.836584283986966 ], [ 127.117217671503326, 37.834505564440008 ], [ 127.121425177625213, 37.829387075762256 ], [ 127.122146393343471, 37.825536228742578 ], [ 127.120071178753108, 37.819224324909619 ], [ 127.121843961304322, 37.812077203584614 ], [ 127.119477967597803, 37.809570773505229 ], [ 127.110590097269025, 37.815695086194197 ], [ 127.101969074482625, 37.816219464839662 ], [ 127.103526144388226, 37.822749072037993 ], [ 127.100840279048228, 37.827962722705607 ], [ 127.102080593540705, 37.833527814341288 ], [ 127.098260743145687, 37.8399065622216 ], [ 127.095167097608098, 37.839964785955118 ] ] ], [ [ [ 127.094318295396207, 37.833382375619017 ], [ 127.095061535628659, 37.834359675724322 ], [ 127.095536707187065, 37.833639440721328 ], [ 127.094318295396207, 37.833382375619017 ] ] ], [ [ [ 127.087902811094153, 37.839265473058866 ], [ 127.090640080649578, 37.839728358142111 ], [ 127.093213436619408, 37.839482190549994 ], [ 127.088355484795756, 37.838348742616937 ], [ 127.087902811094153, 37.839265473058866 ] ] ] ] } },
{ "type": "Feature", "properties": { "emd_cd": "41630114", "emd_nm": "옥정동" }, "geometry": { "type": "MultiPolygon", "coordinates": [ [ [ [ 127.102455743970253, 37.816554886911426 ], [ 127.105806357100207, 37.816076582473599 ], [ 127.106706363827172, 37.814695851507075 ], [ 127.103993962355872, 37.813535466809356 ], [ 127.102455743970253, 37.816554886911426 ] ] ], [ [ [ 127.071701282050455, 37.821612087706818 ], [ 127.076554978117912, 37.831792010349474 ], [ 127.081892678673455, 37.836297810936841 ], [ 127.082853919306572, 37.838897165864317 ], [ 127.087385297292883, 37.838158507251073 ], [ 127.098199654673735, 37.839930577545616 ], [ 127.102080593540705, 37.833527814341288 ], [ 127.100840279048228, 37.827962722705607 ], [ 127.103423742309587, 37.82360902608508 ], [ 127.101944439545562, 37.816377476390095 ], [ 127.103448961968638, 37.813286826859674 ], [ 127.102097073034571, 37.811183638913178 ], [ 127.095967847307293, 37.811031586052508 ], [ 127.091150034044333, 37.808178840000309 ], [ 127.081648625620588, 37.807827980259283 ], [ 127.07531061239419, 37.81911866742248 ], [ 127.071701282050455, 37.821612087706818 ] ], [ [ 127.095213306111603, 37.834273604758387 ], [ 127.094318295396207, 37.833382375619017 ], [ 127.095536707187065, 37.833639440721328 ], [ 127.095213306111603, 37.834273604758387 ] ] ] ] } },
{ "type": "Feature", "properties": { "emd_cd": "41630115", "emd_nm": "고암동" }, "geometry": { "type": "MultiPolygon", "coordinates": [ [ [ [ 127.060603323054949, 37.826416088794666 ], [ 127.065787302033101, 37.831834739156484 ], [ 127.068873060977012, 37.831833015275272 ], [ 127.068878142865955, 37.837423479282869 ], [ 127.072577484993644, 37.842174374128859 ], [ 127.081452256126283, 37.836186582416616 ], [ 127.076554978117883, 37.831792010349503 ], [ 127.071924006459213, 37.823643774879152 ], [ 127.071869325128233, 37.82095915972441 ], [ 127.075310612394162, 37.819118667422465 ], [ 127.078357067033551, 37.813275420193712 ], [ 127.076191964246334, 37.810308144067278 ], [ 127.070622086768736, 37.808654225123767 ], [ 127.068561136054271, 37.811226270258118 ], [ 127.066265962825042, 37.81152419189705 ], [ 127.062447298717657, 37.820285012329762 ], [ 127.063389168282384, 37.825209982434458 ], [ 127.060603323054949, 37.826416088794666 ] ] ], [ [ [ 127.080446594494845, 37.836905089872523 ], [ 127.080643306379784, 37.838660560403738 ], [ 127.082005265917545, 37.838628104545165 ], [ 127.080446594494845, 37.836905089872523 ] ] ] ] } },
{ "type": "Feature", "properties": { "emd_cd": "41630116", "emd_nm": "덕계동" }, "geometry": { "type": "MultiPolygon", "coordinates": [ [ [ [ 127.060411719465293, 37.826148062479561 ], [ 127.063389168282384, 37.825209982434458 ], [ 127.062447298717657, 37.820285012329762 ], [ 127.067216252291004, 37.810987618193259 ], [ 127.063923045327741, 37.802447316719721 ], [ 127.05771209985582, 37.80121153394424 ], [ 127.058292788209329, 37.806509474393025 ], [ 127.056310103917212, 37.810120650679806 ], [ 127.043279674532698, 37.809393561261452 ], [ 127.037364868134304, 37.815193531933708 ], [ 127.032113045168018, 37.817488957495087 ], [ 127.026235381896612, 37.81538299677463 ], [ 127.024443675601006, 37.823355231191137 ], [ 127.021705671384751, 37.827636328256304 ], [ 127.024846150837533, 37.833184983756333 ], [ 127.04093497017395, 37.83612256266187 ], [ 127.040763238689692, 37.83365083540582 ], [ 127.042771142889066, 37.831228330376213 ], [ 127.045546192656815, 37.830579229220731 ], [ 127.047765402889056, 37.826882365542104 ], [ 127.052068355053862, 37.825513525688507 ], [ 127.049353191746377, 37.822284631663521 ], [ 127.060411719465293, 37.826148062479561 ] ] ] ] } },
{ "type": "Feature", "properties": { "emd_cd": "41630117", "emd_nm": "회정동" }, "geometry": { "type": "MultiPolygon", "coordinates": [ [ [ [ 127.040763238689692, 37.83365083540582 ], [ 127.042403753904424, 37.83981883553782 ], [ 127.049065489130129, 37.84210194557302 ], [ 127.051087896480894, 37.851943857863844 ], [ 127.054975953689492, 37.856413516258151 ], [ 127.05709511021594, 37.841479084541639 ], [ 127.064693661602291, 37.830357154887409 ], [ 127.059557232536619, 37.82543489927756 ], [ 127.049353191746377, 37.822284631663521 ], [ 127.052068355053862, 37.825513525688507 ], [ 127.047765402889056, 37.826882365542104 ], [ 127.045546192656815, 37.830579229220731 ], [ 127.040763238689692, 37.83365083540582 ] ] ] ] } },
{ "type": "Feature", "properties": { "emd_cd": "41630250", "emd_nm": "백석읍" }, "geometry": { "type": "MultiPolygon", "coordinates": [ [ [ [ 126.928066531819837, 37.757022716935424 ], [ 126.933451965805446, 37.767667942573304 ], [ 126.932473021371138, 37.77041915754976 ], [ 126.934723946960787, 37.770749952910371 ], [ 126.934647934191162, 37.781942000415178 ], [ 126.93864791681311, 37.787850492681478 ], [ 126.944311462588431, 37.786613052818751 ], [ 126.948085744126061, 37.790971731380715 ], [ 126.945783586850368, 37.800498955795838 ], [ 126.949270844412439, 37.810717903976894 ], [ 126.946926763572932, 37.811970306616452 ], [ 126.947160415135087, 37.815956020675962 ], [ 126.944211327023794, 37.815557718228582 ], [ 126.945450593153566, 37.817738207980163 ], [ 126.942552972610272, 37.819792831979477 ], [ 126.94151425168576, 37.824646485576473 ], [ 126.943645406152228, 37.826028390856663 ], [ 126.946288857034034, 37.824806027866181 ], [ 126.951638382951259, 37.825723436404523 ], [ 126.956565018794606, 37.823921017951001 ], [ 126.964055829085822, 37.813362896337949 ], [ 126.966861176230992, 37.811813399455261 ], [ 126.966992368312006, 37.809462685915015 ], [ 126.971108577316571, 37.809013218916654 ], [ 126.978885679731206, 37.813121693433061 ], [ 126.983263455063167, 37.817975151281111 ], [ 126.98545137540934, 37.817919034675128 ], [ 126.985095745877999, 37.808907516478492 ], [ 126.989739755456014, 37.80509334488751 ], [ 126.996369096422058, 37.810167232151066 ], [ 126.999505095653333, 37.810851807183028 ], [ 126.998892122294194, 37.813217259231898 ], [ 127.007436609357001, 37.820216341801213 ], [ 127.006570060404783, 37.822018866366207 ], [ 127.009917409292825, 37.827788450392411 ], [ 127.015264472475081, 37.82930845138948 ], [ 127.021705671384751, 37.827636328256304 ], [ 127.024443675601006, 37.823355231191137 ], [ 127.026590736613599, 37.81303224305632 ], [ 127.022386016856203, 37.811391188063141 ], [ 127.021870407207686, 37.808353469477566 ], [ 127.018161859571862, 37.804533359070078 ], [ 127.018074880744194, 37.803166275782125 ], [ 127.021813552765266, 37.801060535315081 ], [ 127.015102913150642, 37.795375216818769 ], [ 127.011338157853942, 37.795359130056781 ], [ 127.010498989802045, 37.793560281235578 ], [ 127.013425148508261, 37.789431229661922 ], [ 127.009010701494759, 37.78323661928183 ], [ 127.005926650151395, 37.783338015147919 ], [ 126.996257499854906, 37.771485632226984 ], [ 126.997879301974066, 37.7657187371723 ], [ 127.002107390895006, 37.762653669589561 ], [ 127.002428083037387, 37.755143886663191 ], [ 127.006169825753034, 37.750594428871423 ], [ 127.005834229090695, 37.747057766333327 ], [ 127.002565958769466, 37.744794951031132 ], [ 126.999901577310681, 37.748843754088696 ], [ 126.99401448412651, 37.747014404796246 ], [ 126.990600557510845, 37.749040488306505 ], [ 126.990219816410999, 37.753914682346441 ], [ 126.983362449862483, 37.753149180640669 ], [ 126.976619237780028, 37.75611735820759 ], [ 126.972007042491185, 37.764878548582352 ], [ 126.966421269484897, 37.766285160259336 ], [ 126.957172855599083, 37.763206577712658 ], [ 126.949584869728966, 37.763554166895332 ], [ 126.9457011502885, 37.759927655673835 ], [ 126.936624276906571, 37.759783466543674 ], [ 126.931130493538134, 37.755212901982986 ], [ 126.928066531819837, 37.757022716935424 ] ], [ [ 126.973940022771544, 37.8092724889338 ], [ 126.973511621272095, 37.809215943251637 ], [ 126.973672873726159, 37.809036566075484 ], [ 126.973940022771544, 37.8092724889338 ] ], [ [ 126.98448670237002, 37.814232274362219 ], [ 126.984135590136731, 37.813793739495708 ], [ 126.984335205182774, 37.813594523600578 ], [ 126.98448670237002, 37.814232274362219 ] ], [ [ 126.984862030355117, 37.814422077210658 ], [ 126.98448670237002, 37.814232274362219 ], [ 126.984886064813395, 37.813494480073246 ], [ 126.984946299806722, 37.813849814420507 ], [ 126.984862030355117, 37.814422077210658 ] ], [ [ 126.984896411294585, 37.81339011542827 ], [ 126.984833861594268, 37.813230350035205 ], [ 126.984911043173142, 37.81321708093558 ], [ 126.984896411294585, 37.81339011542827 ] ], [ [ 126.984766665660047, 37.814685834909582 ], [ 126.984742215148529, 37.814583474462935 ], [ 126.984771496840253, 37.814615300196699 ], [ 126.984766665660047, 37.814685834909582 ] ], [ [ 126.984973124634962, 37.813236685349516 ], [ 126.984918391093544, 37.81321582064097 ], [ 126.984970235382647, 37.813206908528322 ], [ 126.984973124634962, 37.813236685349516 ] ] ] ] } },
{ "type": "Feature", "properties": { "emd_cd": "41630310", "emd_nm": "은현면" }, "geometry": { "type": "MultiPolygon", "coordinates": [ [ [ [ 126.990800000264002, 37.848203731481775 ], [ 126.99266385717695, 37.856139117715905 ], [ 127.001499505899957, 37.858879122096624 ], [ 127.006908075682489, 37.856830307373571 ], [ 127.008023364083371, 37.858188712103853 ], [ 127.006715958023676, 37.860225341627242 ], [ 127.00818866574653, 37.862468471783487 ], [ 127.006004222348622, 37.862200526517555 ], [ 127.004241420518611, 37.864431999478242 ], [ 127.007893526222617, 37.868099045523145 ], [ 127.005912325064244, 37.87395789634548 ], [ 127.008972308431993, 37.879323043162188 ], [ 127.004949494160883, 37.882054825223079 ], [ 127.002360745750082, 37.888373088247668 ], [ 127.006052455023507, 37.899437154925934 ], [ 127.004272809748798, 37.90000114248609 ], [ 127.004232717097253, 37.905521696368659 ], [ 127.000764429061235, 37.90800323634236 ], [ 126.997658522452781, 37.916504418449719 ], [ 126.999142590324311, 37.928432513797169 ], [ 127.001281065211899, 37.933488660436907 ], [ 127.009505711979727, 37.92844059243567 ], [ 127.009198327039698, 37.925064942890579 ], [ 127.013583942717332, 37.920906361372111 ], [ 127.012976996714869, 37.918688790667055 ], [ 127.006260245055415, 37.915203031931483 ], [ 127.010504155022772, 37.910150105961378 ], [ 127.010618912013285, 37.904858530586282 ], [ 127.02436277526418, 37.897809979646574 ], [ 127.028784332058876, 37.898882974398703 ], [ 127.037211425399875, 37.895416031104951 ], [ 127.044276077876034, 37.89439917667962 ], [ 127.04526305370841, 37.895425748223332 ], [ 127.048240603805326, 37.88318400001328 ], [ 127.053920505447067, 37.875566357806335 ], [ 127.058358777194272, 37.872998202958286 ], [ 127.059707029622786, 37.866858960173545 ], [ 127.054975953689492, 37.856413516258165 ], [ 127.051087896480894, 37.851943857863823 ], [ 127.049065489130129, 37.84210194557302 ], [ 127.042403753904424, 37.83981883553782 ], [ 127.039378081300796, 37.835071280643938 ], [ 127.024846150837533, 37.833184983756347 ], [ 127.021705671384751, 37.827636328256304 ], [ 127.01672258579444, 37.829255062321543 ], [ 127.01706574305031, 37.83209072389657 ], [ 127.007362204735557, 37.833615674127472 ], [ 126.997188897126406, 37.841226180643716 ], [ 126.992501805469189, 37.841530821931023 ], [ 126.990800000264002, 37.848203731481775 ] ] ] ] } },
{ "type": "Feature", "properties": { "emd_cd": "41630320", "emd_nm": "남면" }, "geometry": { "type": "MultiPolygon", "coordinates": [ [ [ [ 126.945344610186851, 37.88885989464324 ], [ 126.948321730024361, 37.895065805616106 ], [ 126.945917060567183, 37.900936093942477 ], [ 126.95474261208642, 37.911385314001528 ], [ 126.949546626691614, 37.918362297185375 ], [ 126.956521626736588, 37.921773782844063 ], [ 126.959823097214141, 37.920031286624074 ], [ 126.961545522882673, 37.921033038213224 ], [ 126.961525092465834, 37.924253643694648 ], [ 126.964841091198466, 37.928737136225166 ], [ 126.964663933586394, 37.938448820752015 ], [ 126.968974546057737, 37.938650684596332 ], [ 126.969751528791363, 37.940983533435507 ], [ 126.972488635050183, 37.942042555109069 ], [ 126.977158680904211, 37.93822783911542 ], [ 126.986107223862774, 37.938550155813395 ], [ 126.988559760851189, 37.936037294542018 ], [ 126.992878720177018, 37.936493211351539 ], [ 126.994198656202428, 37.933959709794649 ], [ 126.996510166158259, 37.933580457675383 ], [ 127.001394093272722, 37.936089542619925 ], [ 126.997658522452781, 37.916504418449719 ], [ 127.000764429061235, 37.90800323634236 ], [ 127.004232717097253, 37.905521696368659 ], [ 127.003948316149433, 37.901053534211641 ], [ 127.006367764394028, 37.897597347140092 ], [ 127.002360745750082, 37.888373088247668 ], [ 127.004949494160883, 37.882054825223079 ], [ 127.008972308431993, 37.879323043162188 ], [ 127.005912325064244, 37.87395789634548 ], [ 127.007893526222617, 37.868099045523145 ], [ 127.004241420518611, 37.864431999478242 ], [ 127.006004222348622, 37.862200526517555 ], [ 127.00818866574653, 37.862468471783487 ], [ 127.006715958023676, 37.860225341627242 ], [ 127.007708534236485, 37.857279766961817 ], [ 127.001736104897375, 37.858908717911206 ], [ 126.99266385717695, 37.856139117715905 ], [ 126.990443781213855, 37.850499243216269 ], [ 126.975458393120419, 37.852408746940995 ], [ 126.972935039214477, 37.856813462792331 ], [ 126.976899762970149, 37.861991449785322 ], [ 126.97691623141472, 37.865299976272176 ], [ 126.963286060465123, 37.86134281240934 ], [ 126.960865835689646, 37.865908411663632 ], [ 126.965696436174241, 37.874485531325256 ], [ 126.96456091246155, 37.878384884281225 ], [ 126.961707395150782, 37.878847685789012 ], [ 126.959417088065493, 37.884447960337511 ], [ 126.957539510440256, 37.885481849523288 ], [ 126.956239009608382, 37.884935495271954 ], [ 126.953501236250887, 37.887607631982299 ], [ 126.946888842293731, 37.886239699920949 ], [ 126.945344610186851, 37.88885989464324 ] ] ] ] } },
{ "type": "Feature", "properties": { "emd_cd": "41630330", "emd_nm": "광적면" }, "geometry": { "type": "MultiPolygon", "coordinates": [ [ [ [ 126.973511621272095, 37.809215943251637 ], [ 126.973940022771544, 37.8092724889338 ], [ 126.973672873726159, 37.809036566075484 ], [ 126.973511621272095, 37.809215943251637 ] ] ], [ [ [ 126.984918391093544, 37.81321582064097 ], [ 126.984973124634962, 37.813236685349516 ], [ 126.984970235382647, 37.813206908528322 ], [ 126.984918391093544, 37.81321582064097 ] ] ], [ [ [ 126.984896411294585, 37.81339011542827 ], [ 126.984833861594268, 37.813230350035205 ], [ 126.984886064813395, 37.813494480073246 ], [ 126.984896411294585, 37.81339011542827 ] ] ], [ [ [ 126.984391993154361, 37.814062926998673 ], [ 126.984335205182774, 37.813594523600578 ], [ 126.98448670237002, 37.814232274362219 ], [ 126.984391993154361, 37.814062926998673 ] ] ], [ [ [ 126.98448670237002, 37.814232274362219 ], [ 126.984862030355117, 37.814422077210658 ], [ 126.984886064813395, 37.813494480073246 ], [ 126.98448670237002, 37.814232274362219 ] ] ], [ [ [ 126.984769651960136, 37.814637850720764 ], [ 126.984742215148529, 37.814583474462935 ], [ 126.984766665660047, 37.814685834909582 ], [ 126.984769651960136, 37.814637850720764 ] ] ], [ [ [ 126.901984796499491, 37.824768910877758 ], [ 126.905736089720648, 37.828734922587813 ], [ 126.911075546816193, 37.828499077233865 ], [ 126.912903274531374, 37.83543800454963 ], [ 126.911268627783471, 37.83808179835988 ], [ 126.912348781892305, 37.840491472102372 ], [ 126.925031047011416, 37.841705209126658 ], [ 126.927780337746867, 37.837686309833181 ], [ 126.935982316624219, 37.840611919903047 ], [ 126.933661647218159, 37.846107446613225 ], [ 126.935511930628948, 37.847415472494589 ], [ 126.935561774431193, 37.849991887543972 ], [ 126.939356983208853, 37.852518804242543 ], [ 126.938482851559769, 37.855164844900813 ], [ 126.946025672571238, 37.866363003611184 ], [ 126.944332469429568, 37.870582088091702 ], [ 126.945535397856219, 37.871821397756491 ], [ 126.943829253376563, 37.874016356989721 ], [ 126.946664399690519, 37.879021329485504 ], [ 126.94563448268697, 37.880876403345596 ], [ 126.947232623450404, 37.882384576796461 ], [ 126.946888842293731, 37.886239699920935 ], [ 126.953501236250858, 37.887607631982299 ], [ 126.955541181706252, 37.885303105334522 ], [ 126.959417088065493, 37.884447960337539 ], [ 126.961707395150782, 37.878847685789019 ], [ 126.964714052870491, 37.878133750063355 ], [ 126.965696436174184, 37.874485531325256 ], [ 126.960865835689631, 37.865908411663632 ], [ 126.963286060465123, 37.86134281240934 ], [ 126.97691623141472, 37.865299976272169 ], [ 126.976899762970149, 37.861991449785322 ], [ 126.972935039214448, 37.856813462792346 ], [ 126.975266755585437, 37.852531025592789 ], [ 126.985482562317785, 37.850335916086223 ], [ 126.99109690337842, 37.850977308128371 ], [ 126.992120400814571, 37.841794778318054 ], [ 126.997188897126378, 37.841226180643702 ], [ 127.006109601697887, 37.834122278163463 ], [ 127.016174723607605, 37.832424467977688 ], [ 127.017451970170526, 37.830862689566423 ], [ 127.016722585794412, 37.829255062321522 ], [ 127.009917409292825, 37.827788450392411 ], [ 127.006570060404783, 37.822018866366207 ], [ 127.007436609357001, 37.820216341801213 ], [ 126.998892122294194, 37.813217259231898 ], [ 126.999505095653333, 37.810851807183028 ], [ 126.996369096422058, 37.810167232151066 ], [ 126.989739755456014, 37.80509334488751 ], [ 126.985095745877999, 37.808907516478492 ], [ 126.98545137540934, 37.817919034675128 ], [ 126.983263455063167, 37.817975151281111 ], [ 126.978885679731206, 37.813121693433061 ], [ 126.971108577316571, 37.809013218916654 ], [ 126.966992368312006, 37.809462685915015 ], [ 126.966861176230992, 37.811813399455261 ], [ 126.964055829085822, 37.813362896337949 ], [ 126.956937178126452, 37.823695417674692 ], [ 126.953607375764648, 37.825487565678884 ], [ 126.946288857034034, 37.824806027866181 ], [ 126.943373931197115, 37.825937729844682 ], [ 126.94151425168576, 37.824646485576473 ], [ 126.941591104038508, 37.821651518363602 ], [ 126.945450593153566, 37.817738207980163 ], [ 126.944211327023794, 37.815557718228582 ], [ 126.947160415135087, 37.815956020675962 ], [ 126.946926763572932, 37.811970306616452 ], [ 126.949270844412439, 37.810717903976894 ], [ 126.945783586850368, 37.800498955795838 ], [ 126.947900648319944, 37.790525494916217 ], [ 126.944311462588431, 37.786613052818751 ], [ 126.931930524710424, 37.789046238060472 ], [ 126.92640127268659, 37.78509702282463 ], [ 126.918658752087126, 37.790233722261291 ], [ 126.911960334721456, 37.79149880535816 ], [ 126.903552050924745, 37.79075733222227 ], [ 126.906376128315245, 37.799389442977784 ], [ 126.905476814981782, 37.802259444033105 ], [ 126.912489598732947, 37.804958275547193 ], [ 126.910230039227059, 37.804689666388462 ], [ 126.911755631151138, 37.808083208664875 ], [ 126.9087177407757, 37.81072892029627 ], [ 126.910057602241281, 37.816683239664741 ], [ 126.90496267369349, 37.819653766167434 ], [ 126.904906673605538, 37.821942671367587 ], [ 126.901984796499491, 37.824768910877758 ] ], [ [ 126.985872620258974, 37.812294161708692 ], [ 126.985766877672759, 37.81161735342085 ], [ 126.985552044164251, 37.810915303592957 ], [ 126.985872620258974, 37.812294161708692 ] ], [ [ 126.985108884051627, 37.818192750042833 ], [ 126.984748368562222, 37.817954082694527 ], [ 126.985428233091326, 37.818425248163543 ], [ 126.985108884051627, 37.818192750042833 ] ] ] ] } },
{ "type": "Feature", "properties": { "emd_cd": "41630340", "emd_nm": "장흥면" }, "geometry": { "type": "MultiPolygon", "coordinates": [ [ [ [ 126.911232388913987, 37.668685228540468 ], [ 126.907641074141665, 37.670364143904621 ], [ 126.908410821242697, 37.671871332563178 ], [ 126.906329243899137, 37.674145435727397 ], [ 126.909558536441054, 37.673983705515724 ], [ 126.912790685620394, 37.675971057574436 ], [ 126.914880175522526, 37.68622374650085 ], [ 126.925376296302389, 37.708617499415354 ], [ 126.924593363095596, 37.71181818716753 ], [ 126.920894096741975, 37.713438652344884 ], [ 126.924925759593435, 37.719978293297046 ], [ 126.923388125768781, 37.72874910593913 ], [ 126.921579049820011, 37.730326119325909 ], [ 126.926577538323713, 37.735322015748217 ], [ 126.93064108553655, 37.736126863046145 ], [ 126.930382591055221, 37.744242164073917 ], [ 126.933084842221163, 37.74597561796034 ], [ 126.929192890843552, 37.748416698965727 ], [ 126.932774991073956, 37.757723242002726 ], [ 126.939516480220774, 37.760600679460559 ], [ 126.945701150288528, 37.759927655673835 ], [ 126.949584869728966, 37.763554166895332 ], [ 126.957172855599111, 37.763206577712658 ], [ 126.966421269484897, 37.766285160259343 ], [ 126.972007042491185, 37.764878548582352 ], [ 126.976619237780028, 37.756117358207597 ], [ 126.983362449862483, 37.753149180640669 ], [ 126.990219816410999, 37.753914682346426 ], [ 126.990600557510874, 37.749040488306498 ], [ 126.99401448412651, 37.747014404796268 ], [ 126.998694336211841, 37.74897834378438 ], [ 127.001419939896905, 37.747397498246336 ], [ 127.00234480680102, 37.744173082369151 ], [ 127.004415652520379, 37.743308766647282 ], [ 127.002408384050781, 37.740868157124417 ], [ 127.003793047764219, 37.737945616342934 ], [ 127.006457110096193, 37.736628994874906 ], [ 127.00474688742058, 37.736120469771251 ], [ 127.005703563313759, 37.73371797787842 ], [ 127.007786634234449, 37.733092410190274 ], [ 127.009136692036847, 37.728922681988522 ], [ 127.012245449649228, 37.726100801981765 ], [ 127.010469315015044, 37.721855462192813 ], [ 127.013289687560643, 37.718271698659287 ], [ 127.012074901099993, 37.713595703383511 ], [ 127.017457180455523, 37.70794894113974 ], [ 127.018178450944518, 37.705156591643693 ], [ 127.013795259418316, 37.698761727260212 ], [ 127.00964423681495, 37.696692922289863 ], [ 127.00975678521479, 37.693315389824186 ], [ 127.007678004755348, 37.691577186752681 ], [ 127.00872538277676, 37.684366791913298 ], [ 126.997900622825227, 37.68360422167833 ], [ 126.994080596654001, 37.680368106907991 ], [ 126.990861876495941, 37.679820781271594 ], [ 126.982569079324634, 37.685089049179133 ], [ 126.968632913199613, 37.68970330373579 ], [ 126.965157314597036, 37.692761605554146 ], [ 126.957913570936014, 37.691549265023838 ], [ 126.955099404585695, 37.693021230256278 ], [ 126.951438652136659, 37.687917642037554 ], [ 126.945271445484053, 37.685755624387014 ], [ 126.945395757795069, 37.68265343564854 ], [ 126.943040825876878, 37.679871445285507 ], [ 126.944589266189084, 37.676777438887463 ], [ 126.942864481104436, 37.671951736573313 ], [ 126.938777075677322, 37.670164401587108 ], [ 126.930439080101095, 37.672027855631924 ], [ 126.927429928335215, 37.67057073553385 ], [ 126.920390466798821, 37.671602708328038 ], [ 126.920165439471901, 37.669553895562743 ], [ 126.916059434030458, 37.670185501926284 ], [ 126.911232388913987, 37.668685228540468 ] ] ] ] } }
]
}
