{
"type": "FeatureCollection",
"name": "41650",
"crs": { "type": "name", "properties": { "name": "urn:ogc:def:crs:OGC:1.3:CRS84" } },
"features": [
{ "type": "Feature", "properties": { "emd_cd": "41650101", "emd_nm": "신읍동" }, "geometry": { "type": "MultiPolygon", "coordinates": [ [ [ [ 127.198488617456192, 37.887449052193631 ], [ 127.192804842258937, 37.886676040317539 ], [ 127.18533107420177, 37.892489975256318 ], [ 127.179016054026278, 37.89439892204895 ], [ 127.17435256662425, 37.893965275417365 ], [ 127.168172701153082, 37.897981994290916 ], [ 127.157982261308021, 37.897152873226958 ], [ 127.162055642006806, 37.904123311342502 ], [ 127.167071618068391, 37.905974228265713 ], [ 127.172860439959223, 37.911554029353042 ], [ 127.176093302024228, 37.912591867437335 ], [ 127.182897213546951, 37.911325704764671 ], [ 127.190450902157849, 37.905858060087468 ], [ 127.20955781032572, 37.902798287159627 ], [ 127.199733001406628, 37.891466172125426 ], [ 127.198488617456192, 37.887449052193631 ] ] ] ] } },
{ "type": "Feature", "properties": { "emd_cd": "41650102", "emd_nm": "어룡동" }, "geometry": { "type": "MultiPolygon", "coordinates": [ [ [ [ 127.184758019769987, 37.870779322170854 ], [ 127.183326400853446, 37.871218064974506 ], [ 127.18438133671016, 37.876779213914318 ], [ 127.16804122252536, 37.882422966923777 ], [ 127.163852698512287, 37.887081750000881 ], [ 127.162639820246326, 37.890826705434947 ], [ 127.15657691306825, 37.895545479003026 ], [ 127.158915304142084, 37.897647000560156 ], [ 127.165879140583996, 37.898484517764338 ], [ 127.17435256662425, 37.893965275417365 ], [ 127.18286323398776, 37.893585549051949 ], [ 127.189168716721909, 37.890502660748226 ], [ 127.192804842258937, 37.886676040317539 ], [ 127.198488617456192, 37.887449052193631 ], [ 127.196125319428859, 37.880501548778149 ], [ 127.184758019769987, 37.870779322170854 ] ] ] ] } },
{ "type": "Feature", "properties": { "emd_cd": "41650103", "emd_nm": "자작동" }, "geometry": { "type": "MultiPolygon", "coordinates": [ [ [ [ 127.147815091904491, 37.878548965603862 ], [ 127.14946150412635, 37.88568090558519 ], [ 127.153472626430087, 37.890412245862407 ], [ 127.155317169481307, 37.895599205599289 ], [ 127.15657691306825, 37.895545479003026 ], [ 127.162639820246326, 37.890826705434947 ], [ 127.163852698512287, 37.887081750000881 ], [ 127.16804122252536, 37.882422966923777 ], [ 127.18438133671016, 37.876779213914318 ], [ 127.183326400853446, 37.871218064974506 ], [ 127.184758019769987, 37.870779322170854 ], [ 127.181118244102962, 37.864018717786045 ], [ 127.171872255370886, 37.859584856313703 ], [ 127.170753007357618, 37.864553228600144 ], [ 127.169371392464001, 37.864214280667198 ], [ 127.162105893970576, 37.871413005121553 ], [ 127.156925523054056, 37.87377059106884 ], [ 127.152528717973141, 37.878159547748901 ], [ 127.147815091904491, 37.878548965603862 ] ] ] ] } },
{ "type": "Feature", "properties": { "emd_cd": "41650104", "emd_nm": "선단동" }, "geometry": { "type": "MultiPolygon", "coordinates": [ [ [ [ 127.147815091904491, 37.878548965603862 ], [ 127.152528717973141, 37.878159547748901 ], [ 127.169371392464001, 37.864214280667198 ], [ 127.170753007357618, 37.864553228600144 ], [ 127.171872255370886, 37.859584856313703 ], [ 127.174213865649222, 37.859993455727441 ], [ 127.173038549530673, 37.855462440463327 ], [ 127.167461131835736, 37.848750292682929 ], [ 127.163155585984214, 37.8472842904713 ], [ 127.15439035292431, 37.851715151894062 ], [ 127.143466826263847, 37.862870039679393 ], [ 127.143254868672457, 37.867703226462531 ], [ 127.146866962931966, 37.871870108887471 ], [ 127.145175360528143, 37.874825666275285 ], [ 127.147815091904491, 37.878548965603862 ] ] ] ] } },
{ "type": "Feature", "properties": { "emd_cd": "41650105", "emd_nm": "설운동" }, "geometry": { "type": "MultiPolygon", "coordinates": [ [ [ [ 127.123403829445664, 37.867281804548455 ], [ 127.123560032123109, 37.869883174519856 ], [ 127.128428932305638, 37.873970642324984 ], [ 127.14555986019414, 37.875410546500405 ], [ 127.146866962931966, 37.871870108887471 ], [ 127.143254868672457, 37.867703226462531 ], [ 127.143466826263847, 37.862870039679393 ], [ 127.15439035292431, 37.851715151894062 ], [ 127.162032626247679, 37.847559866523554 ], [ 127.165117106286814, 37.848181454396247 ], [ 127.164884389692091, 37.845058464023161 ], [ 127.158219933787407, 37.843563067401966 ], [ 127.15705355538681, 37.84092770874377 ], [ 127.142424732485324, 37.845891451173749 ], [ 127.139012860198946, 37.852409338551794 ], [ 127.138294842823967, 37.858935356272809 ], [ 127.127343122160156, 37.861195310658616 ], [ 127.123403829445664, 37.867281804548455 ] ] ] ] } },
{ "type": "Feature", "properties": { "emd_cd": "41650106", "emd_nm": "동교동" }, "geometry": { "type": "MultiPolygon", "coordinates": [ [ [ [ 127.123403829445664, 37.867281804548455 ], [ 127.127343122160156, 37.861195310658616 ], [ 127.138294842823967, 37.858935356272809 ], [ 127.139012860198946, 37.852409338551794 ], [ 127.142142135638906, 37.846087384046641 ], [ 127.156477948524596, 37.84108276335148 ], [ 127.155000722528285, 37.838236474834346 ], [ 127.154538123393621, 37.839866157902932 ], [ 127.14949792221941, 37.84066084433006 ], [ 127.134597319259996, 37.839893970398208 ], [ 127.131451314610388, 37.839100515042503 ], [ 127.130985256387092, 37.837015851371227 ], [ 127.127583845218354, 37.837476545881152 ], [ 127.126030199852906, 37.834871850275313 ], [ 127.121749054673373, 37.833104324504966 ], [ 127.118109779778436, 37.833310948161888 ], [ 127.118011187225065, 37.836596465197566 ], [ 127.115833220301241, 37.8386610184074 ], [ 127.114791102367164, 37.850541709708125 ], [ 127.110633538048873, 37.853678307837065 ], [ 127.10883389277717, 37.86033990642521 ], [ 127.111612993948853, 37.864791583175979 ], [ 127.123403829445664, 37.867281804548455 ] ] ] ] } },
{ "type": "Feature", "properties": { "emd_cd": "41650250", "emd_nm": "소흘읍" }, "geometry": { "type": "MultiPolygon", "coordinates": [ [ [ [ 127.180367130587626, 37.763185474240373 ], [ 127.17612063413381, 37.758337698069546 ], [ 127.172446324859777, 37.757672581663186 ], [ 127.17336244449622, 37.750395224350335 ], [ 127.163859639551532, 37.746916764495253 ], [ 127.157941723643518, 37.749207032183932 ], [ 127.148367103812902, 37.755982606059703 ], [ 127.144328524265688, 37.756048914559848 ], [ 127.13966613346021, 37.764014174869757 ], [ 127.133733982119438, 37.762041529499797 ], [ 127.125890006247516, 37.763586146430704 ], [ 127.126317699001717, 37.765632318490006 ], [ 127.129089328728256, 37.767046025327673 ], [ 127.127429745410893, 37.771447767664846 ], [ 127.120248384955985, 37.774019459852894 ], [ 127.116064864178071, 37.772725322216402 ], [ 127.115343027748139, 37.776913331925556 ], [ 127.105793636641877, 37.780272452320453 ], [ 127.106004126740842, 37.783289221963713 ], [ 127.110286081324389, 37.787704736415172 ], [ 127.112725061100434, 37.788231815540669 ], [ 127.113399410487943, 37.791343521976586 ], [ 127.117707650026517, 37.795986000479608 ], [ 127.11734394732764, 37.805465662384464 ], [ 127.122002225803001, 37.812037237860153 ], [ 127.120216713252461, 37.81706845887372 ], [ 127.121814536948932, 37.828293838271442 ], [ 127.118109779778436, 37.833310948161888 ], [ 127.121749054673373, 37.833104324504966 ], [ 127.126030199852906, 37.834871850275313 ], [ 127.127583845218354, 37.837476545881152 ], [ 127.130985256387092, 37.837015851371227 ], [ 127.131451314610388, 37.839100515042503 ], [ 127.134597319259996, 37.839893970398208 ], [ 127.14949792221941, 37.84066084433006 ], [ 127.154538123393621, 37.839866157902932 ], [ 127.155000722528285, 37.838236474834346 ], [ 127.15705355538681, 37.84092770874377 ], [ 127.155419854103314, 37.834427087735236 ], [ 127.162869544621799, 37.829112109454307 ], [ 127.163559441997236, 37.824105569528435 ], [ 127.166884433763187, 37.820353995202758 ], [ 127.165520152663774, 37.818500605732716 ], [ 127.166307338015585, 37.815185167780108 ], [ 127.168998849332894, 37.814960621636153 ], [ 127.173517829594303, 37.808298001589115 ], [ 127.176789621288009, 37.81217395875656 ], [ 127.178158840695303, 37.80715444179495 ], [ 127.185681133358599, 37.805847600234536 ], [ 127.188533758183681, 37.802197913858294 ], [ 127.192295285052552, 37.800506086527562 ], [ 127.190342596182944, 37.797210749227929 ], [ 127.187225457107075, 37.795905016431171 ], [ 127.181173038143768, 37.783309237010506 ], [ 127.182216758374807, 37.776833823100446 ], [ 127.179379671778094, 37.774228035503612 ], [ 127.181254391285393, 37.768813338370563 ], [ 127.180367130587626, 37.763185474240373 ] ] ] ] } },
{ "type": "Feature", "properties": { "emd_cd": "41650310", "emd_nm": "군내면" }, "geometry": { "type": "MultiPolygon", "coordinates": [ [ [ [ 127.196125319428859, 37.880501548778149 ], [ 127.199733001406628, 37.891466172125426 ], [ 127.210564689400002, 37.90497771246492 ], [ 127.215937155337642, 37.90726209035261 ], [ 127.223165019724249, 37.914567754494868 ], [ 127.225502107742201, 37.914669829815317 ], [ 127.227049420637499, 37.90822866770818 ], [ 127.237755954404534, 37.911528194558272 ], [ 127.247707424700934, 37.917904326369303 ], [ 127.251788409221248, 37.90465020651466 ], [ 127.249323813667502, 37.899828536231496 ], [ 127.252068491467, 37.886868922988313 ], [ 127.262356911219243, 37.884869093910453 ], [ 127.263810222356014, 37.876158480671783 ], [ 127.268013119821518, 37.868591002273497 ], [ 127.266385800161714, 37.86629927737664 ], [ 127.267262699093408, 37.857214143519478 ], [ 127.258328581625079, 37.852211429915847 ], [ 127.258381953502365, 37.846909103263343 ], [ 127.25178433020227, 37.844093795509387 ], [ 127.243083107991694, 37.845894498368516 ], [ 127.239779134148534, 37.848841718661433 ], [ 127.236091578493799, 37.849640968953388 ], [ 127.234839426134428, 37.852237442125691 ], [ 127.229768604420798, 37.85101164573593 ], [ 127.220459351209499, 37.853941743878423 ], [ 127.217755504017461, 37.852828191951808 ], [ 127.214035291676311, 37.85612714359128 ], [ 127.204379617547929, 37.853621018623578 ], [ 127.203520049971758, 37.851540623743851 ], [ 127.195136348732888, 37.849926844174938 ], [ 127.191744213931841, 37.857358638887455 ], [ 127.195194154834113, 37.863750722124536 ], [ 127.194381067472818, 37.864988877991955 ], [ 127.196398201973608, 37.865070651003506 ], [ 127.192276237182298, 37.868932031619011 ], [ 127.184758019769987, 37.870779322170854 ], [ 127.196125319428859, 37.880501548778149 ] ] ] ] } },
{ "type": "Feature", "properties": { "emd_cd": "41650320", "emd_nm": "내촌면" }, "geometry": { "type": "MultiPolygon", "coordinates": [ [ [ [ 127.258914210026845, 37.849582777762464 ], [ 127.263713966049181, 37.851115387367166 ], [ 127.266237374393171, 37.849875694490898 ], [ 127.271735941065046, 37.851139382725904 ], [ 127.27458233115324, 37.850226622677717 ], [ 127.278401759459854, 37.855585489716631 ], [ 127.280136257679715, 37.855897196889991 ], [ 127.286553334860074, 37.848022942208402 ], [ 127.278954868927372, 37.84226188850905 ], [ 127.278931041466265, 37.839852343713012 ], [ 127.275796098700411, 37.835702224439935 ], [ 127.274129811195422, 37.826993177201267 ], [ 127.276942429437725, 37.824472211039037 ], [ 127.276761798632378, 37.82138555801545 ], [ 127.279327249355319, 37.816335934934656 ], [ 127.276799044247156, 37.807319179659316 ], [ 127.278505199569793, 37.804688355625288 ], [ 127.271006930058689, 37.794615598484384 ], [ 127.273048766510229, 37.78996336260159 ], [ 127.268712011052472, 37.785501607820905 ], [ 127.265516288618016, 37.779118423343334 ], [ 127.262238851814232, 37.77672405666803 ], [ 127.259984921914906, 37.768287942164875 ], [ 127.253582686428871, 37.767529203536462 ], [ 127.240425747919545, 37.76272350169031 ], [ 127.236887871602292, 37.763546652147028 ], [ 127.233635625700387, 37.758532772634162 ], [ 127.230676152264806, 37.75748228130545 ], [ 127.228447598117015, 37.75420056614179 ], [ 127.225210147211456, 37.753538387829188 ], [ 127.222628583832602, 37.755204327920055 ], [ 127.223651742354605, 37.756583491267293 ], [ 127.222562615611523, 37.75782317514895 ], [ 127.217825021607894, 37.758320328636671 ], [ 127.212935078852396, 37.761511625414471 ], [ 127.213220306359133, 37.76771705525276 ], [ 127.211508873351718, 37.769403832493808 ], [ 127.207807239500937, 37.76737192971536 ], [ 127.207627299314041, 37.764564071513078 ], [ 127.205125659926964, 37.763152512076132 ], [ 127.201904988015869, 37.765265576861864 ], [ 127.196697917015769, 37.761649152473147 ], [ 127.192694889233749, 37.764254650206531 ], [ 127.190745389429964, 37.762482811784743 ], [ 127.185415454913908, 37.764528988033156 ], [ 127.180367130587626, 37.763185474240373 ], [ 127.181254391285393, 37.768813338370563 ], [ 127.179379671778094, 37.774228035503612 ], [ 127.182216758374807, 37.776833823100446 ], [ 127.18197812702094, 37.785719400960446 ], [ 127.187225457107075, 37.795905016431171 ], [ 127.193510666537435, 37.800784758677658 ], [ 127.196344694581029, 37.806356982895039 ], [ 127.199365795705589, 37.807500236501653 ], [ 127.202304009869522, 37.814757000116806 ], [ 127.207878183936032, 37.814994768605757 ], [ 127.20981294768967, 37.816748303758388 ], [ 127.20951334845148, 37.820273495997441 ], [ 127.213383389860809, 37.819981701683005 ], [ 127.21557780133341, 37.818855639909167 ], [ 127.216695345875436, 37.81571208703793 ], [ 127.221446664805129, 37.814163186211644 ], [ 127.224521732981714, 37.810329417175446 ], [ 127.231755405416337, 37.8099369599922 ], [ 127.244241837793624, 37.819189124320097 ], [ 127.245505730976632, 37.8300853750141 ], [ 127.244376983811392, 37.832397083976062 ], [ 127.247038218818062, 37.839123644785488 ], [ 127.251709690738835, 37.842063352752831 ], [ 127.25178433020227, 37.844093795509387 ], [ 127.258381953502365, 37.846909103263343 ], [ 127.258914210026845, 37.849582777762464 ] ] ] ] } },
{ "type": "Feature", "properties": { "emd_cd": "41650330", "emd_nm": "가산면" }, "geometry": { "type": "MultiPolygon", "coordinates": [ [ [ [ 127.155419854103314, 37.834427087735236 ], [ 127.158219933787407, 37.843563067401966 ], [ 127.164442024235427, 37.84448507582011 ], [ 127.165117106286814, 37.848181454396247 ], [ 127.168490485375656, 37.849525721957029 ], [ 127.173038549530673, 37.855462440463327 ], [ 127.174045337382168, 37.86013245687618 ], [ 127.181118244102962, 37.864018717786045 ], [ 127.184758019769987, 37.870779322170854 ], [ 127.192276237182298, 37.868932031619011 ], [ 127.196398201973608, 37.865070651003506 ], [ 127.194381067472818, 37.864988877991955 ], [ 127.195194154834113, 37.863750722124536 ], [ 127.191686515769334, 37.855436003222259 ], [ 127.196064395203109, 37.849547287874188 ], [ 127.214035291676311, 37.85612714359128 ], [ 127.217755504017461, 37.852828191951808 ], [ 127.220459351209499, 37.853941743878423 ], [ 127.229768604420798, 37.85101164573593 ], [ 127.234839426134428, 37.852237442125691 ], [ 127.236091578493799, 37.849640968953388 ], [ 127.239779134148534, 37.848841718661433 ], [ 127.243083107991694, 37.845894498368516 ], [ 127.25178433020227, 37.844093795509387 ], [ 127.251709690738835, 37.842063352752831 ], [ 127.247038218818062, 37.839123644785488 ], [ 127.244576478159473, 37.833259580129813 ], [ 127.245505730976632, 37.8300853750141 ], [ 127.244241837793624, 37.819189124320097 ], [ 127.233808520009418, 37.811268866223038 ], [ 127.230906052525029, 37.809773031301049 ], [ 127.224521732981714, 37.810329417175446 ], [ 127.221446664805129, 37.814163186211644 ], [ 127.21646705572013, 37.815917496627151 ], [ 127.21557780133341, 37.818855639909167 ], [ 127.209851473640441, 37.820495757014626 ], [ 127.209510781015737, 37.816273794459271 ], [ 127.202304009869522, 37.814757000116806 ], [ 127.199365795705589, 37.807500236501653 ], [ 127.196344694581029, 37.806356982895039 ], [ 127.192295285052552, 37.800506086527562 ], [ 127.188533758183681, 37.802197913858294 ], [ 127.185681133358599, 37.805847600234536 ], [ 127.178158840695303, 37.80715444179495 ], [ 127.176789621288009, 37.81217395875656 ], [ 127.173517829594303, 37.808298001589115 ], [ 127.168998849332894, 37.814960621636153 ], [ 127.166307338015585, 37.815185167780108 ], [ 127.165520152663774, 37.818500605732716 ], [ 127.166884433763187, 37.820353995202758 ], [ 127.163559441997236, 37.824105569528435 ], [ 127.162869544621799, 37.829112109454307 ], [ 127.155419854103314, 37.834427087735236 ] ] ] ] } },
{ "type": "Feature", "properties": { "emd_cd": "41650340", "emd_nm": "신북면" }, "geometry": { "type": "MultiPolygon", "coordinates": [ [ [ [ 127.140568909537606, 37.99220381504032 ], [ 127.144589526334329, 37.989215841081908 ], [ 127.143793518038336, 37.98541164988486 ], [ 127.147358474338702, 37.981407129488744 ], [ 127.155774410182872, 37.977572053612072 ], [ 127.161468069208439, 37.977839863074998 ], [ 127.164836778531097, 37.981969052468919 ], [ 127.171506083180077, 37.978600384017142 ], [ 127.175565510413307, 37.978916060338449 ], [ 127.17731164276222, 37.980693617584336 ], [ 127.180778982069441, 37.976709544583748 ], [ 127.179634847067518, 37.971985121613038 ], [ 127.181687585680351, 37.970016952098597 ], [ 127.181542755792435, 37.96736439859469 ], [ 127.186001804808697, 37.96896349927998 ], [ 127.194678733687937, 37.966285555057063 ], [ 127.195255715795042, 37.969761250702526 ], [ 127.199070607779149, 37.974060444627902 ], [ 127.202810202893986, 37.972454721464509 ], [ 127.209843046853763, 37.965611952674152 ], [ 127.21351399851801, 37.965661379094207 ], [ 127.215451080531437, 37.963153614651574 ], [ 127.218392586810026, 37.963314540433359 ], [ 127.216816798465942, 37.959394180167472 ], [ 127.218952849294183, 37.954255906120032 ], [ 127.220058549359294, 37.957523051499578 ], [ 127.226222511467384, 37.961544519452879 ], [ 127.230570704700298, 37.961532891728581 ], [ 127.231759456603243, 37.967221132362631 ], [ 127.238042439027524, 37.968548524731162 ], [ 127.241301257575998, 37.966950219265115 ], [ 127.243150640472734, 37.967906803517934 ], [ 127.240771847337527, 37.96740351629569 ], [ 127.239264045824939, 37.969217972164877 ], [ 127.243311404212477, 37.971410357851639 ], [ 127.24544075894643, 37.968049622313075 ], [ 127.259794260421984, 37.965378162085791 ], [ 127.260911068656355, 37.963812933653173 ], [ 127.258774759577989, 37.961345043476776 ], [ 127.259615489437778, 37.958385661234473 ], [ 127.25620095979113, 37.954631229671108 ], [ 127.25225901861144, 37.953374713484742 ], [ 127.249845969353174, 37.943035225655116 ], [ 127.24516355322406, 37.93655468432091 ], [ 127.247540118372044, 37.933368367802721 ], [ 127.249244936718043, 37.924785472133834 ], [ 127.247597219789853, 37.917534084393608 ], [ 127.237755954404534, 37.911528194558272 ], [ 127.227049420637499, 37.90822866770818 ], [ 127.225502107742201, 37.914669829815317 ], [ 127.224014903381544, 37.914993139383824 ], [ 127.215937155337642, 37.90726209035261 ], [ 127.210564689400002, 37.90497771246492 ], [ 127.20955781032572, 37.902798287159627 ], [ 127.190450902157849, 37.905858060087468 ], [ 127.182897213546951, 37.911325704764671 ], [ 127.176093302024228, 37.912591867437335 ], [ 127.172860439959223, 37.911554029353042 ], [ 127.167071618068391, 37.905974228265713 ], [ 127.162055642006806, 37.904123311342502 ], [ 127.158242560456856, 37.89644401222472 ], [ 127.154688567701754, 37.895520535428801 ], [ 127.14919603033573, 37.8980806374108 ], [ 127.150229349840757, 37.900619896674577 ], [ 127.146548685852565, 37.90283609779776 ], [ 127.147976079089261, 37.906771419809992 ], [ 127.145468887716831, 37.912023062673185 ], [ 127.138635124759418, 37.914050765093727 ], [ 127.135069346401792, 37.913200643620087 ], [ 127.133028198554669, 37.915961990114795 ], [ 127.129958898497307, 37.916655494737377 ], [ 127.121418010475693, 37.916534985994446 ], [ 127.115281173934861, 37.929260470209613 ], [ 127.111327773802756, 37.931874378344538 ], [ 127.108107566545542, 37.939141061504067 ], [ 127.095368663667813, 37.944400838162984 ], [ 127.096997671213799, 37.947276043560898 ], [ 127.096026749344219, 37.949583747147869 ], [ 127.099425649257896, 37.953499279503042 ], [ 127.091802579354663, 37.959352516107174 ], [ 127.094013018437593, 37.96762008498402 ], [ 127.091232984905091, 37.971626728203141 ], [ 127.092757807671674, 37.974530193977337 ], [ 127.089795878111929, 37.983285496085358 ], [ 127.090770223510347, 37.984632705385224 ], [ 127.096945215633639, 37.985307011169198 ], [ 127.100559221977605, 37.988019110330725 ], [ 127.100546088447032, 37.989664522389369 ], [ 127.111436405295578, 37.98887924649614 ], [ 127.113647967349166, 37.986268509009548 ], [ 127.117403703574254, 37.98521906832579 ], [ 127.120272008759358, 37.978939776333441 ], [ 127.130738415235484, 37.984545250662876 ], [ 127.132701248211688, 37.988351172907286 ], [ 127.140568909537606, 37.99220381504032 ] ] ] ] } },
{ "type": "Feature", "properties": { "emd_cd": "41650350", "emd_nm": "창수면" }, "geometry": { "type": "MultiPolygon", "coordinates": [ [ [ [ 127.239413101227484, 38.048388734420186 ], [ 127.236085900229554, 38.048766469294662 ], [ 127.232144540047457, 38.046581300970239 ], [ 127.230200126298328, 38.043224584850236 ], [ 127.219709809813139, 38.041025343986355 ], [ 127.217056325157742, 38.041866520282518 ], [ 127.215188329276828, 38.040486252033496 ], [ 127.210847442512517, 38.032425287922713 ], [ 127.207335867730706, 38.031889829247866 ], [ 127.206309057065468, 38.027285815979923 ], [ 127.208441242420164, 38.023971071580604 ], [ 127.203555573143262, 38.021308023706503 ], [ 127.204260029446672, 38.019157628122663 ], [ 127.200125469085904, 38.01692606487871 ], [ 127.199620959751158, 38.014224098517602 ], [ 127.196565596659724, 38.014452371795358 ], [ 127.20300587334998, 38.007624451872523 ], [ 127.206416429483099, 38.006771425398334 ], [ 127.20502864843651, 38.001665755023815 ], [ 127.202424532640393, 38.00180758616348 ], [ 127.200311344183092, 37.998248126356366 ], [ 127.200799167250722, 37.995791201293088 ], [ 127.20533666317219, 37.996569660220793 ], [ 127.206314010229235, 37.992858185391547 ], [ 127.211568992302134, 37.994932056143327 ], [ 127.2166316037641, 37.993032431810114 ], [ 127.216310251527588, 37.989142866530806 ], [ 127.21928392748022, 37.984869154109326 ], [ 127.217419000448331, 37.983153964449691 ], [ 127.217948536577495, 37.981326748505687 ], [ 127.219200168227744, 37.97854382049335 ], [ 127.222096724038835, 37.97797842916173 ], [ 127.223278195929936, 37.974958158434795 ], [ 127.222474792811482, 37.970771263826144 ], [ 127.226665950229815, 37.969427850208426 ], [ 127.228219524022222, 37.967100561617286 ], [ 127.2317719033841, 37.96743516779641 ], [ 127.230466273494557, 37.963980288671031 ], [ 127.231151412560862, 37.963306016090407 ], [ 127.231176604636445, 37.962651201128317 ], [ 127.23091174214494, 37.962429639603911 ], [ 127.230747799855081, 37.961763499204487 ], [ 127.230570704700298, 37.961532891728581 ], [ 127.226222511467384, 37.961544519452879 ], [ 127.220058549359294, 37.957523051499578 ], [ 127.218952849294183, 37.954255906120032 ], [ 127.216816798465942, 37.959394180167472 ], [ 127.21891999386159, 37.962326305443256 ], [ 127.21773619118585, 37.96404757054318 ], [ 127.215451080531437, 37.963153614651574 ], [ 127.21351399851801, 37.965661379094207 ], [ 127.210032965032127, 37.965507054820215 ], [ 127.202958295110946, 37.972372655025737 ], [ 127.199070607779149, 37.974060444627902 ], [ 127.195255715795042, 37.969761250702526 ], [ 127.194678733687937, 37.966285555057063 ], [ 127.186001804808697, 37.96896349927998 ], [ 127.181542755792435, 37.96736439859469 ], [ 127.181687585680351, 37.970016952098597 ], [ 127.179634847067518, 37.971985121613038 ], [ 127.180778982069441, 37.976709544583748 ], [ 127.176809038115977, 37.980937698030324 ], [ 127.175565510413307, 37.978916060338449 ], [ 127.171506083180077, 37.978600384017142 ], [ 127.164836778531097, 37.981969052468919 ], [ 127.160260425391698, 37.977304791063695 ], [ 127.155774410182872, 37.977572053612072 ], [ 127.147358474338702, 37.981407129488744 ], [ 127.143793518038336, 37.98541164988486 ], [ 127.144589526334329, 37.989215841081908 ], [ 127.142982374641832, 37.991468505578304 ], [ 127.14727007441688, 37.996833333677479 ], [ 127.145460859154497, 37.999489162313871 ], [ 127.147355850748056, 38.014732763294973 ], [ 127.139482881432656, 38.021037456285804 ], [ 127.137803935105467, 38.027093669118706 ], [ 127.135264270655242, 38.029612953579409 ], [ 127.13747645375571, 38.038088125798168 ], [ 127.133824428369152, 38.039004098859664 ], [ 127.127123679189665, 38.037357591921243 ], [ 127.123591682263054, 38.038981733984372 ], [ 127.115018014634884, 38.039326029931246 ], [ 127.118017304071188, 38.043616650008587 ], [ 127.111891291879331, 38.051124930428124 ], [ 127.115442076832579, 38.060236555313082 ], [ 127.120233322864777, 38.061684742702006 ], [ 127.128152594109963, 38.060252309098381 ], [ 127.134212699215496, 38.065206557784443 ], [ 127.138144393056123, 38.06644172587437 ], [ 127.139062824567418, 38.071135191532299 ], [ 127.143375208945287, 38.073051446574794 ], [ 127.147474264199374, 38.069477968977665 ], [ 127.146329773373594, 38.060697600996946 ], [ 127.148907064497919, 38.057801101621962 ], [ 127.156743368882843, 38.063205720767932 ], [ 127.166334288100757, 38.061501205309575 ], [ 127.172834043082688, 38.066187911803823 ], [ 127.183503823548975, 38.063791898155586 ], [ 127.189372087366053, 38.064604523362789 ], [ 127.198385252833944, 38.05920400363172 ], [ 127.199971817573072, 38.060200590891903 ], [ 127.198248682147394, 38.063550767551121 ], [ 127.199426251708303, 38.065808157468908 ], [ 127.205473944758594, 38.068012951348628 ], [ 127.217842761550813, 38.068885966929258 ], [ 127.219102795805867, 38.067275364476906 ], [ 127.215818647918653, 38.056205231375564 ], [ 127.2253572528505, 38.056096546515732 ], [ 127.226286975861598, 38.059134852555466 ], [ 127.228259792221323, 38.060057750134789 ], [ 127.237414387985595, 38.053695656068889 ], [ 127.240218032624881, 38.049660335356826 ], [ 127.239413101227484, 38.048388734420186 ] ] ] ] } },
{ "type": "Feature", "properties": { "emd_cd": "41650360", "emd_nm": "영중면" }, "geometry": { "type": "MultiPolygon", "coordinates": [ [ [ [ 127.239413101227484, 38.048388734420186 ], [ 127.241472470715323, 38.043401889173296 ], [ 127.245553192123083, 38.041082278462625 ], [ 127.252839835664332, 38.041644081561955 ], [ 127.271605516671087, 38.037526705549176 ], [ 127.274498331110365, 38.035597196148025 ], [ 127.283096570713639, 38.035763589800951 ], [ 127.285245179707346, 38.038589806487167 ], [ 127.292757303384846, 38.036487032827196 ], [ 127.299088826347699, 38.037909181487329 ], [ 127.307156145130023, 38.036941430697567 ], [ 127.30936147882764, 38.030417316549865 ], [ 127.294797921902997, 38.02586371486229 ], [ 127.294490585476908, 38.024344943557303 ], [ 127.288529949822816, 38.021152563393009 ], [ 127.289035427668452, 38.019701205417128 ], [ 127.281586470601539, 38.018603864912862 ], [ 127.275753319292221, 38.015485034569608 ], [ 127.274192599622367, 38.007877298004431 ], [ 127.280383701327921, 38.003228241362919 ], [ 127.280179223152217, 38.001124260609451 ], [ 127.283835764856804, 37.998153561724152 ], [ 127.285965021302403, 37.992412419451426 ], [ 127.293822037025492, 37.98857078618569 ], [ 127.301398325035791, 37.980361423244425 ], [ 127.299841079136471, 37.97433820331706 ], [ 127.301700968180413, 37.97173732776244 ], [ 127.300344284968929, 37.969165438072956 ], [ 127.287870869508225, 37.961917899704694 ], [ 127.285431179259419, 37.957500809350215 ], [ 127.28011126544564, 37.955931211588201 ], [ 127.27342036688124, 37.958248774119888 ], [ 127.271352516642253, 37.955858846211513 ], [ 127.263195675304416, 37.95235724989999 ], [ 127.259550664224335, 37.952754725051037 ], [ 127.25620095979113, 37.954631229671108 ], [ 127.259615489437778, 37.958385661234473 ], [ 127.258774759577989, 37.961345043476776 ], [ 127.260911068656355, 37.963812933653173 ], [ 127.259794260421984, 37.965378162085791 ], [ 127.24544075894643, 37.968049622313075 ], [ 127.243466431716058, 37.971406462469275 ], [ 127.239264045824939, 37.969217972164877 ], [ 127.240771847337527, 37.96740351629569 ], [ 127.243150640472734, 37.967906803517934 ], [ 127.241301257575998, 37.966950219265115 ], [ 127.238042439027524, 37.968548524731162 ], [ 127.228219524022222, 37.967100561617286 ], [ 127.221974570382301, 37.971872546447635 ], [ 127.223278195929936, 37.974958158434795 ], [ 127.222096724038835, 37.97797842916173 ], [ 127.219200168227744, 37.97854382049335 ], [ 127.217948536577495, 37.981326748505687 ], [ 127.217419000448331, 37.983153964449691 ], [ 127.21928392748022, 37.984869154109326 ], [ 127.216310251527588, 37.989142866530806 ], [ 127.2166316037641, 37.993032431810114 ], [ 127.211568992302134, 37.994932056143327 ], [ 127.206314010229235, 37.992858185391547 ], [ 127.20533666317219, 37.996569660220793 ], [ 127.200799167250722, 37.995791201293088 ], [ 127.200311344183092, 37.998248126356366 ], [ 127.202424532640393, 38.00180758616348 ], [ 127.20502864843651, 38.001665755023815 ], [ 127.206416429483099, 38.006771425398334 ], [ 127.20300587334998, 38.007624451872523 ], [ 127.196565596659724, 38.014452371795358 ], [ 127.199620959751158, 38.014224098517602 ], [ 127.200125469085904, 38.01692606487871 ], [ 127.204260029446672, 38.019157628122663 ], [ 127.203555573143262, 38.021308023706503 ], [ 127.208441242420164, 38.023971071580604 ], [ 127.206309057065468, 38.027285815979923 ], [ 127.207704817121112, 38.032641753563517 ], [ 127.210847442512517, 38.032425287922713 ], [ 127.212597214852622, 38.037695530204267 ], [ 127.217056325157742, 38.041866520282518 ], [ 127.219709809813139, 38.041025343986355 ], [ 127.230200126298328, 38.043224584850236 ], [ 127.232144540047457, 38.046581300970239 ], [ 127.236085900229554, 38.048766469294662 ], [ 127.239413101227484, 38.048388734420186 ] ] ] ] } },
{ "type": "Feature", "properties": { "emd_cd": "41650370", "emd_nm": "일동면" }, "geometry": { "type": "MultiPolygon", "coordinates": [ [ [ [ 127.258892245542938, 37.94730043075095 ], [ 127.256305497870741, 37.954603525095848 ], [ 127.263195675304416, 37.95235724989999 ], [ 127.271352516642253, 37.955858846211513 ], [ 127.27342036688124, 37.958248774119888 ], [ 127.28011126544564, 37.955931211588201 ], [ 127.284900581242837, 37.957275280416056 ], [ 127.287870869508225, 37.961917899704694 ], [ 127.300344284968929, 37.969165438072956 ], [ 127.301739061186439, 37.972327371222825 ], [ 127.299841079136471, 37.97433820331706 ], [ 127.301501331489831, 37.979197610972371 ], [ 127.300322825321828, 37.982803612513514 ], [ 127.293235108050652, 37.988976134940025 ], [ 127.288120067575662, 37.990251925556485 ], [ 127.283835764856804, 37.998153561724152 ], [ 127.280179223152217, 38.001124260609451 ], [ 127.280383701327921, 38.003228241362919 ], [ 127.274205641369349, 38.008450314712533 ], [ 127.275753319292221, 38.015485034569608 ], [ 127.278568986586109, 38.017456965378933 ], [ 127.289035427668452, 38.019701205417128 ], [ 127.288529949822816, 38.021152563393009 ], [ 127.294490585476908, 38.024344943557303 ], [ 127.294797921902997, 38.02586371486229 ], [ 127.303273458286213, 38.02769511949819 ], [ 127.305978852340616, 38.030246111821356 ], [ 127.309766016236082, 38.030257641882962 ], [ 127.311368740340754, 38.026655394454444 ], [ 127.308404462251843, 38.021852651505242 ], [ 127.307999761176319, 38.016102053640857 ], [ 127.312193430838761, 38.013803812694853 ], [ 127.313936962177237, 38.009840115417234 ], [ 127.311946517518976, 38.003451754286296 ], [ 127.308380092128814, 38.00203911288375 ], [ 127.310604073913154, 38.000166532472562 ], [ 127.317625156520762, 38.003614893982132 ], [ 127.322371714008042, 38.003880037435522 ], [ 127.330823924160896, 38.001182409817623 ], [ 127.343795157635242, 38.007403040727425 ], [ 127.348667384010568, 38.005579971823352 ], [ 127.34986398618976, 38.003524297932927 ], [ 127.356622939665101, 38.004196881582772 ], [ 127.357217477975141, 38.00001391003093 ], [ 127.361551666019054, 37.999160022590601 ], [ 127.366780974310799, 37.994697923967493 ], [ 127.377939374971959, 37.98987364256184 ], [ 127.3778813935578, 37.986220187476349 ], [ 127.384886270081424, 37.982299694288542 ], [ 127.383354138608723, 37.977980297529967 ], [ 127.385164388321712, 37.97569389893772 ], [ 127.382861143064048, 37.974353492947046 ], [ 127.382303347260446, 37.969796142660776 ], [ 127.378059682909466, 37.966069173206165 ], [ 127.3759235520657, 37.961416931766344 ], [ 127.379369081414254, 37.958087357294303 ], [ 127.376716048899794, 37.95304920473987 ], [ 127.379054139803202, 37.950358800014293 ], [ 127.381821204150398, 37.950590922744631 ], [ 127.384290759478986, 37.948315774265545 ], [ 127.384588976587878, 37.943253009411563 ], [ 127.373726411705036, 37.935750835507719 ], [ 127.369724233120408, 37.930189530802274 ], [ 127.366069235527348, 37.9288952030358 ], [ 127.366051687181994, 37.926409649747526 ], [ 127.356748124413784, 37.921218231096574 ], [ 127.350115769522503, 37.92136448917941 ], [ 127.345302529777982, 37.926448402478393 ], [ 127.337506836704179, 37.923066212711809 ], [ 127.331413770092041, 37.926084878427872 ], [ 127.328633088466276, 37.921909514136068 ], [ 127.310661419802869, 37.922119951532281 ], [ 127.309734945394112, 37.919491366071426 ], [ 127.305533931124089, 37.920547272977771 ], [ 127.304927428266765, 37.918898016942109 ], [ 127.299361984769462, 37.92085470257468 ], [ 127.296414686408113, 37.91971111231932 ], [ 127.295051943309531, 37.915421507577619 ], [ 127.291804244728397, 37.916460534349319 ], [ 127.286866738357347, 37.915359920774357 ], [ 127.279126705115317, 37.918883776314857 ], [ 127.276617832247609, 37.920809128755657 ], [ 127.276650786513855, 37.923048829969275 ], [ 127.272457478530853, 37.922440500787822 ], [ 127.27115639307965, 37.927337156286391 ], [ 127.267360835039909, 37.929174021977808 ], [ 127.262465099448974, 37.939171225300882 ], [ 127.261539471663085, 37.946426179747945 ], [ 127.258892245542938, 37.94730043075095 ] ] ] ] } },
{ "type": "Feature", "properties": { "emd_cd": "41650380", "emd_nm": "이동면" }, "geometry": { "type": "MultiPolygon", "coordinates": [ [ [ [ 127.307999761176319, 38.016102053640857 ], [ 127.308404462251843, 38.021852651505242 ], [ 127.311368740340754, 38.026655394454444 ], [ 127.310472582646128, 38.02845861711868 ], [ 127.314365447179071, 38.030919675859352 ], [ 127.321462565702873, 38.041174931924651 ], [ 127.325440252229129, 38.040559078469691 ], [ 127.334906291125051, 38.043274750850713 ], [ 127.342842945691842, 38.037855247268475 ], [ 127.350311350709589, 38.043347079638892 ], [ 127.350833746186808, 38.045862268316966 ], [ 127.346125803943679, 38.0508137451938 ], [ 127.346929644517644, 38.060340889193228 ], [ 127.344676369396225, 38.065760315626605 ], [ 127.347546033720533, 38.071561557049833 ], [ 127.357527307982082, 38.072158196448747 ], [ 127.35688539613075, 38.085081907371787 ], [ 127.356080269789288, 38.087193527198764 ], [ 127.352859896524848, 38.088072967026136 ], [ 127.346234219016523, 38.084359850831639 ], [ 127.336741583113437, 38.086441461522149 ], [ 127.336847625494087, 38.089294323645525 ], [ 127.339108046843108, 38.092018276564737 ], [ 127.337887438002966, 38.096380635879349 ], [ 127.339626894421713, 38.101348249320274 ], [ 127.348136356381488, 38.105209418145002 ], [ 127.351524877303561, 38.104452464092745 ], [ 127.357365411495465, 38.106569942559908 ], [ 127.36590219501187, 38.106921862829566 ], [ 127.371839033286548, 38.110500049965175 ], [ 127.372212828749028, 38.113741228391952 ], [ 127.378613473799959, 38.118428952152016 ], [ 127.383271842965613, 38.117081273091166 ], [ 127.384191005425237, 38.114329504848016 ], [ 127.403447039602568, 38.112963822891764 ], [ 127.404400234460553, 38.106936964434787 ], [ 127.413408214938627, 38.10201259593569 ], [ 127.422621605559002, 38.106765450019893 ], [ 127.4305647471421, 38.115394848210364 ], [ 127.433501734017966, 38.111019208645502 ], [ 127.440452426262027, 38.108832240118538 ], [ 127.441847927928265, 38.102827004200222 ], [ 127.445167213525281, 38.097469661144295 ], [ 127.444801706834397, 38.087983768922108 ], [ 127.447075663242288, 38.080728646007792 ], [ 127.444479779900846, 38.074777757126498 ], [ 127.446744145313474, 38.071216252856402 ], [ 127.444482343918011, 38.058226202722402 ], [ 127.44672217056727, 38.054221410213685 ], [ 127.446189156292462, 38.051230163609361 ], [ 127.43551853574543, 38.038352513684345 ], [ 127.431438217748251, 38.035419366161783 ], [ 127.424650940564376, 38.033473947874178 ], [ 127.424140649137215, 38.030992836618239 ], [ 127.427149943680917, 38.027495365522284 ], [ 127.425606131758897, 38.022981644865276 ], [ 127.419838062374424, 38.017501592565736 ], [ 127.418759014547973, 38.011994419535505 ], [ 127.414768496910455, 38.006987649032254 ], [ 127.414992731602766, 38.002454716025426 ], [ 127.412869325449833, 37.997877462548729 ], [ 127.408971624163613, 37.996131034547446 ], [ 127.40524491643437, 37.99032133713925 ], [ 127.398358082029034, 37.989184687687761 ], [ 127.389745466174261, 37.982884554213022 ], [ 127.387610878478625, 37.983868104107309 ], [ 127.384886270081424, 37.982299694288542 ], [ 127.3778813935578, 37.986220187476349 ], [ 127.377939374971959, 37.98987364256184 ], [ 127.366780974310799, 37.994697923967493 ], [ 127.361551666019054, 37.999160022590601 ], [ 127.357217477975141, 38.00001391003093 ], [ 127.356622939665101, 38.004196881582772 ], [ 127.34986398618976, 38.003524297932927 ], [ 127.348667384010568, 38.005579971823352 ], [ 127.343795157635242, 38.007403040727425 ], [ 127.330823924160896, 38.001182409817623 ], [ 127.322371714008042, 38.003880037435522 ], [ 127.317625156520762, 38.003614893982132 ], [ 127.310604073913154, 38.000166532472562 ], [ 127.308380092128814, 38.00203911288375 ], [ 127.311946517518976, 38.003451754286296 ], [ 127.313936962177237, 38.009840115417234 ], [ 127.312193430838761, 38.013803812694853 ], [ 127.307999761176319, 38.016102053640857 ] ] ] ] } },
{ "type": "Feature", "properties": { "emd_cd": "41650390", "emd_nm": "영북면" }, "geometry": { "type": "MultiPolygon", "coordinates": [ [ [ [ 127.205473944758594, 38.068012951348628 ], [ 127.208132133134683, 38.070163843991217 ], [ 127.206366584278925, 38.073555145635417 ], [ 127.207007345506653, 38.076211095676562 ], [ 127.215716504898282, 38.0808590722174 ], [ 127.22050774155322, 38.088766316007309 ], [ 127.225406790071332, 38.091800500310754 ], [ 127.231685970478907, 38.091253025903384 ], [ 127.231333183695938, 38.098709717246543 ], [ 127.232444963021578, 38.099681821342493 ], [ 127.250444558472651, 38.098553403779462 ], [ 127.261743837116384, 38.108965201455177 ], [ 127.264733137822091, 38.107050674868844 ], [ 127.267230631030259, 38.10769024495491 ], [ 127.266841528300233, 38.111135499889642 ], [ 127.261285831511685, 38.114656079491198 ], [ 127.266755688738982, 38.117693835403301 ], [ 127.263339252136504, 38.121302687399869 ], [ 127.27015458249258, 38.125052220349069 ], [ 127.275813060390931, 38.124175760400206 ], [ 127.280849100776535, 38.12535806593344 ], [ 127.283069507338439, 38.122074904373321 ], [ 127.282709667325662, 38.116482037129373 ], [ 127.28609702895568, 38.114302854288631 ], [ 127.288571644428714, 38.116401475713488 ], [ 127.290626049205528, 38.114008843512039 ], [ 127.290415567850459, 38.115364731205574 ], [ 127.29254564904717, 38.114146168107951 ], [ 127.297265118771421, 38.115964988832097 ], [ 127.304735246223018, 38.115432373351737 ], [ 127.307552404023355, 38.119046465284462 ], [ 127.309528050298269, 38.118302699941808 ], [ 127.31171914346497, 38.114886351439068 ], [ 127.312432008301315, 38.107960706730616 ], [ 127.316289280899625, 38.10197192391648 ], [ 127.316271337078959, 38.098633702771764 ], [ 127.320711405931277, 38.094728058308014 ], [ 127.330223460208103, 38.093375474565839 ], [ 127.33328098929951, 38.090875442453175 ], [ 127.338076112159939, 38.090150671203894 ], [ 127.336456255682748, 38.086886511091123 ], [ 127.340971448835106, 38.085005891619389 ], [ 127.347305453039354, 38.084559407729472 ], [ 127.354813920273898, 38.087922550446386 ], [ 127.356597027737919, 38.086076188201709 ], [ 127.357696200660826, 38.078919497454365 ], [ 127.356522119481284, 38.076650803217333 ], [ 127.357527307982082, 38.072158196448747 ], [ 127.347546033720533, 38.071561557049833 ], [ 127.345183972234807, 38.06829579740549 ], [ 127.344875010115572, 38.063635692040499 ], [ 127.346929644517644, 38.060340889193228 ], [ 127.346125803943679, 38.0508137451938 ], [ 127.350833746186808, 38.045862268316966 ], [ 127.347549110066396, 38.040232142142841 ], [ 127.342842945691842, 38.037855247268475 ], [ 127.334906291125051, 38.043274750850713 ], [ 127.325440252229129, 38.040559078469691 ], [ 127.321462565702873, 38.041174931924651 ], [ 127.314365447179071, 38.030919675859352 ], [ 127.310472582646128, 38.02845861711868 ], [ 127.30632534666934, 38.037539748424088 ], [ 127.292757303384846, 38.036487032827196 ], [ 127.285245179707346, 38.038589806487167 ], [ 127.283096570713639, 38.035763589800951 ], [ 127.278939214693168, 38.035160859513297 ], [ 127.252839835664332, 38.041644081561955 ], [ 127.245553192123083, 38.041082278462625 ], [ 127.241345482001122, 38.043565105436159 ], [ 127.239406153400765, 38.047847011785954 ], [ 127.240218032624881, 38.049660335356826 ], [ 127.237414387985595, 38.053695656068889 ], [ 127.235429499109316, 38.053873524883265 ], [ 127.229163073135268, 38.059750469623957 ], [ 127.226286975861598, 38.059134852555466 ], [ 127.2253572528505, 38.056096546515732 ], [ 127.215818647918653, 38.056205231375564 ], [ 127.21921880863411, 38.068084869368768 ], [ 127.214723963753457, 38.069529770039516 ], [ 127.205473944758594, 38.068012951348628 ] ] ] ] } },
{ "type": "Feature", "properties": { "emd_cd": "41650400", "emd_nm": "관인면" }, "geometry": { "type": "MultiPolygon", "coordinates": [ [ [ [ 127.171301798723164, 38.121826999972612 ], [ 127.173939234284191, 38.12402868430263 ], [ 127.17554213560301, 38.128909115986161 ], [ 127.174598170453706, 38.13841917798311 ], [ 127.17289146720131, 38.141183998982569 ], [ 127.17696354546959, 38.152461944394126 ], [ 127.173332996618328, 38.16140685294085 ], [ 127.174709978194699, 38.164765919149929 ], [ 127.172501494496117, 38.169956706032444 ], [ 127.175272762874656, 38.176350022964634 ], [ 127.174693469034736, 38.18041481692584 ], [ 127.180355427264658, 38.186166962471418 ], [ 127.189233986470128, 38.18832392260564 ], [ 127.188977112654101, 38.18119050178769 ], [ 127.185864244861449, 38.173581097168885 ], [ 127.190828431212196, 38.159720888346278 ], [ 127.202934069434278, 38.153441345876075 ], [ 127.208262877210828, 38.147184357530506 ], [ 127.212664186365117, 38.145936849178533 ], [ 127.212395698643746, 38.143485870925062 ], [ 127.222041399194325, 38.137432168207688 ], [ 127.224370437532173, 38.141704384218968 ], [ 127.223806854982726, 38.147070289682389 ], [ 127.226324910538523, 38.148400871149242 ], [ 127.234589842796865, 38.14706929229434 ], [ 127.239410786214222, 38.156648239340761 ], [ 127.25604997224427, 38.162991069437616 ], [ 127.258825185198262, 38.16953650385075 ], [ 127.264479986978174, 38.171744411174409 ], [ 127.266473768608023, 38.175847433338852 ], [ 127.264676307870715, 38.178524772931212 ], [ 127.266670578658093, 38.180626239071898 ], [ 127.283581181878731, 38.182847538567096 ], [ 127.284428652275665, 38.180465552955049 ], [ 127.288934086762509, 38.177493653357416 ], [ 127.297699540117037, 38.176323472616225 ], [ 127.296151829195509, 38.172528303856524 ], [ 127.288955646225091, 38.169502514744281 ], [ 127.286965773173762, 38.161403028097823 ], [ 127.284075352935005, 38.159533552733706 ], [ 127.286382660747805, 38.152707844151337 ], [ 127.284257847450561, 38.146875873971808 ], [ 127.275011011398263, 38.137281928823853 ], [ 127.276280282970333, 38.126642269740231 ], [ 127.27420161318129, 38.125169375195433 ], [ 127.268684366658704, 38.125714076439372 ], [ 127.263339252136504, 38.121302687399876 ], [ 127.266755688738982, 38.117693835403287 ], [ 127.261285831511657, 38.114656079491198 ], [ 127.266841528300233, 38.111135499889649 ], [ 127.26723063103023, 38.10769024495491 ], [ 127.264733137822091, 38.107050674868844 ], [ 127.261743837116384, 38.10896520145517 ], [ 127.250444558472651, 38.098553403779462 ], [ 127.232444963021578, 38.099681821342493 ], [ 127.231333183695938, 38.098709717246543 ], [ 127.232019688792619, 38.091656914684265 ], [ 127.224248769188989, 38.091481302330088 ], [ 127.218719879256128, 38.087038244101969 ], [ 127.215716504898282, 38.080859072217415 ], [ 127.207775814443323, 38.077015864726619 ], [ 127.206366584278925, 38.073555145635446 ], [ 127.208132133134683, 38.070163843991217 ], [ 127.198240662035545, 38.064492196525059 ], [ 127.199279060677426, 38.059390199384914 ], [ 127.196474549784242, 38.059747752467246 ], [ 127.189088240878448, 38.065161225816773 ], [ 127.189513019608199, 38.076400341496871 ], [ 127.192070872065415, 38.083382279830651 ], [ 127.184074404417757, 38.091577595739935 ], [ 127.182424990366144, 38.115042011881705 ], [ 127.180626140225598, 38.118372224487388 ], [ 127.171301798723164, 38.121826999972612 ] ] ] ] } },
{ "type": "Feature", "properties": { "emd_cd": "41650410", "emd_nm": "화현면" }, "geometry": { "type": "MultiPolygon", "coordinates": [ [ [ [ 127.25225901861144, 37.953374713484742 ], [ 127.256305497870741, 37.954603525095848 ], [ 127.258892245542938, 37.94730043075095 ], [ 127.261539471663085, 37.946426179747945 ], [ 127.262006068056564, 37.940432929942389 ], [ 127.267360835039909, 37.929174021977808 ], [ 127.27115639307965, 37.927337156286391 ], [ 127.272457478530853, 37.922440500787822 ], [ 127.276650786513855, 37.923048829969275 ], [ 127.276617832247609, 37.920809128755657 ], [ 127.282860140230682, 37.91672311697851 ], [ 127.293758351739058, 37.915266207460725 ], [ 127.295051943309531, 37.915421507577619 ], [ 127.296414686408113, 37.91971111231932 ], [ 127.299361984769462, 37.92085470257468 ], [ 127.304927428266765, 37.918898016942109 ], [ 127.305533931124089, 37.920547272977771 ], [ 127.309734945394112, 37.919491366071426 ], [ 127.310661419802869, 37.922119951532281 ], [ 127.328633088466276, 37.921909514136068 ], [ 127.32990621240836, 37.916403237715585 ], [ 127.326589188104592, 37.911563992392807 ], [ 127.329423256468587, 37.909542125120502 ], [ 127.329697673138668, 37.907543993511396 ], [ 127.32671635542934, 37.903331811816749 ], [ 127.326384820384561, 37.897495614513034 ], [ 127.328422268931078, 37.894300216645767 ], [ 127.322414990831561, 37.887269737857906 ], [ 127.322893836164525, 37.878652579167401 ], [ 127.325063244714968, 37.877109927408831 ], [ 127.322852422406569, 37.871332051818314 ], [ 127.319137062467789, 37.871402107780369 ], [ 127.315819991149723, 37.867770910488751 ], [ 127.313382067390179, 37.8678347102042 ], [ 127.312629094310651, 37.865807796276059 ], [ 127.305974234874142, 37.868693978878468 ], [ 127.295807391840398, 37.868844832312512 ], [ 127.291877563947779, 37.875438557870176 ], [ 127.286620573256144, 37.867502168357284 ], [ 127.284261468529365, 37.859867190711959 ], [ 127.280875161321347, 37.855837723109765 ], [ 127.278401759459854, 37.855585489716631 ], [ 127.27458233115324, 37.850226622677717 ], [ 127.271735941065046, 37.851139382725904 ], [ 127.266237374393171, 37.849875694490898 ], [ 127.263713966049181, 37.851115387367166 ], [ 127.258684678736387, 37.849724682148704 ], [ 127.258328581625079, 37.852211429915847 ], [ 127.267262699093408, 37.857214143519478 ], [ 127.266385800161714, 37.86629927737664 ], [ 127.268013119821518, 37.868591002273497 ], [ 127.263810222356014, 37.876158480671783 ], [ 127.262356911219243, 37.884869093910453 ], [ 127.252068491467, 37.886868922988313 ], [ 127.249323813667502, 37.899828536231496 ], [ 127.251788409221248, 37.90465020651466 ], [ 127.247457712601545, 37.918852223806645 ], [ 127.249244936718043, 37.924785472133834 ], [ 127.247540118372044, 37.933368367802721 ], [ 127.24516355322406, 37.93655468432091 ], [ 127.249845969353174, 37.943035225655116 ], [ 127.25225901861144, 37.953374713484742 ] ] ] ] } }
]
}
