{
"type": "FeatureCollection",
"name": "41670",
"crs": { "type": "name", "properties": { "name": "urn:ogc:def:crs:OGC:1.3:CRS84" } },
"features": [
{ "type": "Feature", "properties": { "emd_cd": "41670101", "emd_nm": "상동" }, "geometry": { "type": "MultiPolygon", "coordinates": [ [ [ [ 127.637724219374491, 37.295837750709644 ], [ 127.640771282369641, 37.300657359119178 ], [ 127.649292927642946, 37.296703299272046 ], [ 127.650627670880027, 37.294601163441435 ], [ 127.654906745830289, 37.293781752792874 ], [ 127.656223037396245, 37.292862886466331 ], [ 127.654932117508167, 37.291923179189951 ], [ 127.657768795759466, 37.290133008524535 ], [ 127.647547565323748, 37.283810563489901 ], [ 127.644843283528544, 37.283686084188972 ], [ 127.640149077801922, 37.289173222392861 ], [ 127.639112459276163, 37.295673612029354 ], [ 127.637724219374491, 37.295837750709644 ] ] ] ] } },
{ "type": "Feature", "properties": { "emd_cd": "41670102", "emd_nm": "홍문동" }, "geometry": { "type": "MultiPolygon", "coordinates": [ [ [ [ 127.631928403781657, 37.287344021957566 ], [ 127.633804457920775, 37.292225607043768 ], [ 127.635567993154467, 37.292397917307134 ], [ 127.635083510876697, 37.295737207169992 ], [ 127.637313786817032, 37.300451089775621 ], [ 127.639156451917344, 37.29995416936908 ], [ 127.637724219374491, 37.295837750709644 ], [ 127.639112459276163, 37.295673612029354 ], [ 127.638515314787441, 37.294229598210556 ], [ 127.642389344033887, 37.285427491379544 ], [ 127.645855121677641, 37.283528579312552 ], [ 127.645222899378609, 37.280198823213517 ], [ 127.638997238463062, 37.279904713545633 ], [ 127.635100489369847, 37.283022854944598 ], [ 127.633374068100053, 37.288769858554112 ], [ 127.631928403781657, 37.287344021957566 ] ] ] ] } },
{ "type": "Feature", "properties": { "emd_cd": "41670103", "emd_nm": "창동" }, "geometry": { "type": "MultiPolygon", "coordinates": [ [ [ [ 127.636007345459191, 37.294431264049585 ], [ 127.631928403781657, 37.287344021957566 ], [ 127.626867326312748, 37.291504408665141 ], [ 127.634090238558457, 37.296622956107825 ], [ 127.636527181970663, 37.300959205196598 ], [ 127.635083510876697, 37.295737207169992 ], [ 127.636007345459191, 37.294431264049585 ] ] ] ] } },
{ "type": "Feature", "properties": { "emd_cd": "41670104", "emd_nm": "우만동" }, "geometry": { "type": "MultiPolygon", "coordinates": [ [ [ [ 127.675087387257534, 37.255076188277023 ], [ 127.670291816899336, 37.254512869970007 ], [ 127.669261137691535, 37.256414270697242 ], [ 127.672254613731241, 37.259930572597959 ], [ 127.67234796596577, 37.264984560716393 ], [ 127.675480817247731, 37.265396905474404 ], [ 127.679015654948472, 37.262005498727646 ], [ 127.681927856506775, 37.261988798708622 ], [ 127.680685146545102, 37.258391859056665 ], [ 127.681861605092209, 37.251675645898608 ], [ 127.685978648617962, 37.243945060081771 ], [ 127.676512574370079, 37.241969673724157 ], [ 127.677921240370978, 37.247200101065289 ], [ 127.675087387257534, 37.255076188277023 ] ] ] ] } },
{ "type": "Feature", "properties": { "emd_cd": "41670105", "emd_nm": "단현동" }, "geometry": { "type": "MultiPolygon", "coordinates": [ [ [ [ 127.667272238204518, 37.270603578585536 ], [ 127.674372806104188, 37.269624233213584 ], [ 127.679146060372275, 37.27257131123563 ], [ 127.67900498282529, 37.280025902405534 ], [ 127.676694525896295, 37.283356552255803 ], [ 127.680198156654853, 37.28562833840742 ], [ 127.685645589622624, 37.274392637096483 ], [ 127.684086217766691, 37.265580447250677 ], [ 127.681927856506775, 37.261988798708622 ], [ 127.679015654948472, 37.262005498727646 ], [ 127.675480817247731, 37.265396905474404 ], [ 127.67234796596577, 37.264984560716393 ], [ 127.672187544898804, 37.259816550120533 ], [ 127.669261137691535, 37.256414270697242 ], [ 127.666226165289416, 37.25667200096607 ], [ 127.663562342776657, 37.260557940581172 ], [ 127.667465915349155, 37.264464608961617 ], [ 127.667272238204518, 37.270603578585536 ] ] ] ] } },
{ "type": "Feature", "properties": { "emd_cd": "41670106", "emd_nm": "신진동" }, "geometry": { "type": "MultiPolygon", "coordinates": [ [ [ [ 127.661062702292114, 37.273648094849577 ], [ 127.667868342008845, 37.274040949388692 ], [ 127.668348338669816, 37.277213088044562 ], [ 127.672332671856864, 37.278883569393876 ], [ 127.676694525896295, 37.283356552255803 ], [ 127.67900498282529, 37.280025902405534 ], [ 127.679184625973718, 37.272634945550983 ], [ 127.674495357004247, 37.269650972629748 ], [ 127.662969668318382, 37.270293850566091 ], [ 127.661062702292114, 37.273648094849577 ] ] ] ] } },
{ "type": "Feature", "properties": { "emd_cd": "41670107", "emd_nm": "하동" }, "geometry": { "type": "MultiPolygon", "coordinates": [ [ [ [ 127.616378211205685, 37.306119236091803 ], [ 127.617748691374246, 37.316273274916931 ], [ 127.623541656646054, 37.312766903159861 ], [ 127.626823030393822, 37.30714794483697 ], [ 127.626793380667166, 37.303567037679294 ], [ 127.636527181970663, 37.300959205196598 ], [ 127.634090238558457, 37.296622956107825 ], [ 127.626867326312748, 37.291504408665141 ], [ 127.619547021327364, 37.300063974395279 ], [ 127.617251745095416, 37.300146324892594 ], [ 127.616378211205685, 37.306119236091803 ] ] ] ] } },
{ "type": "Feature", "properties": { "emd_cd": "41670108", "emd_nm": "교동" }, "geometry": { "type": "MultiPolygon", "coordinates": [ [ [ [ 127.644594033624642, 37.279415932192848 ], [ 127.645143806156341, 37.271728981037043 ], [ 127.643716754936975, 37.269735288479609 ], [ 127.637911913584546, 37.267697271791384 ], [ 127.630902333520012, 37.2675099023621 ], [ 127.626075256560824, 37.270143701725992 ], [ 127.624555754193281, 37.281574826884821 ], [ 127.618632854705538, 37.283432170916207 ], [ 127.620232598479731, 37.285689600924663 ], [ 127.624019917341755, 37.286724583725928 ], [ 127.626867326312748, 37.291504408665141 ], [ 127.630873564827112, 37.287409390511066 ], [ 127.633374068100053, 37.288769858554112 ], [ 127.635100489369847, 37.283022854944598 ], [ 127.638997238463062, 37.279904713545633 ], [ 127.64231973454244, 37.280632988658922 ], [ 127.644594033624642, 37.279415932192848 ] ] ] ] } },
{ "type": "Feature", "properties": { "emd_cd": "41670109", "emd_nm": "월송동" }, "geometry": { "type": "MultiPolygon", "coordinates": [ [ [ [ 127.610467114039182, 37.275084277222803 ], [ 127.606739130157109, 37.274745698747587 ], [ 127.600805161281528, 37.278404086530948 ], [ 127.598978273252527, 37.284168365498452 ], [ 127.595990227057101, 37.286260158451555 ], [ 127.598056518053781, 37.286382023874431 ], [ 127.598852972739465, 37.289388688091826 ], [ 127.605526190987646, 37.289498671693586 ], [ 127.60721912752706, 37.28737471022864 ], [ 127.617163280079239, 37.289091961477055 ], [ 127.618584430804702, 37.292653832116024 ], [ 127.625157093557405, 37.29486653710542 ], [ 127.626867326312748, 37.291504408665141 ], [ 127.624019917341755, 37.286724583725928 ], [ 127.619789809641745, 37.285334886204851 ], [ 127.610467114039182, 37.275084277222803 ] ] ] ] } },
{ "type": "Feature", "properties": { "emd_cd": "41670110", "emd_nm": "가업동" }, "geometry": { "type": "MultiPolygon", "coordinates": [ [ [ [ 127.61896020126261, 37.264065075468118 ], [ 127.611039889689906, 37.270872718988066 ], [ 127.612292537672218, 37.276784828363233 ], [ 127.618632854705538, 37.283432170916207 ], [ 127.624555754193281, 37.281574826884821 ], [ 127.626075256560824, 37.270143701725992 ], [ 127.6300755709036, 37.26707495723921 ], [ 127.626970053613348, 37.26408277052299 ], [ 127.627046982064826, 37.25815032938187 ], [ 127.624688808157146, 37.256643416241978 ], [ 127.61896020126261, 37.264065075468118 ] ] ] ] } },
{ "type": "Feature", "properties": { "emd_cd": "41670111", "emd_nm": "연라동" }, "geometry": { "type": "MultiPolygon", "coordinates": [ [ [ [ 127.597582010037641, 37.246169429773587 ], [ 127.601451949804272, 37.262290656366325 ], [ 127.599941691884936, 37.263783255724135 ], [ 127.600795114721166, 37.269152541199425 ], [ 127.597695205071304, 37.272830778925616 ], [ 127.598313216901047, 37.279872597111456 ], [ 127.599975383522235, 37.280330465356947 ], [ 127.606739130157109, 37.274745698747587 ], [ 127.612498024305623, 37.275753308066754 ], [ 127.611039889689906, 37.270872718988066 ], [ 127.617630388024452, 37.266090938683575 ], [ 127.624688808157146, 37.256643416241978 ], [ 127.625186133302535, 37.251159428592224 ], [ 127.622083717148314, 37.247494147782675 ], [ 127.618089488354968, 37.248143431413929 ], [ 127.615509751819133, 37.244994584395478 ], [ 127.613925125597405, 37.246719393952866 ], [ 127.609589897193104, 37.245969737395576 ], [ 127.609880450391771, 37.239869749745971 ], [ 127.605230556285164, 37.238650968572777 ], [ 127.602018822395564, 37.244145414219766 ], [ 127.597582010037641, 37.246169429773587 ] ] ] ] } },
{ "type": "Feature", "properties": { "emd_cd": "41670112", "emd_nm": "상거동" }, "geometry": { "type": "MultiPolygon", "coordinates": [ [ [ [ 127.623109813734686, 37.235526695656432 ], [ 127.608508171410804, 37.233528047454193 ], [ 127.609815561625311, 37.235519454636709 ], [ 127.607257406567882, 37.239325605204044 ], [ 127.61005820450761, 37.240224020550556 ], [ 127.609589897193104, 37.245969737395576 ], [ 127.613925125597405, 37.246719393952866 ], [ 127.615509751819133, 37.244994584395478 ], [ 127.618089488354968, 37.248143431413929 ], [ 127.622083717148314, 37.247494147782675 ], [ 127.625186133302535, 37.251159428592224 ], [ 127.624365251397364, 37.254858121651793 ], [ 127.626194470402879, 37.257680766642608 ], [ 127.632839502406938, 37.258591882868679 ], [ 127.633586466986173, 37.256904555596584 ], [ 127.640899056271508, 37.254644023835802 ], [ 127.637996320687307, 37.253500471212668 ], [ 127.641126450280211, 37.251172600715606 ], [ 127.638777024542478, 37.249802748650225 ], [ 127.639890038790469, 37.246119932918084 ], [ 127.636849440421898, 37.244336311665798 ], [ 127.638084254566692, 37.239653836828978 ], [ 127.632440913124867, 37.236986667659203 ], [ 127.629495617308933, 37.238508105397806 ], [ 127.623885257654976, 37.237900572119933 ], [ 127.623109813734686, 37.235526695656432 ] ] ] ] } },
{ "type": "Feature", "properties": { "emd_cd": "41670113", "emd_nm": "하거동" }, "geometry": { "type": "MultiPolygon", "coordinates": [ [ [ [ 127.648101875860306, 37.233609027036806 ], [ 127.651722869068152, 37.232351861963579 ], [ 127.649852959183363, 37.23120538699083 ], [ 127.650847493892371, 37.224082074671351 ], [ 127.647994362475302, 37.222104369445461 ], [ 127.649096819982077, 37.215900384179115 ], [ 127.641459303390477, 37.21437984472265 ], [ 127.641204692483754, 37.212299314405307 ], [ 127.638197421025382, 37.212385463089895 ], [ 127.630565096811495, 37.21647248657542 ], [ 127.626212739968196, 37.216459136944245 ], [ 127.620593851410192, 37.220140106775744 ], [ 127.61556523926852, 37.233603872626496 ], [ 127.623109813734686, 37.235526695656432 ], [ 127.623885257654976, 37.237900572119933 ], [ 127.629495617308933, 37.238508105397806 ], [ 127.631425833322638, 37.236910915893198 ], [ 127.635995140398094, 37.238491013734929 ], [ 127.638472018227716, 37.241418659328183 ], [ 127.637143494384858, 37.245149393726365 ], [ 127.640047016641731, 37.246449933109382 ], [ 127.64289613196496, 37.24226040285631 ], [ 127.646570461734001, 37.240895289834533 ], [ 127.646361996613209, 37.237927111225439 ], [ 127.648274944565983, 37.237909831731592 ], [ 127.648345745964306, 37.23618542616768 ], [ 127.64664750444291, 37.235962946072306 ], [ 127.648101875860306, 37.233609027036806 ] ] ] ] } },
{ "type": "Feature", "properties": { "emd_cd": "41670114", "emd_nm": "삼교동" }, "geometry": { "type": "MultiPolygon", "coordinates": [ [ [ [ 127.645525131892811, 37.245263056725108 ], [ 127.653179721854826, 37.245025009633451 ], [ 127.658967397638605, 37.239532551679631 ], [ 127.671633275073646, 37.246157789095442 ], [ 127.669885604145961, 37.241223417710763 ], [ 127.666410957596881, 37.23736222833913 ], [ 127.667514453960536, 37.234001302669718 ], [ 127.665052627479213, 37.229198878872637 ], [ 127.655431102910583, 37.224157195484693 ], [ 127.650956672234742, 37.224574580335869 ], [ 127.649852959183363, 37.23120538699083 ], [ 127.651722869068152, 37.232351861963579 ], [ 127.648101875860306, 37.233609027036806 ], [ 127.64664750444291, 37.235962946072306 ], [ 127.648345745964306, 37.23618542616768 ], [ 127.648274944565983, 37.237909831731592 ], [ 127.646361996613209, 37.237927111225439 ], [ 127.646570461734001, 37.240895289834533 ], [ 127.642552051488863, 37.242750791705433 ], [ 127.645525131892811, 37.245263056725108 ] ] ] ] } },
{ "type": "Feature", "properties": { "emd_cd": "41670115", "emd_nm": "점봉동" }, "geometry": { "type": "MultiPolygon", "coordinates": [ [ [ [ 127.659265480017041, 37.251918479290588 ], [ 127.651327273690342, 37.245320317855921 ], [ 127.645525131892811, 37.245263056725108 ], [ 127.642388174383299, 37.243504393415819 ], [ 127.638829038025975, 37.249420975870002 ], [ 127.641126450280211, 37.251172600715606 ], [ 127.637996320687307, 37.253500471212668 ], [ 127.640899056271508, 37.254644023835802 ], [ 127.633586466986173, 37.256904555596584 ], [ 127.632839502406938, 37.258591882868679 ], [ 127.626432357234165, 37.257646020379731 ], [ 127.626970053613348, 37.26408277052299 ], [ 127.630011116629333, 37.266374729230179 ], [ 127.628201735164112, 37.268986268238748 ], [ 127.632468269333202, 37.267328940958109 ], [ 127.641155449935169, 37.269126514108301 ], [ 127.651205172505811, 37.259034631716318 ], [ 127.654228159180676, 37.259024565003074 ], [ 127.654262018589435, 37.257594999794932 ], [ 127.659572692888887, 37.254024142929033 ], [ 127.659265480017041, 37.251918479290588 ] ] ] ] } },
{ "type": "Feature", "properties": { "emd_cd": "41670116", "emd_nm": "능현동" }, "geometry": { "type": "MultiPolygon", "coordinates": [ [ [ [ 127.66229858880024, 37.270636597081271 ], [ 127.667272238204518, 37.270603578585536 ], [ 127.667593012068679, 37.264930648694474 ], [ 127.663649246422054, 37.260801540788727 ], [ 127.664917106507488, 37.258630104667368 ], [ 127.66300106071418, 37.257094196938965 ], [ 127.664291894293115, 37.256388075236003 ], [ 127.661466792836507, 37.255658513153342 ], [ 127.656990798482099, 37.255518029823307 ], [ 127.654228159180676, 37.259024565003074 ], [ 127.651312574571136, 37.258959500927993 ], [ 127.641333919434018, 37.268439090174596 ], [ 127.645143806156341, 37.271728981037043 ], [ 127.651338846008898, 37.272754907714706 ], [ 127.651709162991807, 37.27409774309514 ], [ 127.661062702292114, 37.273648094849577 ], [ 127.66229858880024, 37.270636597081271 ] ] ] ] } },
{ "type": "Feature", "properties": { "emd_cd": "41670117", "emd_nm": "멱곡동" }, "geometry": { "type": "MultiPolygon", "coordinates": [ [ [ [ 127.663437713141306, 37.256746233539829 ], [ 127.665909803381354, 37.258878716128663 ], [ 127.666226165289416, 37.25667200096607 ], [ 127.669397975316414, 37.256366312513499 ], [ 127.670291816899336, 37.254512869970007 ], [ 127.67351581563905, 37.25405052186975 ], [ 127.675728712062451, 37.25572460619599 ], [ 127.677921240370978, 37.247200101065289 ], [ 127.676654865328885, 37.241893411031697 ], [ 127.671805240644005, 37.242579075613094 ], [ 127.671633275073646, 37.246157789095442 ], [ 127.658351853653159, 37.239553798620861 ], [ 127.651327273690342, 37.245320317855921 ], [ 127.654415825804733, 37.249697198593623 ], [ 127.659265480017041, 37.251918479290588 ], [ 127.659572692888887, 37.254024142929033 ], [ 127.657759296174746, 37.254815536181141 ], [ 127.656602769424296, 37.255812143946734 ], [ 127.663437713141306, 37.256746233539829 ] ] ] ] } },
{ "type": "Feature", "properties": { "emd_cd": "41670118", "emd_nm": "연양동" }, "geometry": { "type": "MultiPolygon", "coordinates": [ [ [ [ 127.657783162997859, 37.291052288745398 ], [ 127.654841999620047, 37.292049719644616 ], [ 127.656693263665332, 37.295175892455276 ], [ 127.670093890324367, 37.296025819813586 ], [ 127.680256777172858, 37.289229690966835 ], [ 127.680198156654853, 37.28562833840742 ], [ 127.67043974384454, 37.278053172993488 ], [ 127.659098618585745, 37.287435655711349 ], [ 127.657783162997859, 37.291052288745398 ] ] ] ] } },
{ "type": "Feature", "properties": { "emd_cd": "41670119", "emd_nm": "매룡동" }, "geometry": { "type": "MultiPolygon", "coordinates": [ [ [ [ 127.644006599972244, 37.2739370672479 ], [ 127.645855121677641, 37.283528579312552 ], [ 127.65708606682027, 37.290246481353492 ], [ 127.67043974384454, 37.278053172993488 ], [ 127.668348338669816, 37.277213088044562 ], [ 127.668411264317498, 37.274505808436878 ], [ 127.666613361885254, 37.273341690124845 ], [ 127.655646078846729, 37.274500876246918 ], [ 127.647461710867447, 37.271469198423681 ], [ 127.645143806156341, 37.271728981037043 ], [ 127.644006599972244, 37.2739370672479 ] ] ] ] } },
{ "type": "Feature", "properties": { "emd_cd": "41670120", "emd_nm": "천송동" }, "geometry": { "type": "MultiPolygon", "coordinates": [ [ [ [ 127.64776323864919, 37.301319043521424 ], [ 127.647421475531658, 37.308278103286355 ], [ 127.649796357178758, 37.309919008064341 ], [ 127.652536658412586, 37.309384333324878 ], [ 127.65440472364881, 37.311852015476809 ], [ 127.662588518090885, 37.312989440262648 ], [ 127.664353589829446, 37.318342736582785 ], [ 127.66557855755164, 37.318468362391314 ], [ 127.668548109846995, 37.316160336770643 ], [ 127.668726567365766, 37.31356313960648 ], [ 127.671236219921568, 37.313865146260959 ], [ 127.671856730200915, 37.310999201452951 ], [ 127.674824157939568, 37.310103527211474 ], [ 127.676339114830895, 37.304598753593282 ], [ 127.671902455812884, 37.302696719982606 ], [ 127.671683355648568, 37.300986532012359 ], [ 127.677146743607736, 37.298419866813418 ], [ 127.678458379225603, 37.294065316223708 ], [ 127.676488955328196, 37.292039343926454 ], [ 127.670093890324367, 37.296025819813586 ], [ 127.656693263665332, 37.295175892455276 ], [ 127.654906745830289, 37.293781752792874 ], [ 127.650627670880027, 37.294601163441435 ], [ 127.649292927642946, 37.296703299272046 ], [ 127.644590089547052, 37.297894758261243 ], [ 127.64776323864919, 37.301319043521424 ] ] ] ] } },
{ "type": "Feature", "properties": { "emd_cd": "41670121", "emd_nm": "오학동" }, "geometry": { "type": "MultiPolygon", "coordinates": [ [ [ [ 127.643143635695026, 37.309087507230629 ], [ 127.640810961088249, 37.312920579062954 ], [ 127.643429380035215, 37.314044266687439 ], [ 127.643164464732976, 37.316385776140002 ], [ 127.651737138579691, 37.321266217074935 ], [ 127.653147914239582, 37.324285059214397 ], [ 127.662876577236375, 37.321182282088856 ], [ 127.664676918404311, 37.31850109773238 ], [ 127.662588518090885, 37.312989440262648 ], [ 127.65440472364881, 37.311852015476809 ], [ 127.652536658412586, 37.309384333324878 ], [ 127.649796357178758, 37.309919008064341 ], [ 127.647421475531658, 37.308278103286355 ], [ 127.647903316785644, 37.30071216639088 ], [ 127.644590089547052, 37.297894758261243 ], [ 127.640771282369641, 37.300657359119178 ], [ 127.643143635695026, 37.309087507230629 ] ] ] ] } },
{ "type": "Feature", "properties": { "emd_cd": "41670122", "emd_nm": "현암동" }, "geometry": { "type": "MultiPolygon", "coordinates": [ [ [ [ 127.617957363159661, 37.318973208729666 ], [ 127.624055726947589, 37.323511955978724 ], [ 127.627053227504774, 37.322940503151415 ], [ 127.629762497315653, 37.324887534868957 ], [ 127.632458070690774, 37.330540721440286 ], [ 127.639017953327766, 37.3257662809729 ], [ 127.646619962421511, 37.325304812851208 ], [ 127.650643763512861, 37.321689162755824 ], [ 127.649489015848616, 37.319557752836047 ], [ 127.643164464732976, 37.316385776140002 ], [ 127.642845649835465, 37.313240061364013 ], [ 127.640810961088249, 37.312920579062954 ], [ 127.64111949563744, 37.310263915478089 ], [ 127.643143635695026, 37.309087507230629 ], [ 127.641664958968647, 37.301858095092705 ], [ 127.639156451917344, 37.29995416936908 ], [ 127.626793380667166, 37.303567037679294 ], [ 127.625807944007946, 37.309150915011642 ], [ 127.617957363159661, 37.318973208729666 ] ] ] ] } },
{ "type": "Feature", "properties": { "emd_cd": "41670123", "emd_nm": "오금동" }, "geometry": { "type": "MultiPolygon", "coordinates": [ [ [ [ 127.652824700294246, 37.323763594937027 ], [ 127.651737138579691, 37.321266217074935 ], [ 127.647744771762873, 37.323070881484576 ], [ 127.646619962421511, 37.325304812851208 ], [ 127.639017953327766, 37.3257662809729 ], [ 127.632468170497717, 37.331138596039374 ], [ 127.633706155463628, 37.334005471002115 ], [ 127.638710098079386, 37.337631320041659 ], [ 127.645128825463317, 37.337048673804532 ], [ 127.647359541277041, 37.34110482309179 ], [ 127.65193933814696, 37.343554657690454 ], [ 127.65250447331951, 37.346119122689728 ], [ 127.656885510695659, 37.348083104672291 ], [ 127.661793870255224, 37.346416232192652 ], [ 127.663955652998339, 37.338181259187394 ], [ 127.66006602634242, 37.335923738324588 ], [ 127.656876270600051, 37.324218634221815 ], [ 127.652824700294246, 37.323763594937027 ] ] ] ] } },
{ "type": "Feature", "properties": { "emd_cd": "41670250", "emd_nm": "가남읍" }, "geometry": { "type": "MultiPolygon", "coordinates": [ [ [ [ 127.646825206132633, 37.191440106970205 ], [ 127.650234262733008, 37.181298988538707 ], [ 127.646946112544697, 37.174935362612075 ], [ 127.643139239023768, 37.175223382291094 ], [ 127.642883572298601, 37.172644927016059 ], [ 127.64527901488951, 37.171871906810068 ], [ 127.644270977627997, 37.170611750449929 ], [ 127.641358113625017, 37.16816539257681 ], [ 127.637692681990629, 37.167643874977678 ], [ 127.636546125727307, 37.16935835025982 ], [ 127.628851849201624, 37.169504131338222 ], [ 127.625730111825646, 37.16504310988261 ], [ 127.621303426113116, 37.163896258184401 ], [ 127.619173434213764, 37.161267467967079 ], [ 127.613950639031188, 37.165986909310774 ], [ 127.612819049030136, 37.173358024280425 ], [ 127.605212880915374, 37.178021048836591 ], [ 127.602575342943979, 37.182680704336263 ], [ 127.599270706805925, 37.18313714438159 ], [ 127.598028844049125, 37.188365047218163 ], [ 127.595656705143369, 37.189877691500328 ], [ 127.587628597621091, 37.187095504308957 ], [ 127.58050077764851, 37.187477564831084 ], [ 127.578016158729795, 37.189414469646735 ], [ 127.573847013267141, 37.187143171225784 ], [ 127.572517755980471, 37.184553270478858 ], [ 127.574483202223433, 37.182499793131001 ], [ 127.574758971591407, 37.179250207921605 ], [ 127.577870620737357, 37.176289266723487 ], [ 127.570805029217297, 37.170161960558353 ], [ 127.566658450715693, 37.176164838689864 ], [ 127.559065020029522, 37.180742620689372 ], [ 127.557740335764336, 37.17743567180689 ], [ 127.547182276200672, 37.173254660314598 ], [ 127.546334564533538, 37.17501549441716 ], [ 127.542336106571838, 37.174189087569417 ], [ 127.539223972258839, 37.175484814533974 ], [ 127.536604017753845, 37.173480790489464 ], [ 127.527856906116725, 37.172903465537019 ], [ 127.526313101708425, 37.176145815805043 ], [ 127.523302994143748, 37.177885561059512 ], [ 127.523192596153336, 37.180456699435325 ], [ 127.517163640740534, 37.182442053613912 ], [ 127.520146434109094, 37.188482770568349 ], [ 127.531328715091476, 37.19998733482187 ], [ 127.529907048143258, 37.203559923710458 ], [ 127.531473536383146, 37.208118896076186 ], [ 127.529624641943229, 37.217601249414685 ], [ 127.527468125172916, 37.219455427893003 ], [ 127.528671497054361, 37.222137476682811 ], [ 127.527894811566966, 37.225965780256828 ], [ 127.52603492873402, 37.227610230916724 ], [ 127.528604432825205, 37.231444924777342 ], [ 127.525619217757011, 37.231789265170761 ], [ 127.52555112202154, 37.239903839509132 ], [ 127.543079547074839, 37.249715274790887 ], [ 127.543044337065908, 37.252397628795954 ], [ 127.546097097114156, 37.253028528529498 ], [ 127.547551754197031, 37.256026830765435 ], [ 127.546831273880997, 37.259620772051498 ], [ 127.548974163335416, 37.260391008546037 ], [ 127.548380827349277, 37.263125494326246 ], [ 127.551778878384454, 37.26492264671522 ], [ 127.553390368699155, 37.253879739592435 ], [ 127.556380317963814, 37.25111043048468 ], [ 127.557473211632185, 37.252585328856377 ], [ 127.559907951494651, 37.251761651977255 ], [ 127.560946270281832, 37.25478132141415 ], [ 127.564141752009476, 37.255880523292312 ], [ 127.573251268549868, 37.251660638713865 ], [ 127.574238037716512, 37.248423838903868 ], [ 127.583502159988043, 37.249838312270469 ], [ 127.586313012942284, 37.248789880313801 ], [ 127.590010285573541, 37.251016375779031 ], [ 127.592927376156752, 37.248735991236472 ], [ 127.599218204813994, 37.251205116313642 ], [ 127.597582010037641, 37.246169429773587 ], [ 127.602018822395564, 37.244145414219766 ], [ 127.605230556285164, 37.238650968572777 ], [ 127.607257406567882, 37.239325605204044 ], [ 127.609815561625311, 37.235519454636709 ], [ 127.608508171410804, 37.233528047454193 ], [ 127.616186006932651, 37.233194866421577 ], [ 127.620593851410192, 37.220140106775744 ], [ 127.626212739968196, 37.216459136944245 ], [ 127.630101133510308, 37.216600444755777 ], [ 127.638197421025382, 37.212385463089895 ], [ 127.641862583336618, 37.212398215667548 ], [ 127.641021752286846, 37.209888745678803 ], [ 127.643266872906096, 37.205943326523872 ], [ 127.64162589994605, 37.203192371054662 ], [ 127.638082720987697, 37.2021450947313 ], [ 127.636854710469763, 37.197109297925927 ], [ 127.637680910433659, 37.194901060895887 ], [ 127.641878827329677, 37.194478108453893 ], [ 127.646825206132633, 37.191440106970205 ] ] ] ] } },
{ "type": "Feature", "properties": { "emd_cd": "41670310", "emd_nm": "점동면" }, "geometry": { "type": "MultiPolygon", "coordinates": [ [ [ [ 127.62675370291656, 37.16603597133021 ], [ 127.630324736999768, 37.169810903300906 ], [ 127.636546125727307, 37.16935835025982 ], [ 127.637692681990629, 37.167643874977678 ], [ 127.641358113625017, 37.16816539257681 ], [ 127.64527901488951, 37.171871906810068 ], [ 127.642883572298601, 37.172644927016059 ], [ 127.643139239023768, 37.175223382291094 ], [ 127.646946112544697, 37.174935362612075 ], [ 127.649223304944968, 37.17803700614715 ], [ 127.650234262733008, 37.181298988538707 ], [ 127.648763598729772, 37.182342857611829 ], [ 127.64897889532655, 37.187144414337823 ], [ 127.646825206132633, 37.191440106970205 ], [ 127.641878827329677, 37.194478108453893 ], [ 127.637680910433659, 37.194901060895887 ], [ 127.636854710469763, 37.197109297925927 ], [ 127.638082720987697, 37.2021450947313 ], [ 127.64162589994605, 37.203192371054662 ], [ 127.643266872906096, 37.205943326523872 ], [ 127.641021752286846, 37.209888745678803 ], [ 127.641459303390477, 37.21437984472265 ], [ 127.649096819982077, 37.215900384179115 ], [ 127.647994362475302, 37.222104369445461 ], [ 127.650956672234742, 37.224574580335869 ], [ 127.655431102910583, 37.224157195484693 ], [ 127.665052627479213, 37.229198878872637 ], [ 127.667514453960536, 37.234001302669718 ], [ 127.666410957596881, 37.23736222833913 ], [ 127.670890926316943, 37.243676943438828 ], [ 127.676584597456483, 37.241844183346785 ], [ 127.685978648617962, 37.243945060081771 ], [ 127.689665983406357, 37.23379696548627 ], [ 127.693796601265745, 37.230201014489566 ], [ 127.723906695959229, 37.229303440462402 ], [ 127.747179038707898, 37.227157417315389 ], [ 127.748125415637745, 37.225549161950632 ], [ 127.749206672201183, 37.221938258708036 ], [ 127.747624842824919, 37.214520572931079 ], [ 127.743548647649433, 37.214526157538693 ], [ 127.735277878296131, 37.20803014321298 ], [ 127.735577619056073, 37.205527719632229 ], [ 127.732168340511137, 37.201340966806086 ], [ 127.732554464942766, 37.195818092900275 ], [ 127.728347213403211, 37.191760942758378 ], [ 127.726419857414243, 37.182555863024277 ], [ 127.722716176667319, 37.181568465465119 ], [ 127.717700259811579, 37.183849892811438 ], [ 127.710296501097702, 37.175772516932554 ], [ 127.709562380793173, 37.172221963129388 ], [ 127.704874821188312, 37.167522511256671 ], [ 127.704260354083317, 37.157665872743863 ], [ 127.700628033773654, 37.153695821805542 ], [ 127.695192567474436, 37.151277063043288 ], [ 127.6940547947368, 37.145587716355934 ], [ 127.695404742800932, 37.140429717833847 ], [ 127.688606389653074, 37.135549054800499 ], [ 127.67021679897644, 37.136119802038031 ], [ 127.665985975366226, 37.139426984094044 ], [ 127.661316500897016, 37.139372135876911 ], [ 127.655591815002779, 37.142379729222007 ], [ 127.656346823179106, 37.144890194186686 ], [ 127.652384547554377, 37.148051393693258 ], [ 127.650120797025465, 37.147620465589071 ], [ 127.64803560597008, 37.150626625650951 ], [ 127.62987777410261, 37.154119083028242 ], [ 127.628300139018577, 37.155303686605293 ], [ 127.632996014285112, 37.161976550578842 ], [ 127.630558104926777, 37.165292244043904 ], [ 127.62675370291656, 37.16603597133021 ] ] ] ] } },
{ "type": "Feature", "properties": { "emd_cd": "41670320", "emd_nm": "흥천면" }, "geometry": { "type": "MultiPolygon", "coordinates": [ [ [ [ 127.566848012590427, 37.362172413604007 ], [ 127.565954644278108, 37.354607077928087 ], [ 127.568070475356834, 37.351830683530729 ], [ 127.566793522144863, 37.349921550992022 ], [ 127.57305852532609, 37.345457955707296 ], [ 127.569877888013266, 37.342750964009348 ], [ 127.573036655074475, 37.338266775365511 ], [ 127.571872483556604, 37.332735483723418 ], [ 127.574655533335019, 37.331034042299727 ], [ 127.574271439845873, 37.324248694818586 ], [ 127.57546228042105, 37.322799509492469 ], [ 127.572270862653724, 37.320233404564192 ], [ 127.571936912742657, 37.317603087612468 ], [ 127.569966477255591, 37.317664161392599 ], [ 127.570281011946946, 37.314979435725476 ], [ 127.568202761177588, 37.31301733490232 ], [ 127.570169987457973, 37.312316918444907 ], [ 127.569911077583654, 37.309432577195622 ], [ 127.567158646981326, 37.30741299010927 ], [ 127.565301472946871, 37.302916991413419 ], [ 127.560812989266736, 37.299378401652227 ], [ 127.544698638401684, 37.296697847930822 ], [ 127.542579288273416, 37.294768678277102 ], [ 127.546202468780322, 37.301356079168819 ], [ 127.546016303726077, 37.311052805831302 ], [ 127.542707684820613, 37.31311359728663 ], [ 127.528387358940137, 37.316158909750193 ], [ 127.527093451590261, 37.318682617886139 ], [ 127.528111996407802, 37.320982619366788 ], [ 127.525480096634098, 37.324185980446245 ], [ 127.5304074992913, 37.327627175137302 ], [ 127.526017827543285, 37.329817485095603 ], [ 127.520927261420923, 37.32969504851431 ], [ 127.513923077939637, 37.33912371145739 ], [ 127.50276900853423, 37.338081535628064 ], [ 127.498129259356034, 37.341263391824988 ], [ 127.489615285450725, 37.342696620526588 ], [ 127.485389276339973, 37.350022373922975 ], [ 127.481670108047155, 37.351302928594883 ], [ 127.47823801665011, 37.355886116327866 ], [ 127.472847076025531, 37.358786850423719 ], [ 127.470320991575221, 37.362873815648598 ], [ 127.472622366993392, 37.364504612788373 ], [ 127.477687803914307, 37.364685426656067 ], [ 127.47871733593, 37.369641559359543 ], [ 127.481424556714387, 37.367732410974966 ], [ 127.487985182663465, 37.369052639286608 ], [ 127.494587265518021, 37.366653563425906 ], [ 127.498476428690978, 37.368710466767894 ], [ 127.501104498815195, 37.367158884758787 ], [ 127.507710730588386, 37.367486327290692 ], [ 127.511077202794596, 37.369797441299653 ], [ 127.5151676315472, 37.378847372824687 ], [ 127.52317025183693, 37.379410146901805 ], [ 127.527788723807191, 37.381832307262698 ], [ 127.527989622742425, 37.38386390423986 ], [ 127.530913127073518, 37.38570124146181 ], [ 127.53007695497304, 37.384173243694583 ], [ 127.531466473206919, 37.382367652080525 ], [ 127.534670636981744, 37.383129909458241 ], [ 127.53324931105054, 37.389712292056146 ], [ 127.538613205825641, 37.390786611954695 ], [ 127.544457001582842, 37.384159619839743 ], [ 127.542864836355278, 37.381640335037751 ], [ 127.544679517218114, 37.374424383115191 ], [ 127.547875080824639, 37.373187285963894 ], [ 127.544982930983636, 37.370818535095225 ], [ 127.561184036087369, 37.360247843818044 ], [ 127.566848012590427, 37.362172413604007 ] ] ] ] } },
{ "type": "Feature", "properties": { "emd_cd": "41670330", "emd_nm": "금사면" }, "geometry": { "type": "MultiPolygon", "coordinates": [ [ [ [ 127.537183551204208, 37.391467147485159 ], [ 127.53324931105054, 37.389712292056146 ], [ 127.534670636981744, 37.383129909458241 ], [ 127.531466473206919, 37.382367652080525 ], [ 127.53007695497304, 37.384173243694583 ], [ 127.530913127073518, 37.38570124146181 ], [ 127.527989622742425, 37.38386390423986 ], [ 127.527788723807191, 37.381832307262698 ], [ 127.52317025183693, 37.379410146901805 ], [ 127.5151676315472, 37.378847372824687 ], [ 127.511077202794596, 37.369797441299653 ], [ 127.507710730588386, 37.367486327290692 ], [ 127.501104498815195, 37.367158884758787 ], [ 127.498476428690978, 37.368710466767894 ], [ 127.494587265518021, 37.366653563425906 ], [ 127.487985182663465, 37.369052639286608 ], [ 127.481424556714387, 37.367732410974966 ], [ 127.47871733593, 37.369641559359543 ], [ 127.477687803914307, 37.364685426656067 ], [ 127.472622366993392, 37.364504612788373 ], [ 127.46715367306615, 37.359456163314981 ], [ 127.460108875761463, 37.3582181575931 ], [ 127.449599134703902, 37.35256919917034 ], [ 127.442520115488534, 37.358353378813582 ], [ 127.445784930201697, 37.360959128364613 ], [ 127.447128675346718, 37.364840511085085 ], [ 127.456880700124955, 37.370692752273563 ], [ 127.45815106270868, 37.373001695875061 ], [ 127.457026419969779, 37.375533790729769 ], [ 127.461470103670791, 37.377096965119812 ], [ 127.459651323614395, 37.380753132056128 ], [ 127.460799747107075, 37.383779826235873 ], [ 127.466291424291057, 37.386181238189295 ], [ 127.463786170638386, 37.391833665957776 ], [ 127.466157828715865, 37.393697205431721 ], [ 127.466507253433278, 37.396205992840983 ], [ 127.470901413237527, 37.397841691343693 ], [ 127.464716978856572, 37.408747049544374 ], [ 127.470676711050587, 37.412143909679322 ], [ 127.478701082574545, 37.413862545966509 ], [ 127.486801210366295, 37.423302143705513 ], [ 127.496740134769766, 37.425081689991686 ], [ 127.497724295641021, 37.429281418375098 ], [ 127.499812225068339, 37.430226390110711 ], [ 127.499597635007987, 37.432091626634538 ], [ 127.50684260888471, 37.440429802486605 ], [ 127.520550722415948, 37.435800557009571 ], [ 127.53068832253949, 37.427224155245469 ], [ 127.538350352892024, 37.406889043580733 ], [ 127.539367352666773, 37.394836165428487 ], [ 127.537183551204208, 37.391467147485159 ] ] ] ] } },
{ "type": "Feature", "properties": { "emd_cd": "41670345", "emd_nm": "세종대왕면" }, "geometry": { "type": "MultiPolygon", "coordinates": [ [ [ [ 127.54354781903119, 37.295797184740366 ], [ 127.560812989266736, 37.299378401652227 ], [ 127.565301472946871, 37.302916991413419 ], [ 127.567158646981326, 37.30741299010927 ], [ 127.569911077583654, 37.309432577195622 ], [ 127.570169987457973, 37.312316918444907 ], [ 127.568202761177588, 37.31301733490232 ], [ 127.570281011946946, 37.314979435725476 ], [ 127.569966477255591, 37.317664161392599 ], [ 127.571936912742657, 37.317603087612468 ], [ 127.572270862653724, 37.320233404564192 ], [ 127.57546228042105, 37.322799509492469 ], [ 127.574271439845873, 37.324248694818586 ], [ 127.574655533335019, 37.331034042299727 ], [ 127.571872483556604, 37.332735483723418 ], [ 127.573036655074475, 37.338266775365511 ], [ 127.569877888013266, 37.342750964009348 ], [ 127.57305852532609, 37.345457955707296 ], [ 127.566793522144863, 37.349921550992022 ], [ 127.568070475356834, 37.351830683530729 ], [ 127.565954644278108, 37.354607077928087 ], [ 127.566559344563089, 37.358525824936287 ], [ 127.574001148014261, 37.356265516004953 ], [ 127.580703679631796, 37.351407499041414 ], [ 127.587680125268321, 37.35044505256819 ], [ 127.605262006575117, 37.341693958163141 ], [ 127.608144947310322, 37.334471128778915 ], [ 127.606572522162708, 37.331737592662407 ], [ 127.608008638010531, 37.327500459231743 ], [ 127.617436345345226, 37.320006941534743 ], [ 127.621247876435319, 37.315033444069293 ], [ 127.617340138811642, 37.315831292275924 ], [ 127.616219220200776, 37.305076551620559 ], [ 127.617251745095416, 37.300146324892594 ], [ 127.619547021327364, 37.300063974395279 ], [ 127.623779453962058, 37.295066794423334 ], [ 127.618584430804702, 37.292653832116024 ], [ 127.617163280079239, 37.289091961477055 ], [ 127.60721912752706, 37.28737471022864 ], [ 127.605526190987646, 37.289498671693586 ], [ 127.598852972739465, 37.289388688091826 ], [ 127.598056518053781, 37.286382023874431 ], [ 127.595990227057101, 37.286260158451555 ], [ 127.598978273252527, 37.284168365498452 ], [ 127.599714308675345, 37.280330983014274 ], [ 127.598313216901047, 37.279872597111456 ], [ 127.597695205071304, 37.272830778925616 ], [ 127.600795114721166, 37.269152541199425 ], [ 127.599941691884936, 37.263783255724135 ], [ 127.601451949804272, 37.262290656366325 ], [ 127.597987606195559, 37.250224664241394 ], [ 127.59249753671827, 37.248766906967163 ], [ 127.589350405736212, 37.250998028885355 ], [ 127.586313012942284, 37.248789880313801 ], [ 127.583502159988043, 37.249838312270469 ], [ 127.574238037716512, 37.248423838903868 ], [ 127.573251268549868, 37.251660638713865 ], [ 127.564141752009476, 37.255880523292312 ], [ 127.560946270281832, 37.25478132141415 ], [ 127.559907951494651, 37.251761651977255 ], [ 127.557473211632185, 37.252585328856377 ], [ 127.556380317963814, 37.25111043048468 ], [ 127.553390368699155, 37.253879739592435 ], [ 127.551778878384454, 37.26492264671522 ], [ 127.548380827349277, 37.263125494326246 ], [ 127.548974163335416, 37.260391008546037 ], [ 127.546831273880997, 37.259620772051498 ], [ 127.547551754197031, 37.256026830765435 ], [ 127.546097097114156, 37.253028528529498 ], [ 127.543044337065908, 37.252397628795954 ], [ 127.543079547074839, 37.249715274790887 ], [ 127.537573686390729, 37.246769849270486 ], [ 127.53544323966355, 37.24933268753864 ], [ 127.538041606612069, 37.252931824562985 ], [ 127.535766093252136, 37.253475682912224 ], [ 127.532445479529073, 37.257552245504385 ], [ 127.528862650223829, 37.274258565250804 ], [ 127.534387096698765, 37.286751854463006 ], [ 127.534204416226743, 37.289399840270583 ], [ 127.536854065306159, 37.289636063744723 ], [ 127.54354781903119, 37.295797184740366 ] ] ] ] } },
{ "type": "Feature", "properties": { "emd_cd": "41670350", "emd_nm": "대신면" }, "geometry": { "type": "MultiPolygon", "coordinates": [ [ [ [ 127.537327328256723, 37.411663870008518 ], [ 127.543286632507233, 37.409895545225083 ], [ 127.550575689906339, 37.411433385232122 ], [ 127.551567203620991, 37.414307106402198 ], [ 127.554245309979024, 37.41445603089408 ], [ 127.556298955493233, 37.416729061479671 ], [ 127.562831675745912, 37.415680636513748 ], [ 127.565639706826332, 37.411203263748256 ], [ 127.570655337212685, 37.413581987931906 ], [ 127.571835241773229, 37.411676236299506 ], [ 127.58304733039644, 37.416926924296369 ], [ 127.584491559164292, 37.413909482000108 ], [ 127.588196052260301, 37.416990307400127 ], [ 127.587265396421003, 37.421132110671607 ], [ 127.590418578476786, 37.422317323437603 ], [ 127.593668581531418, 37.420239497135654 ], [ 127.600559627902996, 37.421182453798977 ], [ 127.608910872511856, 37.418454454275079 ], [ 127.609785156634828, 37.416048772067597 ], [ 127.617675842268881, 37.413821477760699 ], [ 127.620471643532909, 37.409239640331258 ], [ 127.626404557670213, 37.413615837635412 ], [ 127.635302806667113, 37.413457523632687 ], [ 127.643266686095942, 37.405824612345342 ], [ 127.646708732681844, 37.404706058593796 ], [ 127.646005425236723, 37.395486599937101 ], [ 127.647864241385989, 37.38948055906279 ], [ 127.651632494226249, 37.388961649822569 ], [ 127.653688456672256, 37.384643644502376 ], [ 127.656633370123274, 37.383274235207168 ], [ 127.656849759909733, 37.378998288597629 ], [ 127.653424630143562, 37.375320576674284 ], [ 127.653439756404183, 37.371237013058561 ], [ 127.650655152535961, 37.36848258965086 ], [ 127.654383531835151, 37.365186577675537 ], [ 127.653329530109744, 37.362658379000429 ], [ 127.655294122517176, 37.358612801693248 ], [ 127.664019141899104, 37.353290459272124 ], [ 127.663728728434791, 37.350259615652014 ], [ 127.66178151726146, 37.349708452056305 ], [ 127.661793870255224, 37.346416232192652 ], [ 127.656885510695659, 37.348083104672291 ], [ 127.654150111294271, 37.347399612967777 ], [ 127.651440455680685, 37.342991737822643 ], [ 127.645875021496096, 37.339544559598558 ], [ 127.645128825463317, 37.337048673804532 ], [ 127.638710098079386, 37.337631320041659 ], [ 127.633706155463628, 37.334005471002115 ], [ 127.628467013554939, 37.323799127380767 ], [ 127.624055726947589, 37.323511955978724 ], [ 127.617957363159661, 37.318973208729666 ], [ 127.608008638010531, 37.327500459231743 ], [ 127.606572522162708, 37.331737592662407 ], [ 127.608144947310322, 37.334471128778915 ], [ 127.604548417857046, 37.34224185251621 ], [ 127.566559344563089, 37.358525824936287 ], [ 127.566848012590427, 37.362172413604007 ], [ 127.561184036087369, 37.360247843818044 ], [ 127.544982930983636, 37.370818535095225 ], [ 127.547875080824639, 37.373187285963894 ], [ 127.544679517218114, 37.374424383115191 ], [ 127.542864836355278, 37.381640335037751 ], [ 127.544457001582842, 37.384159619839743 ], [ 127.538613205825641, 37.390786611954695 ], [ 127.535972959921224, 37.390827856589077 ], [ 127.539367352666773, 37.394836165428487 ], [ 127.537327328256723, 37.411663870008518 ] ] ] ] } },
{ "type": "Feature", "properties": { "emd_cd": "41670360", "emd_nm": "북내면" }, "geometry": { "type": "MultiPolygon", "coordinates": [ [ [ [ 127.698788482553027, 37.309436469036257 ], [ 127.696630468353348, 37.302040529136491 ], [ 127.692509417184652, 37.298100748779369 ], [ 127.678458379225603, 37.294065316223708 ], [ 127.677146743607736, 37.298419866813418 ], [ 127.671683367006764, 37.300986540958178 ], [ 127.671902455812884, 37.302696719982606 ], [ 127.676339114830895, 37.304598753593282 ], [ 127.674824157939568, 37.310103527211474 ], [ 127.671856730200915, 37.310999201452951 ], [ 127.671236219921568, 37.313865146260959 ], [ 127.668726567365766, 37.31356313960648 ], [ 127.668548109846995, 37.316160336770643 ], [ 127.662876577236375, 37.321182282088856 ], [ 127.65652815592189, 37.323108534866144 ], [ 127.66006602634242, 37.335923738324588 ], [ 127.663955652998339, 37.338181259187394 ], [ 127.661560623648697, 37.348320981911776 ], [ 127.663728728434791, 37.350259615652014 ], [ 127.664052717236444, 37.35305131558394 ], [ 127.654643325637664, 37.359352959348513 ], [ 127.653260845778433, 37.363307471662495 ], [ 127.654788028575268, 37.363613470618674 ], [ 127.654383531835151, 37.365186577675537 ], [ 127.650655152535961, 37.36848258965086 ], [ 127.653258229795597, 37.370825290912848 ], [ 127.653424630143562, 37.375320576674284 ], [ 127.657179958515457, 37.380613936770402 ], [ 127.652731875463132, 37.38813978088146 ], [ 127.647864241385989, 37.38948055906279 ], [ 127.64598698187207, 37.401810445779695 ], [ 127.646708732681844, 37.404706058593796 ], [ 127.652348980633192, 37.407932507086535 ], [ 127.654278900538969, 37.413007627927151 ], [ 127.658285500966613, 37.416838207727658 ], [ 127.665632042391181, 37.414364515208796 ], [ 127.667904263150632, 37.41163777619996 ], [ 127.679986429273143, 37.412428619370708 ], [ 127.683072691363591, 37.414380588582297 ], [ 127.687982450532289, 37.411851128703823 ], [ 127.686533725535867, 37.405997075431046 ], [ 127.684859585415083, 37.406101637716432 ], [ 127.683982157414619, 37.398223431899353 ], [ 127.69496920914267, 37.403045470185177 ], [ 127.698866812813733, 37.407564206149402 ], [ 127.70889546560754, 37.409813872940695 ], [ 127.710703799471091, 37.406123620465102 ], [ 127.71416600474862, 37.404881675927903 ], [ 127.714808964354887, 37.399420487309911 ], [ 127.704258298397178, 37.392120029716338 ], [ 127.703109054638972, 37.380735764491178 ], [ 127.700147045599763, 37.379249350574106 ], [ 127.701270779077888, 37.374106439302615 ], [ 127.70732899346298, 37.369880906209183 ], [ 127.710170822046905, 37.372238563338293 ], [ 127.716350795851199, 37.37008994335207 ], [ 127.719804493183489, 37.371324671311982 ], [ 127.723286964784023, 37.359797144059563 ], [ 127.725360849244353, 37.356714002295462 ], [ 127.728627360943094, 37.35525393389721 ], [ 127.732377090963766, 37.345269487663487 ], [ 127.739231851033239, 37.341551047413986 ], [ 127.739813483342019, 37.334625943719765 ], [ 127.736254392510361, 37.329423387601125 ], [ 127.736841257302387, 37.326090256066571 ], [ 127.735062350520039, 37.322187515825888 ], [ 127.737332916896534, 37.319133575331442 ], [ 127.735832991594734, 37.316065394567353 ], [ 127.731380412761851, 37.317147362500492 ], [ 127.724676790737561, 37.314693744800252 ], [ 127.712377232515905, 37.315666311915656 ], [ 127.709303911154151, 37.317403497820393 ], [ 127.705407921460591, 37.312954307252312 ], [ 127.701318736199681, 37.312286015986849 ], [ 127.698788482553027, 37.309436469036257 ] ] ] ] } },
{ "type": "Feature", "properties": { "emd_cd": "41670370", "emd_nm": "강천면" }, "geometry": { "type": "MultiPolygon", "coordinates": [ [ [ [ 127.735832991594734, 37.316065394567353 ], [ 127.737465105016724, 37.318075187419595 ], [ 127.735413190740886, 37.320801682602905 ], [ 127.735410761642044, 37.324728553827711 ], [ 127.736841257302387, 37.326090256066571 ], [ 127.736254392510361, 37.329423387601125 ], [ 127.739471314692267, 37.333260281479788 ], [ 127.739491217713564, 37.340764133300894 ], [ 127.736498478537641, 37.344125494661881 ], [ 127.732377090963766, 37.345269487663487 ], [ 127.728627360943094, 37.35525393389721 ], [ 127.725360849244353, 37.356714002295462 ], [ 127.723286964784023, 37.359797144059563 ], [ 127.719704853902769, 37.37044714380383 ], [ 127.720451304097509, 37.371733029967807 ], [ 127.725810675541311, 37.372315398924222 ], [ 127.729850965657434, 37.376206437207109 ], [ 127.745764459810644, 37.368895749935888 ], [ 127.752275217068131, 37.369465840023615 ], [ 127.7589527931368, 37.367368404309417 ], [ 127.761065702753356, 37.364980552710747 ], [ 127.759376200957263, 37.359711462905551 ], [ 127.760862759465923, 37.352678760750145 ], [ 127.758373435436297, 37.350797728622936 ], [ 127.757857607245199, 37.3463476306814 ], [ 127.762906583474233, 37.334313190808913 ], [ 127.75838664664272, 37.33080257135228 ], [ 127.760414931821614, 37.329285398409155 ], [ 127.762749242338259, 37.323462799673543 ], [ 127.762100209053258, 37.321254402339378 ], [ 127.765398039153936, 37.317417491984095 ], [ 127.765535328695563, 37.3130211385769 ], [ 127.768282953808423, 37.309341488643859 ], [ 127.768193358694376, 37.301521236451727 ], [ 127.761919215160376, 37.30211878873466 ], [ 127.754616421655342, 37.297598404851598 ], [ 127.7507079525069, 37.297883277006711 ], [ 127.749586763159684, 37.295197422305357 ], [ 127.75011912906055, 37.291836911129543 ], [ 127.755560751043404, 37.284986721261888 ], [ 127.753980656624151, 37.284217122220348 ], [ 127.757682888520762, 37.27878166818742 ], [ 127.75657274677495, 37.277176807751999 ], [ 127.759094178902359, 37.277041296497828 ], [ 127.760393139300191, 37.273298055789752 ], [ 127.75981953042367, 37.265296797444634 ], [ 127.757614886704985, 37.25824730521839 ], [ 127.748294296785517, 37.247172546672516 ], [ 127.74688239548, 37.242825563401418 ], [ 127.747905360139427, 37.243570929306237 ], [ 127.747179038707898, 37.227157417315389 ], [ 127.693796601265745, 37.230201014489566 ], [ 127.689665983406357, 37.23379696548627 ], [ 127.681861605092209, 37.251675645898608 ], [ 127.680685146545102, 37.258391859056665 ], [ 127.684086217766691, 37.265580447250677 ], [ 127.685645589622624, 37.274392637096483 ], [ 127.680198156654853, 37.28562833840742 ], [ 127.680256777172858, 37.289229690966835 ], [ 127.676488955328196, 37.292039343926454 ], [ 127.680706360082283, 37.295375738599645 ], [ 127.692509417184652, 37.298100748779369 ], [ 127.696630468353348, 37.302040529136491 ], [ 127.699369650439124, 37.310406458847304 ], [ 127.705407921460591, 37.312954307252312 ], [ 127.709303911154151, 37.317403497820393 ], [ 127.712377232515905, 37.315666311915656 ], [ 127.724676790737561, 37.314693744800252 ], [ 127.731380412761851, 37.317147362500492 ], [ 127.735832991594734, 37.316065394567353 ] ] ] ] } },
{ "type": "Feature", "properties": { "emd_cd": "41670380", "emd_nm": "산북면" }, "geometry": { "type": "MultiPolygon", "coordinates": [ [ [ [ 127.460894019461676, 37.427513385137615 ], [ 127.467911355374056, 37.426443619956032 ], [ 127.469117695211622, 37.423950141618064 ], [ 127.473937699247273, 37.422394742259421 ], [ 127.479820910696574, 37.424025858353474 ], [ 127.482705314186077, 37.429982469701798 ], [ 127.487045617782087, 37.433222273478037 ], [ 127.496905198057732, 37.43229801606735 ], [ 127.499687053275196, 37.435890325546644 ], [ 127.503610562098416, 37.437068666918471 ], [ 127.496624207089056, 37.427555117857445 ], [ 127.496740134769766, 37.425081689991686 ], [ 127.486801210366295, 37.423302143705513 ], [ 127.478701082574545, 37.413862545966509 ], [ 127.470676711050587, 37.412143909679322 ], [ 127.464716978856572, 37.408747049544374 ], [ 127.470901413237527, 37.397841691343693 ], [ 127.466507253433278, 37.396205992840983 ], [ 127.466157828715865, 37.393697205431721 ], [ 127.463786170638386, 37.391833665957776 ], [ 127.466291424291057, 37.386181238189295 ], [ 127.460799747107075, 37.383779826235873 ], [ 127.459651323614395, 37.380753132056128 ], [ 127.461470103670791, 37.377096965119812 ], [ 127.457026419969779, 37.375533790729769 ], [ 127.45815106270868, 37.373001695875061 ], [ 127.456880700124955, 37.370692752273563 ], [ 127.44413855480299, 37.362997814215106 ], [ 127.443512875071661, 37.376024450378701 ], [ 127.446656782228388, 37.380412257174271 ], [ 127.443863447757465, 37.386611268371951 ], [ 127.42961236127654, 37.387919460310158 ], [ 127.424420058315732, 37.385872658370232 ], [ 127.420243852828463, 37.386892613150664 ], [ 127.414752157110897, 37.393751024518878 ], [ 127.411316044076784, 37.406693042688261 ], [ 127.403995515947074, 37.410398648228991 ], [ 127.398180356380593, 37.415828564864867 ], [ 127.400804610792463, 37.418612750217349 ], [ 127.400328061614132, 37.421496413615465 ], [ 127.402638542173349, 37.425213107587382 ], [ 127.407238346350383, 37.430149842555679 ], [ 127.414982264074936, 37.432080413754434 ], [ 127.422797551399057, 37.439456923958318 ], [ 127.42879270262317, 37.436484849538559 ], [ 127.44246145664259, 37.434278383388694 ], [ 127.460894019461676, 37.427513385137615 ] ] ] ] } }
]
}
