{
"type": "FeatureCollection",
"name": "41830",
"crs": { "type": "name", "properties": { "name": "urn:ogc:def:crs:OGC:1.3:CRS84" } },
"features": [
{ "type": "Feature", "properties": { "emd_cd": "41830250", "emd_nm": "양평읍" }, "geometry": { "type": "MultiPolygon", "coordinates": [ [ [ [ 127.456100248890905, 37.503398381699462 ], [ 127.458277123982086, 37.509894793109694 ], [ 127.463524499976714, 37.512366505643001 ], [ 127.470976903319638, 37.511520132873471 ], [ 127.478004640649715, 37.515805900454737 ], [ 127.482541140956002, 37.515891100140074 ], [ 127.482424910865234, 37.519394109765742 ], [ 127.484147457581074, 37.521305268113572 ], [ 127.489822205072031, 37.521649258509264 ], [ 127.494184081177863, 37.518667969819752 ], [ 127.499657946415311, 37.520966908972461 ], [ 127.501697303670227, 37.524543919217876 ], [ 127.508749294643806, 37.529973375324303 ], [ 127.527710462192744, 37.53339142773266 ], [ 127.528981966735415, 37.530124292548315 ], [ 127.527192332084411, 37.525681659397819 ], [ 127.528552167365319, 37.517960630792722 ], [ 127.533227509436074, 37.51677139548427 ], [ 127.535977824331297, 37.512371512453207 ], [ 127.536603414168653, 37.506857467975927 ], [ 127.549015250555584, 37.505278277579727 ], [ 127.555827231995394, 37.4989481924922 ], [ 127.552791360738638, 37.495306123848898 ], [ 127.554524261989542, 37.490375534660103 ], [ 127.553277201876284, 37.481545679479538 ], [ 127.560098049642775, 37.479042763232137 ], [ 127.560714383405667, 37.477410081434236 ], [ 127.558149015227343, 37.472710828117478 ], [ 127.55971695518403, 37.466810752820997 ], [ 127.56197536458734, 37.465292387152857 ], [ 127.552204973134565, 37.462189213059538 ], [ 127.544429182732443, 37.466624274889078 ], [ 127.534356139889709, 37.469795363433576 ], [ 127.51292746842276, 37.459259610841336 ], [ 127.506686093938555, 37.451763070527832 ], [ 127.501120497400805, 37.448912185594864 ], [ 127.498251936646469, 37.454519731321533 ], [ 127.494036375906973, 37.479952249438824 ], [ 127.492293244830179, 37.483452706449647 ], [ 127.4862174402531, 37.489102845578763 ], [ 127.473268998685072, 37.496663762841756 ], [ 127.456100248890905, 37.503398381699462 ] ] ] ] } },
{ "type": "Feature", "properties": { "emd_cd": "41830310", "emd_nm": "강상면" }, "geometry": { "type": "MultiPolygon", "coordinates": [ [ [ [ 127.449514853785985, 37.50577289984254 ], [ 127.473268998685072, 37.496663762841756 ], [ 127.4862174402531, 37.489102845578763 ], [ 127.492611983084856, 37.483066243719797 ], [ 127.498251936646469, 37.454519731321533 ], [ 127.502080670697822, 37.445630184422292 ], [ 127.50684829094115, 37.440422822484393 ], [ 127.503608387102716, 37.436743081981668 ], [ 127.499678420998762, 37.435890361925949 ], [ 127.496924250123584, 37.432298422764568 ], [ 127.487045035851338, 37.43322314082878 ], [ 127.482711274303952, 37.429981634539935 ], [ 127.47980308577894, 37.42401733490761 ], [ 127.473221792479706, 37.422290462641023 ], [ 127.465496519322869, 37.42721111754274 ], [ 127.455491361092925, 37.42844016870194 ], [ 127.448303003897195, 37.432483826886909 ], [ 127.435496759819941, 37.434385239014873 ], [ 127.426959141087693, 37.437622283526011 ], [ 127.431482391828652, 37.440286802220648 ], [ 127.43686390020035, 37.451827731321863 ], [ 127.44609592966259, 37.458746245371337 ], [ 127.445187659468971, 37.459984782717235 ], [ 127.447682334093898, 37.466500017358939 ], [ 127.442346461562835, 37.471739975255012 ], [ 127.444327280562774, 37.477384371207307 ], [ 127.443078788040481, 37.480474987524723 ], [ 127.439368916655539, 37.482870725975893 ], [ 127.438764211817727, 37.486147034679902 ], [ 127.444256879973139, 37.491375525600041 ], [ 127.443038438204567, 37.495072822707009 ], [ 127.445624880996689, 37.49723841237028 ], [ 127.445829533388235, 37.502562486414888 ], [ 127.449514853785985, 37.50577289984254 ] ] ] ] } },
{ "type": "Feature", "properties": { "emd_cd": "41830320", "emd_nm": "강하면" }, "geometry": { "type": "MultiPolygon", "coordinates": [ [ [ [ 127.367548750033606, 37.456576134438876 ], [ 127.383022988226585, 37.458516253320298 ], [ 127.385363835968235, 37.459988646978296 ], [ 127.388779888373747, 37.47582901041649 ], [ 127.383774384483715, 37.483478264917103 ], [ 127.383356401392263, 37.487215163310296 ], [ 127.381804379629472, 37.487263119320083 ], [ 127.380375004368886, 37.490016324019344 ], [ 127.382142361990873, 37.494970836249777 ], [ 127.386670961746361, 37.497256199456537 ], [ 127.384538745450939, 37.500135292435814 ], [ 127.40063970594808, 37.497881038238951 ], [ 127.410438695953218, 37.500512997946693 ], [ 127.416314481466131, 37.504775578490559 ], [ 127.432217291455729, 37.507897393219316 ], [ 127.449514853785985, 37.50577289984254 ], [ 127.445829533388235, 37.502562486414888 ], [ 127.445624880996689, 37.49723841237028 ], [ 127.443038438204567, 37.495072822707009 ], [ 127.444256879973139, 37.491375525600041 ], [ 127.438764211817727, 37.486147034679902 ], [ 127.439368916655539, 37.482870725975893 ], [ 127.443078788040481, 37.480474987524723 ], [ 127.444327280562774, 37.477384371207307 ], [ 127.442346461562835, 37.471739975255012 ], [ 127.447682334093898, 37.466500017358939 ], [ 127.445187659468971, 37.459984782717235 ], [ 127.445878572863549, 37.458339847710732 ], [ 127.43686390020035, 37.451827731321863 ], [ 127.431482391828652, 37.440286802220648 ], [ 127.426959141087693, 37.437622283526011 ], [ 127.422812294440902, 37.43944025694082 ], [ 127.414963323178313, 37.432102194176473 ], [ 127.407199116200331, 37.430180782504294 ], [ 127.401232622664665, 37.421794024160128 ], [ 127.399003007763469, 37.421811227289894 ], [ 127.395611472423369, 37.426118771146072 ], [ 127.388988775432694, 37.429127303870189 ], [ 127.388999023616307, 37.430600556305343 ], [ 127.384286165673586, 37.434233603136235 ], [ 127.382259919111874, 37.443190593808417 ], [ 127.372098903125618, 37.444943811089878 ], [ 127.372240434080084, 37.451849555227575 ], [ 127.367548750033606, 37.456576134438876 ] ] ] ] } },
{ "type": "Feature", "properties": { "emd_cd": "41830330", "emd_nm": "양서면" }, "geometry": { "type": "MultiPolygon", "coordinates": [ [ [ [ 127.30622275826029, 37.520556995990738 ], [ 127.306697221749431, 37.529812577149748 ], [ 127.310431373883787, 37.5404135136205 ], [ 127.324596769640593, 37.559383201983351 ], [ 127.337223657978456, 37.583963449562674 ], [ 127.34201801973191, 37.580109615133296 ], [ 127.34933276581171, 37.580750359296808 ], [ 127.355433903460707, 37.579208295802296 ], [ 127.354771427733738, 37.57769489074645 ], [ 127.357241148792781, 37.57417397574762 ], [ 127.362711068998621, 37.570068688177315 ], [ 127.367141933221347, 37.56917233815679 ], [ 127.373064858315956, 37.573038949158374 ], [ 127.378011489812806, 37.570782560875138 ], [ 127.3882011967316, 37.571326859333759 ], [ 127.398272399801755, 37.568672936302889 ], [ 127.403570821691787, 37.566079606969474 ], [ 127.403581712023808, 37.55344604548047 ], [ 127.408665724280496, 37.553163014705426 ], [ 127.414166310164262, 37.558023038387056 ], [ 127.423615830582321, 37.560188990905111 ], [ 127.432819400865142, 37.556751689644088 ], [ 127.435035822586883, 37.557509057376997 ], [ 127.435182312209392, 37.554280061039563 ], [ 127.439349629398492, 37.553236750021973 ], [ 127.443466439790441, 37.54981348661898 ], [ 127.443861393115583, 37.542027030324448 ], [ 127.438184971604912, 37.540361321773958 ], [ 127.433377019183894, 37.53429873068761 ], [ 127.432217961531379, 37.526273082683034 ], [ 127.433897513521089, 37.523037470304949 ], [ 127.429436194141587, 37.516524374592628 ], [ 127.430818272227285, 37.514416980783956 ], [ 127.429326040117701, 37.512399761663644 ], [ 127.427273727742687, 37.512701665351315 ], [ 127.424723159713068, 37.506235994219054 ], [ 127.416314481466131, 37.504775578490559 ], [ 127.410438695953218, 37.500512997946693 ], [ 127.40219853853938, 37.49812940030818 ], [ 127.384265663843394, 37.500315529267716 ], [ 127.379191299992684, 37.506579446390639 ], [ 127.36936117186724, 37.524776897156919 ], [ 127.363287960745026, 37.531153508252757 ], [ 127.353172671590983, 37.535370821631844 ], [ 127.325484888628196, 37.535486031328517 ], [ 127.316686862678281, 37.529373210915544 ], [ 127.30896743374133, 37.527130538531843 ], [ 127.309331210888558, 37.520708916433613 ], [ 127.30768008391793, 37.519546008147152 ], [ 127.30622275826029, 37.520556995990738 ] ] ] ] } },
{ "type": "Feature", "properties": { "emd_cd": "41830340", "emd_nm": "옥천면" }, "geometry": { "type": "MultiPolygon", "coordinates": [ [ [ [ 127.424723159713068, 37.506235994219054 ], [ 127.427273727742687, 37.512701665351315 ], [ 127.429326040117701, 37.512399761663644 ], [ 127.430818272227285, 37.514416980783956 ], [ 127.429436194141587, 37.516524374592628 ], [ 127.433897513521089, 37.523037470304949 ], [ 127.432217961531379, 37.526273082683034 ], [ 127.433377019183894, 37.53429873068761 ], [ 127.438184971604912, 37.540361321773958 ], [ 127.443861393115583, 37.542027030324448 ], [ 127.443466439790441, 37.54981348661898 ], [ 127.439349629398492, 37.553236750021973 ], [ 127.435182312209392, 37.554280061039563 ], [ 127.435035822586883, 37.557509057376997 ], [ 127.444285814346301, 37.565874250199073 ], [ 127.444795677724287, 37.568663046266231 ], [ 127.442497827173227, 37.574711881555807 ], [ 127.44591551382247, 37.5767442460373 ], [ 127.450093357488129, 37.586330450919959 ], [ 127.44724268804336, 37.588716813756307 ], [ 127.446775071379548, 37.59123353249997 ], [ 127.455240057183161, 37.592683595329277 ], [ 127.45608821557434, 37.600051709258366 ], [ 127.471162288365605, 37.595295236958428 ], [ 127.469369227824188, 37.587070202035726 ], [ 127.47041459818432, 37.580000294640556 ], [ 127.472823877598373, 37.577574977898344 ], [ 127.488302084434295, 37.574795070066159 ], [ 127.497087274113937, 37.571146665812762 ], [ 127.507823263837338, 37.576812144263918 ], [ 127.51113979328413, 37.576593297896267 ], [ 127.521843659770695, 37.586360477109004 ], [ 127.535959856441707, 37.585818325606766 ], [ 127.538127914982837, 37.58433508846273 ], [ 127.553352754693847, 37.58666045524302 ], [ 127.554908065826567, 37.58457391336318 ], [ 127.564675009982764, 37.581494113015573 ], [ 127.565170769485761, 37.576104066605829 ], [ 127.563667228706336, 37.572364805259092 ], [ 127.559356159544052, 37.569423752035924 ], [ 127.558150946599497, 37.566267550232816 ], [ 127.554993573579026, 37.565971024921978 ], [ 127.544833535490682, 37.560273225242611 ], [ 127.539918944489102, 37.553663571373171 ], [ 127.535735277298457, 37.550871639804861 ], [ 127.527898464910365, 37.539547189642192 ], [ 127.527710462192744, 37.53339142773266 ], [ 127.508749294643806, 37.529973375324303 ], [ 127.501697303670227, 37.524543919217876 ], [ 127.499657946415311, 37.520966908972461 ], [ 127.494184081177863, 37.518667969819752 ], [ 127.489822205072031, 37.521649258509264 ], [ 127.484147457581074, 37.521305268113572 ], [ 127.482424910865234, 37.519394109765742 ], [ 127.482541140956002, 37.515891100140074 ], [ 127.478004640649715, 37.515805900454737 ], [ 127.470976903319638, 37.511520132873471 ], [ 127.463524499976714, 37.512366505643001 ], [ 127.458277123982086, 37.509894793109694 ], [ 127.456100248890905, 37.503398381699462 ], [ 127.446075628234141, 37.507103303257423 ], [ 127.438680591357127, 37.507974625293222 ], [ 127.424723159713068, 37.506235994219054 ] ] ] ] } },
{ "type": "Feature", "properties": { "emd_cd": "41830350", "emd_nm": "서종면" }, "geometry": { "type": "MultiPolygon", "coordinates": [ [ [ [ 127.471162288365605, 37.595295236958428 ], [ 127.455761767144892, 37.599864968366219 ], [ 127.455240057183161, 37.592683595329277 ], [ 127.446775071379548, 37.59123353249997 ], [ 127.44724268804336, 37.588716813756307 ], [ 127.450093357488129, 37.586330450919959 ], [ 127.44591551382247, 37.5767442460373 ], [ 127.442497827173227, 37.574711881555807 ], [ 127.444795677724287, 37.568663046266231 ], [ 127.444285814346301, 37.565874250199073 ], [ 127.435526738273566, 37.557592568061878 ], [ 127.432819400865142, 37.556751689644088 ], [ 127.427099891110473, 37.559627443250406 ], [ 127.41920555937871, 37.559962310194308 ], [ 127.414166310164262, 37.558023038387056 ], [ 127.408665724280496, 37.553163014705426 ], [ 127.403183214691524, 37.553575350551533 ], [ 127.403570821691787, 37.566079606969474 ], [ 127.398272399801755, 37.568672936302889 ], [ 127.3882011967316, 37.571326859333759 ], [ 127.378011489812806, 37.570782560875138 ], [ 127.373064858315956, 37.573038949158374 ], [ 127.367141933221347, 37.56917233815679 ], [ 127.362711068998621, 37.570068688177315 ], [ 127.357241148792781, 37.57417397574762 ], [ 127.354771427733738, 37.57769489074645 ], [ 127.355433903460707, 37.579208295802296 ], [ 127.34933276581171, 37.580750359296808 ], [ 127.34201801973191, 37.580109615133296 ], [ 127.337223657978456, 37.583963449562674 ], [ 127.341810474859713, 37.593083192789081 ], [ 127.345394437238838, 37.613099790198447 ], [ 127.350223752928244, 37.624540271885387 ], [ 127.358159093483792, 37.634263360950825 ], [ 127.367318919574814, 37.640542374034489 ], [ 127.371528247318537, 37.64766051311873 ], [ 127.379874132061516, 37.651696710132583 ], [ 127.399011152423498, 37.650982184999762 ], [ 127.401155683211897, 37.655624484096791 ], [ 127.415910782586877, 37.663261945446614 ], [ 127.422361305955761, 37.663945945138735 ], [ 127.425098616521865, 37.665576214441529 ], [ 127.428146024856915, 37.670792739651944 ], [ 127.441465305108352, 37.659650193193059 ], [ 127.434930787436627, 37.653717027423731 ], [ 127.437589993617237, 37.651669083666057 ], [ 127.438088376974036, 37.648055111117181 ], [ 127.441109455438578, 37.64663237151462 ], [ 127.440517117796929, 37.644073669706088 ], [ 127.448808095424837, 37.64118609397206 ], [ 127.455095758428655, 37.640950848325133 ], [ 127.45590592600081, 37.639687111777256 ], [ 127.454279876213363, 37.638133269594029 ], [ 127.458806651320728, 37.628874291656551 ], [ 127.462421003387377, 37.625052425074344 ], [ 127.468533278890988, 37.624795230656574 ], [ 127.470999551143933, 37.621944562058978 ], [ 127.472885528070847, 37.615488123929367 ], [ 127.471220812768223, 37.611309090115455 ], [ 127.473159613238764, 37.607345937032434 ], [ 127.471162288365605, 37.595295236958428 ] ] ] ] } },
{ "type": "Feature", "properties": { "emd_cd": "41830360", "emd_nm": "단월면" }, "geometry": { "type": "MultiPolygon", "coordinates": [ [ [ [ 127.559421438698564, 37.628470894022755 ], [ 127.564699502542808, 37.633121662645571 ], [ 127.571383605001827, 37.632032735829625 ], [ 127.582129684963235, 37.634071598799856 ], [ 127.58490047361056, 37.64220615724205 ], [ 127.596045419541554, 37.645415095681685 ], [ 127.60018547942785, 37.647766506018996 ], [ 127.602154253252806, 37.651551356180349 ], [ 127.604993234099965, 37.651214521482622 ], [ 127.609182926298587, 37.649811659280907 ], [ 127.612801911304445, 37.645610107082973 ], [ 127.615509533847813, 37.647036858324547 ], [ 127.617949530177128, 37.6460303364195 ], [ 127.619018608144884, 37.643237273571032 ], [ 127.621807430670458, 37.642826715962968 ], [ 127.621573867201022, 37.639568518470917 ], [ 127.626397263183748, 37.643104120196767 ], [ 127.630896855688064, 37.639347899471431 ], [ 127.634390410046777, 37.639734447176266 ], [ 127.633570972813231, 37.635447063280026 ], [ 127.637712800498221, 37.635740843575498 ], [ 127.639441417163184, 37.632643978975864 ], [ 127.646979655055077, 37.632743812668302 ], [ 127.647363539509755, 37.628994251082126 ], [ 127.651545663252108, 37.622935093671465 ], [ 127.656452484815887, 37.622363427908674 ], [ 127.663450276265479, 37.62405246775706 ], [ 127.667542273567491, 37.617259837168575 ], [ 127.683240886883709, 37.608119474574842 ], [ 127.691859842567226, 37.600950435448482 ], [ 127.696136688717772, 37.600837705372747 ], [ 127.70076776669049, 37.596327879901892 ], [ 127.693077708976759, 37.588769956914327 ], [ 127.693432225784449, 37.584099870668901 ], [ 127.690752334664552, 37.580791674146752 ], [ 127.691498074268466, 37.578985846724464 ], [ 127.688380173298043, 37.575932567516418 ], [ 127.688792576286076, 37.571819542184414 ], [ 127.691526760193867, 37.568768131303379 ], [ 127.69207539968815, 37.563850645037142 ], [ 127.694382085233514, 37.560433888235366 ], [ 127.692605061497105, 37.558625689402575 ], [ 127.692655036347645, 37.554345053256093 ], [ 127.690637892287668, 37.554658101587144 ], [ 127.688546836484406, 37.552761312631425 ], [ 127.689639562416815, 37.54948010662995 ], [ 127.686191632694388, 37.545645337112788 ], [ 127.685723227261576, 37.541394906948995 ], [ 127.680141538007177, 37.543723441366737 ], [ 127.678754792817358, 37.542163244883383 ], [ 127.682426759723214, 37.536062683081326 ], [ 127.678715088588305, 37.533899470970773 ], [ 127.67819745181157, 37.527957597284534 ], [ 127.684248865133085, 37.527424340672276 ], [ 127.681953211894538, 37.520915863911782 ], [ 127.692391099041842, 37.515811689316948 ], [ 127.689007344887685, 37.510804189644034 ], [ 127.690713903823607, 37.510283262986967 ], [ 127.688880977492303, 37.50743343764519 ], [ 127.684441585042748, 37.505195200795001 ], [ 127.684120040654875, 37.498133549922542 ], [ 127.685502530842925, 37.495597468572839 ], [ 127.682413928119814, 37.493516929400236 ], [ 127.682700732218478, 37.49145706056521 ], [ 127.680616525646982, 37.489520186023469 ], [ 127.670216289868762, 37.497148088239399 ], [ 127.652222006102477, 37.500196076793053 ], [ 127.645471891353324, 37.503424898560517 ], [ 127.644531412524785, 37.505357432262741 ], [ 127.645850150159731, 37.506129200626752 ], [ 127.651414141076401, 37.506009505529114 ], [ 127.649568612989015, 37.511281175244008 ], [ 127.643083638291245, 37.510799474418683 ], [ 127.637450592659718, 37.515470832190715 ], [ 127.634768361985337, 37.51501544328422 ], [ 127.633946260922272, 37.520725513580231 ], [ 127.630492239219052, 37.523107727112617 ], [ 127.637738718588793, 37.52644329483126 ], [ 127.639777093306179, 37.529320541651273 ], [ 127.638701242591537, 37.530164199065467 ], [ 127.645521535319233, 37.53209499846016 ], [ 127.648513116756348, 37.539180241011671 ], [ 127.646120787902674, 37.54247613537698 ], [ 127.641038779011183, 37.543820536548786 ], [ 127.640699382644229, 37.54849698644415 ], [ 127.635766596558341, 37.552936127274961 ], [ 127.63488547764301, 37.561952263603892 ], [ 127.632085990297455, 37.564380059177232 ], [ 127.62931110460373, 37.571098637416462 ], [ 127.622637638802445, 37.572133206267395 ], [ 127.620673951116501, 37.57452084923176 ], [ 127.614076327073619, 37.574371657414503 ], [ 127.612592926811516, 37.577966455637977 ], [ 127.608764175149844, 37.580788690838922 ], [ 127.602123197829357, 37.58124637528563 ], [ 127.593572128991852, 37.574708412640149 ], [ 127.586521479197771, 37.576917163827723 ], [ 127.580551708978817, 37.57472135771696 ], [ 127.565170769485761, 37.576104066605829 ], [ 127.564675009982764, 37.581494113015573 ], [ 127.559917730156769, 37.583485036351007 ], [ 127.56155729715195, 37.587690622968026 ], [ 127.559364354846352, 37.594609971579821 ], [ 127.562909676265875, 37.599437684523032 ], [ 127.562688276230944, 37.604630345596163 ], [ 127.56685159315586, 37.608110074287957 ], [ 127.569598215595931, 37.608450678835418 ], [ 127.570542099553634, 37.613387828203543 ], [ 127.565220534900277, 37.619745039892884 ], [ 127.559691738485569, 37.622885106181613 ], [ 127.559421438698564, 37.628470894022755 ] ] ] ] } },
{ "type": "Feature", "properties": { "emd_cd": "41830370", "emd_nm": "청운면" }, "geometry": { "type": "MultiPolygon", "coordinates": [ [ [ [ 127.697309544886124, 37.591861184309742 ], [ 127.700541782789216, 37.58962677849329 ], [ 127.706410766013434, 37.588622759472678 ], [ 127.707698109921708, 37.586380998060044 ], [ 127.713604340643172, 37.589168418540972 ], [ 127.715805136987456, 37.588115360109413 ], [ 127.723196345698753, 37.590808449324967 ], [ 127.738777471075153, 37.58716573883067 ], [ 127.744740256987114, 37.587934412665014 ], [ 127.754108434689613, 37.592105797431266 ], [ 127.758026663775837, 37.58678960803158 ], [ 127.761331438307721, 37.587645624354003 ], [ 127.764619282610894, 37.585894318825488 ], [ 127.766477098536157, 37.582724356780354 ], [ 127.784435909301877, 37.578205642458926 ], [ 127.787827396068238, 37.578943407096396 ], [ 127.794155773756245, 37.585214896253994 ], [ 127.804198294258256, 37.5792334793897 ], [ 127.805694716614468, 37.57409588948326 ], [ 127.809679321725852, 37.573469321452038 ], [ 127.814125166405191, 37.564139772721738 ], [ 127.83953852028732, 37.559205506751766 ], [ 127.840394754731605, 37.55679559763621 ], [ 127.847932568829563, 37.552382338167234 ], [ 127.848107348200543, 37.550292070429585 ], [ 127.845142762958801, 37.54769028814939 ], [ 127.84595747646587, 37.544078157081906 ], [ 127.841991871082172, 37.538904425761181 ], [ 127.833693009099733, 37.539237543990168 ], [ 127.828316917703049, 37.536677642824699 ], [ 127.822580429090735, 37.538483466620079 ], [ 127.816597624501554, 37.537078369944624 ], [ 127.809572607849546, 37.537861551160333 ], [ 127.806210233660664, 37.534920462789486 ], [ 127.806453420199247, 37.53117246107513 ], [ 127.796329494619798, 37.528575117109504 ], [ 127.795046948221199, 37.524874330334754 ], [ 127.796407474110154, 37.523074723470998 ], [ 127.788835959286885, 37.51859261355802 ], [ 127.785519671489681, 37.513340034749959 ], [ 127.783690211475687, 37.512152965637398 ], [ 127.781056886761206, 37.513054879180075 ], [ 127.771742034020775, 37.505200296971275 ], [ 127.764617791015255, 37.50269979519711 ], [ 127.758745970795047, 37.504133483063484 ], [ 127.751086702531765, 37.503149865003387 ], [ 127.743205554543394, 37.506521553775272 ], [ 127.739991984276145, 37.50431006247851 ], [ 127.728375161807577, 37.50387409554984 ], [ 127.719507424358738, 37.513305960286594 ], [ 127.717638963537766, 37.512424207896089 ], [ 127.710309329639173, 37.514422847633107 ], [ 127.708275407290017, 37.51745868314427 ], [ 127.698016999271218, 37.513243897091961 ], [ 127.682987541917356, 37.519749160194522 ], [ 127.68175529239268, 37.52121653445726 ], [ 127.684248865133085, 37.527424340672276 ], [ 127.67819745181157, 37.527957597284534 ], [ 127.678715088588305, 37.533899470970773 ], [ 127.682426759723214, 37.536062683081326 ], [ 127.679821226965828, 37.53898487677349 ], [ 127.678965907121977, 37.54291965567996 ], [ 127.680141538007177, 37.543723441366737 ], [ 127.685723227261576, 37.541394906948995 ], [ 127.686191632694388, 37.545645337112788 ], [ 127.689639562416815, 37.54948010662995 ], [ 127.688546836484406, 37.552761312631425 ], [ 127.692919926030314, 37.555116330497775 ], [ 127.692605061497105, 37.558625689402575 ], [ 127.694382085233514, 37.560433888235366 ], [ 127.69207539968815, 37.563850645037142 ], [ 127.691526760193867, 37.568768131303379 ], [ 127.688792576286076, 37.571819542184414 ], [ 127.688380173298043, 37.575932567516418 ], [ 127.691498074268466, 37.578985846724464 ], [ 127.690752334664552, 37.580791674146752 ], [ 127.693432225784449, 37.584099870668901 ], [ 127.693077708976759, 37.588769956914327 ], [ 127.697309544886124, 37.591861184309742 ] ] ] ] } },
{ "type": "Feature", "properties": { "emd_cd": "41830380", "emd_nm": "양동면" }, "geometry": { "type": "MultiPolygon", "coordinates": [ [ [ [ 127.676982772578995, 37.48467833128776 ], [ 127.682700732218478, 37.49145706056521 ], [ 127.682413928119814, 37.493516929400236 ], [ 127.685502530842925, 37.495597468572839 ], [ 127.684120040654875, 37.498133549922542 ], [ 127.684441585042748, 37.505195200795001 ], [ 127.688880977492303, 37.50743343764519 ], [ 127.691220702511359, 37.514828677043091 ], [ 127.692391099041842, 37.515811689316948 ], [ 127.700289847045923, 37.513183910699787 ], [ 127.701312981871141, 37.515066080844527 ], [ 127.708275407290017, 37.51745868314427 ], [ 127.710309329639173, 37.514422847633107 ], [ 127.717638963537766, 37.512424207896089 ], [ 127.719507424358738, 37.513305960286594 ], [ 127.728375161807577, 37.50387409554984 ], [ 127.739991984276145, 37.50431006247851 ], [ 127.743205554543394, 37.506521553775272 ], [ 127.751086702531765, 37.503149865003387 ], [ 127.758745970795047, 37.504133483063484 ], [ 127.759897296297765, 37.503271438769396 ], [ 127.759760362778096, 37.49243700449923 ], [ 127.774625266998612, 37.491746325608176 ], [ 127.776014139623001, 37.488537672521097 ], [ 127.780131430666827, 37.488613456894079 ], [ 127.782103370797657, 37.481651668708444 ], [ 127.789506136366398, 37.474845135246561 ], [ 127.799775773183399, 37.472427726125495 ], [ 127.800768383800715, 37.467721438707343 ], [ 127.796281949794079, 37.463051007536563 ], [ 127.799324819538271, 37.451793089199072 ], [ 127.798354053977931, 37.442626358529253 ], [ 127.802889029578083, 37.434673939311473 ], [ 127.803867833049495, 37.428876787641876 ], [ 127.80221344794063, 37.427294799227361 ], [ 127.797444540001791, 37.42694428327502 ], [ 127.794545536822028, 37.424303204407693 ], [ 127.790241438079022, 37.408633973956661 ], [ 127.787815198188383, 37.405357634674914 ], [ 127.787820990012392, 37.401080527103232 ], [ 127.78380598990492, 37.398578830634087 ], [ 127.784620359035941, 37.395458889277172 ], [ 127.781674352116553, 37.393049618778377 ], [ 127.784096358132899, 37.388845662216248 ], [ 127.776638802785598, 37.383354464373511 ], [ 127.775796381172952, 37.378854501448977 ], [ 127.778992108817647, 37.370625181835038 ], [ 127.76278389362669, 37.369946665714053 ], [ 127.759522600349101, 37.366990254034789 ], [ 127.757139242580521, 37.367023722162855 ], [ 127.752233002159457, 37.369476631634917 ], [ 127.743073693287542, 37.369768842887495 ], [ 127.732139774290673, 37.376091804653186 ], [ 127.729905013166302, 37.376270877147775 ], [ 127.724219122040736, 37.371543166130834 ], [ 127.718057410119599, 37.371405699610243 ], [ 127.7163787312642, 37.370051328834101 ], [ 127.710243761258198, 37.372195166602197 ], [ 127.707388100595111, 37.369845693757838 ], [ 127.701577598778599, 37.37347217536923 ], [ 127.700139230623819, 37.379177325772496 ], [ 127.703095894004605, 37.380670781402657 ], [ 127.704292991455532, 37.392137257843068 ], [ 127.714771347547099, 37.399471926828006 ], [ 127.71405866560481, 37.404898603816541 ], [ 127.710776300015269, 37.406148890974627 ], [ 127.708093204808648, 37.410294341176211 ], [ 127.71147978223172, 37.416498453586328 ], [ 127.712429575337822, 37.422985895942091 ], [ 127.705528296150064, 37.429518286564878 ], [ 127.701314285548193, 37.430716192336867 ], [ 127.69871504355892, 37.436070448741702 ], [ 127.705282968890501, 37.443613603491016 ], [ 127.706806696025353, 37.44842923743731 ], [ 127.704374948653424, 37.451742342545174 ], [ 127.704559732539892, 37.455718007201057 ], [ 127.702311795108542, 37.459824464323802 ], [ 127.701585632406122, 37.46433275761958 ], [ 127.702656665036514, 37.465350946802722 ], [ 127.695980757181857, 37.46831197003177 ], [ 127.6827100899242, 37.467538529584971 ], [ 127.680213674644932, 37.469404098093023 ], [ 127.679558295203321, 37.474288144973784 ], [ 127.672239639631087, 37.478817997335597 ], [ 127.672755878577831, 37.482931660250571 ], [ 127.676982772578995, 37.48467833128776 ] ] ] ] } },
{ "type": "Feature", "properties": { "emd_cd": "41830395", "emd_nm": "지평면" }, "geometry": { "type": "MultiPolygon", "coordinates": [ [ [ [ 127.584667270874448, 37.434697824793652 ], [ 127.58875238827963, 37.442475783570266 ], [ 127.589344513046299, 37.44846178877426 ], [ 127.597630882973704, 37.45161405684302 ], [ 127.605898658281575, 37.451384435368105 ], [ 127.614789395350584, 37.456702217299451 ], [ 127.622213751213522, 37.456569637605718 ], [ 127.621851016504095, 37.463531059238605 ], [ 127.620049965865817, 37.465612805017464 ], [ 127.619711719388121, 37.47629085137072 ], [ 127.617389507790961, 37.481681050218668 ], [ 127.614741619268059, 37.483480490568084 ], [ 127.617583413328688, 37.487581120897474 ], [ 127.617267258319373, 37.490786101966272 ], [ 127.620811848858907, 37.49134319745356 ], [ 127.624727127641634, 37.495078018254183 ], [ 127.62567132425923, 37.499002708513487 ], [ 127.624217367876781, 37.50168760398099 ], [ 127.633841194912307, 37.507227331837782 ], [ 127.640098585426387, 37.501920655569563 ], [ 127.646268820908105, 37.5034806022366 ], [ 127.652222006102477, 37.500196076793053 ], [ 127.670216289868762, 37.497148088239399 ], [ 127.680616525646982, 37.489520186023469 ], [ 127.676982772578995, 37.48467833128776 ], [ 127.673798281801268, 37.484204042484876 ], [ 127.672017962449644, 37.480028991239493 ], [ 127.674710932299092, 37.476606807692484 ], [ 127.679558295203321, 37.474288144973784 ], [ 127.680213674644932, 37.469404098093023 ], [ 127.686603330783797, 37.46692123625494 ], [ 127.695980757181857, 37.46831197003177 ], [ 127.702656665036514, 37.465350946802722 ], [ 127.701585632406122, 37.46433275761958 ], [ 127.702311795108542, 37.459824464323802 ], [ 127.704559732539892, 37.455718007201057 ], [ 127.704374948653424, 37.451742342545174 ], [ 127.706806696025353, 37.44842923743731 ], [ 127.705282968890501, 37.443613603491016 ], [ 127.69871504355892, 37.436070448741702 ], [ 127.701314285548193, 37.430716192336867 ], [ 127.705528296150064, 37.429518286564878 ], [ 127.706865460684199, 37.426954138281403 ], [ 127.71213419878859, 37.423714700629397 ], [ 127.712343485574792, 37.420144421437548 ], [ 127.708093204808648, 37.410294341176211 ], [ 127.698862393345479, 37.407470024127392 ], [ 127.694961276364779, 37.403021712384806 ], [ 127.683982157414604, 37.398223431899353 ], [ 127.684859585415111, 37.406101637716425 ], [ 127.686533725535867, 37.405997075431053 ], [ 127.688042625853299, 37.411809567774945 ], [ 127.683148430755224, 37.414436815530671 ], [ 127.679956923995405, 37.412405912403194 ], [ 127.667936611093737, 37.411632449184275 ], [ 127.665685020558627, 37.414341593596546 ], [ 127.658281138667547, 37.416819869661325 ], [ 127.654268976678523, 37.412974354844579 ], [ 127.652325132909354, 37.407926781869165 ], [ 127.646680386873413, 37.404760417329165 ], [ 127.643229442618122, 37.405872972847447 ], [ 127.635315354863309, 37.413480161506598 ], [ 127.626460041101495, 37.413557249801471 ], [ 127.620467546801279, 37.409257897996113 ], [ 127.617669094117957, 37.413826432379764 ], [ 127.611021699545589, 37.415560378615879 ], [ 127.608966311601975, 37.418427409795761 ], [ 127.605428400874231, 37.418547807188418 ], [ 127.601336818471793, 37.421065077506903 ], [ 127.592022716306261, 37.421049167532672 ], [ 127.587366235189293, 37.425508768629264 ], [ 127.584667270874448, 37.434697824793652 ] ] ] ] } },
{ "type": "Feature", "properties": { "emd_cd": "41830400", "emd_nm": "용문면" }, "geometry": { "type": "MultiPolygon", "coordinates": [ [ [ [ 127.527192332084411, 37.525681659397819 ], [ 127.528981966735415, 37.530124292548315 ], [ 127.527384463398107, 37.53408224049781 ], [ 127.527898464910365, 37.539547189642192 ], [ 127.529741050155081, 37.540783120407546 ], [ 127.530297338591993, 37.544274649512211 ], [ 127.544833535490682, 37.560273225242611 ], [ 127.554993573579026, 37.565971024921978 ], [ 127.558150946599497, 37.566267550232816 ], [ 127.565170769485761, 37.576104066605829 ], [ 127.580551708978817, 37.57472135771696 ], [ 127.586521479197771, 37.576917163827723 ], [ 127.593572128991852, 37.574708412640149 ], [ 127.602123197829357, 37.58124637528563 ], [ 127.610146157478397, 37.580650139802238 ], [ 127.614076327073619, 37.574371657414503 ], [ 127.620673951116501, 37.57452084923176 ], [ 127.622637638802445, 37.572133206267395 ], [ 127.62931110460373, 37.571098637416462 ], [ 127.632085990297455, 37.564380059177232 ], [ 127.63488547764301, 37.561952263603892 ], [ 127.635766596558341, 37.552936127274961 ], [ 127.640699382644229, 37.54849698644415 ], [ 127.641038779011183, 37.543820536548786 ], [ 127.646120787902674, 37.54247613537698 ], [ 127.648513116756348, 37.539180241011671 ], [ 127.645521535319233, 37.53209499846016 ], [ 127.638701242591537, 37.530164199065467 ], [ 127.639777093306179, 37.529320541651273 ], [ 127.637738718588793, 37.52644329483126 ], [ 127.630492239219052, 37.523107727112617 ], [ 127.633946260922272, 37.520725513580231 ], [ 127.635063725612611, 37.51476529645435 ], [ 127.637450592659718, 37.515470832190715 ], [ 127.643083638291245, 37.510799474418683 ], [ 127.649568612989015, 37.511281175244008 ], [ 127.651414141076401, 37.506009505529114 ], [ 127.645850150159731, 37.506129200626752 ], [ 127.644531412524785, 37.505357432262741 ], [ 127.6453465867734, 37.502732292704856 ], [ 127.640098585426387, 37.501920655569563 ], [ 127.633841194912307, 37.507227331837782 ], [ 127.631135714377962, 37.506058494058777 ], [ 127.624217367876781, 37.50168760398099 ], [ 127.62567132425923, 37.499002708513487 ], [ 127.624727127641634, 37.495078018254183 ], [ 127.620811848858907, 37.49134319745356 ], [ 127.617267258319373, 37.490786101966272 ], [ 127.617583413328688, 37.487581120897474 ], [ 127.614741619268059, 37.483480490568084 ], [ 127.617389507790961, 37.481681050218668 ], [ 127.619711719388121, 37.47629085137072 ], [ 127.620049965865817, 37.465612805017464 ], [ 127.621851016504095, 37.463531059238605 ], [ 127.622213751213522, 37.456569637605718 ], [ 127.614789395350584, 37.456702217299451 ], [ 127.605898658281575, 37.451384435368105 ], [ 127.596790920334598, 37.451430631466309 ], [ 127.58839443442271, 37.447222462019113 ], [ 127.584403724258038, 37.451422914230186 ], [ 127.565053351196241, 37.457377307671344 ], [ 127.556728280666562, 37.462518102734677 ], [ 127.56197536458734, 37.465292387152857 ], [ 127.55971695518403, 37.466810752820997 ], [ 127.558149015227343, 37.472710828117478 ], [ 127.560714383405667, 37.477410081434236 ], [ 127.560098049642775, 37.479042763232137 ], [ 127.553277201876284, 37.481545679479538 ], [ 127.554524261989542, 37.490375534660103 ], [ 127.552791360738638, 37.495306123848898 ], [ 127.555827231995394, 37.4989481924922 ], [ 127.549015250555584, 37.505278277579727 ], [ 127.536889434247058, 37.506530627222652 ], [ 127.535977824331297, 37.512371512453207 ], [ 127.533227509436074, 37.51677139548427 ], [ 127.528552167365319, 37.517960630792722 ], [ 127.527192332084411, 37.525681659397819 ] ] ] ] } },
{ "type": "Feature", "properties": { "emd_cd": "41830410", "emd_nm": "개군면" }, "geometry": { "type": "MultiPolygon", "coordinates": [ [ [ [ 127.501120497400805, 37.448912185594864 ], [ 127.506686093938555, 37.451763070527832 ], [ 127.51292746842276, 37.459259610841336 ], [ 127.525119394502639, 37.464612300823205 ], [ 127.529643995499583, 37.468196143031228 ], [ 127.537158677603202, 37.469627785541569 ], [ 127.551459172295765, 37.462336863026827 ], [ 127.55877017341102, 37.462114712856277 ], [ 127.564478990202446, 37.457615501779962 ], [ 127.584403724258038, 37.451422914230186 ], [ 127.588967842245395, 37.446072863509102 ], [ 127.58875238827963, 37.442475783570266 ], [ 127.584667270874448, 37.434697824793652 ], [ 127.58520044099717, 37.429827268805596 ], [ 127.587407972214422, 37.428406044235537 ], [ 127.587366235189293, 37.425508768629264 ], [ 127.590575791291528, 37.423608499494534 ], [ 127.590438059799183, 37.422286259081964 ], [ 127.587264208757688, 37.421134819551803 ], [ 127.588362617689455, 37.41736127803015 ], [ 127.584444562344146, 37.413875124341466 ], [ 127.582992835431952, 37.416932508227433 ], [ 127.58176441115711, 37.416756046149686 ], [ 127.571842132357119, 37.411688204390273 ], [ 127.569339603419067, 37.41349260999143 ], [ 127.565643014942623, 37.411172947300869 ], [ 127.562834136380005, 37.415680381561266 ], [ 127.556322133463439, 37.416702778649736 ], [ 127.554212396277663, 37.414405629597482 ], [ 127.551561566837663, 37.414249928067086 ], [ 127.55062114680149, 37.411395268992855 ], [ 127.546968201655872, 37.410446447913138 ], [ 127.543332024734951, 37.409824536479434 ], [ 127.541541948725921, 37.411394108442934 ], [ 127.536619357247758, 37.4117042966637 ], [ 127.532882924783451, 37.422579313881094 ], [ 127.527858208678495, 37.430691349046143 ], [ 127.519108523696787, 37.43647238562798 ], [ 127.50684829094115, 37.440422822484393 ], [ 127.502080670697822, 37.445630184422292 ], [ 127.501120497400805, 37.448912185594864 ] ] ] ] } }
]
}
