{
"type": "FeatureCollection",
"name": "44131",
"crs": { "type": "name", "properties": { "name": "urn:ogc:def:crs:OGC:1.3:CRS84" } },
"features": [
{ "type": "Feature", "properties": { "emd_cd": "44131101", "emd_nm": "대흥동" }, "geometry": { "type": "MultiPolygon", "coordinates": [ [ [ [ 127.14586319406618, 36.803588349878503 ], [ 127.146318800015933, 36.810399828038285 ], [ 127.148899912923568, 36.812459300810573 ], [ 127.150248478650795, 36.810769332379316 ], [ 127.147409224763251, 36.803417551192936 ], [ 127.14586319406618, 36.803588349878503 ] ] ] ] } },
{ "type": "Feature", "properties": { "emd_cd": "44131102", "emd_nm": "성황동" }, "geometry": { "type": "MultiPolygon", "coordinates": [ [ [ [ 127.14762040178401, 36.812609760087142 ], [ 127.150324615775503, 36.817739376999327 ], [ 127.15808841628062, 36.814573827032888 ], [ 127.158402996680067, 36.813620586158727 ], [ 127.152387994259314, 36.811673696864126 ], [ 127.14762040178401, 36.812609760087142 ] ] ] ] } },
{ "type": "Feature", "properties": { "emd_cd": "44131103", "emd_nm": "문화동" }, "geometry": { "type": "MultiPolygon", "coordinates": [ [ [ [ 127.148398385176222, 36.807029699170926 ], [ 127.149622021674773, 36.812093763143302 ], [ 127.150566687438427, 36.812645499785546 ], [ 127.158168837569875, 36.812257543878495 ], [ 127.152156578975564, 36.808913819847767 ], [ 127.153040079342688, 36.807138829240728 ], [ 127.151959093619368, 36.806453623434372 ], [ 127.148398385176222, 36.807029699170926 ] ] ] ] } },
{ "type": "Feature", "properties": { "emd_cd": "44131104", "emd_nm": "사직동" }, "geometry": { "type": "MultiPolygon", "coordinates": [ [ [ [ 127.149643263961678, 36.797267837751114 ], [ 127.147758976188072, 36.797531553407623 ], [ 127.145514521640351, 36.80256608175462 ], [ 127.147895093798908, 36.80459176925762 ], [ 127.150231350131662, 36.803883522049482 ], [ 127.151294558069466, 36.799414113063222 ], [ 127.149401757265949, 36.799056787606396 ], [ 127.149643263961678, 36.797267837751114 ] ] ] ] } },
{ "type": "Feature", "properties": { "emd_cd": "44131105", "emd_nm": "영성동" }, "geometry": { "type": "MultiPolygon", "coordinates": [ [ [ [ 127.149401010421073, 36.798913116298856 ], [ 127.151264654612618, 36.799208338275484 ], [ 127.150202638945416, 36.803986680358292 ], [ 127.153139888140757, 36.804511000906722 ], [ 127.154362500028029, 36.801949172249287 ], [ 127.152997272822461, 36.798907517729013 ], [ 127.154536690259775, 36.798171290298811 ], [ 127.152603570010143, 36.797735211830329 ], [ 127.150834429555175, 36.794556984377984 ], [ 127.149401010421073, 36.798913116298856 ] ] ] ] } },
{ "type": "Feature", "properties": { "emd_cd": "44131106", "emd_nm": "오룡동" }, "geometry": { "type": "MultiPolygon", "coordinates": [ [ [ [ 127.147895093798908, 36.80459176925762 ], [ 127.148509307357727, 36.807025867586411 ], [ 127.152449218629059, 36.806884901588766 ], [ 127.152847746689474, 36.804427642397158 ], [ 127.147895093798908, 36.80459176925762 ] ] ] ] } },
{ "type": "Feature", "properties": { "emd_cd": "44131107", "emd_nm": "원성동" }, "geometry": { "type": "MultiPolygon", "coordinates": [ [ [ [ 127.151941894738314, 36.808614375467677 ], [ 127.158211759724267, 36.811597609403577 ], [ 127.15703424599856, 36.812348900167507 ], [ 127.157787162027518, 36.813744947302581 ], [ 127.164192723636106, 36.814138627091097 ], [ 127.169222700477505, 36.817929299945725 ], [ 127.169397260467562, 36.813033534477341 ], [ 127.165667976486873, 36.810967285027466 ], [ 127.169616153167155, 36.810864315084139 ], [ 127.170109046508458, 36.808268403241868 ], [ 127.164041227114325, 36.803615808763801 ], [ 127.164131627958028, 36.799012805747729 ], [ 127.153617634444714, 36.798301047981958 ], [ 127.154362500028029, 36.801949172249287 ], [ 127.151941894738314, 36.808614375467677 ] ] ] ] } },
{ "type": "Feature", "properties": { "emd_cd": "44131108", "emd_nm": "구성동" }, "geometry": { "type": "MultiPolygon", "coordinates": [ [ [ [ 127.153874946465805, 36.797974779778414 ], [ 127.164131627958028, 36.799012805747729 ], [ 127.164041227114325, 36.803615808763801 ], [ 127.169673412959028, 36.807909957250551 ], [ 127.184203531148825, 36.802884882616269 ], [ 127.186670873226007, 36.797782535572225 ], [ 127.184804507808266, 36.794304132143353 ], [ 127.185580885690982, 36.792641753775719 ], [ 127.181452040807628, 36.79065257236455 ], [ 127.178715861187484, 36.786905851307935 ], [ 127.173339093082873, 36.787871346102243 ], [ 127.173439987619034, 36.786325693905603 ], [ 127.166570055365369, 36.791055980969936 ], [ 127.161555457779031, 36.790361548009116 ], [ 127.16089582129591, 36.790942160610243 ], [ 127.162146402633539, 36.791738002424069 ], [ 127.16190624485219, 36.791978831791369 ], [ 127.157935833295326, 36.792329243428703 ], [ 127.157857883518915, 36.793601041005481 ], [ 127.156316350930865, 36.792523324934372 ], [ 127.153874946465805, 36.797974779778414 ] ] ] ] } },
{ "type": "Feature", "properties": { "emd_cd": "44131109", "emd_nm": "청수동" }, "geometry": { "type": "MultiPolygon", "coordinates": [ [ [ [ 127.146310440336421, 36.787008114638226 ], [ 127.15308951740414, 36.798051692508722 ], [ 127.156316350930865, 36.792523324934372 ], [ 127.157857883518915, 36.793601041005481 ], [ 127.160580048373447, 36.791508577270889 ], [ 127.151449798213406, 36.786556726402594 ], [ 127.146310440336421, 36.787008114638226 ] ] ] ] } },
{ "type": "Feature", "properties": { "emd_cd": "44131110", "emd_nm": "삼룡동" }, "geometry": { "type": "MultiPolygon", "coordinates": [ [ [ [ 127.161555457779031, 36.790361548009116 ], [ 127.166570055365369, 36.791055980969936 ], [ 127.173439987619034, 36.786325693905603 ], [ 127.173339093082873, 36.787871346102243 ], [ 127.178715861187484, 36.786905851307935 ], [ 127.184468979439529, 36.792888516040051 ], [ 127.187084763187073, 36.791687029095002 ], [ 127.187554181631711, 36.789026401579143 ], [ 127.185335165204776, 36.78333975840949 ], [ 127.186451544933348, 36.77935327627069 ], [ 127.184693992843535, 36.778087379829564 ], [ 127.183005821069145, 36.772205629431951 ], [ 127.176747774755015, 36.77257781663284 ], [ 127.171614969740531, 36.775834421782804 ], [ 127.17071602547928, 36.774685114134101 ], [ 127.171987242083034, 36.773082001698086 ], [ 127.169868123087326, 36.769409016105122 ], [ 127.165040985989037, 36.766670319750965 ], [ 127.162048110777434, 36.774224189068519 ], [ 127.163879987239568, 36.781970522910761 ], [ 127.162103890768407, 36.783876893341777 ], [ 127.163316245566719, 36.783351013069158 ], [ 127.161555457779031, 36.790361548009116 ] ] ] ] } },
{ "type": "Feature", "properties": { "emd_cd": "44131111", "emd_nm": "청당동" }, "geometry": { "type": "MultiPolygon", "coordinates": [ [ [ [ 127.162884194982354, 36.770698909760355 ], [ 127.145895361390714, 36.773547756209425 ], [ 127.143833456467121, 36.775559552055313 ], [ 127.139272538705001, 36.776483457711471 ], [ 127.145816298934704, 36.786834269809887 ], [ 127.151449798213406, 36.786556726402594 ], [ 127.16190624485219, 36.791978831791369 ], [ 127.161212598529644, 36.788011715319392 ], [ 127.162514503467506, 36.787452931962058 ], [ 127.162700340594597, 36.781904913625056 ], [ 127.163879987239568, 36.781970522910761 ], [ 127.162121095143277, 36.775355351662057 ], [ 127.162884194982354, 36.770698909760355 ] ] ] ] } },
{ "type": "Feature", "properties": { "emd_cd": "44131112", "emd_nm": "유량동" }, "geometry": { "type": "MultiPolygon", "coordinates": [ [ [ [ 127.165667976486873, 36.810967285027466 ], [ 127.169397260467562, 36.813033534477341 ], [ 127.169829927343429, 36.819824793235689 ], [ 127.175222344885569, 36.822703257375792 ], [ 127.179446877777238, 36.822022220880207 ], [ 127.201908401564125, 36.829544441464719 ], [ 127.203742734978547, 36.827740081638176 ], [ 127.203299492624524, 36.818378756268146 ], [ 127.199630471855457, 36.814139743964645 ], [ 127.199172092641902, 36.8097301947045 ], [ 127.197599488650525, 36.808309028071207 ], [ 127.195422439245988, 36.809362455134291 ], [ 127.192906136328943, 36.808213101278817 ], [ 127.189636189372777, 36.80239797194784 ], [ 127.185791133295979, 36.80191366496463 ], [ 127.175645106468721, 36.805075411238938 ], [ 127.169673412959028, 36.807909957250551 ], [ 127.169616153167155, 36.810864315084139 ], [ 127.165667976486873, 36.810967285027466 ] ] ] ] } },
{ "type": "Feature", "properties": { "emd_cd": "44131113", "emd_nm": "봉명동" }, "geometry": { "type": "MultiPolygon", "coordinates": [ [ [ [ 127.143191911053322, 36.802940297819148 ], [ 127.134093697217281, 36.800170978652019 ], [ 127.133795115519021, 36.805077377075946 ], [ 127.13234863587428, 36.805258206972852 ], [ 127.133235493759486, 36.809786357960341 ], [ 127.126039250703911, 36.812305397533457 ], [ 127.124240994427169, 36.817256540350165 ], [ 127.128377759854558, 36.820093068656384 ], [ 127.130909245900554, 36.819197131985632 ], [ 127.130787248121393, 36.817478069078938 ], [ 127.134890861418711, 36.815616003501091 ], [ 127.134312954312207, 36.813391826674241 ], [ 127.142117567864375, 36.807432046814824 ], [ 127.143191911053322, 36.802940297819148 ] ] ] ] } },
{ "type": "Feature", "properties": { "emd_cd": "44131114", "emd_nm": "다가동" }, "geometry": { "type": "MultiPolygon", "coordinates": [ [ [ [ 127.151239642906603, 36.795454048547199 ], [ 127.15058795656158, 36.793128580805799 ], [ 127.146277987987034, 36.787027771243714 ], [ 127.14736801291221, 36.797344585529551 ], [ 127.142600230269878, 36.797775415612918 ], [ 127.140902073795928, 36.795578098111683 ], [ 127.136096068843955, 36.794825217701636 ], [ 127.134126412330701, 36.800194722346077 ], [ 127.145740927575744, 36.803557491209986 ], [ 127.147758976188072, 36.797531553407623 ], [ 127.151239642906603, 36.795454048547199 ] ] ] ] } },
{ "type": "Feature", "properties": { "emd_cd": "44131115", "emd_nm": "용곡동" }, "geometry": { "type": "MultiPolygon", "coordinates": [ [ [ [ 127.129542047407895, 36.784766530156503 ], [ 127.131143477376057, 36.786282170715033 ], [ 127.131369559551544, 36.790107935093275 ], [ 127.133117777002397, 36.790433556881673 ], [ 127.133279498673133, 36.796495192400222 ], [ 127.137312273912841, 36.794822159193195 ], [ 127.140901804677057, 36.795577981283316 ], [ 127.14253050667385, 36.797759143238409 ], [ 127.147367676651712, 36.797344522864556 ], [ 127.146277819939129, 36.787027771448258 ], [ 127.140388682372475, 36.77848700065735 ], [ 127.129542047407895, 36.784766530156503 ] ] ] ] } },
{ "type": "Feature", "properties": { "emd_cd": "44131116", "emd_nm": "신방동" }, "geometry": { "type": "MultiPolygon", "coordinates": [ [ [ [ 127.113527957439459, 36.781686833451609 ], [ 127.113241114173462, 36.784839620922241 ], [ 127.113174634367752, 36.786336180022957 ], [ 127.113597447542062, 36.787118006781256 ], [ 127.113329127367365, 36.78492661226641 ], [ 127.116773362147569, 36.786084969519003 ], [ 127.120017566281447, 36.790735378695487 ], [ 127.124603396342778, 36.788960856859752 ], [ 127.129358835117472, 36.795359049808845 ], [ 127.133552419285095, 36.79483004227113 ], [ 127.133117777002397, 36.790433556881673 ], [ 127.131369559551544, 36.790107935093275 ], [ 127.131143477376057, 36.786282170715033 ], [ 127.129542047407895, 36.784766530156503 ], [ 127.140388682372475, 36.77848700065735 ], [ 127.139238597269767, 36.773872371228705 ], [ 127.135440873664422, 36.771039726263993 ], [ 127.13749779204565, 36.769344874172091 ], [ 127.135980080128434, 36.767887954371062 ], [ 127.136885484982031, 36.764973547355083 ], [ 127.131753618088027, 36.762424572617384 ], [ 127.127984606794925, 36.764909757859215 ], [ 127.12397354348488, 36.763398880470035 ], [ 127.121388942567677, 36.765238184167643 ], [ 127.118450865942307, 36.763711148239565 ], [ 127.119077897953943, 36.77634916670155 ], [ 127.11735075127433, 36.777982706475832 ], [ 127.117585957725296, 36.780463743024789 ], [ 127.113527957439459, 36.781686833451609 ] ] ] ] } },
{ "type": "Feature", "properties": { "emd_cd": "44131117", "emd_nm": "쌍용동" }, "geometry": { "type": "MultiPolygon", "coordinates": [ [ [ [ 127.133833158709365, 36.800615784059531 ], [ 127.131392258670843, 36.799910025789977 ], [ 127.13234863587428, 36.805258206972852 ], [ 127.133795115519021, 36.805077377075946 ], [ 127.133833158709365, 36.800615784059531 ] ] ] ] } },
{ "type": "Feature", "properties": { "emd_cd": "44131118", "emd_nm": "신부동" }, "geometry": { "type": "MultiPolygon", "coordinates": [ [ [ [ 127.149050689810494, 36.818741854961957 ], [ 127.150083492156469, 36.824533942217094 ], [ 127.152632858165745, 36.824394960410054 ], [ 127.157805157837871, 36.833038561545862 ], [ 127.164300012540579, 36.83769591116728 ], [ 127.169151328087068, 36.832335772713392 ], [ 127.174090242815211, 36.831538693893499 ], [ 127.173594131381378, 36.829259863614162 ], [ 127.176369250576514, 36.826784158943056 ], [ 127.175049161130602, 36.8220270443774 ], [ 127.169829927343429, 36.819824793235689 ], [ 127.164192723636106, 36.814138627091097 ], [ 127.158438620515156, 36.813629847546906 ], [ 127.149050689810494, 36.818741854961957 ] ] ] ] } },
{ "type": "Feature", "properties": { "emd_cd": "44131119", "emd_nm": "안서동" }, "geometry": { "type": "MultiPolygon", "coordinates": [ [ [ [ 127.164300012540579, 36.83769591116728 ], [ 127.171131312879538, 36.845948353383122 ], [ 127.177026556376006, 36.84123817164344 ], [ 127.180830948297412, 36.84220824857686 ], [ 127.184035394671923, 36.846000698096987 ], [ 127.191688992301906, 36.848848513420755 ], [ 127.19618401086376, 36.853086322365364 ], [ 127.206063237216199, 36.852604460791994 ], [ 127.212590526290469, 36.846771874570422 ], [ 127.202222098418304, 36.839250499245409 ], [ 127.201908401564125, 36.829544441464719 ], [ 127.179446877777238, 36.822022220880207 ], [ 127.175222344885569, 36.822703257375792 ], [ 127.176369250576514, 36.826784158943056 ], [ 127.173594131381378, 36.829259863614162 ], [ 127.174090242815211, 36.831538693893499 ], [ 127.169151328087068, 36.832335772713392 ], [ 127.164300012540579, 36.83769591116728 ] ] ] ] } },
{ "type": "Feature", "properties": { "emd_cd": "44131120", "emd_nm": "구룡동" }, "geometry": { "type": "MultiPolygon", "coordinates": [ [ [ [ 127.131471479390086, 36.761536763987699 ], [ 127.136885249687211, 36.764973493556177 ], [ 127.135979564421618, 36.767887675609771 ], [ 127.13749755678478, 36.769344847407723 ], [ 127.135440739206956, 36.771039699382072 ], [ 127.139238518828563, 36.773872353297335 ], [ 127.1392980961013, 36.776487005513673 ], [ 127.145895361390714, 36.773547756209425 ], [ 127.162884194982354, 36.770698909760355 ], [ 127.165188988077659, 36.766249649233643 ], [ 127.161070569122288, 36.757855926710455 ], [ 127.16118832543134, 36.752765784280335 ], [ 127.156953776591223, 36.751043274152472 ], [ 127.151673126672293, 36.75166704718621 ], [ 127.151689036253941, 36.753383375908449 ], [ 127.147904238923743, 36.754115010937625 ], [ 127.142535159554953, 36.753440939596139 ], [ 127.138481751943488, 36.757672404093782 ], [ 127.134216449911477, 36.756617881762125 ], [ 127.131471479390086, 36.761536763987699 ] ] ] ] } },
{ "type": "Feature", "properties": { "emd_cd": "44131250", "emd_nm": "목천읍" }, "geometry": { "type": "MultiPolygon", "coordinates": [ [ [ [ 127.159204132841836, 36.733069821841909 ], [ 127.161503544520443, 36.73758786262983 ], [ 127.166465069268, 36.74084442012704 ], [ 127.163047246843533, 36.745844585443407 ], [ 127.163243323552564, 36.750791392938289 ], [ 127.160922826444022, 36.754973964020145 ], [ 127.165040985989037, 36.766670319750965 ], [ 127.169868123087326, 36.769409016105122 ], [ 127.171987242083034, 36.773082001698086 ], [ 127.17071602547928, 36.774685114134101 ], [ 127.171614969740531, 36.775834421782804 ], [ 127.176747774755015, 36.77257781663284 ], [ 127.183005821069145, 36.772205629431951 ], [ 127.184693992843535, 36.778087379829564 ], [ 127.186451544933348, 36.77935327627069 ], [ 127.185335165204776, 36.78333975840949 ], [ 127.187554181631711, 36.789026401579143 ], [ 127.184996778823177, 36.793338760515311 ], [ 127.186670873226007, 36.797782535572225 ], [ 127.184887996905232, 36.802146527610091 ], [ 127.189636189372777, 36.80239797194784 ], [ 127.193863920757948, 36.808734583375625 ], [ 127.198409102956788, 36.808730397914466 ], [ 127.199630471855457, 36.814139743964645 ], [ 127.202921474971419, 36.817300192629965 ], [ 127.203016698802159, 36.823876782446646 ], [ 127.204379022566201, 36.825298971008237 ], [ 127.201345545603672, 36.831467389701402 ], [ 127.202222098418304, 36.839250499245409 ], [ 127.211600292099007, 36.844916358926639 ], [ 127.213475534168182, 36.848053579253694 ], [ 127.222877239903468, 36.848811062697173 ], [ 127.226964541246502, 36.851163551178537 ], [ 127.234654162131292, 36.851039749093118 ], [ 127.246094631946093, 36.844431106669937 ], [ 127.246919090230023, 36.838099333383774 ], [ 127.25026264576239, 36.832422674439414 ], [ 127.24990928175913, 36.82992372879589 ], [ 127.244167272242649, 36.825085210216422 ], [ 127.246413421115889, 36.821129938627827 ], [ 127.24557735025634, 36.819065875300971 ], [ 127.246843350907142, 36.815541577889888 ], [ 127.249797140767058, 36.81588919273937 ], [ 127.25527966195007, 36.813527619349337 ], [ 127.257527076796336, 36.810096903685277 ], [ 127.256681655371409, 36.806233983097009 ], [ 127.25238952256035, 36.800565642606017 ], [ 127.254003057566138, 36.796589261500728 ], [ 127.251036830757826, 36.795372812993818 ], [ 127.2480320332524, 36.789645871324062 ], [ 127.248508101825848, 36.78334380269429 ], [ 127.246834047362611, 36.782241609394774 ], [ 127.248878990201703, 36.78189084510371 ], [ 127.249561601935312, 36.779360630163204 ], [ 127.244588844317931, 36.773678789332031 ], [ 127.252530273721462, 36.763406909596206 ], [ 127.252134444561818, 36.75784568099354 ], [ 127.248912085541832, 36.756431698258965 ], [ 127.244293684514048, 36.758175623217696 ], [ 127.240330904522281, 36.7577743497136 ], [ 127.23569659447152, 36.755499191811367 ], [ 127.225150647115669, 36.759238877362506 ], [ 127.221701159840663, 36.765237124222658 ], [ 127.219567338390476, 36.766237311716999 ], [ 127.214269035984302, 36.757592967414858 ], [ 127.209956419700219, 36.756272957872298 ], [ 127.209406621263767, 36.754132825479232 ], [ 127.199319998251156, 36.758368005465229 ], [ 127.198245751761618, 36.753543786059204 ], [ 127.201164558573282, 36.749781161723909 ], [ 127.198236607413577, 36.746295236776689 ], [ 127.199393265813939, 36.742667168224543 ], [ 127.197702692290676, 36.739179882460569 ], [ 127.199113405717313, 36.738392335834945 ], [ 127.198432899312564, 36.734217538165126 ], [ 127.203122380216129, 36.726149202739514 ], [ 127.195409767252599, 36.728598219411907 ], [ 127.187299802915007, 36.72798700663003 ], [ 127.183218921420305, 36.730319014088941 ], [ 127.174128762242944, 36.728573946071116 ], [ 127.168584877456183, 36.733135176163245 ], [ 127.159204132841836, 36.733069821841909 ] ] ] ] } },
{ "type": "Feature", "properties": { "emd_cd": "44131310", "emd_nm": "풍세면" }, "geometry": { "type": "MultiPolygon", "coordinates": [ [ [ [ 127.08029809379353, 36.730404979002763 ], [ 127.08309427630418, 36.736347900865987 ], [ 127.087335446414116, 36.740158815345055 ], [ 127.085446823632637, 36.742532869684638 ], [ 127.088612971437996, 36.746135546628381 ], [ 127.086921971979748, 36.74990576157041 ], [ 127.093830518777494, 36.749992046592013 ], [ 127.098368720589463, 36.755637281049005 ], [ 127.096319502087766, 36.756312053627546 ], [ 127.095737585014405, 36.759171600550815 ], [ 127.09214231598915, 36.759258629700362 ], [ 127.092113631284931, 36.761102533522369 ], [ 127.105427815568248, 36.758449922620166 ], [ 127.105957151864672, 36.759887849858899 ], [ 127.109330985276713, 36.759204554810758 ], [ 127.114298812492365, 36.763002639428045 ], [ 127.121388606734925, 36.765238292639353 ], [ 127.123973196392399, 36.763398943905088 ], [ 127.127984304454571, 36.764909794225062 ], [ 127.130235874767266, 36.763864433671728 ], [ 127.134216449911477, 36.756617881762125 ], [ 127.138481751943488, 36.757672404093782 ], [ 127.142535159554953, 36.753440939596139 ], [ 127.147904238923743, 36.754115010937625 ], [ 127.151689036253941, 36.753383375908449 ], [ 127.151673126672293, 36.75166704718621 ], [ 127.156953776591223, 36.751043274152472 ], [ 127.161796647751345, 36.753874956344454 ], [ 127.163047246843533, 36.745844585443407 ], [ 127.166465069268, 36.74084442012704 ], [ 127.161045808252183, 36.737064136562289 ], [ 127.157525682721442, 36.727456199653773 ], [ 127.151946353725577, 36.728480679621704 ], [ 127.152051239192573, 36.726807300379804 ], [ 127.149288413525625, 36.72593208425976 ], [ 127.147621272148882, 36.722302876206307 ], [ 127.148245835057978, 36.719886609039662 ], [ 127.12787541937621, 36.708916783964305 ], [ 127.124365789207388, 36.715824010288294 ], [ 127.109745092918374, 36.712823186468455 ], [ 127.107393342542025, 36.717728557943225 ], [ 127.088617304007983, 36.71996610898087 ], [ 127.084685717687691, 36.722364299921558 ], [ 127.083301395217617, 36.728249788743746 ], [ 127.08029809379353, 36.730404979002763 ] ] ] ] } },
{ "type": "Feature", "properties": { "emd_cd": "44131320", "emd_nm": "광덕면" }, "geometry": { "type": "MultiPolygon", "coordinates": [ [ [ [ 127.150449455351108, 36.619698971524045 ], [ 127.147801039039535, 36.627035846288962 ], [ 127.148895751773097, 36.628772950803167 ], [ 127.146500333630698, 36.629662134714771 ], [ 127.144916468782696, 36.634999241779397 ], [ 127.140616868169218, 36.636688822956437 ], [ 127.14049667957724, 36.642857187164033 ], [ 127.130047856441507, 36.646453404849773 ], [ 127.127252619764974, 36.65361397842193 ], [ 127.125479266989828, 36.65290596498086 ], [ 127.125597805199021, 36.654460998805057 ], [ 127.123959710212048, 36.652992909776692 ], [ 127.120069412177372, 36.65593283699836 ], [ 127.112364152956758, 36.657326255190739 ], [ 127.111377455520554, 36.658822869476786 ], [ 127.104213910001349, 36.657208477098393 ], [ 127.100501001998438, 36.65424382029515 ], [ 127.0976051071261, 36.655432616990076 ], [ 127.093929781930811, 36.65407939150198 ], [ 127.093171616712581, 36.648743783600096 ], [ 127.088341327228633, 36.642039504606394 ], [ 127.074308781130128, 36.641199448984608 ], [ 127.069779590253859, 36.645135896121744 ], [ 127.05865219494747, 36.645418410847228 ], [ 127.054079564307585, 36.651196583238267 ], [ 127.043021858030144, 36.651656886806954 ], [ 127.039868959376349, 36.654723889427324 ], [ 127.03692149654978, 36.65530854439988 ], [ 127.02531173249919, 36.656029288675271 ], [ 127.020522462716727, 36.650002466168253 ], [ 127.0162806189892, 36.651001834557164 ], [ 127.012896412626759, 36.6543960548466 ], [ 127.011153691863399, 36.653960116998874 ], [ 127.00845645918298, 36.65823636478153 ], [ 127.015491018296942, 36.666434451369632 ], [ 127.015600164096128, 36.672475000950278 ], [ 127.019895327422589, 36.675248726897415 ], [ 127.019535220024878, 36.677174260617278 ], [ 127.029472289313873, 36.6894982898922 ], [ 127.038909925023049, 36.693134989630984 ], [ 127.045321587774708, 36.698109337722627 ], [ 127.049114869061214, 36.703352153275503 ], [ 127.05573104956396, 36.705432533326551 ], [ 127.058452829635698, 36.708380276886103 ], [ 127.072352569375752, 36.708164971822768 ], [ 127.074644456051956, 36.709867963433084 ], [ 127.079278020294211, 36.710125692962478 ], [ 127.079533980296944, 36.717405431148123 ], [ 127.082807430883648, 36.72161415578779 ], [ 127.084685717687691, 36.722364299921558 ], [ 127.088617304007983, 36.71996610898087 ], [ 127.107393342542025, 36.717728557943225 ], [ 127.109745092918374, 36.712823186468455 ], [ 127.124365789207388, 36.715824010288294 ], [ 127.127990176685884, 36.707971910504931 ], [ 127.132030719424691, 36.70615958758421 ], [ 127.134378447467526, 36.706792009301616 ], [ 127.136143500915452, 36.70503959213562 ], [ 127.136030503938997, 36.702940858254621 ], [ 127.138289191616678, 36.701662775900765 ], [ 127.138829698462587, 36.698253944469506 ], [ 127.140903244978418, 36.696885083952658 ], [ 127.140481427879948, 36.694582004942532 ], [ 127.142387932292863, 36.69318291787318 ], [ 127.141748869627079, 36.689983797806107 ], [ 127.143827849511268, 36.688997656992569 ], [ 127.14902594217655, 36.690944403932832 ], [ 127.150888198256752, 36.689454221630783 ], [ 127.156223545875449, 36.690764181667276 ], [ 127.157114033047762, 36.695657407951593 ], [ 127.161444970753593, 36.690218744912009 ], [ 127.159871337879792, 36.688161298037677 ], [ 127.161965854241146, 36.685972479369902 ], [ 127.164123693657928, 36.678497530360971 ], [ 127.163447111874333, 36.676230206827327 ], [ 127.158556568138124, 36.673027340124385 ], [ 127.154360958719266, 36.664417105733783 ], [ 127.159042252516457, 36.661350871807684 ], [ 127.160568718240597, 36.656118938474684 ], [ 127.154289434022175, 36.652449648939182 ], [ 127.153144395714918, 36.64521357490294 ], [ 127.157498064293648, 36.639543978144175 ], [ 127.156489940310365, 36.628616717858904 ], [ 127.16036752056732, 36.626280744220992 ], [ 127.160497350735014, 36.624450832171235 ], [ 127.154989318312346, 36.624208693710855 ], [ 127.150449455351108, 36.619698971524045 ] ] ] ] } },
{ "type": "Feature", "properties": { "emd_cd": "44131330", "emd_nm": "북면" }, "geometry": { "type": "MultiPolygon", "coordinates": [ [ [ [ 127.290588084092846, 36.892197010524136 ], [ 127.299270047877656, 36.889797833500957 ], [ 127.304016816093764, 36.885420662282982 ], [ 127.30781529145041, 36.885435189613801 ], [ 127.308350096184796, 36.882174046083371 ], [ 127.311212455717765, 36.880343400774173 ], [ 127.309509604865539, 36.878210692301181 ], [ 127.311284047274853, 36.870134971950627 ], [ 127.305779051096977, 36.863353802977748 ], [ 127.307362038622159, 36.859399402257985 ], [ 127.304858677377609, 36.851957761616724 ], [ 127.301850498974304, 36.846949400335909 ], [ 127.297829704884151, 36.846476665366517 ], [ 127.295522195616073, 36.84055589468548 ], [ 127.291771902588877, 36.837107727427153 ], [ 127.294093976083531, 36.831897918462204 ], [ 127.29292072370211, 36.829888846055312 ], [ 127.296468228580693, 36.827575864239286 ], [ 127.298902524763534, 36.818273359249872 ], [ 127.294758781868666, 36.814578713364753 ], [ 127.296552359198287, 36.805466325041806 ], [ 127.294939492720871, 36.801176851603614 ], [ 127.283418280168931, 36.799640006596348 ], [ 127.281142964778809, 36.797605703617968 ], [ 127.28067677968572, 36.79129093462447 ], [ 127.283092964627997, 36.788901007023718 ], [ 127.282333473855104, 36.783053242486417 ], [ 127.283483124767841, 36.780874334627399 ], [ 127.281148104209194, 36.780306211377884 ], [ 127.27970404970057, 36.776512280925274 ], [ 127.274965339488702, 36.774761009094888 ], [ 127.276623573509525, 36.772221794838572 ], [ 127.271945510201348, 36.766377463988405 ], [ 127.267290280289885, 36.766054706302754 ], [ 127.263025127536167, 36.762197805865426 ], [ 127.259836368245345, 36.76357294380459 ], [ 127.255345867448284, 36.76356535243638 ], [ 127.257288586186874, 36.76148227889081 ], [ 127.252752951166158, 36.762628665176436 ], [ 127.244588844317931, 36.773678789332031 ], [ 127.249561601935312, 36.779360630163204 ], [ 127.248878990201703, 36.78189084510371 ], [ 127.246834047362611, 36.782241609394774 ], [ 127.248508101825848, 36.78334380269429 ], [ 127.2480320332524, 36.789645871324062 ], [ 127.251036830757826, 36.795372812993818 ], [ 127.254003057566138, 36.796589261500728 ], [ 127.25238952256035, 36.800565642606017 ], [ 127.256681655371409, 36.806233983097009 ], [ 127.257386258599752, 36.811906285826744 ], [ 127.249797140767058, 36.81588919273937 ], [ 127.246843350907142, 36.815541577889888 ], [ 127.24557735025634, 36.819065875300971 ], [ 127.246413421115889, 36.821129938627827 ], [ 127.244167272242649, 36.825085210216422 ], [ 127.24990928175913, 36.82992372879589 ], [ 127.25026264576239, 36.832422674439414 ], [ 127.246919090230023, 36.838099333383774 ], [ 127.246952629842838, 36.843409954357313 ], [ 127.234654162131292, 36.851039749093118 ], [ 127.226796414154933, 36.851226460070073 ], [ 127.230598203144666, 36.857422688758007 ], [ 127.229995591012411, 36.859155438078623 ], [ 127.233348205526937, 36.866892518725614 ], [ 127.237031471467375, 36.865878557226885 ], [ 127.24991530957341, 36.871506283514918 ], [ 127.249542508062461, 36.875385337042225 ], [ 127.252371044917552, 36.878940497231312 ], [ 127.259519276406792, 36.877996447374471 ], [ 127.26247050176886, 36.881528264631712 ], [ 127.266194526624574, 36.883106876648263 ], [ 127.271399022859924, 36.882472589402987 ], [ 127.272701736761533, 36.88734521588691 ], [ 127.275179638053046, 36.889062689052516 ], [ 127.277893365013853, 36.890246612322713 ], [ 127.281394478985007, 36.887848782495311 ], [ 127.284504568603325, 36.888454671190736 ], [ 127.290588084092846, 36.892197010524136 ] ] ] ] } },
{ "type": "Feature", "properties": { "emd_cd": "44131340", "emd_nm": "성남면" }, "geometry": { "type": "MultiPolygon", "coordinates": [ [ [ [ 127.262511733760761, 36.737952793154001 ], [ 127.265204150568565, 36.737851069725941 ], [ 127.265240213351134, 36.735569939415328 ], [ 127.262138090537718, 36.735300852261609 ], [ 127.26031275157132, 36.732693796073242 ], [ 127.263911738957603, 36.731644705846755 ], [ 127.26176547575804, 36.727177350907098 ], [ 127.264662220381354, 36.725455034266922 ], [ 127.260857501635229, 36.722343535709093 ], [ 127.260078997372815, 36.718563769975503 ], [ 127.261353926698149, 36.715947081388485 ], [ 127.264206490035932, 36.714768360055608 ], [ 127.262141822357435, 36.709461040188437 ], [ 127.264721620645133, 36.706666072520328 ], [ 127.270008584630659, 36.693998652268498 ], [ 127.266804806217763, 36.692414627911894 ], [ 127.257915602220876, 36.692219834033075 ], [ 127.25217265984557, 36.696755683574651 ], [ 127.248049120181932, 36.695047976235735 ], [ 127.245710850407605, 36.695891395024624 ], [ 127.243871886924865, 36.697946767371427 ], [ 127.244758471967728, 36.700767660776172 ], [ 127.237047335108784, 36.70440862806155 ], [ 127.236404552223831, 36.707451784871729 ], [ 127.232240725594323, 36.709050788464126 ], [ 127.229747372460835, 36.707826821420355 ], [ 127.224257625877954, 36.710977246366902 ], [ 127.223630034873253, 36.715720044410766 ], [ 127.21607401238019, 36.716097820101346 ], [ 127.214583273046273, 36.718832855392328 ], [ 127.210678437091701, 36.718218470155399 ], [ 127.204807886223378, 36.720876104149596 ], [ 127.202757097131297, 36.728448665839878 ], [ 127.198432899312564, 36.734217538165119 ], [ 127.199113405717284, 36.738392335834945 ], [ 127.197702692290676, 36.739179882460576 ], [ 127.199393265813939, 36.742667168224557 ], [ 127.198236607413577, 36.746295236776675 ], [ 127.201164558573282, 36.749781161723909 ], [ 127.198106418036829, 36.754784225165871 ], [ 127.199319998251156, 36.758368005465243 ], [ 127.209406621263739, 36.754132825479225 ], [ 127.209956419700219, 36.756272957872298 ], [ 127.214269035984302, 36.757592967414858 ], [ 127.219567338390476, 36.76623731171702 ], [ 127.221701159840663, 36.765237124222672 ], [ 127.22515064711564, 36.759238877362485 ], [ 127.23569659447152, 36.755499191811374 ], [ 127.244293684514048, 36.758175623217689 ], [ 127.249736348056899, 36.756501502719829 ], [ 127.252134444561818, 36.75784568099354 ], [ 127.253295024008764, 36.763217520570471 ], [ 127.263260158487512, 36.75804067832194 ], [ 127.265841405491628, 36.754719509076956 ], [ 127.270725081887207, 36.755988911328402 ], [ 127.281009990776738, 36.753787241677259 ], [ 127.279579371047546, 36.751305962052733 ], [ 127.271544253433888, 36.747773396393498 ], [ 127.26419170135506, 36.75055844546597 ], [ 127.26013919843993, 36.748367394545824 ], [ 127.261726357335021, 36.747207718461901 ], [ 127.261289554367636, 36.744901286314679 ], [ 127.257123519392493, 36.742174315042227 ], [ 127.2617331909927, 36.740283874340932 ], [ 127.262511733760761, 36.737952793154001 ] ] ] ] } },
{ "type": "Feature", "properties": { "emd_cd": "44131350", "emd_nm": "수신면" }, "geometry": { "type": "MultiPolygon", "coordinates": [ [ [ [ 127.262563764280856, 36.737953508059427 ], [ 127.2617331909927, 36.740283874340932 ], [ 127.257123519392493, 36.742174315042227 ], [ 127.261289554367636, 36.744901286314679 ], [ 127.261726357335021, 36.747207718461901 ], [ 127.26013919843993, 36.748367394545824 ], [ 127.262679691490177, 36.750233715127962 ], [ 127.267336924421272, 36.749968793589261 ], [ 127.270397963997894, 36.747506226361189 ], [ 127.279579371047546, 36.751305962052733 ], [ 127.280421428033691, 36.754013215354348 ], [ 127.286364975526169, 36.756685298602079 ], [ 127.295648429496666, 36.757698492359964 ], [ 127.300821481801393, 36.755560154969615 ], [ 127.30201452675675, 36.753160097602972 ], [ 127.307662998436584, 36.74990258686956 ], [ 127.306821312838892, 36.746662482355077 ], [ 127.308919191484762, 36.743005942847361 ], [ 127.308494161671476, 36.737380040208791 ], [ 127.311881322809, 36.736520911861014 ], [ 127.312744506333502, 36.734148462420293 ], [ 127.309709625175387, 36.727146999101656 ], [ 127.310807934607979, 36.725781152821142 ], [ 127.309248485249725, 36.724104275238275 ], [ 127.310909191781704, 36.723189871993704 ], [ 127.30801904270983, 36.718348488443056 ], [ 127.308896756688242, 36.714077849994609 ], [ 127.306100699781283, 36.708269622072009 ], [ 127.308397908648416, 36.704805552180062 ], [ 127.296547020232481, 36.697651782591109 ], [ 127.292011489793424, 36.697299406211492 ], [ 127.285263230227983, 36.690605965661334 ], [ 127.281356669902792, 36.690408197046203 ], [ 127.279970818452497, 36.692134747241752 ], [ 127.277708776869829, 36.691349121323292 ], [ 127.273476937224459, 36.695265774003332 ], [ 127.270008584630659, 36.693998652268498 ], [ 127.264721620645133, 36.706666072520328 ], [ 127.262141822357435, 36.709461040188437 ], [ 127.264206490035932, 36.714768360055608 ], [ 127.261353926698149, 36.715947081388485 ], [ 127.260078997372815, 36.718563769975503 ], [ 127.260857501635229, 36.722343535709093 ], [ 127.264662220381354, 36.725455034266922 ], [ 127.26176547575804, 36.727177350907098 ], [ 127.263911738957603, 36.731644705846755 ], [ 127.26031275157132, 36.732693796073242 ], [ 127.262138090537718, 36.735300852261609 ], [ 127.265240213351134, 36.735569939415328 ], [ 127.265204150568565, 36.737851069725941 ], [ 127.262563764280856, 36.737953508059427 ] ] ] ] } },
{ "type": "Feature", "properties": { "emd_cd": "44131360", "emd_nm": "병천면" }, "geometry": { "type": "MultiPolygon", "coordinates": [ [ [ [ 127.307296593564516, 36.859702968766982 ], [ 127.312729652611395, 36.857466501407977 ], [ 127.319299874708918, 36.859064823238668 ], [ 127.324514558283511, 36.856899713952821 ], [ 127.32813073733044, 36.858162563784731 ], [ 127.334796180386505, 36.856180814571154 ], [ 127.336924233320985, 36.853699246274111 ], [ 127.336800549582534, 36.845640822002736 ], [ 127.334619245219073, 36.842141784251396 ], [ 127.334037350724316, 36.838431232615505 ], [ 127.335606871984425, 36.837427201708586 ], [ 127.333987853983089, 36.831211876256489 ], [ 127.336600407270922, 36.829727779268886 ], [ 127.339288276782582, 36.831250398862657 ], [ 127.346368702531208, 36.829305889582486 ], [ 127.351734868104842, 36.830660971256265 ], [ 127.356053962697089, 36.82865345830772 ], [ 127.358082854180623, 36.825442540701509 ], [ 127.358109492368712, 36.822462972992327 ], [ 127.351946527652899, 36.81337742426642 ], [ 127.347448217582226, 36.81151033335528 ], [ 127.343755045446386, 36.806763678952706 ], [ 127.341520638753394, 36.806132784506296 ], [ 127.343932976883551, 36.802568614664786 ], [ 127.342700262570261, 36.800713545822788 ], [ 127.337924579434599, 36.800586388629227 ], [ 127.334344415658421, 36.79708377664447 ], [ 127.331992361380074, 36.798103930910919 ], [ 127.328020462323806, 36.796234318128086 ], [ 127.325459051449442, 36.789426982193817 ], [ 127.327969336714688, 36.785600385192261 ], [ 127.32781474248489, 36.780504729977828 ], [ 127.324685612891528, 36.776438338600379 ], [ 127.323997619378233, 36.770065411617615 ], [ 127.32059145990273, 36.767032332468759 ], [ 127.320291232815478, 36.762168796768812 ], [ 127.321949749739318, 36.760638657820934 ], [ 127.320401499747206, 36.759673585388349 ], [ 127.327481459563899, 36.75821634851512 ], [ 127.335346936565969, 36.752407189386432 ], [ 127.332395179759558, 36.747505784176127 ], [ 127.337112341711517, 36.744345177843201 ], [ 127.337404994498286, 36.74011532361677 ], [ 127.341512980832903, 36.738470196757817 ], [ 127.343166250815401, 36.735695248339191 ], [ 127.342468317180035, 36.732823271706877 ], [ 127.336895823007126, 36.72934515063924 ], [ 127.329651228588844, 36.734370707218254 ], [ 127.32713481496755, 36.734220563795702 ], [ 127.318012662080562, 36.724907984373722 ], [ 127.312418819158594, 36.723780150965375 ], [ 127.310439605334281, 36.724298930187935 ], [ 127.30967622994541, 36.72662817034989 ], [ 127.312661658957154, 36.734700367011314 ], [ 127.311881322809, 36.736520911861014 ], [ 127.308494161671476, 36.737380040208791 ], [ 127.308919191484762, 36.743005942847361 ], [ 127.306821312838892, 36.746662482355077 ], [ 127.307662998436584, 36.749902586869567 ], [ 127.298268700311397, 36.757341725120888 ], [ 127.286364975526169, 36.756685298602065 ], [ 127.280755896328529, 36.754011773101205 ], [ 127.270725081887207, 36.755988911328387 ], [ 127.26639123196658, 36.754596510367485 ], [ 127.255317674394902, 36.763489611282409 ], [ 127.263025127536167, 36.762197805865426 ], [ 127.267290280289885, 36.766054706302754 ], [ 127.271945510201348, 36.766377463988405 ], [ 127.276623573509525, 36.772221794838572 ], [ 127.274965339488702, 36.774761009094888 ], [ 127.27970404970057, 36.776512280925274 ], [ 127.281148104209194, 36.780306211377884 ], [ 127.283483124767841, 36.780874334627399 ], [ 127.282333473855104, 36.783053242486417 ], [ 127.283092964627997, 36.788901007023718 ], [ 127.28067677968572, 36.79129093462447 ], [ 127.281142964778809, 36.797605703617968 ], [ 127.283418280168931, 36.799640006596348 ], [ 127.294939492720871, 36.801176851603614 ], [ 127.296774850844997, 36.806551807751745 ], [ 127.294758781868666, 36.814578713364753 ], [ 127.298902524763534, 36.818273359249872 ], [ 127.296468228580693, 36.827575864239286 ], [ 127.29292072370211, 36.829888846055312 ], [ 127.294093976083531, 36.831897918462204 ], [ 127.291771902588877, 36.837107727427153 ], [ 127.295522195616073, 36.84055589468548 ], [ 127.297829704884151, 36.846476665366517 ], [ 127.301850498974304, 36.846949400335909 ], [ 127.307296593564516, 36.859702968766982 ] ] ] ] } },
{ "type": "Feature", "properties": { "emd_cd": "44131370", "emd_nm": "동면" }, "geometry": { "type": "MultiPolygon", "coordinates": [ [ [ [ 127.335346936565969, 36.752407189386432 ], [ 127.327481459563899, 36.75821634851512 ], [ 127.320401499747206, 36.759673585388349 ], [ 127.321949749739318, 36.760638657820934 ], [ 127.320291232815478, 36.762168796768812 ], [ 127.32059145990273, 36.767032332468759 ], [ 127.323997619378233, 36.770065411617615 ], [ 127.324685612891528, 36.776438338600379 ], [ 127.32781474248489, 36.780504729977828 ], [ 127.327969336714688, 36.785600385192261 ], [ 127.325459051449442, 36.789426982193817 ], [ 127.327283580358554, 36.792070765564482 ], [ 127.326559554715459, 36.793710861531935 ], [ 127.328020462323806, 36.796234318128086 ], [ 127.331992361380074, 36.798103930910919 ], [ 127.334344415658421, 36.79708377664447 ], [ 127.337924579434599, 36.800586388629227 ], [ 127.342700262570261, 36.800713545822788 ], [ 127.343932976883551, 36.802568614664786 ], [ 127.341520638753394, 36.806132784506296 ], [ 127.343755045446386, 36.806763678952706 ], [ 127.347448217582226, 36.81151033335528 ], [ 127.351946527652899, 36.81337742426642 ], [ 127.358109492368712, 36.822462972992327 ], [ 127.366613710976651, 36.816969592324277 ], [ 127.382157032551873, 36.813752675546631 ], [ 127.391608076295924, 36.806587510719851 ], [ 127.397487753248754, 36.799672578097031 ], [ 127.401181466706177, 36.798751356007379 ], [ 127.401717509327071, 36.79514848639991 ], [ 127.396738250911838, 36.790278905920303 ], [ 127.395496934201063, 36.782477605365656 ], [ 127.399817793154867, 36.780856496347845 ], [ 127.4033174276029, 36.774474792931422 ], [ 127.41294995811981, 36.773216621692718 ], [ 127.417176076891764, 36.763533741569034 ], [ 127.420417074216857, 36.760837676864647 ], [ 127.419697924792587, 36.757661521008295 ], [ 127.410795870779864, 36.756118331902094 ], [ 127.411370812478069, 36.753559030997344 ], [ 127.405597559844196, 36.750261882256339 ], [ 127.40419746228919, 36.744850331123324 ], [ 127.400950080400079, 36.747285183830442 ], [ 127.396020674156759, 36.747933151163913 ], [ 127.393460113880295, 36.752675058701385 ], [ 127.38865510946728, 36.753489124569633 ], [ 127.386371159891411, 36.759285514699094 ], [ 127.372301967225596, 36.757926624924181 ], [ 127.369585751746953, 36.761575061516915 ], [ 127.360076920854354, 36.759716610971005 ], [ 127.357814415431349, 36.760973405344949 ], [ 127.356132118441835, 36.756676030579456 ], [ 127.352252550325716, 36.75408198445777 ], [ 127.335346936565969, 36.752407189386432 ] ] ] ] } }
]
}
