{
"type": "FeatureCollection",
"name": "44133",
"crs": { "type": "name", "properties": { "name": "urn:ogc:def:crs:OGC:1.3:CRS84" } },
"features": [
{ "type": "Feature", "properties": { "emd_cd": "44133101", "emd_nm": "와촌동" }, "geometry": { "type": "MultiPolygon", "coordinates": [ [ [ [ 127.145740927575744, 36.803557491209986 ], [ 127.142726933649044, 36.803487551117698 ], [ 127.142592574193472, 36.810405469547391 ], [ 127.145343575043938, 36.811458997278663 ], [ 127.14831986007718, 36.815807706259548 ], [ 127.145740927575744, 36.803557491209986 ] ] ] ] } },
{ "type": "Feature", "properties": { "emd_cd": "44133102", "emd_nm": "성정동" }, "geometry": { "type": "MultiPolygon", "coordinates": [ [ [ [ 127.128377759854558, 36.820093068656384 ], [ 127.130543303165709, 36.822712648205048 ], [ 127.130285173456116, 36.825448510660898 ], [ 127.133025755944089, 36.826387152835046 ], [ 127.133260839152072, 36.830393097641085 ], [ 127.145118216282796, 36.829753552471338 ], [ 127.146753211772364, 36.828281321346438 ], [ 127.150432559513064, 36.829013843241817 ], [ 127.149050689810494, 36.818741854961957 ], [ 127.150594792903973, 36.817770577157226 ], [ 127.145343575043938, 36.811458997278663 ], [ 127.142652432742892, 36.810517513835883 ], [ 127.142173627675561, 36.807398810875995 ], [ 127.134312954312207, 36.813391826674241 ], [ 127.134890861418711, 36.815616003501091 ], [ 127.128377759854558, 36.820093068656384 ] ] ] ] } },
{ "type": "Feature", "properties": { "emd_cd": "44133103", "emd_nm": "백석동" }, "geometry": { "type": "MultiPolygon", "coordinates": [ [ [ [ 127.127212029079018, 36.835636562767867 ], [ 127.127140682130047, 36.82451453984401 ], [ 127.130794473324997, 36.825677828958405 ], [ 127.129559178193603, 36.824009018956794 ], [ 127.130543303165709, 36.822712648205048 ], [ 127.127857856627116, 36.818561495735288 ], [ 127.120455757484919, 36.815108264674798 ], [ 127.112814132707669, 36.817959156736663 ], [ 127.112793348750344, 36.821145051350783 ], [ 127.110464138676576, 36.818946040339412 ], [ 127.111564721862266, 36.822658550801279 ], [ 127.102033170408859, 36.825217172949415 ], [ 127.100639761019508, 36.827241613431951 ], [ 127.101765156394777, 36.828618606975496 ], [ 127.100873622586917, 36.831640909427229 ], [ 127.105629518909836, 36.836497077706738 ], [ 127.108571110317982, 36.835681744853666 ], [ 127.110909702179285, 36.83772595079035 ], [ 127.117220378359406, 36.835566428322707 ], [ 127.119632651693522, 36.839092492482798 ], [ 127.123676891749042, 36.839054614077142 ], [ 127.123051424467548, 36.837131407431691 ], [ 127.127212029079018, 36.835636562767867 ] ] ] ] } },
{ "type": "Feature", "properties": { "emd_cd": "44133104", "emd_nm": "두정동" }, "geometry": { "type": "MultiPolygon", "coordinates": [ [ [ [ 127.163491037141242, 36.836889793315407 ], [ 127.157805157837871, 36.833038561545862 ], [ 127.156210549418404, 36.828397168482923 ], [ 127.152632858165745, 36.824394960410054 ], [ 127.150258944982824, 36.824570388670097 ], [ 127.150423178166605, 36.829031642720679 ], [ 127.146753211772364, 36.828281321346438 ], [ 127.145118216282796, 36.829753552471338 ], [ 127.133260839152072, 36.830393097641085 ], [ 127.133025755944089, 36.826387152835046 ], [ 127.127140682130047, 36.82451453984401 ], [ 127.128384841032215, 36.839173070417566 ], [ 127.148120461104355, 36.838914867934953 ], [ 127.148457509547896, 36.835309044428087 ], [ 127.148710321123048, 36.838905623665312 ], [ 127.157580153001888, 36.839323458953643 ], [ 127.163491037141242, 36.836889793315407 ] ] ] ] } },
{ "type": "Feature", "properties": { "emd_cd": "44133105", "emd_nm": "성성동" }, "geometry": { "type": "MultiPolygon", "coordinates": [ [ [ [ 127.111240457152732, 36.838296708922293 ], [ 127.111461840185456, 36.838441446263097 ], [ 127.110909702179285, 36.83772595079035 ], [ 127.111240457152732, 36.838296708922293 ] ] ], [ [ [ 127.127120020616701, 36.835653780914306 ], [ 127.123051424467548, 36.837131407431691 ], [ 127.123676891749042, 36.839054614077142 ], [ 127.119632651693522, 36.839092492482798 ], [ 127.117220378359406, 36.835566428322707 ], [ 127.114300360785364, 36.836510343361837 ], [ 127.115795045354474, 36.839522193377299 ], [ 127.109956488758087, 36.8413959122271 ], [ 127.11344603124337, 36.847214046158243 ], [ 127.115460710272757, 36.846621470994585 ], [ 127.122677154796335, 36.854499561397319 ], [ 127.124691357214061, 36.85442288027528 ], [ 127.129854973401109, 36.848337126110074 ], [ 127.130348427626828, 36.845514848264479 ], [ 127.135288579250457, 36.847180270960983 ], [ 127.139998900997227, 36.851361710437054 ], [ 127.143506045270101, 36.838980698392668 ], [ 127.128384841032215, 36.839173070417566 ], [ 127.127120020616701, 36.835653780914306 ] ] ] ] } },
{ "type": "Feature", "properties": { "emd_cd": "44133106", "emd_nm": "차암동" }, "geometry": { "type": "MultiPolygon", "coordinates": [ [ [ [ 127.098182607092795, 36.840167229439828 ], [ 127.105788896562231, 36.846668285153072 ], [ 127.110521597102718, 36.85415683026315 ], [ 127.110748029058598, 36.857975651727351 ], [ 127.114555289706175, 36.857249502202762 ], [ 127.117213590062164, 36.860673192517488 ], [ 127.122110867043716, 36.858692310085189 ], [ 127.122021005888669, 36.852524752830888 ], [ 127.118467065659928, 36.850797925049655 ], [ 127.115460710272757, 36.846621470994585 ], [ 127.11344603124337, 36.847214046158243 ], [ 127.109956488758087, 36.8413959122271 ], [ 127.115795045354474, 36.839522193377299 ], [ 127.114300360785364, 36.836510343361837 ], [ 127.111461840185456, 36.838441446263097 ], [ 127.108571110317982, 36.835681744853666 ], [ 127.105389792593513, 36.836669388514721 ], [ 127.104900090604403, 36.838330073934777 ], [ 127.09924005344233, 36.83754583163892 ], [ 127.098182607092795, 36.840167229439828 ] ] ] ] } },
{ "type": "Feature", "properties": { "emd_cd": "44133107", "emd_nm": "쌍용동" }, "geometry": { "type": "MultiPolygon", "coordinates": [ [ [ [ 127.110352977450788, 36.793072661101924 ], [ 127.111042057762688, 36.797278590962776 ], [ 127.11465742781084, 36.800668301804983 ], [ 127.114079674692192, 36.801693280719903 ], [ 127.117552023344501, 36.80352650361062 ], [ 127.118025996750404, 36.806875338264078 ], [ 127.115604511239056, 36.807153991810786 ], [ 127.115709263509501, 36.808872378269648 ], [ 127.119738950337407, 36.814999882970127 ], [ 127.124240994427169, 36.817256540350165 ], [ 127.126039250703911, 36.812305397533457 ], [ 127.133235493759486, 36.809786357960341 ], [ 127.131392258670843, 36.799910025789977 ], [ 127.134631814039253, 36.800327169863159 ], [ 127.135445986971519, 36.795787593906866 ], [ 127.133738660159679, 36.796200111275944 ], [ 127.132330087291393, 36.794445647481453 ], [ 127.1293590147625, 36.795359274892242 ], [ 127.124814848375976, 36.78902895978149 ], [ 127.120017611540561, 36.79073566700459 ], [ 127.114758728254799, 36.785061290957735 ], [ 127.113329152820299, 36.785021228565803 ], [ 127.113678940538179, 36.787126139046372 ], [ 127.110352977450788, 36.793072661101924 ] ] ] ] } },
{ "type": "Feature", "properties": { "emd_cd": "44133108", "emd_nm": "불당동" }, "geometry": { "type": "MultiPolygon", "coordinates": [ [ [ [ 127.094173136425283, 36.797263978203183 ], [ 127.096742985050454, 36.801310877733528 ], [ 127.096146427634665, 36.805009282445184 ], [ 127.098021581844435, 36.806876783811745 ], [ 127.098371234606674, 36.811875573506796 ], [ 127.096615309901267, 36.81501676931321 ], [ 127.100339147840927, 36.819531034065697 ], [ 127.102151594518048, 36.82520253799418 ], [ 127.111564721862266, 36.822658550801279 ], [ 127.110464138676576, 36.818946040339412 ], [ 127.112793348750344, 36.821145051350783 ], [ 127.112814132707669, 36.817959156736663 ], [ 127.119321142515261, 36.815884874555628 ], [ 127.115468437439034, 36.807450594649566 ], [ 127.118025996750404, 36.806875338264078 ], [ 127.117552023344501, 36.80352650361062 ], [ 127.114079674692192, 36.801693280719903 ], [ 127.11465742781084, 36.800668301804983 ], [ 127.111649828574457, 36.797712173498667 ], [ 127.106718315675522, 36.796976406756258 ], [ 127.105419648590939, 36.799762749576026 ], [ 127.10375387748357, 36.799525499467734 ], [ 127.098932113050637, 36.794245343605205 ], [ 127.099733733212403, 36.792726481752958 ], [ 127.097998525838037, 36.792439196550966 ], [ 127.097712146166373, 36.794468937027851 ], [ 127.095811614805854, 36.794587359719927 ], [ 127.094173136425283, 36.797263978203183 ] ] ] ] } },
{ "type": "Feature", "properties": { "emd_cd": "44133109", "emd_nm": "업성동" }, "geometry": { "type": "MultiPolygon", "coordinates": [ [ [ [ 127.14719478877484, 36.868493695486187 ], [ 127.14807166136562, 36.864118125161816 ], [ 127.145449003377237, 36.857051403210825 ], [ 127.145095767934677, 36.858243647620647 ], [ 127.143588475467681, 36.857199258863993 ], [ 127.135288579250457, 36.847180270960983 ], [ 127.130348427626828, 36.845514848264479 ], [ 127.129854973401109, 36.848337126110074 ], [ 127.124691357214061, 36.85442288027528 ], [ 127.121482433287213, 36.855451520788328 ], [ 127.122110867043716, 36.858692310085189 ], [ 127.120457366921741, 36.860183398561986 ], [ 127.123941031367792, 36.860226718236163 ], [ 127.125039882656267, 36.862693872614081 ], [ 127.129451120554847, 36.863956948618593 ], [ 127.130748020941567, 36.867349818547716 ], [ 127.131719806968235, 36.865625251036974 ], [ 127.137551633070345, 36.864081387031597 ], [ 127.14502022076455, 36.864305951539407 ], [ 127.14719478877484, 36.868493695486187 ] ] ] ] } },
{ "type": "Feature", "properties": { "emd_cd": "44133110", "emd_nm": "신당동" }, "geometry": { "type": "MultiPolygon", "coordinates": [ [ [ [ 127.145795950159098, 36.858270021861571 ], [ 127.14807166136562, 36.864118125161816 ], [ 127.147396124930239, 36.868742808469392 ], [ 127.150272460395584, 36.864022650241623 ], [ 127.162093133265813, 36.864968510871876 ], [ 127.165391684532338, 36.862565968746608 ], [ 127.164686639118685, 36.860004889532142 ], [ 127.166254891549073, 36.858382654849194 ], [ 127.173086658320941, 36.858208098200372 ], [ 127.173492374021905, 36.856870339305232 ], [ 127.16991690289062, 36.850578333364929 ], [ 127.171246577533083, 36.847488507412677 ], [ 127.162471523753524, 36.846364140087822 ], [ 127.155239076468334, 36.848247672115427 ], [ 127.155206269011245, 36.84992204404729 ], [ 127.152311557338123, 36.849460604931586 ], [ 127.147417500435338, 36.854037817207015 ], [ 127.148379948161619, 36.856571218875551 ], [ 127.145795950159098, 36.858270021861571 ] ] ] ] } },
{ "type": "Feature", "properties": { "emd_cd": "44133111", "emd_nm": "부대동" }, "geometry": { "type": "MultiPolygon", "coordinates": [ [ [ [ 127.139959028764522, 36.851386455964295 ], [ 127.14181848297585, 36.85538070453272 ], [ 127.145795950159098, 36.858270021861571 ], [ 127.148379948161619, 36.856571218875551 ], [ 127.147417500435338, 36.854037817207015 ], [ 127.152311557338123, 36.849460604931586 ], [ 127.155206269011245, 36.84992204404729 ], [ 127.155239076468334, 36.848247672115427 ], [ 127.159958929442041, 36.846574344621835 ], [ 127.167102425518422, 36.847912020123907 ], [ 127.170846255147069, 36.847149310428918 ], [ 127.171182221484258, 36.845763780933126 ], [ 127.163491037141242, 36.836889793315407 ], [ 127.157580153001888, 36.839323458953643 ], [ 127.148710321123048, 36.838905623665312 ], [ 127.148457509547896, 36.835309044428087 ], [ 127.148120461104355, 36.838914867934953 ], [ 127.142750302042813, 36.839760346645576 ], [ 127.139959028764522, 36.851386455964295 ] ] ] ] } },
{ "type": "Feature", "properties": { "emd_cd": "44133250", "emd_nm": "성환읍" }, "geometry": { "type": "MultiPolygon", "coordinates": [ [ [ [ 127.092921862572439, 36.893626628281062 ], [ 127.089131838412925, 36.900177819669942 ], [ 127.084743289232222, 36.901900498894342 ], [ 127.084635216239263, 36.903398348470859 ], [ 127.087490470163928, 36.907348603675423 ], [ 127.092742812785843, 36.908245018509923 ], [ 127.093801566431466, 36.913547351356868 ], [ 127.088976288987411, 36.91847834968825 ], [ 127.087496803993091, 36.924265698262978 ], [ 127.082363449941127, 36.927828009555398 ], [ 127.079411854599726, 36.933743871400601 ], [ 127.074738837172134, 36.935937869389839 ], [ 127.074075876034541, 36.938622599073156 ], [ 127.086212103419186, 36.947739560498398 ], [ 127.092892591288162, 36.942822215695692 ], [ 127.095763919925645, 36.9423760615799 ], [ 127.097002642523933, 36.94799583262202 ], [ 127.102999102811921, 36.953162046394979 ], [ 127.09641462628646, 36.95569326047044 ], [ 127.096419827808333, 36.959395989883753 ], [ 127.100781235108855, 36.960681213102653 ], [ 127.102504951953847, 36.964762745716484 ], [ 127.10664924304605, 36.965990907104256 ], [ 127.107900135905666, 36.968811371745609 ], [ 127.110852989038023, 36.96922619538919 ], [ 127.113097877839039, 36.973075851791478 ], [ 127.115044644155319, 36.971030052018271 ], [ 127.120219307089158, 36.970349235510874 ], [ 127.121362402161139, 36.968265872346066 ], [ 127.136116970794077, 36.965614565700349 ], [ 127.13717094708386, 36.965951280191945 ], [ 127.136067060742434, 36.968073443914754 ], [ 127.143923876473153, 36.971120425958127 ], [ 127.150220534749309, 36.969416010366025 ], [ 127.158902855272387, 36.969895582377241 ], [ 127.158007797244053, 36.967313506172694 ], [ 127.154439656606868, 36.966214323851396 ], [ 127.155450801534926, 36.964397728744892 ], [ 127.160888157058011, 36.96430530381523 ], [ 127.165555634211032, 36.961623874635634 ], [ 127.171938648496862, 36.963241911198168 ], [ 127.175182331256792, 36.962322867378546 ], [ 127.175299628252588, 36.958869485531068 ], [ 127.173576460943053, 36.956534203821889 ], [ 127.175920576360937, 36.956279103181544 ], [ 127.175510127626865, 36.954606208406766 ], [ 127.173064202639125, 36.954129878188212 ], [ 127.177681750180298, 36.953905812989092 ], [ 127.182812661100073, 36.949455758035263 ], [ 127.181695619817276, 36.946217292613902 ], [ 127.175805545997918, 36.943718576953998 ], [ 127.167454427189909, 36.933193183728406 ], [ 127.168605459963103, 36.930400054257369 ], [ 127.167064635761221, 36.927018834666896 ], [ 127.173049723941034, 36.923026641813799 ], [ 127.17459100883697, 36.919157114483916 ], [ 127.168173643979173, 36.912191722267032 ], [ 127.165172515142586, 36.911468518377845 ], [ 127.160276330314602, 36.906453784169905 ], [ 127.151424454293547, 36.9102372855209 ], [ 127.150188479993389, 36.903742177383911 ], [ 127.146225902604158, 36.904296211932717 ], [ 127.139718043108914, 36.898917894702649 ], [ 127.136355150954557, 36.893803960673011 ], [ 127.131053417516625, 36.893242649334361 ], [ 127.131311032161136, 36.894938158408202 ], [ 127.128251684980043, 36.89807904986867 ], [ 127.125806887578548, 36.896644221960173 ], [ 127.121890418997751, 36.897454595515292 ], [ 127.123678360823163, 36.891108593905273 ], [ 127.10772934160515, 36.888718249804356 ], [ 127.092921862572439, 36.893626628281062 ] ] ] ] } },
{ "type": "Feature", "properties": { "emd_cd": "44133253", "emd_nm": "성거읍" }, "geometry": { "type": "MultiPolygon", "coordinates": [ [ [ [ 127.189983114391922, 36.911250873274597 ], [ 127.203855916347251, 36.912530928403697 ], [ 127.206143783064135, 36.908484424485017 ], [ 127.204147571517552, 36.905974864489401 ], [ 127.213761974411582, 36.902117287287616 ], [ 127.218689899164346, 36.894731461865689 ], [ 127.215147917925705, 36.886962671068694 ], [ 127.217378089372943, 36.883227573255802 ], [ 127.228006095365018, 36.876566916347272 ], [ 127.232824777536223, 36.87177410370419 ], [ 127.233668248896805, 36.86732788822853 ], [ 127.228761076145744, 36.853660879165552 ], [ 127.222914341503753, 36.848822861046678 ], [ 127.21646646416437, 36.848886652277884 ], [ 127.212385254353279, 36.847219462397433 ], [ 127.206063237216199, 36.852604460791994 ], [ 127.19618401086376, 36.853086322365364 ], [ 127.193731334829764, 36.850054068278602 ], [ 127.177026556376006, 36.84123817164344 ], [ 127.171131312879538, 36.845948353383122 ], [ 127.16991690289062, 36.850578333364929 ], [ 127.173344685646668, 36.858013863668347 ], [ 127.166254891549073, 36.858382654849194 ], [ 127.164686639118685, 36.860004889532142 ], [ 127.165391684532338, 36.862565968746608 ], [ 127.162093133265813, 36.864968510871876 ], [ 127.150272460395584, 36.864022650241623 ], [ 127.147710465557878, 36.873652521317695 ], [ 127.149154875098702, 36.875725909608583 ], [ 127.155947340251885, 36.876479998437709 ], [ 127.153943014041332, 36.879002070008617 ], [ 127.163953437827402, 36.879278095110102 ], [ 127.173690329380065, 36.883054273712972 ], [ 127.174607124900888, 36.881101365028186 ], [ 127.179388138500784, 36.878729126032773 ], [ 127.182845607065403, 36.881266522584262 ], [ 127.182019189834662, 36.882592981110648 ], [ 127.184272015274161, 36.887047419161853 ], [ 127.183070752801726, 36.890049425923316 ], [ 127.185899662217565, 36.891753375940056 ], [ 127.18230727255029, 36.89592880938558 ], [ 127.181292524854925, 36.899778453312535 ], [ 127.185148836931489, 36.899627885787147 ], [ 127.185632981139761, 36.902380595143725 ], [ 127.183887141932431, 36.903781264347941 ], [ 127.185459948994321, 36.904714422170571 ], [ 127.186075620130339, 36.908826233181415 ], [ 127.189983114391922, 36.911250873274597 ] ] ] ] } },
{ "type": "Feature", "properties": { "emd_cd": "44133256", "emd_nm": "직산읍" }, "geometry": { "type": "MultiPolygon", "coordinates": [ [ [ [ 127.123941031367792, 36.860226718236163 ], [ 127.117213590062164, 36.860673192517488 ], [ 127.116102473286418, 36.857944478309783 ], [ 127.109862272911158, 36.857176045243662 ], [ 127.10718251129947, 36.860162033930969 ], [ 127.102742551843988, 36.861624890600886 ], [ 127.087420040448961, 36.861708455879452 ], [ 127.088650182142359, 36.867364874525023 ], [ 127.086370160234623, 36.875859703480252 ], [ 127.090739874751094, 36.882174791179047 ], [ 127.087573813765175, 36.88974134839799 ], [ 127.092921862572439, 36.893626628281062 ], [ 127.107332455228487, 36.888773354282314 ], [ 127.116452028802186, 36.889371101174888 ], [ 127.123678360823163, 36.891108593905273 ], [ 127.121890418997751, 36.897454595515292 ], [ 127.125806887578548, 36.896644221960173 ], [ 127.128251684980043, 36.89807904986867 ], [ 127.131311032161136, 36.894938158408202 ], [ 127.131053417516625, 36.893242649334361 ], [ 127.136805447057668, 36.893973133239577 ], [ 127.139718043108914, 36.898917894702649 ], [ 127.146225902604158, 36.904296211932717 ], [ 127.150188479993389, 36.903742177383911 ], [ 127.151424454293547, 36.9102372855209 ], [ 127.160276330314602, 36.906453784169905 ], [ 127.165172515142586, 36.911468518377845 ], [ 127.168173643979173, 36.912191722267032 ], [ 127.17459100883697, 36.919157114483916 ], [ 127.173037396395259, 36.922012496109637 ], [ 127.17967402595697, 36.922217492631511 ], [ 127.179479184316634, 36.918619782611692 ], [ 127.185358416328341, 36.91415089934025 ], [ 127.185155853260468, 36.910729720046341 ], [ 127.189983114391922, 36.911250873274597 ], [ 127.186075620130339, 36.908826233181415 ], [ 127.185459948994321, 36.904714422170571 ], [ 127.183887141932431, 36.903781264347941 ], [ 127.185632981139761, 36.902380595143725 ], [ 127.185148836931489, 36.899627885787147 ], [ 127.181292524854925, 36.899778453312535 ], [ 127.18230727255029, 36.89592880938558 ], [ 127.185899662217565, 36.891753375940056 ], [ 127.183070752801726, 36.890049425923316 ], [ 127.184272015274161, 36.887047419161853 ], [ 127.182019189834662, 36.882592981110648 ], [ 127.182845607065403, 36.881266522584262 ], [ 127.179388138500784, 36.878729126032773 ], [ 127.174607124900888, 36.881101365028186 ], [ 127.173690329380065, 36.883054273712972 ], [ 127.163953437827402, 36.879278095110102 ], [ 127.153943014041332, 36.879002070008617 ], [ 127.155947340251885, 36.876479998437709 ], [ 127.148774310572279, 36.875532998087117 ], [ 127.147710465557878, 36.873652521317695 ], [ 127.149209505260885, 36.866671114309504 ], [ 127.146192474507572, 36.868488747374947 ], [ 127.14502022076455, 36.864305951539407 ], [ 127.137551633070345, 36.864081387031597 ], [ 127.131719806968235, 36.865625251036974 ], [ 127.130748020941567, 36.867349818547716 ], [ 127.129451120554847, 36.863956948618593 ], [ 127.125039882656267, 36.862693872614081 ], [ 127.123941031367792, 36.860226718236163 ] ] ] ] } },
{ "type": "Feature", "properties": { "emd_cd": "44133310", "emd_nm": "입장면" }, "geometry": { "type": "MultiPolygon", "coordinates": [ [ [ [ 127.233513260413616, 36.866935268942605 ], [ 127.232824777536223, 36.87177410370419 ], [ 127.222687060135371, 36.880837739558686 ], [ 127.217378089372943, 36.883227573255802 ], [ 127.215147917925705, 36.886962671068694 ], [ 127.218689899164346, 36.894731461865689 ], [ 127.213761974411582, 36.902117287287616 ], [ 127.204147571517552, 36.905974864489401 ], [ 127.206143783064135, 36.908484424485017 ], [ 127.203855916347251, 36.912530928403697 ], [ 127.185155853260468, 36.910729720046341 ], [ 127.185358416328341, 36.91415089934025 ], [ 127.179479184316634, 36.918619782611692 ], [ 127.17967402595697, 36.922217492631511 ], [ 127.172851677929657, 36.921756062668663 ], [ 127.173049723941034, 36.923026641813799 ], [ 127.167064635761221, 36.927018834666896 ], [ 127.168605459963103, 36.930400054257369 ], [ 127.167454427189909, 36.933193183728406 ], [ 127.170173873824595, 36.937300000649152 ], [ 127.175805545997918, 36.943718576953998 ], [ 127.182394782449762, 36.947371165080391 ], [ 127.182812661100073, 36.949455758035263 ], [ 127.180426083071978, 36.952030010680211 ], [ 127.177681750180298, 36.953905812989092 ], [ 127.173064202639125, 36.954129878188212 ], [ 127.175510127626865, 36.954606208406766 ], [ 127.175920576360937, 36.956279103181544 ], [ 127.173576460943053, 36.956534203821889 ], [ 127.175299628252588, 36.958869485531068 ], [ 127.175182331256792, 36.962322867378546 ], [ 127.178210845691325, 36.962514708598164 ], [ 127.180567442931178, 36.956661571441671 ], [ 127.185143741359241, 36.95494859336636 ], [ 127.185982514650959, 36.955378325474754 ], [ 127.187681888792284, 36.955603637934729 ], [ 127.190489178430468, 36.95266806782957 ], [ 127.194646858976398, 36.951924312271942 ], [ 127.197546559409403, 36.952314054412042 ], [ 127.200022109906342, 36.952142953707302 ], [ 127.201079921819243, 36.951985690176549 ], [ 127.20268683876472, 36.951646632265017 ], [ 127.207031260514697, 36.946028157542031 ], [ 127.205751362751798, 36.941921735887803 ], [ 127.211650897943898, 36.937803181527478 ], [ 127.209643903153889, 36.932659544985029 ], [ 127.210343830255241, 36.930479557746963 ], [ 127.216599654544865, 36.930564242803811 ], [ 127.217590141731279, 36.929303107551654 ], [ 127.22025733409231, 36.930317135868776 ], [ 127.228568190939626, 36.9244431563829 ], [ 127.235950531279641, 36.923935553200437 ], [ 127.23758798332446, 36.92064037559755 ], [ 127.243760771984057, 36.917416055447156 ], [ 127.248093975162561, 36.918368652744945 ], [ 127.24884776259492, 36.921229284413599 ], [ 127.253116272975333, 36.922468187925467 ], [ 127.258431225928135, 36.915839772784295 ], [ 127.270114140477205, 36.913384118601286 ], [ 127.273186973157877, 36.914057505324095 ], [ 127.274963415242325, 36.908803007835516 ], [ 127.280062097206795, 36.904523706238059 ], [ 127.279426116052093, 36.900510787974923 ], [ 127.286487854224774, 36.894342873217894 ], [ 127.289876480583729, 36.894022146465481 ], [ 127.290588084092846, 36.892197010524136 ], [ 127.287382156059508, 36.88949674159138 ], [ 127.281394478985007, 36.887848782495311 ], [ 127.277893365013853, 36.890246612322713 ], [ 127.272701736761533, 36.88734521588691 ], [ 127.271399022859924, 36.882472589402987 ], [ 127.266194526624574, 36.883106876648263 ], [ 127.26247050176886, 36.881528264631712 ], [ 127.259519276406792, 36.877996447374471 ], [ 127.252371044917552, 36.878940497231312 ], [ 127.249542508062461, 36.875385337042225 ], [ 127.24991530957341, 36.871506283514918 ], [ 127.237031471467375, 36.865878557226885 ], [ 127.233513260413616, 36.866935268942605 ] ] ] ] } }
]
}
