{
"type": "FeatureCollection",
"name": "44150",
"crs": { "type": "name", "properties": { "name": "urn:ogc:def:crs:OGC:1.3:CRS84" } },
"features": [
{ "type": "Feature", "properties": { "emd_cd": "44150101", "emd_nm": "반죽동" }, "geometry": { "type": "MultiPolygon", "coordinates": [ [ [ [ 127.114037308650069, 36.456059255546357 ], [ 127.12263393233124, 36.456517504745122 ], [ 127.123566418728657, 36.451198901295101 ], [ 127.116368663658434, 36.452415057710468 ], [ 127.114037308650069, 36.456059255546357 ] ] ] ] } },
{ "type": "Feature", "properties": { "emd_cd": "44150102", "emd_nm": "봉황동" }, "geometry": { "type": "MultiPolygon", "coordinates": [ [ [ [ 127.116368663658434, 36.452415057710468 ], [ 127.123566418728657, 36.451198901295101 ], [ 127.120164930678385, 36.443563907758275 ], [ 127.115995427909866, 36.444868461541219 ], [ 127.117100336199272, 36.446731697307769 ], [ 127.116368663658434, 36.452415057710468 ] ] ] ] } },
{ "type": "Feature", "properties": { "emd_cd": "44150103", "emd_nm": "중학동" }, "geometry": { "type": "MultiPolygon", "coordinates": [ [ [ [ 127.123566418728657, 36.451198901295101 ], [ 127.127439678164848, 36.450625660501117 ], [ 127.128681857191097, 36.445847245463966 ], [ 127.125756544107247, 36.444109502559549 ], [ 127.120467364308794, 36.44413534752254 ], [ 127.123566418728657, 36.451198901295101 ] ] ] ] } },
{ "type": "Feature", "properties": { "emd_cd": "44150104", "emd_nm": "중동" }, "geometry": { "type": "MultiPolygon", "coordinates": [ [ [ [ 127.12263393233124, 36.456517504745122 ], [ 127.125084009872296, 36.456563385115928 ], [ 127.130422550089577, 36.455663356841917 ], [ 127.128237329162531, 36.454282302599005 ], [ 127.127439678164848, 36.450625660501117 ], [ 127.125605622734852, 36.450726537802154 ], [ 127.123566418728657, 36.451198901295101 ], [ 127.12263393233124, 36.456517504745122 ] ] ] ] } },
{ "type": "Feature", "properties": { "emd_cd": "44150105", "emd_nm": "산성동" }, "geometry": { "type": "MultiPolygon", "coordinates": [ [ [ [ 127.1221188447565, 36.459186849703492 ], [ 127.126947547158935, 36.461597360649129 ], [ 127.12953000773598, 36.459395425372421 ], [ 127.128573890724866, 36.457659141829446 ], [ 127.130039818336172, 36.455851489832725 ], [ 127.122653901489002, 36.456518025170837 ], [ 127.1221188447565, 36.459186849703492 ] ] ] ] } },
{ "type": "Feature", "properties": { "emd_cd": "44150106", "emd_nm": "교동" }, "geometry": { "type": "MultiPolygon", "coordinates": [ [ [ [ 127.113987718542006, 36.456064078432178 ], [ 127.12049781072551, 36.464125348661305 ], [ 127.122653901489002, 36.456518025170837 ], [ 127.113987718542006, 36.456064078432178 ] ] ] ] } },
{ "type": "Feature", "properties": { "emd_cd": "44150107", "emd_nm": "웅진동" }, "geometry": { "type": "MultiPolygon", "coordinates": [ [ [ [ 127.094378457932848, 36.455431430686723 ], [ 127.098446008856669, 36.462993341880306 ], [ 127.106120445634062, 36.472155017361786 ], [ 127.110452368499182, 36.473698469707919 ], [ 127.117942434720717, 36.472343510855666 ], [ 127.112932462516596, 36.461867306177695 ], [ 127.115174318050535, 36.458973044759638 ], [ 127.11389855104413, 36.455861654221124 ], [ 127.115443514044884, 36.455423361933228 ], [ 127.114605790497677, 36.453993362928045 ], [ 127.117174290799369, 36.450189400067956 ], [ 127.113774131061689, 36.439124909997766 ], [ 127.1083456480888, 36.438409720770984 ], [ 127.107874712583069, 36.445123000655435 ], [ 127.102469199296735, 36.448298154824606 ], [ 127.099434203277198, 36.453476579655202 ], [ 127.094378457932848, 36.455431430686723 ] ] ] ] } },
{ "type": "Feature", "properties": { "emd_cd": "44150108", "emd_nm": "금성동" }, "geometry": { "type": "MultiPolygon", "coordinates": [ [ [ [ 127.117942434720717, 36.472343510855666 ], [ 127.133422462591469, 36.46418332240254 ], [ 127.130265420965557, 36.4624138617935 ], [ 127.130143596776904, 36.459633410046422 ], [ 127.126947547158935, 36.461597360649129 ], [ 127.1221188447565, 36.459186849703492 ], [ 127.120350012839054, 36.464121080273443 ], [ 127.115174318050535, 36.458973044759638 ], [ 127.112932462516596, 36.461867306177695 ], [ 127.117942434720717, 36.472343510855666 ] ] ] ] } },
{ "type": "Feature", "properties": { "emd_cd": "44150109", "emd_nm": "옥룡동" }, "geometry": { "type": "MultiPolygon", "coordinates": [ [ [ [ 127.128681857191097, 36.445847245463966 ], [ 127.128237329162531, 36.454282302599005 ], [ 127.130422550089577, 36.455663356841917 ], [ 127.128573890724866, 36.457659141829446 ], [ 127.130265420965557, 36.4624138617935 ], [ 127.133422462591469, 36.46418332240254 ], [ 127.142173250605182, 36.459767104508288 ], [ 127.139533593095635, 36.458577486964785 ], [ 127.140285445346947, 36.457079215848474 ], [ 127.13849958769427, 36.452902889425005 ], [ 127.138795134535499, 36.451140902473107 ], [ 127.142778845986683, 36.448828458692418 ], [ 127.140920322458527, 36.445044820658445 ], [ 127.142601837190242, 36.442786422538404 ], [ 127.141362919209101, 36.440633018099064 ], [ 127.137509481429774, 36.440250566660097 ], [ 127.135723874552397, 36.443070127332852 ], [ 127.130757488018247, 36.446196323829462 ], [ 127.128681857191097, 36.445847245463966 ] ] ] ] } },
{ "type": "Feature", "properties": { "emd_cd": "44150110", "emd_nm": "금학동" }, "geometry": { "type": "MultiPolygon", "coordinates": [ [ [ [ 127.107883639262695, 36.433809940623 ], [ 127.108757596074426, 36.438088511094449 ], [ 127.113774131061689, 36.439124909997766 ], [ 127.115995427909866, 36.444868461541219 ], [ 127.119376798077766, 36.443324862988021 ], [ 127.130757488018247, 36.446196323829462 ], [ 127.137509481429774, 36.440250566660097 ], [ 127.141362919209101, 36.440633018099064 ], [ 127.140460459026301, 36.438407926990848 ], [ 127.134134764473529, 36.435091984657888 ], [ 127.130629624851011, 36.415553533768097 ], [ 127.125411242847235, 36.414694414289499 ], [ 127.123717151333864, 36.417248833372142 ], [ 127.117654231617379, 36.419792237743223 ], [ 127.115785090787867, 36.428288861655808 ], [ 127.113295216818273, 36.42962811115688 ], [ 127.112741952961926, 36.431818550304072 ], [ 127.107883639262695, 36.433809940623 ] ] ] ] } },
{ "type": "Feature", "properties": { "emd_cd": "44150111", "emd_nm": "봉정동" }, "geometry": { "type": "MultiPolygon", "coordinates": [ [ [ [ 127.084458295883167, 36.450676881160327 ], [ 127.08698022575669, 36.452916923349797 ], [ 127.091749741542159, 36.452925848015667 ], [ 127.094378457932848, 36.455431430686723 ], [ 127.099434203277198, 36.453476579655202 ], [ 127.102469199296735, 36.448298154824606 ], [ 127.107874712583069, 36.445123000655435 ], [ 127.109052568391576, 36.43659434631401 ], [ 127.107883639262695, 36.433809940623 ], [ 127.099671396888752, 36.431710150857135 ], [ 127.095966136444204, 36.422063834463927 ], [ 127.093039063740591, 36.420437667287693 ], [ 127.093392263628758, 36.417496105599817 ], [ 127.091967778021768, 36.416684361518861 ], [ 127.089792373841604, 36.417611116068457 ], [ 127.089296677547893, 36.423411685627862 ], [ 127.086827103974244, 36.425091315571144 ], [ 127.085027072611979, 36.429304712484523 ], [ 127.075943029131111, 36.430756313301572 ], [ 127.083823978845004, 36.43523686901306 ], [ 127.091234207368757, 36.442771738558669 ], [ 127.085847097782946, 36.445650340212055 ], [ 127.084458295883167, 36.450676881160327 ] ] ] ] } },
{ "type": "Feature", "properties": { "emd_cd": "44150112", "emd_nm": "주미동" }, "geometry": { "type": "MultiPolygon", "coordinates": [ [ [ [ 127.107883639262695, 36.433809940623 ], [ 127.112741952961926, 36.431818550304072 ], [ 127.113295216818273, 36.42962811115688 ], [ 127.115785090787867, 36.428288861655808 ], [ 127.117654231617379, 36.419792237743223 ], [ 127.111414118536828, 36.417553698152354 ], [ 127.104669892334741, 36.421884319026915 ], [ 127.099612629416811, 36.41871261153976 ], [ 127.092842806972698, 36.417772490669329 ], [ 127.099671396888752, 36.431710150857135 ], [ 127.107883639262695, 36.433809940623 ] ] ] ] } },
{ "type": "Feature", "properties": { "emd_cd": "44150113", "emd_nm": "태봉동" }, "geometry": { "type": "MultiPolygon", "coordinates": [ [ [ [ 127.081656467678314, 36.420999301707766 ], [ 127.084400790830884, 36.423781634699218 ], [ 127.083374070598254, 36.425430254908797 ], [ 127.084865586658537, 36.429419912794913 ], [ 127.089296677547893, 36.423411685627862 ], [ 127.090285141162369, 36.41705892285232 ], [ 127.098993037886004, 36.418852898593151 ], [ 127.099838694017649, 36.414120147397256 ], [ 127.102174587013252, 36.411102372065137 ], [ 127.100926574360344, 36.408177532919176 ], [ 127.104707623392855, 36.404177862484566 ], [ 127.103246970556654, 36.401975936097926 ], [ 127.104190648675456, 36.395488421917094 ], [ 127.100672675144708, 36.396159214142628 ], [ 127.094925206383735, 36.393042844573991 ], [ 127.09150470196893, 36.398968627570817 ], [ 127.092642250185349, 36.401337670780563 ], [ 127.088289427238863, 36.404933097399777 ], [ 127.088575662340432, 36.407476555448348 ], [ 127.086275532147653, 36.408937233563918 ], [ 127.083001234856653, 36.408124066876283 ], [ 127.07850629310002, 36.411580072334807 ], [ 127.080571879961653, 36.414568858931034 ], [ 127.081656467678314, 36.420999301707766 ] ] ] ] } },
{ "type": "Feature", "properties": { "emd_cd": "44150114", "emd_nm": "오곡동" }, "geometry": { "type": "MultiPolygon", "coordinates": [ [ [ [ 127.098943429070971, 36.418744249733194 ], [ 127.104669892334741, 36.421884319026915 ], [ 127.111414118536828, 36.417553698152354 ], [ 127.117654231617379, 36.419792237743223 ], [ 127.123717151333864, 36.417248833372142 ], [ 127.126564561851907, 36.412004173570942 ], [ 127.127007971313972, 36.406673038413494 ], [ 127.125346879622015, 36.405025324488449 ], [ 127.128760178222223, 36.39982038606589 ], [ 127.123734312124611, 36.396384422943953 ], [ 127.120465363880626, 36.391332824042792 ], [ 127.121754843406663, 36.386433711109973 ], [ 127.117653012288656, 36.384992710636467 ], [ 127.104190648675456, 36.395488421917094 ], [ 127.103246970556654, 36.401975936097926 ], [ 127.104707623392855, 36.404177862484566 ], [ 127.100926574360344, 36.408177532919176 ], [ 127.102174587013252, 36.411102372065137 ], [ 127.098943429070971, 36.418744249733194 ] ] ] ] } },
{ "type": "Feature", "properties": { "emd_cd": "44150115", "emd_nm": "신기동" }, "geometry": { "type": "MultiPolygon", "coordinates": [ [ [ [ 127.141339858815954, 36.440138263185517 ], [ 127.150006540777099, 36.43585999100226 ], [ 127.15496487763879, 36.436146444009026 ], [ 127.157139679215788, 36.433483978791664 ], [ 127.161709681876289, 36.432007202748856 ], [ 127.164267612502684, 36.422172400943936 ], [ 127.161574009434815, 36.418303592450656 ], [ 127.158376523892059, 36.419776768115788 ], [ 127.15340119380167, 36.417742526254997 ], [ 127.149475349744776, 36.418916724448913 ], [ 127.148633965642176, 36.424296994383909 ], [ 127.144180507114115, 36.422045068136619 ], [ 127.141478332168546, 36.424168251881987 ], [ 127.13161958090943, 36.423079885678902 ], [ 127.134134764473529, 36.435091984657888 ], [ 127.141339858815954, 36.440138263185517 ] ] ] ] } },
{ "type": "Feature", "properties": { "emd_cd": "44150116", "emd_nm": "소학동" }, "geometry": { "type": "MultiPolygon", "coordinates": [ [ [ [ 127.142173250605182, 36.459767104508288 ], [ 127.165106759216286, 36.451617658143142 ], [ 127.159339340806042, 36.443353606633174 ], [ 127.162782933594315, 36.435605669796956 ], [ 127.161709681876289, 36.432007202748856 ], [ 127.157139679215788, 36.433483978791664 ], [ 127.15496487763879, 36.436146444009026 ], [ 127.150006540777099, 36.43585999100226 ], [ 127.141339858815954, 36.440138263185517 ], [ 127.142601837190242, 36.442786422538404 ], [ 127.140920322458527, 36.445044820658445 ], [ 127.142778845986683, 36.448828458692418 ], [ 127.138795134535499, 36.451140902473107 ], [ 127.13849958769427, 36.452902889425005 ], [ 127.140285445346947, 36.457079215848474 ], [ 127.139533593095635, 36.458577486964785 ], [ 127.142173250605182, 36.459767104508288 ] ] ] ] } },
{ "type": "Feature", "properties": { "emd_cd": "44150117", "emd_nm": "상왕동" }, "geometry": { "type": "MultiPolygon", "coordinates": [ [ [ [ 127.165106759216286, 36.451617658143142 ], [ 127.195931055767005, 36.441946498754213 ], [ 127.196461793658827, 36.436365626458873 ], [ 127.198667406358325, 36.434295923541576 ], [ 127.194536540524354, 36.432451618624597 ], [ 127.191309555352802, 36.428743243801712 ], [ 127.188033959609541, 36.429002191376014 ], [ 127.186532102985453, 36.427292267766951 ], [ 127.1902485122814, 36.420626476406007 ], [ 127.185280059894467, 36.418649154935849 ], [ 127.178095961284711, 36.419149282436862 ], [ 127.176781295707357, 36.41620866983228 ], [ 127.162594808052361, 36.41182608812457 ], [ 127.163415910835866, 36.413998585071369 ], [ 127.160761399550523, 36.416596469949063 ], [ 127.164231666653819, 36.422617660269772 ], [ 127.161709681876289, 36.432007202748856 ], [ 127.162782933594315, 36.435605669796956 ], [ 127.159339340806042, 36.443353606633174 ], [ 127.165106759216286, 36.451617658143142 ] ] ] ] } },
{ "type": "Feature", "properties": { "emd_cd": "44150118", "emd_nm": "무릉동" }, "geometry": { "type": "MultiPolygon", "coordinates": [ [ [ [ 127.158858564686383, 36.453371926297081 ], [ 127.159839811756768, 36.45879579474591 ], [ 127.166104054984118, 36.464043766160614 ], [ 127.16586795661415, 36.468243928362746 ], [ 127.170817521875207, 36.469530184759847 ], [ 127.174042806059916, 36.472396437816542 ], [ 127.17871576460162, 36.473164015288567 ], [ 127.182390239107832, 36.468297888773556 ], [ 127.186183907385868, 36.466427524825427 ], [ 127.182386697443675, 36.462297485535665 ], [ 127.183998343604358, 36.458343127482102 ], [ 127.176855172770061, 36.457071471444671 ], [ 127.176779139232181, 36.451004828385166 ], [ 127.175407062574337, 36.449849018361625 ], [ 127.170082876319114, 36.449214166737306 ], [ 127.158858564686383, 36.453371926297081 ] ] ] ] } },
{ "type": "Feature", "properties": { "emd_cd": "44150119", "emd_nm": "월송동" }, "geometry": { "type": "MultiPolygon", "coordinates": [ [ [ [ 127.149372133889159, 36.474503385585386 ], [ 127.151965531649836, 36.474401818793453 ], [ 127.155356198207983, 36.479137612394993 ], [ 127.159751085888956, 36.476847421178313 ], [ 127.160733443350423, 36.474357098696267 ], [ 127.164655276319294, 36.473005358880656 ], [ 127.164058888307949, 36.469334371240947 ], [ 127.16586795661415, 36.468243928362746 ], [ 127.166104054984118, 36.464043766160614 ], [ 127.159839811756768, 36.45879579474591 ], [ 127.158858564686383, 36.453371926297081 ], [ 127.14815133518249, 36.457903542950397 ], [ 127.150042596964283, 36.465631092077281 ], [ 127.149585910330842, 36.468350131620504 ], [ 127.148225786453068, 36.468169228438136 ], [ 127.149372133889159, 36.474503385585386 ] ] ] ] } },
{ "type": "Feature", "properties": { "emd_cd": "44150120", "emd_nm": "신관동" }, "geometry": { "type": "MultiPolygon", "coordinates": [ [ [ [ 127.128780122460455, 36.478444508382943 ], [ 127.134829220145463, 36.48166052892369 ], [ 127.131596952544072, 36.477128371321037 ], [ 127.13672615625822, 36.476446118188541 ], [ 127.143158046586876, 36.47739161799084 ], [ 127.143227296649442, 36.478470307607139 ], [ 127.148690223372611, 36.476429076915359 ], [ 127.148225786453068, 36.468169228438136 ], [ 127.149585910330842, 36.468350131620504 ], [ 127.150042596964283, 36.465631092077281 ], [ 127.14815133518249, 36.457903542950397 ], [ 127.140248505735741, 36.460208167035006 ], [ 127.117942434720717, 36.472343510855666 ], [ 127.119819837368141, 36.475108354816598 ], [ 127.119659008681438, 36.478477859667535 ], [ 127.122888127884181, 36.475914131646171 ], [ 127.124850832061469, 36.478967114100456 ], [ 127.12904773666132, 36.476685736706621 ], [ 127.128780122460455, 36.478444508382943 ] ] ] ] } },
{ "type": "Feature", "properties": { "emd_cd": "44150121", "emd_nm": "금흥동" }, "geometry": { "type": "MultiPolygon", "coordinates": [ [ [ [ 127.131596952544072, 36.477128371321037 ], [ 127.134052027367986, 36.483609220539002 ], [ 127.138036350996856, 36.48807338428476 ], [ 127.139864637443537, 36.48797061933827 ], [ 127.141162837928121, 36.491266072626146 ], [ 127.144101331872093, 36.492657697454206 ], [ 127.147826627667385, 36.490074233271805 ], [ 127.15361936812711, 36.492719214412865 ], [ 127.153448448232666, 36.490562605709137 ], [ 127.158563049876562, 36.483896707175575 ], [ 127.151396122748324, 36.474163260773842 ], [ 127.143869604352219, 36.478405921509896 ], [ 127.13672615625822, 36.476446118188541 ], [ 127.131596952544072, 36.477128371321037 ] ] ] ] } },
{ "type": "Feature", "properties": { "emd_cd": "44150122", "emd_nm": "쌍신동" }, "geometry": { "type": "MultiPolygon", "coordinates": [ [ [ [ 127.111656136897039, 36.48356999008422 ], [ 127.126446995143368, 36.488500109300645 ], [ 127.127708920709694, 36.490040338096541 ], [ 127.126369827504959, 36.492493539666235 ], [ 127.128662105635669, 36.494877125927168 ], [ 127.131355207129417, 36.493966143284318 ], [ 127.13079608878175, 36.489505757972822 ], [ 127.132829181343723, 36.487952338072809 ], [ 127.134317521913076, 36.482557639470862 ], [ 127.132898325128039, 36.480113001396404 ], [ 127.128780122460455, 36.478444508382943 ], [ 127.12904773666132, 36.476685736706621 ], [ 127.124850832061469, 36.478967114100456 ], [ 127.122888127884181, 36.475914131646171 ], [ 127.119659008681438, 36.478477859667535 ], [ 127.119819837368141, 36.475108354816598 ], [ 127.117942434720717, 36.472343510855666 ], [ 127.109093316140445, 36.473560456324414 ], [ 127.108305854652031, 36.475210602194849 ], [ 127.105723328217834, 36.473320027223629 ], [ 127.104363200738149, 36.477785817991112 ], [ 127.111656136897039, 36.48356999008422 ] ] ] ] } },
{ "type": "Feature", "properties": { "emd_cd": "44150123", "emd_nm": "월미동" }, "geometry": { "type": "MultiPolygon", "coordinates": [ [ [ [ 127.120541131120206, 36.493537715236343 ], [ 127.127708920709694, 36.490040338096541 ], [ 127.126446995143368, 36.488500109300645 ], [ 127.112764908556258, 36.483186214234607 ], [ 127.10887767830954, 36.486629226790932 ], [ 127.106605635888016, 36.485924331122042 ], [ 127.101025265408595, 36.488420742380562 ], [ 127.099964192756616, 36.491686959309973 ], [ 127.100964291415323, 36.493294560797139 ], [ 127.09574374576259, 36.497795565976546 ], [ 127.106597593546908, 36.494616966321537 ], [ 127.11205454837733, 36.495065989675723 ], [ 127.115502531687255, 36.492458820374623 ], [ 127.120541131120206, 36.493537715236343 ] ] ] ] } },
{ "type": "Feature", "properties": { "emd_cd": "44150124", "emd_nm": "검상동" }, "geometry": { "type": "MultiPolygon", "coordinates": [ [ [ [ 127.084458295883167, 36.450676881160327 ], [ 127.085847097782946, 36.445650340212055 ], [ 127.091234207368757, 36.442771738558669 ], [ 127.083823978845004, 36.43523686901306 ], [ 127.075915950580963, 36.430917827439004 ], [ 127.084435671634694, 36.429422284921969 ], [ 127.083806248702501, 36.422891796003888 ], [ 127.081547927313892, 36.420975493699892 ], [ 127.079713830729048, 36.424535349063831 ], [ 127.074491939151855, 36.427929389158933 ], [ 127.071914715433081, 36.426413244136384 ], [ 127.070095505302788, 36.427448387551848 ], [ 127.065932096705836, 36.423970389257526 ], [ 127.063529146952988, 36.424730504493908 ], [ 127.058021312552896, 36.420382053056962 ], [ 127.055532118983052, 36.42179301315408 ], [ 127.054503428820198, 36.42315849365621 ], [ 127.060903850435921, 36.438523232420337 ], [ 127.067625102443486, 36.44374651925235 ], [ 127.084458295883167, 36.450676881160327 ] ] ] ] } },
{ "type": "Feature", "properties": { "emd_cd": "44150125", "emd_nm": "석장리동" }, "geometry": { "type": "MultiPolygon", "coordinates": [ [ [ [ 127.173006461614136, 36.448709363387231 ], [ 127.176779139232181, 36.451004828385166 ], [ 127.176855172770061, 36.457071471444671 ], [ 127.183998343604358, 36.458343127482102 ], [ 127.182386697443675, 36.462297485535665 ], [ 127.186183907385868, 36.466427524825427 ], [ 127.194747626514072, 36.468759600472488 ], [ 127.198641600893311, 36.465616220212063 ], [ 127.201085916500162, 36.466802953257002 ], [ 127.203276698137259, 36.46497770109513 ], [ 127.204733468030085, 36.459290251393213 ], [ 127.203267046177302, 36.454612365772306 ], [ 127.198399443971752, 36.452206717755104 ], [ 127.201816899460894, 36.446316867039315 ], [ 127.201109959947743, 36.44124959212072 ], [ 127.198933603438832, 36.439884323384959 ], [ 127.189511083814054, 36.444611822091211 ], [ 127.173006461614136, 36.448709363387231 ] ] ] ] } },
{ "type": "Feature", "properties": { "emd_cd": "44150126", "emd_nm": "송선동" }, "geometry": { "type": "MultiPolygon", "coordinates": [ [ [ [ 127.154162565782428, 36.491204449967505 ], [ 127.157482313178832, 36.494943955462617 ], [ 127.162505057476736, 36.495295337605597 ], [ 127.163847910989688, 36.498380501447848 ], [ 127.168909728343579, 36.49769622802858 ], [ 127.173378902574598, 36.499274321646745 ], [ 127.17487624122586, 36.494786297360328 ], [ 127.176834539571715, 36.492480795203107 ], [ 127.180203941291225, 36.491811232857529 ], [ 127.182511352015283, 36.488242761310637 ], [ 127.182248071979473, 36.484989089718582 ], [ 127.173117494683112, 36.48131410632125 ], [ 127.16764959773856, 36.48191665141664 ], [ 127.165229870213423, 36.475470878921335 ], [ 127.160733443350423, 36.474357098696267 ], [ 127.159751085888956, 36.476847421178313 ], [ 127.154934558829666, 36.479694662923606 ], [ 127.157702327738548, 36.481185851758838 ], [ 127.158563049876562, 36.483896707175575 ], [ 127.154162565782428, 36.491204449967505 ] ] ] ] } },
{ "type": "Feature", "properties": { "emd_cd": "44150127", "emd_nm": "동현동" }, "geometry": { "type": "MultiPolygon", "coordinates": [ [ [ [ 127.163022571842347, 36.474259482117979 ], [ 127.166124085067594, 36.476740294296725 ], [ 127.16764959773856, 36.48191665141664 ], [ 127.173117494683112, 36.48131410632125 ], [ 127.182116430218343, 36.484660701716663 ], [ 127.182511352015283, 36.488242761310637 ], [ 127.180037844816766, 36.492076438145205 ], [ 127.181373696044957, 36.493015675589461 ], [ 127.188314642982405, 36.492622074366231 ], [ 127.195075028147144, 36.488949341812848 ], [ 127.193449993237735, 36.481536824355892 ], [ 127.190481973857928, 36.479470981823198 ], [ 127.194747626514072, 36.468759600472488 ], [ 127.192936663091814, 36.467907521182106 ], [ 127.186183907385868, 36.466427524825427 ], [ 127.182390239107832, 36.468297888773556 ], [ 127.17871576460162, 36.473164015288567 ], [ 127.16586795661415, 36.468243928362746 ], [ 127.164058888307949, 36.469334371240947 ], [ 127.164655276319294, 36.473005358880656 ], [ 127.163022571842347, 36.474259482117979 ] ] ] ] } },
{ "type": "Feature", "properties": { "emd_cd": "44150250", "emd_nm": "유구읍" }, "geometry": { "type": "MultiPolygon", "coordinates": [ [ [ [ 127.020408672786516, 36.650142303452107 ], [ 127.021531313936578, 36.646770347003738 ], [ 127.019773539834205, 36.63667674658894 ], [ 127.026944946422461, 36.634430343101272 ], [ 127.028436088397314, 36.628545390898935 ], [ 127.026884397648857, 36.626140852861731 ], [ 127.034973269517977, 36.624642577585774 ], [ 127.034007305663295, 36.61773587501812 ], [ 127.035745150878313, 36.615021118468249 ], [ 127.034253391340698, 36.612500037808864 ], [ 127.036834352793136, 36.608848676793357 ], [ 127.031761205524163, 36.602808157561796 ], [ 127.020299958500686, 36.603998683663463 ], [ 127.017352398359264, 36.59829505467706 ], [ 127.010358354442744, 36.592171219285518 ], [ 127.010188749510704, 36.588073405768498 ], [ 127.006883933862611, 36.584935305074247 ], [ 127.005089245280871, 36.585533593815661 ], [ 127.001855077151248, 36.58370895868687 ], [ 127.000426798661465, 36.578875999964168 ], [ 126.993929401283538, 36.573629777985943 ], [ 126.999426193802051, 36.56368974432624 ], [ 126.994100135058432, 36.559328076438902 ], [ 126.988313776972348, 36.559143104805571 ], [ 126.985936724375577, 36.553189533297974 ], [ 126.981551382401619, 36.550735489862333 ], [ 126.982450032293727, 36.548591625472284 ], [ 126.980764024020345, 36.544783143364199 ], [ 126.982097345325172, 36.541751744091663 ], [ 126.981004829714493, 36.540557985331496 ], [ 126.974762452779913, 36.539671122241018 ], [ 126.971940762198912, 36.53668208568962 ], [ 126.965376843273361, 36.534508156273667 ], [ 126.964384995685563, 36.53193431231459 ], [ 126.956664269736279, 36.531203651580277 ], [ 126.953793229742757, 36.528643875257195 ], [ 126.949830833283556, 36.530982882693607 ], [ 126.948406535686246, 36.534030377005863 ], [ 126.943624364024473, 36.535943701678065 ], [ 126.940091089636951, 36.534642734834662 ], [ 126.93970671214133, 36.53594444030994 ], [ 126.933336916287431, 36.537642127251857 ], [ 126.93240034905422, 36.536199358484822 ], [ 126.918676181971492, 36.536135370452044 ], [ 126.91579455557013, 36.538625579688336 ], [ 126.91498455284642, 36.54242076296849 ], [ 126.912278674442206, 36.541965457788358 ], [ 126.907167246363926, 36.544289200127743 ], [ 126.904696802199183, 36.547822707397394 ], [ 126.899392576652886, 36.550087653165392 ], [ 126.899181210312491, 36.560040730675318 ], [ 126.904098589255753, 36.561470031394435 ], [ 126.903798411772755, 36.563148577071772 ], [ 126.906650116565558, 36.566377425390435 ], [ 126.910349281022164, 36.566913200077025 ], [ 126.911430846896195, 36.572158382008354 ], [ 126.915560582685018, 36.573834540925347 ], [ 126.917386811855735, 36.576919003354753 ], [ 126.920458380810985, 36.577486820923767 ], [ 126.924818527636091, 36.587660562079883 ], [ 126.930980461300067, 36.591743889019938 ], [ 126.927397878683507, 36.595623878477383 ], [ 126.928148486923092, 36.60009328635487 ], [ 126.927031148775441, 36.601422958964925 ], [ 126.928645429242934, 36.603141945057857 ], [ 126.931971675952852, 36.603258655047888 ], [ 126.930248833684558, 36.608647157308411 ], [ 126.932211532243471, 36.613063171202697 ], [ 126.937503895688408, 36.615824015022142 ], [ 126.935847124259794, 36.623126340289573 ], [ 126.945396542513166, 36.628113921689348 ], [ 126.943525551202754, 36.63294945424866 ], [ 126.946897507353754, 36.636131679228122 ], [ 126.94837734035913, 36.640996344168265 ], [ 126.955153295613769, 36.64543410050441 ], [ 126.954365165005697, 36.652350010234223 ], [ 126.960085729466783, 36.655616752014502 ], [ 126.958674984380039, 36.658581576339607 ], [ 126.959769635112025, 36.662368194922273 ], [ 126.9577948628895, 36.662570709055977 ], [ 126.956889613838456, 36.665653479272237 ], [ 126.957383724142403, 36.67203003936676 ], [ 126.963552169312649, 36.676247897618239 ], [ 126.964460271517893, 36.678472528531969 ], [ 126.967759153509149, 36.679268183116847 ], [ 126.97047171741626, 36.670795281347949 ], [ 126.978660994374266, 36.660902637820712 ], [ 126.978133832337477, 36.653624496183333 ], [ 126.987499084834781, 36.650844297372323 ], [ 126.989662766718681, 36.648767258420506 ], [ 126.993400452676482, 36.648645089307522 ], [ 126.998393848331332, 36.651862362637033 ], [ 127.002711778427397, 36.651269760236694 ], [ 127.006221369833781, 36.652869409986131 ], [ 127.009389239771167, 36.65627651582254 ], [ 127.010879076512552, 36.654100534751827 ], [ 127.012825724440049, 36.654435522000476 ], [ 127.016296539169716, 36.651150338593133 ], [ 127.020408672786516, 36.650142303452107 ] ] ] ] } },
{ "type": "Feature", "properties": { "emd_cd": "44150310", "emd_nm": "이인면" }, "geometry": { "type": "MultiPolygon", "coordinates": [ [ [ [ 127.007721759223045, 36.384714765864373 ], [ 127.043058120460628, 36.408965776031373 ], [ 127.054503428820198, 36.42315849365621 ], [ 127.058021312552896, 36.420382053056962 ], [ 127.063529146952988, 36.424730504493908 ], [ 127.065932096705836, 36.423970389257526 ], [ 127.070095505302788, 36.427448387551848 ], [ 127.071914715433081, 36.426413244136384 ], [ 127.074491939151855, 36.427929389158933 ], [ 127.079713830729048, 36.424535349063831 ], [ 127.081656467678314, 36.420999301707766 ], [ 127.080571879961653, 36.414568858931034 ], [ 127.07850629310002, 36.411580072334807 ], [ 127.083001234856653, 36.408124066876283 ], [ 127.086275532147653, 36.408937233563918 ], [ 127.088575662340432, 36.407476555448348 ], [ 127.088289427238863, 36.404933097399777 ], [ 127.092642250185349, 36.401337670780563 ], [ 127.09150470196893, 36.398968627570817 ], [ 127.094925206383735, 36.393042844573991 ], [ 127.100672675144708, 36.396159214142628 ], [ 127.104610914300565, 36.395419922542516 ], [ 127.108154007760518, 36.391319481476046 ], [ 127.116418636702434, 36.386952315219716 ], [ 127.119505878283064, 36.375785656209203 ], [ 127.122969206005095, 36.373296000042387 ], [ 127.123600629065294, 36.370574857295075 ], [ 127.11227046315102, 36.367371414128812 ], [ 127.111255821042334, 36.362275340733262 ], [ 127.104056890208341, 36.358536410354461 ], [ 127.104715524105416, 36.35485216278375 ], [ 127.101828784671781, 36.351032780081063 ], [ 127.101752898799546, 36.348393800139419 ], [ 127.106502348168945, 36.341563005389034 ], [ 127.106168479218468, 36.338069323019845 ], [ 127.092538616558045, 36.321728036682522 ], [ 127.089379353584746, 36.319234731150559 ], [ 127.086964132941702, 36.319726769073668 ], [ 127.085656807562074, 36.323480790291484 ], [ 127.082027300221171, 36.323194256150387 ], [ 127.080989936102682, 36.326317352747374 ], [ 127.075755561614073, 36.327409072454948 ], [ 127.075909002641126, 36.331302667559534 ], [ 127.069367808245914, 36.337172195357461 ], [ 127.065916109065569, 36.338632786060629 ], [ 127.058110481720135, 36.337277558458112 ], [ 127.053587923445448, 36.339233266810091 ], [ 127.050265656134201, 36.343343661327957 ], [ 127.041325232663638, 36.343767771504545 ], [ 127.036156577498943, 36.346296404713868 ], [ 127.033152257500035, 36.35234021845028 ], [ 127.035505601590927, 36.359835542515675 ], [ 127.032034969206833, 36.359366032057274 ], [ 127.031598826603073, 36.363202489551988 ], [ 127.028145169566116, 36.365177229232181 ], [ 127.029368894384859, 36.368062115126946 ], [ 127.028306715922071, 36.372618618115212 ], [ 127.020632471029884, 36.378827259185798 ], [ 127.025623293429049, 36.382365735565266 ], [ 127.026240762921645, 36.386750176262758 ], [ 127.010067611976254, 36.382602279042963 ], [ 127.007721759223045, 36.384714765864373 ] ] ] ] } },
{ "type": "Feature", "properties": { "emd_cd": "44150320", "emd_nm": "탄천면" }, "geometry": { "type": "MultiPolygon", "coordinates": [ [ [ [ 127.007721759223045, 36.384714765864373 ], [ 127.010067611976254, 36.382602279042963 ], [ 127.026240762921645, 36.386750176262758 ], [ 127.025623293429049, 36.382365735565266 ], [ 127.020632471029884, 36.378827259185798 ], [ 127.028306715922071, 36.372618618115212 ], [ 127.029368894384859, 36.368062115126946 ], [ 127.028145169566116, 36.365177229232181 ], [ 127.031598826603073, 36.363202489551988 ], [ 127.032034969206833, 36.359366032057274 ], [ 127.035505601590927, 36.359835542515675 ], [ 127.033152257500035, 36.35234021845028 ], [ 127.036156577498943, 36.346296404713868 ], [ 127.041325232663638, 36.343767771504545 ], [ 127.050265656134201, 36.343343661327957 ], [ 127.053587923445448, 36.339233266810091 ], [ 127.058110481720135, 36.337277558458112 ], [ 127.065916109065569, 36.338632786060629 ], [ 127.069367808245914, 36.337172195357461 ], [ 127.075909002641126, 36.331302667559534 ], [ 127.075755561614073, 36.327409072454948 ], [ 127.080989936102682, 36.326317352747374 ], [ 127.082027300221171, 36.323194256150387 ], [ 127.085656807562074, 36.323480790291484 ], [ 127.086015392157023, 36.320479901050895 ], [ 127.089379353584746, 36.319234731150559 ], [ 127.087973747864638, 36.317221089444338 ], [ 127.084056855730694, 36.316500689899271 ], [ 127.083718861564122, 36.311604840254795 ], [ 127.077888089362901, 36.296335893336327 ], [ 127.072213840581981, 36.294917832207751 ], [ 127.068712012849019, 36.297367311187607 ], [ 127.067140393495677, 36.29611705490079 ], [ 127.068262221737612, 36.290531865573911 ], [ 127.064895683620108, 36.286248019827887 ], [ 127.066807173292986, 36.28268476226912 ], [ 127.065836320133599, 36.277114135625446 ], [ 127.053265356516434, 36.278684021894676 ], [ 127.03921063095342, 36.283556996925284 ], [ 127.034120013504122, 36.280902297659601 ], [ 127.027667595236252, 36.281877606233046 ], [ 127.02313853705742, 36.28738377631359 ], [ 127.01639585334776, 36.291179386212775 ], [ 127.014551536765751, 36.296843303384037 ], [ 127.01200065082277, 36.295445973903625 ], [ 127.003685910293527, 36.298358291018957 ], [ 127.000404431551658, 36.296574442859253 ], [ 126.995666879770681, 36.297631123436439 ], [ 126.997475622340644, 36.300020709611161 ], [ 126.994939376702305, 36.298359574753924 ], [ 126.993073579505207, 36.299021890333385 ], [ 126.991300940370976, 36.301272644268096 ], [ 126.992049434193319, 36.303603359965734 ], [ 126.986147823958945, 36.307394884002505 ], [ 126.987773208830191, 36.309185069885913 ], [ 126.986503334196527, 36.311677078384669 ], [ 126.987880625366515, 36.316805479729439 ], [ 126.990461557155299, 36.319286367857664 ], [ 126.991215842587238, 36.317889760211365 ], [ 126.99286283639772, 36.319123253272046 ], [ 126.994157625816101, 36.326193519117297 ], [ 126.997760131353616, 36.328409240531379 ], [ 126.990459368614026, 36.329615386529944 ], [ 126.98890667163289, 36.332734028138823 ], [ 126.990206594650161, 36.335800493429254 ], [ 126.985870268278234, 36.337457503954738 ], [ 126.977296847666636, 36.335148596313552 ], [ 126.984284500892613, 36.338573663669145 ], [ 126.985282189469288, 36.342403143122731 ], [ 126.98750659001027, 36.342153500758052 ], [ 126.989524395439091, 36.345220771305208 ], [ 126.987491974024834, 36.345837369167725 ], [ 126.987484608689456, 36.35923446676798 ], [ 126.988282991783578, 36.366443929380488 ], [ 126.991509530196382, 36.374495902564391 ], [ 127.007721759223045, 36.384714765864373 ] ] ] ] } },
{ "type": "Feature", "properties": { "emd_cd": "44150330", "emd_nm": "계룡면" }, "geometry": { "type": "MultiPolygon", "coordinates": [ [ [ [ 127.117653012288656, 36.384992710636467 ], [ 127.121754843406663, 36.386433711109973 ], [ 127.120465363880626, 36.391332824042792 ], [ 127.123734312124611, 36.396384422943953 ], [ 127.128760178222223, 36.39982038606589 ], [ 127.125346879622015, 36.405025324488449 ], [ 127.127007971313972, 36.406673038413494 ], [ 127.126564561851907, 36.412004173570942 ], [ 127.124929018129748, 36.413195511605998 ], [ 127.126167581579807, 36.415057183637913 ], [ 127.130629624851011, 36.415553533768097 ], [ 127.13161958090943, 36.423079885678902 ], [ 127.141478332168546, 36.424168251881987 ], [ 127.144180507114115, 36.422045068136619 ], [ 127.148633965642176, 36.424296994383909 ], [ 127.149475349744776, 36.418916724448913 ], [ 127.15340119380167, 36.417742526254997 ], [ 127.158376523892059, 36.419776768115788 ], [ 127.163415910835866, 36.413998585071369 ], [ 127.162594808052361, 36.41182608812457 ], [ 127.176781295707357, 36.41620866983228 ], [ 127.178095961284711, 36.419149282436862 ], [ 127.185280059894467, 36.418649154935849 ], [ 127.1902485122814, 36.420626476406007 ], [ 127.196418195143394, 36.418155363243315 ], [ 127.196247521012026, 36.413447839750695 ], [ 127.199882779073434, 36.410671345525145 ], [ 127.203227874660257, 36.410651232844465 ], [ 127.206063952975768, 36.407284508038693 ], [ 127.20627579235142, 36.404611066096301 ], [ 127.21084586676325, 36.400473203100042 ], [ 127.206943702465779, 36.397092570458817 ], [ 127.208757929003156, 36.393989244907566 ], [ 127.207208522736707, 36.391695373111126 ], [ 127.207826309287086, 36.385425888941462 ], [ 127.201674738726012, 36.378895750460096 ], [ 127.199915974645734, 36.369176842788335 ], [ 127.205327880651183, 36.366119442631515 ], [ 127.20831429132474, 36.360574434741494 ], [ 127.19993638597866, 36.351985405676345 ], [ 127.205851331969669, 36.343216726224426 ], [ 127.196401966596568, 36.334767056254563 ], [ 127.194347281045651, 36.335121784716506 ], [ 127.185453189693661, 36.33001785663987 ], [ 127.183988024527949, 36.331736005204064 ], [ 127.179506437869392, 36.330748586620203 ], [ 127.177497565398554, 36.327606545901673 ], [ 127.170779299252899, 36.326559169524359 ], [ 127.166279502384455, 36.322944671708818 ], [ 127.158623552783155, 36.32288422978165 ], [ 127.158262550976858, 36.316365472534081 ], [ 127.154535163762361, 36.315874167819679 ], [ 127.15173971314141, 36.312182555236063 ], [ 127.14748321053203, 36.31155703965333 ], [ 127.147783544510673, 36.309003233740455 ], [ 127.141605182025174, 36.304994993216113 ], [ 127.13759131811284, 36.312023491141396 ], [ 127.130574636801668, 36.318134311766961 ], [ 127.130255789205123, 36.320451063101835 ], [ 127.129529662548165, 36.322228849519682 ], [ 127.129843147751416, 36.32082146766686 ], [ 127.119976541978232, 36.318818791767534 ], [ 127.115142106094197, 36.330079892529589 ], [ 127.101752898799546, 36.348393800139419 ], [ 127.101828784671781, 36.351032780081063 ], [ 127.104715524105416, 36.35485216278375 ], [ 127.104056890208341, 36.358536410354461 ], [ 127.111255821042334, 36.362275340733262 ], [ 127.11227046315102, 36.367371414128812 ], [ 127.123600629065294, 36.370574857295075 ], [ 127.122969206005095, 36.373296000042387 ], [ 127.119505878283064, 36.375785656209203 ], [ 127.117653012288656, 36.384992710636467 ] ] ] ] } },
{ "type": "Feature", "properties": { "emd_cd": "44150340", "emd_nm": "반포면" }, "geometry": { "type": "MultiPolygon", "coordinates": [ [ [ [ 127.195931055767005, 36.441946498754213 ], [ 127.206089438254864, 36.436493989677871 ], [ 127.217707385263452, 36.433737539603712 ], [ 127.225114672598934, 36.426650165021833 ], [ 127.226932906292774, 36.421221295253446 ], [ 127.228779837517308, 36.422796223546847 ], [ 127.235625864914311, 36.418807990203625 ], [ 127.244521728707781, 36.418343474612556 ], [ 127.24304448664779, 36.417400621425934 ], [ 127.243284210572526, 36.415048535573327 ], [ 127.250795660757575, 36.4067583519709 ], [ 127.259116270670376, 36.409107985362191 ], [ 127.258645551232576, 36.414243085112396 ], [ 127.262612774724317, 36.416681527302337 ], [ 127.266851812898722, 36.417063223776225 ], [ 127.276322397061477, 36.413875752008344 ], [ 127.277891930142587, 36.415723728414498 ], [ 127.278282207437726, 36.414578610558607 ], [ 127.282100430126789, 36.414999409438664 ], [ 127.278494498644818, 36.396743930721506 ], [ 127.278778386640184, 36.388501766601003 ], [ 127.277408754458023, 36.387010228532894 ], [ 127.281189219748413, 36.37490358867921 ], [ 127.279436507306855, 36.369536528227222 ], [ 127.277070794023786, 36.368477728209143 ], [ 127.277737669580176, 36.365431507865225 ], [ 127.27053777205154, 36.360838869276613 ], [ 127.272427801629874, 36.354245762801455 ], [ 127.277369618185332, 36.350023373001143 ], [ 127.27903288355337, 36.344879246400971 ], [ 127.273104652211217, 36.34429299261874 ], [ 127.265847238590823, 36.338064236349624 ], [ 127.268150294832566, 36.331378689981364 ], [ 127.266128483747863, 36.328345152094037 ], [ 127.260855860501792, 36.327103607341421 ], [ 127.255936707318099, 36.329030241003338 ], [ 127.253794854628467, 36.336837096908525 ], [ 127.242092982851091, 36.338665530875367 ], [ 127.240458407328788, 36.346796024433054 ], [ 127.237202268607007, 36.348379768782138 ], [ 127.217498174241527, 36.350248886832986 ], [ 127.207926706045725, 36.348343801348818 ], [ 127.203994524307049, 36.346044769279501 ], [ 127.19993638597866, 36.351985405676345 ], [ 127.20831429132474, 36.360574434741494 ], [ 127.205327880651183, 36.366119442631515 ], [ 127.199915974645734, 36.369176842788335 ], [ 127.201674738726012, 36.378895750460096 ], [ 127.207826309287086, 36.385425888941462 ], [ 127.207208522736707, 36.391695373111126 ], [ 127.208757929003156, 36.393989244907566 ], [ 127.206943702465779, 36.397092570458817 ], [ 127.21084586676325, 36.400473203100042 ], [ 127.20627579235142, 36.404611066096301 ], [ 127.206063952975768, 36.407284508038693 ], [ 127.203227874660257, 36.410651232844465 ], [ 127.199882779073434, 36.410671345525145 ], [ 127.196247521012026, 36.413447839750695 ], [ 127.196945987813649, 36.417895758678682 ], [ 127.190943322347863, 36.419331099430011 ], [ 127.186862473280726, 36.426317248252452 ], [ 127.188033959609541, 36.429002191376014 ], [ 127.191309555352802, 36.428743243801712 ], [ 127.194536540524354, 36.432451618624597 ], [ 127.198667406358325, 36.434295923541576 ], [ 127.196461793658827, 36.436365626458873 ], [ 127.195931055767005, 36.441946498754213 ] ] ] ] } },
{ "type": "Feature", "properties": { "emd_cd": "44150360", "emd_nm": "의당면" }, "geometry": { "type": "MultiPolygon", "coordinates": [ [ [ [ 127.155883827250676, 36.606011070459921 ], [ 127.167153254821528, 36.602915859827554 ], [ 127.172723764407905, 36.595451270642137 ], [ 127.178076708835945, 36.596893234839825 ], [ 127.181683669248002, 36.595510243027903 ], [ 127.181934574997641, 36.593016572966256 ], [ 127.184321937141931, 36.591202840252691 ], [ 127.187969905378282, 36.594076301456319 ], [ 127.191350829969409, 36.593937577923271 ], [ 127.189255453616283, 36.586839156615348 ], [ 127.19295590807063, 36.580817303060805 ], [ 127.200399410482163, 36.582567533866488 ], [ 127.205665015593638, 36.580769449688781 ], [ 127.207758346600357, 36.577970092414567 ], [ 127.203738580763883, 36.572665578195881 ], [ 127.203100048683112, 36.567443745285964 ], [ 127.199200708310613, 36.56494452882653 ], [ 127.193787678727915, 36.564812524663601 ], [ 127.188792799557262, 36.553800553433035 ], [ 127.186114362494081, 36.55232087346819 ], [ 127.19182683866957, 36.546025339495202 ], [ 127.187007960882084, 36.545797716901056 ], [ 127.185035281568517, 36.543662716016946 ], [ 127.17895587068773, 36.545564121309447 ], [ 127.174240521576436, 36.542189484593933 ], [ 127.174895271966832, 36.538481000862738 ], [ 127.172668439217858, 36.536143647071903 ], [ 127.17301831725301, 36.533456875291876 ], [ 127.174922129526124, 36.532980164624128 ], [ 127.175733482169932, 36.5288819314368 ], [ 127.182348751222889, 36.521438074814341 ], [ 127.173990393791499, 36.515505880426858 ], [ 127.170248370495358, 36.511731770722861 ], [ 127.169989691401199, 36.509037916959215 ], [ 127.17626082912679, 36.505336299617824 ], [ 127.175850650909808, 36.503444142579454 ], [ 127.178582878086175, 36.50252509950478 ], [ 127.177438292536706, 36.500239835642809 ], [ 127.170706137597122, 36.499355289809117 ], [ 127.168909728343579, 36.49769622802858 ], [ 127.163847910989688, 36.498380501447848 ], [ 127.162505057476736, 36.495295337605597 ], [ 127.157482313178832, 36.494943955462617 ], [ 127.154162565782428, 36.491204449967505 ], [ 127.152771586188635, 36.492974885755736 ], [ 127.147826627667385, 36.490074233271805 ], [ 127.144101331872093, 36.492657697454206 ], [ 127.134052027367986, 36.483609220539002 ], [ 127.132829181343723, 36.487952338072809 ], [ 127.133439032407452, 36.499743617811795 ], [ 127.126410710927644, 36.507580244865366 ], [ 127.124737394120856, 36.514439327380913 ], [ 127.12157059539625, 36.514341619482899 ], [ 127.119080483811558, 36.520079135931901 ], [ 127.113526329012132, 36.522191636437704 ], [ 127.113089881813707, 36.524920774842137 ], [ 127.109162098371527, 36.527439613474371 ], [ 127.114774199977816, 36.529551389587944 ], [ 127.116869701838567, 36.52873503253317 ], [ 127.122351254886127, 36.533404886948347 ], [ 127.122123522529535, 36.535208193438443 ], [ 127.130935988262323, 36.538699841421739 ], [ 127.132482538357166, 36.545599533193894 ], [ 127.136499441882478, 36.548261943531664 ], [ 127.136601949364632, 36.554493494154656 ], [ 127.138866620391184, 36.557552348959476 ], [ 127.136836385864086, 36.560391438922778 ], [ 127.143000338842256, 36.561614269086995 ], [ 127.147027466269037, 36.565459421432188 ], [ 127.150526112126656, 36.565576050609621 ], [ 127.153473231196116, 36.572008103694763 ], [ 127.152143981975911, 36.578366428304498 ], [ 127.154903601570879, 36.58022464361899 ], [ 127.154565900295808, 36.582873208166731 ], [ 127.156835092258277, 36.585484428969075 ], [ 127.152476564674714, 36.594641500552846 ], [ 127.15524474583934, 36.597780665309131 ], [ 127.155883827250676, 36.606011070459921 ] ] ] ] } },
{ "type": "Feature", "properties": { "emd_cd": "44150370", "emd_nm": "정안면" }, "geometry": { "type": "MultiPolygon", "coordinates": [ [ [ [ 127.020408672786516, 36.650142303452107 ], [ 127.025271408719433, 36.656159590823357 ], [ 127.036976528655345, 36.655322162084701 ], [ 127.043071236469117, 36.651641469293068 ], [ 127.0540488105771, 36.651247357386119 ], [ 127.058671956989059, 36.645391178241489 ], [ 127.069702796044055, 36.645094461128522 ], [ 127.07297540403097, 36.641376598658674 ], [ 127.086781714914935, 36.641534232434957 ], [ 127.088742724295443, 36.64208002347474 ], [ 127.093103261652388, 36.64868412739434 ], [ 127.093944245586513, 36.654109820379361 ], [ 127.097651325190839, 36.655409844236125 ], [ 127.100553288445269, 36.654271135066594 ], [ 127.10420993816858, 36.657241119357998 ], [ 127.111429069217706, 36.658789065629357 ], [ 127.112401476264537, 36.657287931544644 ], [ 127.120168325275287, 36.655969288222117 ], [ 127.123900518752109, 36.653045064818663 ], [ 127.127202925938533, 36.653625331017508 ], [ 127.130039522629943, 36.646485485017017 ], [ 127.140460906159049, 36.642943665216009 ], [ 127.14058987494947, 36.636806298770566 ], [ 127.14488874847008, 36.63513081314867 ], [ 127.146513010204984, 36.629625263020422 ], [ 127.148863274560739, 36.628803088762318 ], [ 127.147812181225717, 36.627092721043162 ], [ 127.150053254979582, 36.619007900835875 ], [ 127.155985014005466, 36.615146329330059 ], [ 127.154984829431839, 36.612080803045664 ], [ 127.156303013990239, 36.603524619982096 ], [ 127.154430589518782, 36.599491050301602 ], [ 127.15524474583934, 36.597780665309131 ], [ 127.152476564674714, 36.594641500552846 ], [ 127.156835092258277, 36.585484428969075 ], [ 127.154565900295808, 36.582873208166731 ], [ 127.154903601570879, 36.58022464361899 ], [ 127.152143981975911, 36.578366428304498 ], [ 127.153473231196116, 36.572008103694763 ], [ 127.150526112126656, 36.565576050609621 ], [ 127.147027466269037, 36.565459421432188 ], [ 127.143000338842256, 36.561614269086995 ], [ 127.136836385864086, 36.560391438922778 ], [ 127.138866620391184, 36.557552348959476 ], [ 127.136601949364632, 36.554493494154656 ], [ 127.136499441882478, 36.548261943531664 ], [ 127.132482538357166, 36.545599533193894 ], [ 127.130935988262323, 36.538699841421739 ], [ 127.122123522529535, 36.535208193438443 ], [ 127.122351254886127, 36.533404886948347 ], [ 127.116869701838567, 36.52873503253317 ], [ 127.114774199977816, 36.529551389587944 ], [ 127.107991311179745, 36.527733654594272 ], [ 127.103704206278735, 36.522468395975302 ], [ 127.096706828197725, 36.52322995273439 ], [ 127.09546569689735, 36.525649103798081 ], [ 127.090975032078362, 36.527666252363069 ], [ 127.088753477307947, 36.538975005695804 ], [ 127.0803427596841, 36.539708601504394 ], [ 127.077421526100451, 36.545706418918023 ], [ 127.074462170800459, 36.546217728638133 ], [ 127.071745686379572, 36.550895793631319 ], [ 127.063701929167493, 36.556811104533018 ], [ 127.065368785314021, 36.566124771791962 ], [ 127.070880060319453, 36.571566133645021 ], [ 127.071676735271595, 36.575909082606316 ], [ 127.07094561768298, 36.58046065360837 ], [ 127.067003661999877, 36.584784216225913 ], [ 127.069694206223502, 36.58928725428958 ], [ 127.068211227230108, 36.60120313535441 ], [ 127.062122920896712, 36.60552391945933 ], [ 127.049709966369022, 36.602262961942884 ], [ 127.048906103978581, 36.604661955080921 ], [ 127.045261045839936, 36.606044006546377 ], [ 127.034636045817919, 36.604821782812436 ], [ 127.034761571661662, 36.607317388684628 ], [ 127.036834352793136, 36.608848676793357 ], [ 127.034253391340698, 36.612500037808864 ], [ 127.035745150878313, 36.615021118468249 ], [ 127.034007305663295, 36.61773587501812 ], [ 127.03543028240972, 36.62341526758577 ], [ 127.034973269517977, 36.624642577585774 ], [ 127.026884397648857, 36.626140852861731 ], [ 127.028436088397314, 36.628545390898935 ], [ 127.026944946422461, 36.634430343101272 ], [ 127.019773539834205, 36.63667674658894 ], [ 127.021531313936578, 36.646770347003738 ], [ 127.020408672786516, 36.650142303452107 ] ] ] ] } },
{ "type": "Feature", "properties": { "emd_cd": "44150380", "emd_nm": "우성면" }, "geometry": { "type": "MultiPolygon", "coordinates": [ [ [ [ 126.996122599961438, 36.481326740022602 ], [ 127.004296873559142, 36.480475253994129 ], [ 127.011665899770733, 36.473279947892429 ], [ 127.011999151060493, 36.469218246144344 ], [ 127.015814819420697, 36.46543888425785 ], [ 127.023370975326159, 36.46698334786165 ], [ 127.025065639344461, 36.469242783302896 ], [ 127.032277165851028, 36.463873931600475 ], [ 127.035998074879686, 36.463761431417453 ], [ 127.047715728220822, 36.468873055517768 ], [ 127.043888485728246, 36.474392543286704 ], [ 127.045276920832578, 36.478186049819186 ], [ 127.050987200922989, 36.479316938879592 ], [ 127.052773508721899, 36.482263122185834 ], [ 127.053311614236222, 36.489347013004775 ], [ 127.051621277453449, 36.493347574788906 ], [ 127.055371025697838, 36.495397855480853 ], [ 127.054616204133609, 36.496822771495886 ], [ 127.061539399099402, 36.504708032750571 ], [ 127.07037133895939, 36.508678577659616 ], [ 127.071479299781785, 36.510564283232924 ], [ 127.070514408834612, 36.512392990073138 ], [ 127.075934258562725, 36.518867740710093 ], [ 127.073806464105743, 36.52533859081079 ], [ 127.066962270727899, 36.525252240161258 ], [ 127.064662865166184, 36.528302143401753 ], [ 127.065221329580112, 36.534448100169456 ], [ 127.05831330550096, 36.540494928586625 ], [ 127.059776695386162, 36.545900651028738 ], [ 127.058786459961581, 36.548691849072348 ], [ 127.063701929167493, 36.556811104533018 ], [ 127.071745686379572, 36.550895793631319 ], [ 127.074462170800459, 36.546217728638133 ], [ 127.077421526100451, 36.545706418918023 ], [ 127.0803427596841, 36.539708601504394 ], [ 127.088753477307947, 36.538975005695804 ], [ 127.090975032078362, 36.527666252363069 ], [ 127.09546569689735, 36.525649103798081 ], [ 127.096706828197725, 36.52322995273439 ], [ 127.104230632064215, 36.522635566227365 ], [ 127.107991311179745, 36.527733654594272 ], [ 127.112203483743244, 36.5257628039884 ], [ 127.113526329012132, 36.522191636437704 ], [ 127.119080483811558, 36.520079135931901 ], [ 127.12157059539625, 36.514341619482899 ], [ 127.124737394120856, 36.514439327380913 ], [ 127.126410710927644, 36.507580244865366 ], [ 127.133439032407452, 36.499743617811795 ], [ 127.133777570612224, 36.48795282237591 ], [ 127.13079608878175, 36.489505757972822 ], [ 127.131355207129417, 36.493966143284318 ], [ 127.129712860701133, 36.494662139980449 ], [ 127.126098435122373, 36.49145623656085 ], [ 127.120541131120206, 36.493537715236343 ], [ 127.115502531687255, 36.492458820374623 ], [ 127.11205454837733, 36.495065989675723 ], [ 127.106597593546908, 36.494616966321537 ], [ 127.09574374576259, 36.497795565976546 ], [ 127.100964291415323, 36.493294560797139 ], [ 127.100397009363093, 36.489132157439911 ], [ 127.101927507501813, 36.487690358650504 ], [ 127.111489899179645, 36.485064481518684 ], [ 127.111017251243936, 36.482253884237416 ], [ 127.104283406624859, 36.477583568500847 ], [ 127.105723328217834, 36.473320027223629 ], [ 127.108305854652031, 36.475210602194849 ], [ 127.109093316140445, 36.473560456324414 ], [ 127.103973394324498, 36.470146230771903 ], [ 127.095617877123274, 36.456524114207795 ], [ 127.091749741542159, 36.452925848015667 ], [ 127.08698022575669, 36.452916923349797 ], [ 127.083131536046892, 36.449323957635634 ], [ 127.067625102443486, 36.44374651925235 ], [ 127.060903850435921, 36.438523232420337 ], [ 127.055276204687587, 36.424107244151521 ], [ 127.050974946528996, 36.420347602977237 ], [ 127.045394633837802, 36.411087094063795 ], [ 127.0257750455348, 36.397098277867663 ], [ 127.023680651079545, 36.398884681869291 ], [ 127.028231101399356, 36.403542186709871 ], [ 127.027348227705104, 36.406125619184586 ], [ 127.022226995259814, 36.411980995723894 ], [ 127.019333568783935, 36.412312217975355 ], [ 127.020556751869208, 36.415072450035161 ], [ 127.018075715905795, 36.415238734028115 ], [ 127.015334732710954, 36.418325111989795 ], [ 127.023875770422165, 36.424239207378704 ], [ 127.023711601966212, 36.426529282703328 ], [ 127.021006443752356, 36.428595491112965 ], [ 127.020758358905269, 36.432260333304022 ], [ 127.017849497969095, 36.434611286065554 ], [ 127.020223599887601, 36.438536549177655 ], [ 127.006776997092857, 36.438537902969969 ], [ 127.006338994076884, 36.440963152890376 ], [ 127.010442310206145, 36.445920982486051 ], [ 127.00636882790856, 36.447166910116984 ], [ 127.00664137651799, 36.45199689685672 ], [ 127.002047745852124, 36.451595324425334 ], [ 127.004098344367932, 36.455902664841496 ], [ 127.001189680818115, 36.455672158833337 ], [ 126.994846399495572, 36.461355614760059 ], [ 126.981937225418292, 36.463083574494341 ], [ 126.97458747001221, 36.466891128369873 ], [ 126.966802794621174, 36.467429408987961 ], [ 126.964668129954205, 36.464607004275308 ], [ 126.961262503833311, 36.464235583857459 ], [ 126.957179941007126, 36.466237761785635 ], [ 126.959098203013568, 36.474292244392245 ], [ 126.964819141454882, 36.475730977232303 ], [ 126.965501402156093, 36.478120886236965 ], [ 126.974281816619424, 36.484412818607886 ], [ 126.977858756219788, 36.482372835379671 ], [ 126.978553992585006, 36.476631668436852 ], [ 126.984905852916341, 36.4744721093289 ], [ 126.996122599961438, 36.481326740022602 ] ] ] ] } },
{ "type": "Feature", "properties": { "emd_cd": "44150390", "emd_nm": "사곡면" }, "geometry": { "type": "MultiPolygon", "coordinates": [ [ [ [ 127.034636045817919, 36.604821782812436 ], [ 127.045261045839936, 36.606044006546377 ], [ 127.048906103978581, 36.604661955080921 ], [ 127.049709966369022, 36.602262961942884 ], [ 127.062122920896712, 36.60552391945933 ], [ 127.068211227230108, 36.60120313535441 ], [ 127.069694206223502, 36.58928725428958 ], [ 127.067003661999877, 36.584784216225913 ], [ 127.07094561768298, 36.58046065360837 ], [ 127.071676735271595, 36.575909082606316 ], [ 127.070880060319453, 36.571566133645021 ], [ 127.065368785314021, 36.566124771791962 ], [ 127.064451889005568, 36.557514737772884 ], [ 127.058786459961581, 36.548691849072348 ], [ 127.059776695386162, 36.545900651028738 ], [ 127.05831330550096, 36.540494928586625 ], [ 127.065221329580112, 36.534448100169456 ], [ 127.064662865166184, 36.528302143401753 ], [ 127.066962270727899, 36.525252240161258 ], [ 127.073806464105743, 36.52533859081079 ], [ 127.075934258562725, 36.518867740710093 ], [ 127.070514408834612, 36.512392990073138 ], [ 127.071479299781785, 36.510564283232924 ], [ 127.07037133895939, 36.508678577659616 ], [ 127.061539399099402, 36.504708032750571 ], [ 127.054616204133609, 36.496822771495886 ], [ 127.055371025697838, 36.495397855480853 ], [ 127.051621277453449, 36.493347574788906 ], [ 127.053311614236222, 36.489347013004775 ], [ 127.052773508721899, 36.482263122185834 ], [ 127.050987200922989, 36.479316938879592 ], [ 127.045276920832578, 36.478186049819186 ], [ 127.043888485728246, 36.474392543286704 ], [ 127.047715728220822, 36.468873055517768 ], [ 127.041905145287771, 36.465314568647067 ], [ 127.035564100473337, 36.463745245180313 ], [ 127.032277165851028, 36.463873931600475 ], [ 127.025065639344461, 36.469242783302896 ], [ 127.023370975326159, 36.46698334786165 ], [ 127.015814819420697, 36.46543888425785 ], [ 127.011999151060493, 36.469218246144344 ], [ 127.011665899770733, 36.473279947892429 ], [ 127.004296873559142, 36.480475253994129 ], [ 126.996122599961438, 36.481326740022602 ], [ 126.999507229208092, 36.489406103906326 ], [ 127.008471849467966, 36.495041131160434 ], [ 127.006086105884009, 36.500026213345009 ], [ 127.000626490575598, 36.504392215483485 ], [ 126.99784023642836, 36.50398120201762 ], [ 126.997741447291617, 36.509605307581303 ], [ 127.001966617072625, 36.514229832399607 ], [ 127.002735056274915, 36.521303369175783 ], [ 127.005891689211495, 36.523226065509043 ], [ 127.005861706763028, 36.527113672786548 ], [ 127.012383242349131, 36.532764114815123 ], [ 127.011184129754511, 36.536938148445884 ], [ 127.003735738416424, 36.541824948474911 ], [ 127.004656284032976, 36.547814270116085 ], [ 127.001218907498526, 36.548230316340614 ], [ 127.000068997049951, 36.551025450255835 ], [ 126.995919166165848, 36.553755839488467 ], [ 126.994100135058432, 36.559328076438902 ], [ 126.999426193802051, 36.56368974432624 ], [ 126.993929401283538, 36.573629777985943 ], [ 127.000426798661465, 36.578875999964168 ], [ 127.001855077151248, 36.58370895868687 ], [ 127.005089245280871, 36.585533593815661 ], [ 127.006883933862611, 36.584935305074247 ], [ 127.010188749510704, 36.588073405768498 ], [ 127.010358354442744, 36.592171219285518 ], [ 127.017352398359264, 36.59829505467706 ], [ 127.020299958500686, 36.603998683663463 ], [ 127.031761205524163, 36.602808157561796 ], [ 127.034636045817919, 36.604821782812436 ] ] ] ] } },
{ "type": "Feature", "properties": { "emd_cd": "44150400", "emd_nm": "신풍면" }, "geometry": { "type": "MultiPolygon", "coordinates": [ [ [ [ 126.899858273040437, 36.549655195562792 ], [ 126.904696802199183, 36.547822707397394 ], [ 126.907167246363926, 36.544289200127743 ], [ 126.912278674442206, 36.541965457788358 ], [ 126.91498455284642, 36.54242076296849 ], [ 126.91579455557013, 36.538625579688336 ], [ 126.918676181971492, 36.536135370452044 ], [ 126.93240034905422, 36.536199358484822 ], [ 126.933336916287431, 36.537642127251857 ], [ 126.93970671214133, 36.53594444030994 ], [ 126.940091089636951, 36.534642734834662 ], [ 126.943624364024473, 36.535943701678065 ], [ 126.948406535686246, 36.534030377005863 ], [ 126.949830833283556, 36.530982882693607 ], [ 126.953793229742757, 36.528643875257195 ], [ 126.956664269736279, 36.531203651580277 ], [ 126.964384995685563, 36.53193431231459 ], [ 126.965376843273361, 36.534508156273667 ], [ 126.971940762198912, 36.53668208568962 ], [ 126.974762452779913, 36.539671122241018 ], [ 126.981004829714493, 36.540557985331496 ], [ 126.982097345325172, 36.541751744091663 ], [ 126.980764024020345, 36.544783143364199 ], [ 126.982450032293727, 36.548591625472284 ], [ 126.981551382401619, 36.550735489862333 ], [ 126.985936724375577, 36.553189533297974 ], [ 126.988313776972348, 36.559143104805571 ], [ 126.994100135058432, 36.559328076438902 ], [ 126.995919166165848, 36.553755839488467 ], [ 127.000068997049951, 36.551025450255835 ], [ 127.001218907498526, 36.548230316340614 ], [ 127.004983381652977, 36.547373294915921 ], [ 127.003735738416424, 36.541824948474911 ], [ 127.011184129754511, 36.536938148445884 ], [ 127.012383242349131, 36.532764114815123 ], [ 127.005861706763028, 36.527113672786548 ], [ 127.005891689211495, 36.523226065509043 ], [ 127.002735056274915, 36.521303369175783 ], [ 127.001966617072625, 36.514229832399607 ], [ 126.997741447291617, 36.509605307581303 ], [ 126.99784023642836, 36.50398120201762 ], [ 127.000626490575598, 36.504392215483485 ], [ 127.006086105884009, 36.500026213345009 ], [ 127.008471849467966, 36.495041131160434 ], [ 126.999507229208092, 36.489406103906326 ], [ 126.995663015840549, 36.480405386992373 ], [ 126.984905852916341, 36.4744721093289 ], [ 126.978553992585006, 36.476631668436852 ], [ 126.977858756219788, 36.482372835379671 ], [ 126.974281816619424, 36.484412818607886 ], [ 126.965501402156093, 36.478120886236965 ], [ 126.964819141454882, 36.475730977232303 ], [ 126.959098203013568, 36.474292244392245 ], [ 126.955731500431781, 36.467161522833543 ], [ 126.940586285437547, 36.462041520141391 ], [ 126.930579846884612, 36.454514463671764 ], [ 126.919619244635527, 36.454182916410716 ], [ 126.915455481232513, 36.455653778791607 ], [ 126.91357201135348, 36.46518792288866 ], [ 126.904983900028299, 36.468181130356022 ], [ 126.901059187295871, 36.471311211906972 ], [ 126.89936337334052, 36.476772413918702 ], [ 126.893498462880004, 36.479159123086838 ], [ 126.894303574988072, 36.48367446857899 ], [ 126.891435785933865, 36.486707024551947 ], [ 126.89319733452264, 36.489599697177269 ], [ 126.891824583590036, 36.49807675353027 ], [ 126.893951099852103, 36.503613676239944 ], [ 126.885646641528922, 36.509314274667716 ], [ 126.883572652102103, 36.512598473791066 ], [ 126.8880248165094, 36.517280790200651 ], [ 126.890679933276857, 36.525441621727119 ], [ 126.893876898382359, 36.526625781413458 ], [ 126.891590873991305, 36.531535010417585 ], [ 126.888396766894743, 36.533841680642077 ], [ 126.890490676786214, 36.538526487278553 ], [ 126.889719704085294, 36.541425544184882 ], [ 126.892899685108787, 36.5424287435631 ], [ 126.892735041362187, 36.545017807221889 ], [ 126.89469411042792, 36.547154478353711 ], [ 126.899858273040437, 36.549655195562792 ] ] ] ] } }
]
}
