{
"type": "FeatureCollection",
"name": "44180",
"crs": { "type": "name", "properties": { "name": "urn:ogc:def:crs:OGC:1.3:CRS84" } },
"features": [
{ "type": "Feature", "properties": { "emd_cd": "44180101", "emd_nm": "대천동" }, "geometry": { "type": "MultiPolygon", "coordinates": [ [ [ [ 126.549592556840295, 36.354504551026764 ], [ 126.550862316297597, 36.35676911677065 ], [ 126.555762088583691, 36.358683607529464 ], [ 126.55652440227837, 36.361556063513092 ], [ 126.570166107317377, 36.359851595739443 ], [ 126.579584669097585, 36.36360544782471 ], [ 126.581505995192089, 36.3618266654575 ], [ 126.585953623170212, 36.364138987867733 ], [ 126.590855767651689, 36.359839432252173 ], [ 126.592250041857739, 36.361154339444091 ], [ 126.594939273069144, 36.357623179487554 ], [ 126.602613166270942, 36.356930585293647 ], [ 126.604333370974445, 36.3548155802455 ], [ 126.599312152912788, 36.347304118545274 ], [ 126.590774202457638, 36.344866358978351 ], [ 126.581862632083073, 36.350561880315844 ], [ 126.549592556840295, 36.354504551026764 ] ] ] ] } },
{ "type": "Feature", "properties": { "emd_cd": "44180102", "emd_nm": "죽정동" }, "geometry": { "type": "MultiPolygon", "coordinates": [ [ [ [ 126.592250041857739, 36.361154339444099 ], [ 126.603916424187119, 36.372026877264247 ], [ 126.610174613714378, 36.374233411479771 ], [ 126.609089297276753, 36.376874030024197 ], [ 126.614239984753397, 36.378511146848524 ], [ 126.614883923509225, 36.380747289514566 ], [ 126.620549425575945, 36.379721445357163 ], [ 126.622881333126315, 36.382325011944069 ], [ 126.628231074655844, 36.381956499452521 ], [ 126.628511234821062, 36.379932278595227 ], [ 126.622108968077967, 36.373787121151423 ], [ 126.620730343376323, 36.37009235617365 ], [ 126.613395396778145, 36.364350536279282 ], [ 126.614163750028283, 36.360634789801402 ], [ 126.612295501889193, 36.358296599077171 ], [ 126.604333370974445, 36.3548155802455 ], [ 126.60261316627097, 36.356930585293632 ], [ 126.594939273069144, 36.357623179487554 ], [ 126.592250041857739, 36.361154339444099 ] ] ] ] } },
{ "type": "Feature", "properties": { "emd_cd": "44180103", "emd_nm": "화산동" }, "geometry": { "type": "MultiPolygon", "coordinates": [ [ [ [ 126.635713275159716, 36.351365603654934 ], [ 126.619354711170857, 36.356095471797381 ], [ 126.615649141588889, 36.359603559803787 ], [ 126.617072931131815, 36.360766895886321 ], [ 126.612703081869938, 36.362764864642877 ], [ 126.628692737728869, 36.380281784874093 ], [ 126.627115682618992, 36.376287029122331 ], [ 126.636086589182156, 36.369588899695543 ], [ 126.63810156117458, 36.366326848056808 ], [ 126.637465443453792, 36.360752428805242 ], [ 126.639314075140547, 36.358859267936261 ], [ 126.635713275159716, 36.351365603654934 ] ] ] ] } },
{ "type": "Feature", "properties": { "emd_cd": "44180104", "emd_nm": "동대동" }, "geometry": { "type": "MultiPolygon", "coordinates": [ [ [ [ 126.614078664186508, 36.361191624196316 ], [ 126.617072931131815, 36.360766895886321 ], [ 126.615649141588889, 36.359603559803787 ], [ 126.616835158944596, 36.35789709453654 ], [ 126.622072947713278, 36.354867091163143 ], [ 126.63532722427486, 36.351787132656227 ], [ 126.638094090739216, 36.348324058768121 ], [ 126.633275117435829, 36.341599902563225 ], [ 126.625576969484158, 36.34272183906392 ], [ 126.620824809638322, 36.345174515314014 ], [ 126.613141532809252, 36.342990820739125 ], [ 126.610005681346905, 36.345175387573576 ], [ 126.605147986293574, 36.341447461984174 ], [ 126.601974255985809, 36.345647426684955 ], [ 126.599214338202415, 36.345295544702473 ], [ 126.598757989847854, 36.346947399420891 ], [ 126.604333370974445, 36.3548155802455 ], [ 126.612295501889193, 36.358296599077171 ], [ 126.614078664186508, 36.361191624196316 ] ] ] ] } },
{ "type": "Feature", "properties": { "emd_cd": "44180105", "emd_nm": "명천동" }, "geometry": { "type": "MultiPolygon", "coordinates": [ [ [ [ 126.597973140977231, 36.331067084384003 ], [ 126.599749324092429, 36.340895107356872 ], [ 126.597664511416795, 36.345658950067971 ], [ 126.595760159008108, 36.3461303628522 ], [ 126.59875798984784, 36.346947399420898 ], [ 126.599214338202415, 36.345295544702502 ], [ 126.60192028786679, 36.345679508101348 ], [ 126.605147986293574, 36.341447461984174 ], [ 126.610005681346905, 36.345175387573569 ], [ 126.613141532809252, 36.342990820739125 ], [ 126.620824809638322, 36.345174515314014 ], [ 126.625576969484158, 36.342721839063913 ], [ 126.633275117435801, 36.341599902563217 ], [ 126.631066175278647, 36.331324631548753 ], [ 126.632752040284757, 36.322278856191438 ], [ 126.625013727400756, 36.321564141244949 ], [ 126.615555472441017, 36.323378834495891 ], [ 126.605288994057304, 36.326645556854011 ], [ 126.597973140977231, 36.331067084384003 ] ] ] ] } },
{ "type": "Feature", "properties": { "emd_cd": "44180106", "emd_nm": "궁촌동" }, "geometry": { "type": "MultiPolygon", "coordinates": [ [ [ [ 126.597973140977231, 36.33106708438401 ], [ 126.596462466632047, 36.335782557010177 ], [ 126.588328775130961, 36.339669830628132 ], [ 126.58639875976408, 36.342805311342985 ], [ 126.587486829987924, 36.344963517379703 ], [ 126.597664511416795, 36.345658950067978 ], [ 126.599749324092457, 36.340895107356872 ], [ 126.597973140977231, 36.33106708438401 ] ] ] ] } },
{ "type": "Feature", "properties": { "emd_cd": "44180107", "emd_nm": "내항동" }, "geometry": { "type": "MultiPolygon", "coordinates": [ [ [ [ 126.556705297512835, 36.349422228670818 ], [ 126.56167470181849, 36.351010641428246 ], [ 126.569309960772301, 36.350437472967485 ], [ 126.572887816919547, 36.347997282386842 ], [ 126.572310964612839, 36.34972372269138 ], [ 126.573452231161085, 36.349949340583336 ], [ 126.580857547722573, 36.34890434468408 ], [ 126.586493115520511, 36.345325629851878 ], [ 126.58622244507724, 36.342898339278115 ], [ 126.588811777096822, 36.339208712931104 ], [ 126.596462466632047, 36.335782557010177 ], [ 126.597310888114649, 36.331909090528711 ], [ 126.587002078439511, 36.326962229236408 ], [ 126.584342838766119, 36.32896577966136 ], [ 126.581976647916363, 36.327655010210528 ], [ 126.577104090218228, 36.328607956804532 ], [ 126.575254842757118, 36.334427746057763 ], [ 126.572270714254472, 36.336542673011593 ], [ 126.573785604102738, 36.33792518848977 ], [ 126.573185728447896, 36.339610154155125 ], [ 126.56677838834203, 36.337339580044862 ], [ 126.563820395077769, 36.337875830544341 ], [ 126.562114270745383, 36.339454671750673 ], [ 126.562066014885957, 36.343958575762898 ], [ 126.556319203893466, 36.346883836032021 ], [ 126.556705297512835, 36.349422228670818 ] ] ] ] } },
{ "type": "Feature", "properties": { "emd_cd": "44180108", "emd_nm": "남곡동" }, "geometry": { "type": "MultiPolygon", "coordinates": [ [ [ [ 126.537832759363283, 36.337525806329978 ], [ 126.538379304832219, 36.338855146524665 ], [ 126.543879483727494, 36.339025501567448 ], [ 126.547846068106892, 36.344596273102233 ], [ 126.556772154296951, 36.34972499902215 ], [ 126.556319203893466, 36.346883836032021 ], [ 126.562066014885957, 36.343958575762898 ], [ 126.562114270745383, 36.339454671750673 ], [ 126.563820395077769, 36.337875830544341 ], [ 126.56677838834203, 36.337339580044862 ], [ 126.573185728447896, 36.339610154155125 ], [ 126.573785604102738, 36.33792518848977 ], [ 126.572270714254472, 36.336542673011593 ], [ 126.575254842757118, 36.334427746057763 ], [ 126.577104090218228, 36.328607956804532 ], [ 126.569003867507888, 36.322261530401008 ], [ 126.562295571333649, 36.329106846493403 ], [ 126.555626801847779, 36.330043859191719 ], [ 126.552905710637816, 36.334435365624728 ], [ 126.540872409028012, 36.33374170482238 ], [ 126.537832759363283, 36.337525806329978 ] ] ] ] } },
{ "type": "Feature", "properties": { "emd_cd": "44180109", "emd_nm": "요암동" }, "geometry": { "type": "MultiPolygon", "coordinates": [ [ [ [ 126.56900386750786, 36.322261530401015 ], [ 126.551727437009461, 36.318215020259785 ], [ 126.550665669947591, 36.319772434529462 ], [ 126.544469492146078, 36.318279459032254 ], [ 126.541194252423097, 36.327187456340312 ], [ 126.54398970098211, 36.331321873878061 ], [ 126.543527173366527, 36.333572807533947 ], [ 126.552905710637816, 36.334435365624735 ], [ 126.555626801847737, 36.330043859191711 ], [ 126.562295571333649, 36.329106846493417 ], [ 126.56900386750786, 36.322261530401015 ] ] ] ] } },
{ "type": "Feature", "properties": { "emd_cd": "44180110", "emd_nm": "신흑동" }, "geometry": { "type": "MultiPolygon", "coordinates": [ [ [ [ 126.479440030570927, 36.281804160321656 ], [ 126.479614548153506, 36.281651524233368 ], [ 126.479529950299096, 36.281612386564419 ], [ 126.479440030570927, 36.281804160321656 ] ] ], [ [ [ 126.543875551988364, 36.318107451527105 ], [ 126.536502232535952, 36.31643626581306 ], [ 126.52950918093363, 36.31209786021612 ], [ 126.528067768731034, 36.309296800465233 ], [ 126.541077388805121, 36.292023363759725 ], [ 126.533674529847445, 36.288761489224193 ], [ 126.526818325241521, 36.298433885132674 ], [ 126.521944971781934, 36.300681592223889 ], [ 126.519199542342207, 36.29750275748038 ], [ 126.51717947215829, 36.29922397898379 ], [ 126.518151616300699, 36.301520593944907 ], [ 126.512797392234077, 36.31168517369661 ], [ 126.504244137867076, 36.323720381586334 ], [ 126.501034953795894, 36.324709845379111 ], [ 126.50393346714938, 36.32510413019186 ], [ 126.50457439083668, 36.329822777699071 ], [ 126.504899920036792, 36.330421730575537 ], [ 126.505227982724662, 36.330723812531346 ], [ 126.505640836389915, 36.330964542428632 ], [ 126.504593051085294, 36.328772977256001 ], [ 126.515350840565489, 36.327502471280702 ], [ 126.516258490746281, 36.332210795550345 ], [ 126.519956776432025, 36.335191943666061 ], [ 126.528342678406872, 36.335515158669558 ], [ 126.538379304832191, 36.338855146524658 ], [ 126.538294123133028, 36.336214485854022 ], [ 126.544106599121278, 36.332516892240236 ], [ 126.541070611970426, 36.325320397252241 ], [ 126.543875551988364, 36.318107451527105 ] ] ], [ [ [ 126.505034170014667, 36.332430133523935 ], [ 126.511772235044035, 36.33327385509206 ], [ 126.511784186556653, 36.33323103553969 ], [ 126.505034170014667, 36.332430133523935 ] ] ] ] } },
{ "type": "Feature", "properties": { "emd_cd": "44180250", "emd_nm": "웅천읍" }, "geometry": { "type": "MultiPolygon", "coordinates": [ [ [ [ 126.454777811176129, 36.200775446148327 ], [ 126.455420887597242, 36.20198421144061 ], [ 126.455726601094085, 36.20000997483691 ], [ 126.454777811176129, 36.200775446148327 ] ] ], [ [ [ 126.46787480579512, 36.20522501153323 ], [ 126.468780233268831, 36.204760104179641 ], [ 126.469442031990866, 36.204808106909283 ], [ 126.46831754733617, 36.20397175150584 ], [ 126.46787480579512, 36.20522501153323 ] ] ], [ [ [ 126.526651047664416, 36.220058013250771 ], [ 126.528565647304262, 36.220471001366178 ], [ 126.528812710556423, 36.220104276001315 ], [ 126.52815983462817, 36.219258132536034 ], [ 126.526651047664416, 36.220058013250771 ] ] ], [ [ [ 126.525531234551465, 36.187349401756066 ], [ 126.535291659979066, 36.198986742053791 ], [ 126.539706082066814, 36.199645561965163 ], [ 126.538229463187548, 36.211691480290789 ], [ 126.53317038050325, 36.218785517876007 ], [ 126.529639598310212, 36.220237958473341 ], [ 126.5313693024532, 36.226913854613009 ], [ 126.530059863250699, 36.238547742677241 ], [ 126.537986068513234, 36.247416427043675 ], [ 126.535341445693206, 36.24890953825787 ], [ 126.535146412126849, 36.249828676379373 ], [ 126.53856372983843, 36.247701706507279 ], [ 126.540703945356881, 36.248748426388765 ], [ 126.540434566352872, 36.250540477088613 ], [ 126.537438681968567, 36.249803867333469 ], [ 126.537350763508229, 36.251834201425041 ], [ 126.538945647314719, 36.254846354979229 ], [ 126.542630565645879, 36.256318889082245 ], [ 126.540906086004455, 36.260243594829987 ], [ 126.550730021603826, 36.256046794783124 ], [ 126.557653214487871, 36.251107155776729 ], [ 126.565827905674752, 36.251362967271042 ], [ 126.575511953627995, 36.258496787703081 ], [ 126.576070462592313, 36.261601593964009 ], [ 126.573685125169533, 36.265784123671132 ], [ 126.581410264763591, 36.270413700205317 ], [ 126.584897322926921, 36.274968721112636 ], [ 126.592158779055495, 36.278595289657467 ], [ 126.60505860060637, 36.273228468482273 ], [ 126.606671613355871, 36.27575535790124 ], [ 126.613706513530531, 36.279315870976447 ], [ 126.614188943551326, 36.287011433880288 ], [ 126.617841230033335, 36.289201884448758 ], [ 126.623628741389282, 36.289269686602964 ], [ 126.629735434318889, 36.286538736423509 ], [ 126.635087949714801, 36.286336079308761 ], [ 126.642353042112958, 36.279408907029591 ], [ 126.655851726532234, 36.278517759239314 ], [ 126.654777204775982, 36.266510067916663 ], [ 126.651457147535922, 36.258872752930522 ], [ 126.639253724446547, 36.252165422818685 ], [ 126.634707910529372, 36.244648177219318 ], [ 126.628659101110287, 36.243234997306573 ], [ 126.624147546421881, 36.230997757540578 ], [ 126.617067771830406, 36.226137310578025 ], [ 126.609236414796285, 36.223950869221063 ], [ 126.604879120988798, 36.20807859631158 ], [ 126.588233368307598, 36.210212577175312 ], [ 126.584087265331505, 36.214170320974098 ], [ 126.57435126283508, 36.207410117002141 ], [ 126.57267712467565, 36.19751049807401 ], [ 126.565145356263344, 36.192148272381246 ], [ 126.525531234551465, 36.187349401756066 ] ] ], [ [ [ 126.518488809795315, 36.241329446936241 ], [ 126.518927658574398, 36.244813624229216 ], [ 126.523269112289938, 36.245427276984856 ], [ 126.519677410714124, 36.243992326757237 ], [ 126.518488809795315, 36.241329446936241 ] ] ], [ [ [ 126.534154141291054, 36.250544919778186 ], [ 126.536091294831067, 36.251446045587954 ], [ 126.533988591436668, 36.250112454339266 ], [ 126.534154141291054, 36.250544919778186 ] ] ] ] } },
{ "type": "Feature", "properties": { "emd_cd": "44180310", "emd_nm": "주포면" }, "geometry": { "type": "MultiPolygon", "coordinates": [ [ [ [ 126.564888013675244, 36.426876472465288 ], [ 126.565968351039302, 36.428573453368131 ], [ 126.568048120010175, 36.426728264332553 ], [ 126.587106558455147, 36.425181267847002 ], [ 126.593915604294523, 36.428449116269263 ], [ 126.605383953605283, 36.424059283323523 ], [ 126.606069173512836, 36.422314337150645 ], [ 126.602936329170234, 36.418327683028906 ], [ 126.60543636868573, 36.413198282168807 ], [ 126.599590796844538, 36.401142214253298 ], [ 126.595327998717309, 36.399015430573883 ], [ 126.587298560314309, 36.398044685412508 ], [ 126.576875382839035, 36.3905493367226 ], [ 126.571630391858932, 36.392754849452587 ], [ 126.575852310146118, 36.39628766466187 ], [ 126.567307227886445, 36.397454199645004 ], [ 126.566047919743298, 36.394302883009836 ], [ 126.56333572198497, 36.394764668410964 ], [ 126.561787205869962, 36.397361283672581 ], [ 126.553805680231008, 36.397730353709179 ], [ 126.549906207766099, 36.400092111380374 ], [ 126.551851788833488, 36.405053180741881 ], [ 126.562011337382884, 36.417630634198268 ], [ 126.563524673106983, 36.418454714004731 ], [ 126.564488455733667, 36.416808335575702 ], [ 126.566820519748291, 36.417014875645926 ], [ 126.570559601605055, 36.420710758726152 ], [ 126.563240105807992, 36.422330181331063 ], [ 126.56774006680169, 36.424172496673819 ], [ 126.564888013675244, 36.426876472465288 ] ] ] ] } },
{ "type": "Feature", "properties": { "emd_cd": "44180320", "emd_nm": "오천면" }, "geometry": { "type": "MultiPolygon", "coordinates": [ [ [ [ 126.089828862756349, 36.201519359373009 ], [ 126.08947498458717, 36.201181034682364 ], [ 126.089363651745742, 36.201435098023481 ], [ 126.089828862756349, 36.201519359373009 ] ] ], [ [ [ 126.049004275278861, 36.205273540851636 ], [ 126.056581090006205, 36.205055077294034 ], [ 126.055311711589695, 36.203327791536019 ], [ 126.058142744728613, 36.202204719515969 ], [ 126.058242563857405, 36.200478578002652 ], [ 126.061203893053644, 36.20094824978213 ], [ 126.059727107278235, 36.198860745282218 ], [ 126.056808648974979, 36.199998567242879 ], [ 126.055092410674803, 36.198782195738666 ], [ 126.053617795928687, 36.202317112033178 ], [ 126.049004275278861, 36.205273540851636 ] ] ], [ [ [ 126.04867596154341, 36.207005143379234 ], [ 126.049028446162708, 36.205618813739513 ], [ 126.047841162501371, 36.206387437381295 ], [ 126.04867596154341, 36.207005143379234 ] ] ], [ [ [ 126.059000634110703, 36.209159441026841 ], [ 126.057587859138607, 36.20897327514863 ], [ 126.057161595271637, 36.209140555905542 ], [ 126.057810989323144, 36.209507691421692 ], [ 126.059000634110703, 36.209159441026841 ] ] ], [ [ [ 126.074401692541528, 36.210526108463547 ], [ 126.074547731351174, 36.210130152695925 ], [ 126.073671653124549, 36.210413771828144 ], [ 126.074401692541528, 36.210526108463547 ] ] ], [ [ [ 126.075643641309739, 36.210272583992065 ], [ 126.075124769222754, 36.210555732407705 ], [ 126.075889600008793, 36.210569499101069 ], [ 126.075643641309739, 36.210272583992065 ] ] ], [ [ [ 126.067616692429695, 36.210668791384656 ], [ 126.067088972806019, 36.210876949376036 ], [ 126.067233212358502, 36.210956395160508 ], [ 126.067616692429695, 36.210668791384656 ] ] ], [ [ [ 126.041523321215763, 36.211323384247848 ], [ 126.041819239978594, 36.210000912655147 ], [ 126.04000589562267, 36.210911215625956 ], [ 126.041523321215763, 36.211323384247848 ] ] ], [ [ [ 126.013417646801599, 36.214255323713658 ], [ 126.014883001362676, 36.213924587151013 ], [ 126.013292562404729, 36.214021919316565 ], [ 126.013417646801599, 36.214255323713658 ] ] ], [ [ [ 126.111091060376779, 36.217229652460134 ], [ 126.110709709635131, 36.216592910565986 ], [ 126.110549251789806, 36.217140667543653 ], [ 126.111091060376779, 36.217229652460134 ] ] ], [ [ [ 126.024241400255804, 36.224636893813368 ], [ 126.027405567999651, 36.223771001575294 ], [ 126.028236753950452, 36.220687761428962 ], [ 126.03035759803609, 36.221789359774689 ], [ 126.03020299626597, 36.219861508831734 ], [ 126.033708311522403, 36.21890571224877 ], [ 126.030785153656723, 36.216798043447127 ], [ 126.035783313880586, 36.215463579192786 ], [ 126.036150953181291, 36.21204601846064 ], [ 126.034089880087194, 36.210881996666131 ], [ 126.029747479214393, 36.216271565885926 ], [ 126.024918529386895, 36.219139705913712 ], [ 126.025140809111832, 36.220433846899788 ], [ 126.022303276614636, 36.222153998017816 ], [ 126.024241400255804, 36.224636893813368 ] ] ], [ [ [ 126.107518715490755, 36.218885856789385 ], [ 126.109157509071665, 36.217373034959159 ], [ 126.107041834141583, 36.218683767676559 ], [ 126.107518715490755, 36.218885856789385 ] ] ], [ [ [ 126.023779848041173, 36.218554471389481 ], [ 126.023886500260403, 36.21830325379868 ], [ 126.023484596232237, 36.218413938858959 ], [ 126.023779848041173, 36.218554471389481 ] ] ], [ [ [ 126.06850102762067, 36.219382717087086 ], [ 126.06808078623348, 36.218016907368053 ], [ 126.066160656330311, 36.218297621177761 ], [ 126.066339947335251, 36.219163250598811 ], [ 126.06850102762067, 36.219382717087086 ] ] ], [ [ [ 126.034917768253436, 36.21864768195779 ], [ 126.035173806287148, 36.219479983949995 ], [ 126.035567866373299, 36.219358769882426 ], [ 126.034917768253436, 36.21864768195779 ] ] ], [ [ [ 126.104574258188492, 36.222511307088546 ], [ 126.105050038138074, 36.221070510663665 ], [ 126.103508748321588, 36.222342936698915 ], [ 126.104574258188492, 36.222511307088546 ] ] ], [ [ [ 126.000704820809673, 36.223168770852489 ], [ 125.99948427050299, 36.222063359968594 ], [ 125.998532788836187, 36.22283220864422 ], [ 125.999407623461693, 36.223138206605235 ], [ 126.000704820809673, 36.223168770852489 ] ] ], [ [ [ 126.054638081522157, 36.222945188696627 ], [ 126.054341576339212, 36.223091731208832 ], [ 126.054680529596297, 36.223283259850376 ], [ 126.054638081522157, 36.222945188696627 ] ] ], [ [ [ 126.070858332504471, 36.225399041502634 ], [ 126.070315734095928, 36.227984294447445 ], [ 126.074801231307717, 36.227408492524368 ], [ 126.07673104958802, 36.234732704039949 ], [ 126.079746825828892, 36.233748932505307 ], [ 126.080055155045386, 36.231550322280754 ], [ 126.082794006625377, 36.230121600888957 ], [ 126.086255767568602, 36.230537592036733 ], [ 126.089759745957863, 36.237819126661549 ], [ 126.092129194163292, 36.237199951052936 ], [ 126.092321552428118, 36.233652385441864 ], [ 126.09536668131328, 36.228532756225952 ], [ 126.094280745075764, 36.226908300099595 ], [ 126.089015996080079, 36.226541779441824 ], [ 126.08412093691831, 36.224009405396032 ], [ 126.082660824160172, 36.225054369155657 ], [ 126.080611996462451, 36.223873233096718 ], [ 126.082243002897314, 36.225139644859709 ], [ 126.081010962479127, 36.226481640213045 ], [ 126.077711282354713, 36.226077004948785 ], [ 126.077712944693801, 36.223488829878036 ], [ 126.08185003822615, 36.223273499140802 ], [ 126.077537046029164, 36.223454354297203 ], [ 126.076925329983254, 36.22060982829003 ], [ 126.069635995254586, 36.22104946530979 ], [ 126.067618982738978, 36.223015296412569 ], [ 126.070858332504471, 36.225399041502634 ] ] ], [ [ [ 125.962030846634789, 36.232197185962789 ], [ 125.966145796570174, 36.239038695042233 ], [ 125.970368029211002, 36.237994801029778 ], [ 125.964918793985518, 36.227855828645417 ], [ 125.958179103052672, 36.230734794243716 ], [ 125.960378449534502, 36.234128413146834 ], [ 125.962030846634789, 36.232197185962789 ] ] ], [ [ [ 126.0646287851431, 36.23443850667438 ], [ 126.061180945467243, 36.235534785680898 ], [ 126.061504457682474, 36.236290756186591 ], [ 126.0646287851431, 36.23443850667438 ] ] ], [ [ [ 126.077210132321468, 36.237124126796971 ], [ 126.077456163241351, 36.236429830186488 ], [ 126.076959276802029, 36.23703079341783 ], [ 126.077210132321468, 36.237124126796971 ] ] ], [ [ [ 125.956848178103129, 36.237371821304109 ], [ 125.957732232552885, 36.236692629531007 ], [ 125.957399081705702, 36.236408051471358 ], [ 125.956848178103129, 36.237371821304109 ] ] ], [ [ [ 126.049483743213941, 36.239575390212842 ], [ 126.055998981784782, 36.237804814149527 ], [ 126.054277019204505, 36.241534207609185 ], [ 126.058502114906119, 36.238127978645188 ], [ 126.057010477428889, 36.237071450735769 ], [ 126.058271647295584, 36.235013826971119 ], [ 126.048956258219278, 36.236801658924769 ], [ 126.048621521361696, 36.238330720148454 ], [ 126.049483743213941, 36.239575390212842 ] ] ], [ [ [ 125.957675131963441, 36.238584753998303 ], [ 125.957412741634158, 36.238142209705728 ], [ 125.957207162161467, 36.238891574508067 ], [ 125.957675131963441, 36.238584753998303 ] ] ], [ [ [ 125.957525499700949, 36.239881837074968 ], [ 125.956904574035875, 36.239811715041121 ], [ 125.956643248817571, 36.240384174628851 ], [ 125.957525499700949, 36.239881837074968 ] ] ], [ [ [ 125.955726191373699, 36.24283806354547 ], [ 125.956282879239211, 36.241915127488056 ], [ 125.955486733544703, 36.242320641376239 ], [ 125.955726191373699, 36.24283806354547 ] ] ], [ [ [ 126.104317740831249, 36.253572048024658 ], [ 126.105052088571981, 36.253694946821447 ], [ 126.103451884194911, 36.252796766354223 ], [ 126.104317740831249, 36.253572048024658 ] ] ], [ [ [ 125.993703795386182, 36.259337298333513 ], [ 125.995996717159016, 36.257962539940067 ], [ 125.992416408479258, 36.259150946669777 ], [ 125.993703795386182, 36.259337298333513 ] ] ], [ [ [ 126.19968758584173, 36.28488467903086 ], [ 126.196645950563195, 36.28390838006451 ], [ 126.195648516923043, 36.285310676535758 ], [ 126.19968758584173, 36.28488467903086 ] ] ], [ [ [ 126.277530599459155, 36.251460901435031 ], [ 126.286014761589342, 36.249457820457842 ], [ 126.283126738596039, 36.244291507143927 ], [ 126.281764469916297, 36.248078591193838 ], [ 126.277530599459155, 36.251460901435031 ] ] ], [ [ [ 126.291254480527542, 36.260370273663163 ], [ 126.289989420378603, 36.258206794652423 ], [ 126.290495754286411, 36.26081852164311 ], [ 126.291254480527542, 36.260370273663163 ] ] ], [ [ [ 126.386906164991586, 36.260712103338484 ], [ 126.386701212606354, 36.259773010916895 ], [ 126.386075690619052, 36.26073371536738 ], [ 126.386906164991586, 36.260712103338484 ] ] ], [ [ [ 126.273256362323906, 36.267527702925207 ], [ 126.272341808029665, 36.267541812711414 ], [ 126.272209668280027, 36.267765883762948 ], [ 126.273256362323906, 36.267527702925207 ] ] ], [ [ [ 126.260973500305667, 36.267276634541957 ], [ 126.261890854165117, 36.27566144625839 ], [ 126.271561648388769, 36.279997995860612 ], [ 126.265431570012296, 36.265346867359561 ], [ 126.260973500305667, 36.267276634541957 ] ] ], [ [ [ 126.25671662820659, 36.272812157935135 ], [ 126.255005167242345, 36.272452585093831 ], [ 126.254234515593183, 36.272576720123915 ], [ 126.25671662820659, 36.272812157935135 ] ] ], [ [ [ 126.224908117575879, 36.280799673012154 ], [ 126.223335959322284, 36.281971820210416 ], [ 126.22557782077881, 36.28113566476042 ], [ 126.224908117575879, 36.280799673012154 ] ] ], [ [ [ 126.210791723545711, 36.283441280163636 ], [ 126.211945712412287, 36.283462250743689 ], [ 126.214326324826629, 36.282837427680029 ], [ 126.212654028306858, 36.281892321409202 ], [ 126.210791723545711, 36.283441280163636 ] ] ], [ [ [ 126.205647159076278, 36.286044050816379 ], [ 126.20717596778907, 36.286581690062832 ], [ 126.207428595406952, 36.286119163396862 ], [ 126.205647159076278, 36.286044050816379 ] ] ], [ [ [ 126.295595022356295, 36.294288726081383 ], [ 126.295166602689676, 36.292344822291298 ], [ 126.294120784833993, 36.292688129086422 ], [ 126.295595022356295, 36.294288726081383 ] ] ], [ [ [ 126.258707625900342, 36.293669623619017 ], [ 126.258457834825492, 36.297058838532578 ], [ 126.260092022244564, 36.298175813577167 ], [ 126.257230705645384, 36.300427705999063 ], [ 126.260013527341656, 36.303279473755914 ], [ 126.264078390456348, 36.302856737016889 ], [ 126.264703520580781, 36.304222043763332 ], [ 126.266066515846376, 36.304467656330843 ], [ 126.264761570304813, 36.304154607293185 ], [ 126.264836843037742, 36.302052090388642 ], [ 126.266001357533526, 36.303473331276372 ], [ 126.269531676976413, 36.3024715671487 ], [ 126.264090974413079, 36.29797743319704 ], [ 126.262727979418997, 36.295257844305063 ], [ 126.264071215974568, 36.292304066641961 ], [ 126.261772641545249, 36.292518836420811 ], [ 126.256046366188073, 36.288541537619302 ], [ 126.252635916044909, 36.293880202900169 ], [ 126.258707625900342, 36.293669623619017 ] ] ], [ [ [ 126.31957271914338, 36.299751887617631 ], [ 126.319437541440749, 36.298943909048063 ], [ 126.319261531232485, 36.299665060734746 ], [ 126.31957271914338, 36.299751887617631 ] ] ], [ [ [ 126.328861894766348, 36.305213373514732 ], [ 126.327784142368117, 36.304109211990358 ], [ 126.327447552988573, 36.304102800113249 ], [ 126.32785393398845, 36.305646438636224 ], [ 126.328861894766348, 36.305213373514732 ] ] ], [ [ [ 126.25467320769161, 36.309189453873529 ], [ 126.252101743540166, 36.309174201380173 ], [ 126.250883393338825, 36.310636994522831 ], [ 126.252475852460407, 36.31110438231768 ], [ 126.25467320769161, 36.309189453873529 ] ] ], [ [ [ 126.348729835248534, 36.311738468878609 ], [ 126.355204698862536, 36.311499971767965 ], [ 126.356836329452321, 36.310047283473288 ], [ 126.346848330994433, 36.309324519056936 ], [ 126.348729835248534, 36.311738468878609 ] ] ], [ [ [ 126.248226738989146, 36.311669267985671 ], [ 126.245949867606313, 36.310631907411079 ], [ 126.246146088561417, 36.311637423303942 ], [ 126.248226738989146, 36.311669267985671 ] ] ], [ [ [ 126.345409274498735, 36.313843980591912 ], [ 126.345312152156126, 36.312571412117833 ], [ 126.344812667872176, 36.313689634210711 ], [ 126.345409274498735, 36.313843980591912 ] ] ], [ [ [ 126.348242666743133, 36.314766443853841 ], [ 126.348839841125866, 36.314869175716488 ], [ 126.349048354434174, 36.314483219655905 ], [ 126.348242666743133, 36.314766443853841 ] ] ], [ [ [ 126.36177604082468, 36.328486946956978 ], [ 126.362059809267151, 36.328173779939824 ], [ 126.361693054204551, 36.328379895484417 ], [ 126.36177604082468, 36.328486946956978 ] ] ], [ [ [ 126.397057343819839, 36.337976180239011 ], [ 126.395886704637022, 36.338243044915856 ], [ 126.395831318621617, 36.339440839734671 ], [ 126.396342414260573, 36.339502643877672 ], [ 126.397057343819839, 36.337976180239011 ] ] ], [ [ [ 126.341467313091002, 36.33350661721861 ], [ 126.343634910727047, 36.337510294652667 ], [ 126.341830442929961, 36.33814276675929 ], [ 126.344459654832974, 36.338251924795351 ], [ 126.345763032810538, 36.340728112070714 ], [ 126.349622882587042, 36.340865295948056 ], [ 126.351695558422676, 36.343050302476314 ], [ 126.351687533619483, 36.348160633721314 ], [ 126.354490972131671, 36.353319774560042 ], [ 126.352634012849151, 36.354817548159311 ], [ 126.355708325024963, 36.355797330505453 ], [ 126.361263211271947, 36.351492908238136 ], [ 126.364760030173784, 36.352488652832299 ], [ 126.36068768136208, 36.349676649802106 ], [ 126.360264077941281, 36.341769283750587 ], [ 126.361417516878618, 36.339542917527666 ], [ 126.370396828516391, 36.335073415104482 ], [ 126.360942605087288, 36.33141202125433 ], [ 126.359951550145723, 36.329622958369555 ], [ 126.361059525130131, 36.326667811756309 ], [ 126.357095978072991, 36.326660613816458 ], [ 126.358365522737159, 36.328661187907613 ], [ 126.348841641460879, 36.331959339989275 ], [ 126.346789165585605, 36.331763729185013 ], [ 126.343304204822132, 36.327033579784434 ], [ 126.34284620809035, 36.328844749326024 ], [ 126.340228707767352, 36.329803234560302 ], [ 126.343438259408117, 36.332078468606021 ], [ 126.341467313091002, 36.33350661721861 ] ] ], [ [ [ 126.272004344731485, 36.346944508715154 ], [ 126.272909845806183, 36.346111320456949 ], [ 126.271640304602286, 36.346594594195672 ], [ 126.272004344731485, 36.346944508715154 ] ] ], [ [ [ 126.362189789175218, 36.354021144713677 ], [ 126.360305009983648, 36.35404051448247 ], [ 126.363080060149429, 36.354014477499945 ], [ 126.362189789175218, 36.354021144713677 ] ] ], [ [ [ 126.361657443083189, 36.388891633094509 ], [ 126.363648178449495, 36.389894177109355 ], [ 126.362101401225232, 36.391475863364938 ], [ 126.364899233642433, 36.393746992012503 ], [ 126.365473175354509, 36.391615753633751 ], [ 126.369226732405153, 36.391467092949092 ], [ 126.370018461042491, 36.392611661351438 ], [ 126.370450309593565, 36.39290247423682 ], [ 126.369247187775017, 36.39140209300875 ], [ 126.37295107872859, 36.390077121036697 ], [ 126.367080179347624, 36.387304789977449 ], [ 126.366856728957146, 36.384810889438533 ], [ 126.36584456507066, 36.385564503674537 ], [ 126.365079587947989, 36.385245306785457 ], [ 126.366827640089383, 36.383048512783631 ], [ 126.365768663782433, 36.379601603982934 ], [ 126.363598910093316, 36.378638312356991 ], [ 126.361948390859425, 36.380022797024488 ], [ 126.361657443083189, 36.388891633094509 ] ] ], [ [ [ 126.392805326970532, 36.389609672057823 ], [ 126.392869698215407, 36.388798259233077 ], [ 126.3925241585588, 36.388944377476662 ], [ 126.392805326970532, 36.389609672057823 ] ] ], [ [ [ 126.391396297061874, 36.390771675952813 ], [ 126.391399760930085, 36.390405374967649 ], [ 126.391144155713647, 36.390637431798119 ], [ 126.391396297061874, 36.390771675952813 ] ] ], [ [ [ 126.351650689450636, 36.393337700870227 ], [ 126.351930228388866, 36.393049420328325 ], [ 126.351552506210624, 36.393106895697827 ], [ 126.351650689450636, 36.393337700870227 ] ] ], [ [ [ 126.334612368939219, 36.386486301725583 ], [ 126.333736007841409, 36.391973249311334 ], [ 126.3359506033934, 36.395854424065298 ], [ 126.335032402651763, 36.398363807517661 ], [ 126.336714315185986, 36.400011423774032 ], [ 126.341702453973355, 36.399088343199956 ], [ 126.350064967206478, 36.40509353433621 ], [ 126.355165795235351, 36.401769936139956 ], [ 126.354649990083047, 36.399551856913632 ], [ 126.350706184850324, 36.396852325113244 ], [ 126.34378764031743, 36.396965786625223 ], [ 126.338960831046762, 36.394821094420017 ], [ 126.338461819239356, 36.392464603574425 ], [ 126.34104885662569, 36.391816373802278 ], [ 126.339364400177956, 36.391440568876234 ], [ 126.339735202827001, 36.389796834976842 ], [ 126.340038367326201, 36.389612597744687 ], [ 126.340597188436035, 36.390064643938324 ], [ 126.343806569489786, 36.390405113319616 ], [ 126.340085235868983, 36.389566448015067 ], [ 126.338018587235098, 36.384859442630578 ], [ 126.334612368939219, 36.386486301725583 ] ] ], [ [ [ 126.335283476917866, 36.402731263694847 ], [ 126.335478081391315, 36.402424147322456 ], [ 126.335183152520159, 36.402640706383075 ], [ 126.335283476917866, 36.402731263694847 ] ] ], [ [ [ 126.335035673098233, 36.404282649415293 ], [ 126.333682963601035, 36.403788969292812 ], [ 126.33367156378435, 36.404034693645293 ], [ 126.335035673098233, 36.404282649415293 ] ] ], [ [ [ 126.433912097704365, 36.360977179721552 ], [ 126.433813324667682, 36.361638693218865 ], [ 126.434604077642746, 36.360675665375894 ], [ 126.433912097704365, 36.360977179721552 ] ] ], [ [ [ 126.383931163322899, 36.37051683377021 ], [ 126.385892782266836, 36.37977757420127 ], [ 126.397460501191048, 36.381689106774999 ], [ 126.39648111558536, 36.379195008280391 ], [ 126.397802236571067, 36.377145606801832 ], [ 126.406659154085631, 36.376676536102089 ], [ 126.409493714182673, 36.372250528244308 ], [ 126.414787246664915, 36.37096344688262 ], [ 126.418034934774553, 36.3720787442358 ], [ 126.412124647539073, 36.37905575701263 ], [ 126.413021311631809, 36.381065095130516 ], [ 126.417728156815713, 36.383174948319073 ], [ 126.420702849526137, 36.379840211734638 ], [ 126.422803723843415, 36.381506551056063 ], [ 126.419773836462596, 36.38393690524012 ], [ 126.420812371251827, 36.384599098328778 ], [ 126.434162405268893, 36.384635434444419 ], [ 126.434299722620821, 36.380014407362495 ], [ 126.431168440091326, 36.37737887337633 ], [ 126.435279706713104, 36.374951029771772 ], [ 126.438401542824508, 36.375732011155158 ], [ 126.438363726083111, 36.372560136280065 ], [ 126.431050753127138, 36.369349584119156 ], [ 126.43158901993398, 36.367966973450777 ], [ 126.438744253555214, 36.363626310529028 ], [ 126.445796392282404, 36.363465457766537 ], [ 126.443560502368697, 36.361531792647085 ], [ 126.445261828642231, 36.360089811933683 ], [ 126.447449300873586, 36.359815928618985 ], [ 126.4484656483842, 36.361906606171054 ], [ 126.450563031878403, 36.362216453186505 ], [ 126.453257891443442, 36.360491861260215 ], [ 126.454977373641498, 36.362143787833539 ], [ 126.45928315809735, 36.362049505814412 ], [ 126.460944895164886, 36.360126351867862 ], [ 126.458150332866282, 36.358622166333767 ], [ 126.458012652985076, 36.355725343434848 ], [ 126.453360825134297, 36.357573374933757 ], [ 126.443748106734006, 36.355458640696803 ], [ 126.442294869064085, 36.35664487765176 ], [ 126.443559761846458, 36.358794407394178 ], [ 126.442531827754067, 36.359594817114605 ], [ 126.432925689734205, 36.362751072357213 ], [ 126.422820181618022, 36.363845238459085 ], [ 126.420887458053429, 36.362716371639259 ], [ 126.419252865669065, 36.364550710094264 ], [ 126.411628316455321, 36.365943343188867 ], [ 126.408251791349414, 36.364700376435088 ], [ 126.405479233220944, 36.366855259156985 ], [ 126.395665002065542, 36.369135895065376 ], [ 126.390663786160701, 36.365490702790666 ], [ 126.384545120780018, 36.367763261768559 ], [ 126.385951316655607, 36.368763966787554 ], [ 126.384966390556059, 36.371253188538702 ], [ 126.383931163322899, 36.37051683377021 ] ] ], [ [ [ 126.434920167522037, 36.375198342133125 ], [ 126.43525345636948, 36.375031946451521 ], [ 126.43491974758382, 36.375179415836548 ], [ 126.434920167522037, 36.375198342133125 ] ] ], [ [ [ 126.453738858591677, 36.380235098906475 ], [ 126.454071676789709, 36.380465644556352 ], [ 126.454278345931755, 36.380267543699723 ], [ 126.453738858591677, 36.380235098906475 ] ] ], [ [ [ 126.440285691215038, 36.378847174760367 ], [ 126.439189063932815, 36.387038117078866 ], [ 126.442641763744334, 36.389491765441939 ], [ 126.446141213976986, 36.389720199675267 ], [ 126.447867361479467, 36.388656251114284 ], [ 126.446658977639771, 36.387174632294482 ], [ 126.447234399474596, 36.383307395273896 ], [ 126.454447965272692, 36.379233034610593 ], [ 126.440285691215038, 36.378847174760367 ] ] ], [ [ [ 126.456370629123271, 36.386409014673063 ], [ 126.456696960687523, 36.386793008304302 ], [ 126.457048054820305, 36.386453611262112 ], [ 126.456370629123271, 36.386409014673063 ] ] ], [ [ [ 126.413262597797484, 36.388924750465918 ], [ 126.411735441859136, 36.387844306335701 ], [ 126.411023125638238, 36.388832778153983 ], [ 126.412223750201363, 36.389362547716651 ], [ 126.413262597797484, 36.388924750465918 ] ] ], [ [ [ 126.42917819896148, 36.392567769423003 ], [ 126.428291112142219, 36.392234504442506 ], [ 126.428566301203674, 36.392700604080424 ], [ 126.42917819896148, 36.392567769423003 ] ] ], [ [ [ 126.43073565580363, 36.397113145650486 ], [ 126.436572993009378, 36.401031717865038 ], [ 126.437796306141195, 36.399689281395339 ], [ 126.43073565580363, 36.397113145650486 ] ] ], [ [ [ 126.463175780893124, 36.402764481799153 ], [ 126.462860708549883, 36.403224064937753 ], [ 126.464096382865819, 36.402873873269925 ], [ 126.463175780893124, 36.402764481799153 ] ] ], [ [ [ 126.459442881433986, 36.402486976324198 ], [ 126.457948526353377, 36.402428332767805 ], [ 126.454788988861552, 36.405110075258293 ], [ 126.45667519389886, 36.405297447096679 ], [ 126.459442881433986, 36.402486976324198 ] ] ], [ [ [ 126.440260385690252, 36.404069299146229 ], [ 126.43990409564266, 36.404094767155485 ], [ 126.439965329782595, 36.404285486765673 ], [ 126.440260385690252, 36.404069299146229 ] ] ], [ [ [ 126.461813021253874, 36.404422007119699 ], [ 126.461538600164246, 36.404461282720256 ], [ 126.461921960059371, 36.404602396725529 ], [ 126.461813021253874, 36.404422007119699 ] ] ], [ [ [ 126.461441670500875, 36.404794559889488 ], [ 126.461519404805756, 36.40463993987138 ], [ 126.461332018548049, 36.404675454123506 ], [ 126.461441670500875, 36.404794559889488 ] ] ], [ [ [ 126.461141794933383, 36.404822878587034 ], [ 126.461345770801515, 36.404909636162309 ], [ 126.461206524070533, 36.404756269731841 ], [ 126.461141794933383, 36.404822878587034 ] ] ], [ [ [ 126.436782172904103, 36.407760112131385 ], [ 126.440339142549064, 36.405925549052171 ], [ 126.440583639809304, 36.404843313264443 ], [ 126.43605098786874, 36.404927051036118 ], [ 126.436782172904103, 36.407760112131385 ] ] ], [ [ [ 126.464959725689084, 36.406782095684093 ], [ 126.464498185094513, 36.407291273083452 ], [ 126.464960758775831, 36.407105317219767 ], [ 126.464959725689084, 36.406782095684093 ] ] ], [ [ [ 126.466634322723138, 36.408697088232977 ], [ 126.468500588617644, 36.410820087739545 ], [ 126.469875284914181, 36.409998424117106 ], [ 126.466634322723138, 36.408697088232977 ] ] ], [ [ [ 126.455272623708353, 36.409886554000167 ], [ 126.456862687407337, 36.411511908036402 ], [ 126.458476951733147, 36.408677733379335 ], [ 126.455272623708353, 36.409886554000167 ] ] ], [ [ [ 126.468721126628751, 36.410693909980203 ], [ 126.469157013444104, 36.41093712852269 ], [ 126.469370012684408, 36.410695090690645 ], [ 126.468721126628751, 36.410693909980203 ] ] ], [ [ [ 126.468256994162431, 36.41138346489349 ], [ 126.467989904163744, 36.4123138663916 ], [ 126.46851400174782, 36.412003244934361 ], [ 126.468256994162431, 36.41138346489349 ] ] ], [ [ [ 126.463567837012462, 36.412844535755347 ], [ 126.463033038106559, 36.412679503626997 ], [ 126.463065967294156, 36.413069617036562 ], [ 126.463567837012462, 36.412844535755347 ] ] ], [ [ [ 126.468475462977139, 36.413577630967623 ], [ 126.467655476898742, 36.412533947542059 ], [ 126.467103179756037, 36.413638408962349 ], [ 126.468475462977139, 36.413577630967623 ] ] ], [ [ [ 126.450916681266875, 36.415271926422392 ], [ 126.450315577325426, 36.415277155873241 ], [ 126.451250338959142, 36.415537618926457 ], [ 126.450916681266875, 36.415271926422392 ] ] ], [ [ [ 126.47207812265178, 36.416661460250701 ], [ 126.471781166995925, 36.417061453798091 ], [ 126.472755965287632, 36.416480673178462 ], [ 126.47207812265178, 36.416661460250701 ] ] ], [ [ [ 126.465834913643661, 36.417343547905702 ], [ 126.466634325973345, 36.417348861178866 ], [ 126.466768098300804, 36.417030407194808 ], [ 126.465834913643661, 36.417343547905702 ] ] ], [ [ [ 126.466232047687484, 36.419714025368229 ], [ 126.46500914170494, 36.419104008860586 ], [ 126.464676732528119, 36.419464435766749 ], [ 126.466232047687484, 36.419714025368229 ] ] ], [ [ [ 126.48602670244054, 36.398806425690481 ], [ 126.487404880393214, 36.407747186844595 ], [ 126.489116882992647, 36.410756010528083 ], [ 126.488222709795195, 36.413773335438371 ], [ 126.491811110371685, 36.421348570849055 ], [ 126.494440784479323, 36.422153122721461 ], [ 126.497225808124782, 36.419173519459456 ], [ 126.500358717450979, 36.421829718537687 ], [ 126.495555750266661, 36.424412121626354 ], [ 126.495507746140561, 36.425854095716453 ], [ 126.50594181216168, 36.42738711576223 ], [ 126.510713203404421, 36.43311717225761 ], [ 126.522186129081149, 36.440463622257013 ], [ 126.526928496396607, 36.437548326480488 ], [ 126.525851365999301, 36.439451796611394 ], [ 126.531690323047926, 36.440956732952628 ], [ 126.52757361639388, 36.44483884274797 ], [ 126.541465461787695, 36.454615342581292 ], [ 126.546745415278195, 36.455569524788196 ], [ 126.551839730190437, 36.454731828787061 ], [ 126.552993487242389, 36.452487618412185 ], [ 126.557941882665162, 36.452154297601581 ], [ 126.559181744215067, 36.450502492123938 ], [ 126.562465942700825, 36.451371835235051 ], [ 126.565127766234028, 36.444516872649956 ], [ 126.563027701782829, 36.435232475794294 ], [ 126.559628688564615, 36.434828412205249 ], [ 126.553209886401746, 36.427885372154229 ], [ 126.556887135637226, 36.425408374034227 ], [ 126.563428585871762, 36.431099894451137 ], [ 126.563633704008282, 36.427679512708323 ], [ 126.567807356697898, 36.425065750042599 ], [ 126.563201810363253, 36.422374647983936 ], [ 126.570559601605041, 36.420710758726152 ], [ 126.566820519748262, 36.417014875645926 ], [ 126.564488455733667, 36.416808335575723 ], [ 126.563524673106983, 36.418454714004739 ], [ 126.558709652514096, 36.414309409894528 ], [ 126.548619268287553, 36.39791159875309 ], [ 126.536769375556503, 36.400637468731752 ], [ 126.535929994855593, 36.398499816222333 ], [ 126.52645804932807, 36.395566876044562 ], [ 126.522456626665587, 36.39224769101871 ], [ 126.516808762269918, 36.393918689369819 ], [ 126.507892629451135, 36.391878562295389 ], [ 126.504127156240912, 36.392339710128795 ], [ 126.502348256305268, 36.395401218181114 ], [ 126.494883701705064, 36.397824246585145 ], [ 126.492174229276515, 36.400239682351341 ], [ 126.488085644657289, 36.398209473021609 ], [ 126.48602670244054, 36.398806425690481 ] ] ] ] } },
{ "type": "Feature", "properties": { "emd_cd": "44180330", "emd_nm": "천북면" }, "geometry": { "type": "MultiPolygon", "coordinates": [ [ [ [ 126.48388564663864, 36.453126877297684 ], [ 126.484731924218408, 36.453172140711644 ], [ 126.485082437189845, 36.452373870714183 ], [ 126.48388564663864, 36.453126877297684 ] ] ], [ [ [ 126.482067674304815, 36.4762533181351 ], [ 126.48208677017287, 36.475831287235593 ], [ 126.481844023118882, 36.47613575449153 ], [ 126.482067674304815, 36.4762533181351 ] ] ], [ [ [ 126.479640757415098, 36.488306380543499 ], [ 126.482643285097154, 36.500749873545814 ], [ 126.482416025521587, 36.507387809275613 ], [ 126.484002087985658, 36.507595202925202 ], [ 126.482236778137136, 36.508353501377449 ], [ 126.483824378914562, 36.508684810795188 ], [ 126.483000971615482, 36.514113120762126 ], [ 126.488062039495659, 36.515855472748562 ], [ 126.504105209596304, 36.528049878741648 ], [ 126.512617559396531, 36.522087996316678 ], [ 126.521752892031643, 36.521750482087889 ], [ 126.529601725027476, 36.518438651633438 ], [ 126.538030955594948, 36.509623486235157 ], [ 126.545170225068446, 36.506662819824498 ], [ 126.556299228846569, 36.505686665145419 ], [ 126.560876688952177, 36.508392577397188 ], [ 126.563083486724523, 36.50704385649896 ], [ 126.565007818857993, 36.508449359489973 ], [ 126.566094846467038, 36.502466884509658 ], [ 126.570292366743757, 36.503951568982572 ], [ 126.571668362492701, 36.501922706709095 ], [ 126.590724546200065, 36.508628876856797 ], [ 126.593316515713099, 36.506385372972545 ], [ 126.592701919093869, 36.503484261100482 ], [ 126.596568975670905, 36.49898565901573 ], [ 126.597508116902773, 36.492933927739294 ], [ 126.601883592549839, 36.488564339484029 ], [ 126.598464432426638, 36.478880463914621 ], [ 126.602435591647847, 36.479245454616247 ], [ 126.603829097653787, 36.475137353531387 ], [ 126.589753996950364, 36.472119070532059 ], [ 126.577671325164459, 36.479116364957882 ], [ 126.571323622273596, 36.479478173317986 ], [ 126.564961411143543, 36.471055203738786 ], [ 126.561227498870721, 36.456600031353837 ], [ 126.541465461787695, 36.454615342581292 ], [ 126.52757361639388, 36.44483884274797 ], [ 126.524247360371646, 36.446713683161292 ], [ 126.523650321851974, 36.444119576796453 ], [ 126.515356805960195, 36.443164758031777 ], [ 126.511847760734625, 36.440019757364105 ], [ 126.50989368701569, 36.442010398673609 ], [ 126.51004090344702, 36.439372417236825 ], [ 126.498582062694751, 36.432638826206819 ], [ 126.496046905194319, 36.434017381354636 ], [ 126.496342284245728, 36.438698199768105 ], [ 126.500261256554083, 36.444889280587191 ], [ 126.491051585041589, 36.448232785714254 ], [ 126.48980531936877, 36.451520661930751 ], [ 126.486580551769407, 36.452953652373985 ], [ 126.488966432929601, 36.460393232079632 ], [ 126.48848740357424, 36.462839653062488 ], [ 126.486168989886991, 36.462165989952858 ], [ 126.485098736583055, 36.464552871795739 ], [ 126.490102205588784, 36.46830702370719 ], [ 126.488577534921049, 36.471640432937875 ], [ 126.484102228298752, 36.472917323256823 ], [ 126.483804697502691, 36.475091684671476 ], [ 126.481100079973714, 36.477717048707831 ], [ 126.480458702336065, 36.486153115157258 ], [ 126.482554005710668, 36.487181167356802 ], [ 126.479640757415098, 36.488306380543499 ] ] ] ] } },
{ "type": "Feature", "properties": { "emd_cd": "44180340", "emd_nm": "청소면" }, "geometry": { "type": "MultiPolygon", "coordinates": [ [ [ [ 126.605383953605283, 36.424059283323523 ], [ 126.593915604294523, 36.428449116269263 ], [ 126.587106558455147, 36.425181267847002 ], [ 126.568048120010175, 36.426728264332553 ], [ 126.565968351039302, 36.428573453368131 ], [ 126.564811957895628, 36.426887287573109 ], [ 126.563428585871762, 36.431099894451151 ], [ 126.556887135637226, 36.425408374034227 ], [ 126.553209886401746, 36.427885372154229 ], [ 126.559628688564615, 36.434828412205249 ], [ 126.563027701782829, 36.435232475794294 ], [ 126.565127766234028, 36.444516872649949 ], [ 126.562465942700854, 36.451371835235051 ], [ 126.555244527143486, 36.451573095651632 ], [ 126.551839730190437, 36.454731828787061 ], [ 126.561227498870721, 36.456600031353851 ], [ 126.564961411143543, 36.4710552037388 ], [ 126.570389184762107, 36.479096770244773 ], [ 126.577671325164459, 36.479116364957882 ], [ 126.589753996950364, 36.472119070532052 ], [ 126.603829142331463, 36.475137344668745 ], [ 126.611911168113934, 36.481158261316644 ], [ 126.61413473361084, 36.485142806559381 ], [ 126.615489035700548, 36.484386229488408 ], [ 126.615247148747926, 36.483881633024573 ], [ 126.614820118821839, 36.482562248929128 ], [ 126.615502304408579, 36.484264707543431 ], [ 126.623075670684869, 36.477044618763003 ], [ 126.631747511904138, 36.476169244236715 ], [ 126.634211330192258, 36.466616771234591 ], [ 126.638408616922575, 36.465308128210175 ], [ 126.654441642771744, 36.466763646129237 ], [ 126.654450595704915, 36.462181007035561 ], [ 126.658357009594056, 36.459733649206477 ], [ 126.65951616295898, 36.456819419909785 ], [ 126.654875204344705, 36.449414337702919 ], [ 126.654756087906904, 36.444312590308293 ], [ 126.652390991690027, 36.440303288187167 ], [ 126.637852903140882, 36.43933127213009 ], [ 126.636839392034261, 36.437358570266099 ], [ 126.630306725332289, 36.43514445943628 ], [ 126.621614709497209, 36.427315848571745 ], [ 126.608627529901554, 36.427241862605101 ], [ 126.605383953605283, 36.424059283323523 ] ] ] ] } },
{ "type": "Feature", "properties": { "emd_cd": "44180350", "emd_nm": "청라면" }, "geometry": { "type": "MultiPolygon", "coordinates": [ [ [ [ 126.599590796844538, 36.401142214253298 ], [ 126.60543636868573, 36.413198282168807 ], [ 126.602936329170234, 36.418327683028906 ], [ 126.607510018611421, 36.426630648108521 ], [ 126.621614709497209, 36.427315848571745 ], [ 126.630306725332289, 36.43514445943628 ], [ 126.636839392034261, 36.437358570266099 ], [ 126.637852903140882, 36.43933127213009 ], [ 126.651970919369361, 36.439967739406455 ], [ 126.654756087906904, 36.444312590308293 ], [ 126.654875204344705, 36.449414337702919 ], [ 126.6593927668726, 36.456416710324874 ], [ 126.658357009594056, 36.459733649206477 ], [ 126.664920768516737, 36.462650732858854 ], [ 126.671929309931315, 36.461595934124631 ], [ 126.674879060653424, 36.460020814459334 ], [ 126.674774644958077, 36.455546192274348 ], [ 126.676846984147616, 36.450844151913827 ], [ 126.681387532506733, 36.448265880355336 ], [ 126.688115067258948, 36.44781083878128 ], [ 126.688782476325542, 36.445446180713816 ], [ 126.684096646748031, 36.438650649166554 ], [ 126.683953139411869, 36.436200922682133 ], [ 126.688598809882734, 36.433167022158266 ], [ 126.691622371580351, 36.428601465707978 ], [ 126.688853031896031, 36.425963656690932 ], [ 126.692961721034351, 36.419986570744072 ], [ 126.690138307087636, 36.413652394381124 ], [ 126.691290956795186, 36.410458452662979 ], [ 126.694450452131491, 36.409740172607776 ], [ 126.696776251656743, 36.407119395656558 ], [ 126.706114072181407, 36.404444385812539 ], [ 126.708520271341172, 36.402068358359664 ], [ 126.709226727381221, 36.396990401881951 ], [ 126.715673828266404, 36.393682535459675 ], [ 126.711367889441604, 36.388191793509399 ], [ 126.715162724983756, 36.383025401385424 ], [ 126.721414495543854, 36.378675556053381 ], [ 126.72503979699836, 36.373134890004984 ], [ 126.724453323398123, 36.371160874943548 ], [ 126.705029825857537, 36.366496549876409 ], [ 126.684374754046004, 36.367758664721549 ], [ 126.677592194739915, 36.370546291952806 ], [ 126.669999863319418, 36.368523788354473 ], [ 126.664155897361496, 36.369906304965617 ], [ 126.663602822009906, 36.366256854144993 ], [ 126.657317106878125, 36.363767228705697 ], [ 126.641504698546456, 36.352801214160046 ], [ 126.638094090739216, 36.348324058768121 ], [ 126.635713275159716, 36.351365603654934 ], [ 126.639314075140547, 36.358859267936261 ], [ 126.637465443453792, 36.360752428805242 ], [ 126.63810156117458, 36.366326848056808 ], [ 126.636086589182156, 36.369588899695543 ], [ 126.627115682618992, 36.376287029122331 ], [ 126.629289721407815, 36.379155848160543 ], [ 126.628231074655844, 36.381956499452521 ], [ 126.622881333126315, 36.382325011944069 ], [ 126.620549425575945, 36.379721445357163 ], [ 126.614883923509225, 36.380747289514566 ], [ 126.612305079860434, 36.386888192161223 ], [ 126.613431146459348, 36.396903340653097 ], [ 126.600302968298152, 36.39784931741076 ], [ 126.599590796844538, 36.401142214253298 ] ] ] ] } },
{ "type": "Feature", "properties": { "emd_cd": "44180360", "emd_nm": "남포면" }, "geometry": { "type": "MultiPolygon", "coordinates": [ [ [ [ 126.536502232535952, 36.31643626581306 ], [ 126.566425547914889, 36.321071199340196 ], [ 126.571794191499635, 36.323214523804218 ], [ 126.577104090218228, 36.328607956804525 ], [ 126.581976647916377, 36.327655010210542 ], [ 126.584342838766119, 36.32896577966136 ], [ 126.587002078439497, 36.326962229236422 ], [ 126.5972875212411, 36.331868143435251 ], [ 126.605288994057304, 36.326645556854011 ], [ 126.615555472441017, 36.323378834495891 ], [ 126.625013727400756, 36.321564141244949 ], [ 126.632752040284757, 36.322278856191438 ], [ 126.635075241853457, 36.317368710254414 ], [ 126.632000781114314, 36.305932993259916 ], [ 126.629177106422006, 36.305008576780054 ], [ 126.625854252690743, 36.29819788300852 ], [ 126.616912910150774, 36.291940617682485 ], [ 126.617835392760384, 36.289129996809152 ], [ 126.614188943551298, 36.287011433880295 ], [ 126.613706513530531, 36.279315870976447 ], [ 126.606671613355857, 36.27575535790124 ], [ 126.604875401195557, 36.273155856901589 ], [ 126.593919635661877, 36.278436035999484 ], [ 126.586320490615279, 36.275841026942338 ], [ 126.581410264763591, 36.270413700205317 ], [ 126.573685125169533, 36.265784123671146 ], [ 126.576070462592313, 36.261601593964002 ], [ 126.575511953627995, 36.258496787703095 ], [ 126.564531034796133, 36.250997873207126 ], [ 126.557653214487871, 36.251107155776744 ], [ 126.550730021603826, 36.256046794783124 ], [ 126.541537288529724, 36.259455968529352 ], [ 126.541406914077399, 36.261062540153638 ], [ 126.544590934828449, 36.259863108096567 ], [ 126.547232647261851, 36.261097745381448 ], [ 126.548433184966669, 36.266331704833789 ], [ 126.540774038106377, 36.278123005370404 ], [ 126.538991412543027, 36.277508912536121 ], [ 126.538892234104694, 36.275265770451213 ], [ 126.535338322936511, 36.276785864986302 ], [ 126.536551844757255, 36.278449203756992 ], [ 126.540221061355339, 36.278905528326064 ], [ 126.533674529847445, 36.288761489224193 ], [ 126.541077388805121, 36.292023363759725 ], [ 126.528067768731034, 36.309296800465233 ], [ 126.52950918093363, 36.31209786021612 ], [ 126.536502232535952, 36.31643626581306 ] ] ] ] } },
{ "type": "Feature", "properties": { "emd_cd": "44180380", "emd_nm": "주산면" }, "geometry": { "type": "MultiPolygon", "coordinates": [ [ [ [ 126.56514795914434, 36.192150039189656 ], [ 126.57267712467565, 36.19751049807401 ], [ 126.57435126283508, 36.207410117002141 ], [ 126.584087265331505, 36.214170320974098 ], [ 126.588233368307598, 36.210212577175312 ], [ 126.604879120988798, 36.20807859631158 ], [ 126.609236414796285, 36.223950869221063 ], [ 126.617067771830406, 36.226137310578025 ], [ 126.624147546421881, 36.230997757540578 ], [ 126.628659101110287, 36.243234997306573 ], [ 126.634707910529372, 36.244648177219318 ], [ 126.636845624414789, 36.249396194756329 ], [ 126.64714531038544, 36.249514548682029 ], [ 126.646232800210583, 36.245301795650022 ], [ 126.650572254354685, 36.240990974683925 ], [ 126.655092403105328, 36.230625970565747 ], [ 126.652624234567213, 36.227558475094391 ], [ 126.654254452313992, 36.224667374148787 ], [ 126.652289439066621, 36.218331237174468 ], [ 126.653708715944219, 36.217426051590834 ], [ 126.653118423819848, 36.213341782675833 ], [ 126.654444215939463, 36.211591241963617 ], [ 126.654315099583144, 36.20789638207436 ], [ 126.652368148039741, 36.207096715856544 ], [ 126.653801642302966, 36.203071057719896 ], [ 126.661033691228823, 36.198192765743478 ], [ 126.661230453439046, 36.196127791212078 ], [ 126.657801236283888, 36.193418813777804 ], [ 126.659616290796606, 36.187963587678205 ], [ 126.658014522645374, 36.180855083799841 ], [ 126.652565880695875, 36.180871808474144 ], [ 126.639582135614049, 36.176219545453563 ], [ 126.631939246861336, 36.176100656303355 ], [ 126.62885062572515, 36.173400078979519 ], [ 126.623259882043527, 36.17307640490877 ], [ 126.619488514634781, 36.175008274561677 ], [ 126.615116289554919, 36.172147308159403 ], [ 126.611999854673869, 36.173329429757565 ], [ 126.609131784896832, 36.171885183729216 ], [ 126.601606081777021, 36.175093395598211 ], [ 126.594168345748841, 36.174524076186671 ], [ 126.58004561843282, 36.177676691157714 ], [ 126.571007523324326, 36.188723566809429 ], [ 126.56514795914434, 36.192150039189656 ] ] ] ] } },
{ "type": "Feature", "properties": { "emd_cd": "44180390", "emd_nm": "미산면" }, "geometry": { "type": "MultiPolygon", "coordinates": [ [ [ [ 126.638478307788816, 36.249774394170501 ], [ 126.639253724446547, 36.252165422818685 ], [ 126.651112110817607, 36.2584545671237 ], [ 126.654777204775982, 36.266510067916663 ], [ 126.655767183989553, 36.278638597486101 ], [ 126.65874921545803, 36.283045173256447 ], [ 126.656704490332558, 36.285761290720949 ], [ 126.658564621157169, 36.292281747506529 ], [ 126.655954715969102, 36.296788929086482 ], [ 126.659734191718243, 36.30046867300976 ], [ 126.661349860588913, 36.304659021140907 ], [ 126.666491885156049, 36.304534531567654 ], [ 126.66971714173944, 36.306854627780673 ], [ 126.669474751576175, 36.3116956497038 ], [ 126.680294745887323, 36.313680659248654 ], [ 126.68256731811023, 36.308257462751662 ], [ 126.692763841788064, 36.301636537466855 ], [ 126.694380810288138, 36.298525625841364 ], [ 126.687295522805655, 36.291133449954188 ], [ 126.696726953247264, 36.283398335638751 ], [ 126.692337305392144, 36.280494972685943 ], [ 126.696616020357339, 36.275541698215086 ], [ 126.694205439572059, 36.268874178680441 ], [ 126.701726411276013, 36.267243836193664 ], [ 126.71345554402329, 36.261463955027203 ], [ 126.718539087431594, 36.258572000809139 ], [ 126.720097674096365, 36.255182669144332 ], [ 126.727645063511261, 36.257470287528847 ], [ 126.738714841753136, 36.254011201670863 ], [ 126.735554627623287, 36.243081427377767 ], [ 126.736894685893347, 36.241440865740806 ], [ 126.732319649597414, 36.237219805116119 ], [ 126.725398162215285, 36.237849448488873 ], [ 126.718201940014779, 36.234580230124521 ], [ 126.718339090160782, 36.231832937981359 ], [ 126.715040715365333, 36.22888630997749 ], [ 126.716079024327499, 36.220192405119008 ], [ 126.713782107653756, 36.217988450323418 ], [ 126.71373975564822, 36.21440153486305 ], [ 126.70373822272667, 36.208772911690829 ], [ 126.702866067155654, 36.206243119636945 ], [ 126.698184061014288, 36.204968353257172 ], [ 126.699196710111309, 36.20270563145364 ], [ 126.694522434602945, 36.192429311372756 ], [ 126.690383141090578, 36.189239896742855 ], [ 126.685471813306847, 36.18896912069539 ], [ 126.683351368369586, 36.187702318786691 ], [ 126.680829359153961, 36.182400194588858 ], [ 126.666929007471765, 36.176021500426202 ], [ 126.658697657412858, 36.177836657964356 ], [ 126.657507201329295, 36.179547579127693 ], [ 126.659616290796606, 36.187963587678205 ], [ 126.657801236283888, 36.193418813777804 ], [ 126.661252236245261, 36.196327827843461 ], [ 126.660082852748801, 36.199642726060674 ], [ 126.653801642302966, 36.203071057719896 ], [ 126.652368148039741, 36.207096715856544 ], [ 126.654315099583144, 36.20789638207436 ], [ 126.653708715944219, 36.217426051590834 ], [ 126.652289439066621, 36.218331237174468 ], [ 126.654254452313992, 36.224667374148787 ], [ 126.652624234567213, 36.227558475094391 ], [ 126.655092403105328, 36.230625970565747 ], [ 126.65391833741549, 36.234824649149985 ], [ 126.646232800210583, 36.245301795650022 ], [ 126.64714531038544, 36.249514548682029 ], [ 126.638478307788816, 36.249774394170501 ] ] ] ] } },
{ "type": "Feature", "properties": { "emd_cd": "44180400", "emd_nm": "성주면" }, "geometry": { "type": "MultiPolygon", "coordinates": [ [ [ [ 126.617841230033335, 36.289201884448758 ], [ 126.616912910150774, 36.291940617682485 ], [ 126.625854252690743, 36.29819788300852 ], [ 126.629177106422006, 36.30500857678004 ], [ 126.632000781114314, 36.305932993259937 ], [ 126.635075241853457, 36.317368710254421 ], [ 126.632752040284785, 36.322278856191446 ], [ 126.633105860560136, 36.325729438255884 ], [ 126.631028362319228, 36.32837908822561 ], [ 126.631251327205817, 36.335415738988786 ], [ 126.633843748953552, 36.342667475892419 ], [ 126.641504698546456, 36.352801214160046 ], [ 126.657317106878125, 36.363767228705697 ], [ 126.663602822009906, 36.366256854144993 ], [ 126.664155897361496, 36.369906304965617 ], [ 126.669999863319418, 36.368523788354473 ], [ 126.677592194739915, 36.370546291952806 ], [ 126.684374754046004, 36.367758664721549 ], [ 126.705029825857537, 36.366496549876409 ], [ 126.702621660186708, 36.361558391618594 ], [ 126.704121822657839, 36.350562796609353 ], [ 126.699783555180545, 36.348590723382927 ], [ 126.700234613537646, 36.344892147762032 ], [ 126.696989086198229, 36.33965109762633 ], [ 126.697580908988741, 36.336497436814611 ], [ 126.695663748677973, 36.334393976776603 ], [ 126.689816128044313, 36.335342604587012 ], [ 126.688127783354005, 36.332761710123947 ], [ 126.684039507659861, 36.331151430584704 ], [ 126.678452080908315, 36.331637991306813 ], [ 126.678729387653462, 36.327751322274985 ], [ 126.684190691996577, 36.322331917340598 ], [ 126.683614100743412, 36.318170724822266 ], [ 126.680083592300093, 36.315571397991093 ], [ 126.680294745887323, 36.313680659248654 ], [ 126.669474751576175, 36.3116956497038 ], [ 126.66971714173944, 36.306854627780673 ], [ 126.666491885156049, 36.304534531567654 ], [ 126.661349860588913, 36.304659021140907 ], [ 126.659734191718243, 36.30046867300976 ], [ 126.655954715969102, 36.296788929086482 ], [ 126.658564621157169, 36.292281747506529 ], [ 126.656704490332558, 36.285761290720949 ], [ 126.658728408386295, 36.282699799554159 ], [ 126.656841384292164, 36.279000142194256 ], [ 126.642353042112958, 36.279408907029591 ], [ 126.635087949714801, 36.286336079308761 ], [ 126.629735434318889, 36.286538736423509 ], [ 126.623628741389282, 36.289269686602964 ], [ 126.617841230033335, 36.289201884448758 ] ] ] ] } },
{ "type": "Feature", "properties": { "emd_cd": "44180410", "emd_nm": "주교면" }, "geometry": { "type": "MultiPolygon", "coordinates": [ [ [ [ 126.50754932650419, 36.370266036319158 ], [ 126.509012268571354, 36.370569611657785 ], [ 126.508816830914995, 36.369675097158272 ], [ 126.50754932650419, 36.370266036319158 ] ] ], [ [ [ 126.603916424187119, 36.372026877264261 ], [ 126.590855767651689, 36.359839432252173 ], [ 126.585953623170212, 36.364138987867733 ], [ 126.581505995192089, 36.3618266654575 ], [ 126.579584669097585, 36.36360544782471 ], [ 126.570166107317377, 36.359851595739443 ], [ 126.55652440227837, 36.361556063513092 ], [ 126.555762088583691, 36.358683607529464 ], [ 126.550862316297597, 36.35676911677065 ], [ 126.549592556840295, 36.354504551026764 ], [ 126.546355690272861, 36.354927286502942 ], [ 126.528142546680883, 36.367658487855131 ], [ 126.527719051583546, 36.366416890757272 ], [ 126.527965282578577, 36.367771674401283 ], [ 126.520176385183774, 36.373956775459447 ], [ 126.516404381610144, 36.374976098313759 ], [ 126.510229726199341, 36.380876123832856 ], [ 126.501090776447825, 36.379860291990077 ], [ 126.501903102176243, 36.383138315649262 ], [ 126.508271904958164, 36.383978706524921 ], [ 126.508111715335346, 36.38757814821949 ], [ 126.506756642967062, 36.384428670866697 ], [ 126.499541365132245, 36.382635544877942 ], [ 126.494517432844575, 36.383247574901844 ], [ 126.493285192922812, 36.381817877448832 ], [ 126.489124641558121, 36.383399933207606 ], [ 126.485386669060787, 36.381876781616896 ], [ 126.481672725505149, 36.3826814003693 ], [ 126.479594420209693, 36.385162950845853 ], [ 126.484554242192985, 36.393313974842343 ], [ 126.484263551641334, 36.397083615225696 ], [ 126.492174229276515, 36.400239682351341 ], [ 126.494883701705064, 36.397824246585145 ], [ 126.502348256305268, 36.395401218181114 ], [ 126.504127156240912, 36.392339710128795 ], [ 126.507892629451135, 36.391878562295389 ], [ 126.516808762269918, 36.393918689369819 ], [ 126.522456626665587, 36.39224769101871 ], [ 126.52645804932807, 36.395566876044562 ], [ 126.535929994855593, 36.398499816222333 ], [ 126.536769375556503, 36.400637468731752 ], [ 126.54727734997094, 36.397627225357652 ], [ 126.549906207766099, 36.400092111380367 ], [ 126.553805680231008, 36.397730353709179 ], [ 126.561787205869962, 36.397361283672574 ], [ 126.563335721984998, 36.394764668410964 ], [ 126.566047919743269, 36.394302883009843 ], [ 126.567307227886445, 36.397454199645018 ], [ 126.575166691666581, 36.396473589068016 ], [ 126.571630962309584, 36.392752463430412 ], [ 126.576875382839035, 36.3905493367226 ], [ 126.587298560314309, 36.398044685412522 ], [ 126.595327998717309, 36.399015430573883 ], [ 126.598498471296452, 36.401101910693384 ], [ 126.600323106197749, 36.40073734267559 ], [ 126.60030296829818, 36.397849317410767 ], [ 126.602442428292065, 36.39721073929956 ], [ 126.613431146459348, 36.396903340653104 ], [ 126.612270695459557, 36.38731322161793 ], [ 126.614883923509197, 36.380747289514559 ], [ 126.614239984753397, 36.37851114684851 ], [ 126.609089297276753, 36.376874030024211 ], [ 126.610174613714349, 36.374233411479779 ], [ 126.603916424187119, 36.372026877264261 ] ] ] ] } }
]
}
