{
"type": "FeatureCollection",
"name": "44200",
"crs": { "type": "name", "properties": { "name": "urn:ogc:def:crs:OGC:1.3:CRS84" } },
"features": [
{ "type": "Feature", "properties": { "emd_cd": "44200101", "emd_nm": "온천동" }, "geometry": { "type": "MultiPolygon", "coordinates": [ [ [ [ 127.01298010043844, 36.77502072226364 ], [ 127.004202131883289, 36.77454680270904 ], [ 126.996067001818034, 36.776814145273306 ], [ 126.998564485379347, 36.779493699584407 ], [ 126.994113789422869, 36.783105817952595 ], [ 126.993955545576711, 36.78545844888648 ], [ 126.995534441494385, 36.784432725751202 ], [ 126.997916172324423, 36.786263882142855 ], [ 126.992289601513534, 36.796060139741392 ], [ 126.99380342716448, 36.796376012995026 ], [ 126.99396966066287, 36.798989132939347 ], [ 126.99881531681369, 36.798691912581837 ], [ 127.00190368703025, 36.792549350091889 ], [ 127.005388005907818, 36.790315721315146 ], [ 127.005488491578859, 36.785130644102367 ], [ 127.011155434419649, 36.783672055044157 ], [ 127.010277475629934, 36.78072779541764 ], [ 127.013212412948306, 36.779541728036172 ], [ 127.012003170007873, 36.779419100945994 ], [ 127.01298010043844, 36.77502072226364 ] ] ] ] } },
{ "type": "Feature", "properties": { "emd_cd": "44200102", "emd_nm": "실옥동" }, "geometry": { "type": "MultiPolygon", "coordinates": [ [ [ [ 126.975030384376453, 36.794318046950117 ], [ 126.979101169560536, 36.797060013225511 ], [ 126.979496710201857, 36.802219252502724 ], [ 126.985196199503449, 36.797995496766013 ], [ 126.99373089071355, 36.798465737096997 ], [ 126.99380342716448, 36.796376012995026 ], [ 126.992289601513534, 36.796060139741392 ], [ 126.997916172324423, 36.786263882142855 ], [ 126.995534441494385, 36.784432725751202 ], [ 126.984202838989802, 36.788257227897887 ], [ 126.975536303989657, 36.787937435442785 ], [ 126.975052409699856, 36.791129340251985 ], [ 126.977032039708163, 36.793091951702756 ], [ 126.975030384376453, 36.794318046950117 ] ] ] ] } },
{ "type": "Feature", "properties": { "emd_cd": "44200103", "emd_nm": "방축동" }, "geometry": { "type": "MultiPolygon", "coordinates": [ [ [ [ 126.996000401175749, 36.780357303886184 ], [ 126.990542264591994, 36.77975626547839 ], [ 126.989151837896458, 36.769424463089315 ], [ 126.987589350234771, 36.768401106571666 ], [ 126.988121559063643, 36.765275483630155 ], [ 126.985409340844072, 36.761463743329145 ], [ 126.979838076645507, 36.761864377365001 ], [ 126.97405077443473, 36.76479846433746 ], [ 126.976679726577856, 36.770153397733374 ], [ 126.974155777920942, 36.772551230920243 ], [ 126.978367847740458, 36.776468527822118 ], [ 126.975657556334269, 36.780966496661584 ], [ 126.975536303989657, 36.787937435442785 ], [ 126.979593147497141, 36.788705679851297 ], [ 126.992607411232882, 36.78641868481963 ], [ 126.996000401175749, 36.780357303886184 ] ] ] ] } },
{ "type": "Feature", "properties": { "emd_cd": "44200104", "emd_nm": "기산동" }, "geometry": { "type": "MultiPolygon", "coordinates": [ [ [ [ 126.95515791292398, 36.737744843233209 ], [ 126.955883491606883, 36.74265449734515 ], [ 126.959965735765252, 36.746644513128828 ], [ 126.959764378940093, 36.751453821718442 ], [ 126.962511572284271, 36.754603323551407 ], [ 126.962261563732298, 36.757026252299823 ], [ 126.965875953187421, 36.760222543801341 ], [ 126.968902381874543, 36.760460079187936 ], [ 126.973673230415542, 36.766234351490588 ], [ 126.979581161492291, 36.762208401847261 ], [ 126.979794377068387, 36.760707179533064 ], [ 126.976648456032407, 36.75941700086873 ], [ 126.976128768661113, 36.756318506335809 ], [ 126.974185430977087, 36.755733037886273 ], [ 126.97159040472873, 36.757526367098592 ], [ 126.970583577813969, 36.754365790513859 ], [ 126.966406282471425, 36.753221786681365 ], [ 126.964004012085013, 36.746563320598632 ], [ 126.965814241565241, 36.741193387704428 ], [ 126.962923153316936, 36.738509677021135 ], [ 126.963152888638803, 36.736210924497769 ], [ 126.95515791292398, 36.737744843233209 ] ] ] ] } },
{ "type": "Feature", "properties": { "emd_cd": "44200105", "emd_nm": "초사동" }, "geometry": { "type": "MultiPolygon", "coordinates": [ [ [ [ 126.974185430977087, 36.755733037886273 ], [ 126.977490665886407, 36.750011852960661 ], [ 126.987716642275402, 36.746988652929332 ], [ 126.998134395935921, 36.746475190916605 ], [ 126.99878373608216, 36.741815724429351 ], [ 126.99757058190184, 36.739105740198703 ], [ 126.99011404173703, 36.736510868448491 ], [ 126.98861234454732, 36.733989537385042 ], [ 126.98015975899429, 36.736426985602648 ], [ 126.973374556435957, 36.732496908805821 ], [ 126.963092178863789, 36.736560051197458 ], [ 126.962923153316936, 36.738509677021135 ], [ 126.965814241565241, 36.741193387704428 ], [ 126.964004012085013, 36.746563320598632 ], [ 126.966406282471425, 36.753221786681365 ], [ 126.970737337415642, 36.754494815652563 ], [ 126.970988426367938, 36.757333078882489 ], [ 126.974185430977087, 36.755733037886273 ] ] ] ] } },
{ "type": "Feature", "properties": { "emd_cd": "44200106", "emd_nm": "신인동" }, "geometry": { "type": "MultiPolygon", "coordinates": [ [ [ [ 126.99466434617608, 36.751619239730445 ], [ 126.991812421668598, 36.751689346829473 ], [ 126.990380956831643, 36.747507396448825 ], [ 126.987716642275402, 36.746988652929332 ], [ 126.977443158177692, 36.750032514916491 ], [ 126.974185430977087, 36.755733037886273 ], [ 126.976128768661113, 36.756318506335809 ], [ 126.976648456032407, 36.75941700086873 ], [ 126.979838076645507, 36.761864377365001 ], [ 126.985409340844072, 36.761463743329145 ], [ 126.988121559063643, 36.765275483630155 ], [ 126.992865874158738, 36.761062810765743 ], [ 126.994819023522396, 36.761597313694082 ], [ 126.996767456193965, 36.760043826850143 ], [ 126.997859348646671, 36.75589650426997 ], [ 126.994761027739784, 36.754214153862463 ], [ 126.99466434617608, 36.751619239730445 ] ] ] ] } },
{ "type": "Feature", "properties": { "emd_cd": "44200107", "emd_nm": "법곡동" }, "geometry": { "type": "MultiPolygon", "coordinates": [ [ [ [ 126.996767456193965, 36.760043826850143 ], [ 127.004383910509645, 36.764762133587311 ], [ 127.006164189224293, 36.767825981069173 ], [ 127.010111444317658, 36.768604806959139 ], [ 127.013316693349765, 36.767505176298542 ], [ 127.01252308763587, 36.760608685821843 ], [ 127.015122718904138, 36.757675521342961 ], [ 127.007757969745114, 36.753687415483419 ], [ 126.99466434617608, 36.751619239730445 ], [ 126.994761027739784, 36.754214153862463 ], [ 126.997859348646671, 36.75589650426997 ], [ 126.996767456193965, 36.760043826850143 ] ] ] ] } },
{ "type": "Feature", "properties": { "emd_cd": "44200108", "emd_nm": "장존동" }, "geometry": { "type": "MultiPolygon", "coordinates": [ [ [ [ 127.029407612108798, 36.74065435905581 ], [ 127.018303771551317, 36.744173730956454 ], [ 127.011257458467512, 36.741630274455638 ], [ 127.008786434112764, 36.745816696597977 ], [ 126.999655490882276, 36.744872943743708 ], [ 126.989728995531763, 36.748675537892005 ], [ 126.991812421668598, 36.751689346829473 ], [ 127.007757969745114, 36.753687415483419 ], [ 127.013950073310653, 36.757590711035739 ], [ 127.015699838926182, 36.757636642917547 ], [ 127.015779194025242, 36.755519370163476 ], [ 127.021292342373414, 36.759305469725859 ], [ 127.023637821067666, 36.757075650225694 ], [ 127.02311545972006, 36.754478000449247 ], [ 127.030831993997936, 36.745092186556043 ], [ 127.029407612108798, 36.74065435905581 ] ] ] ] } },
{ "type": "Feature", "properties": { "emd_cd": "44200109", "emd_nm": "좌부동" }, "geometry": { "type": "MultiPolygon", "coordinates": [ [ [ [ 127.02090538566847, 36.75934172215409 ], [ 127.022293347190924, 36.761870278245318 ], [ 127.033084831285976, 36.763793046278856 ], [ 127.033230178458467, 36.761335883270561 ], [ 127.03066551435569, 36.760884559990778 ], [ 127.031088019417027, 36.756645965927753 ], [ 127.033466096388395, 36.754105771557661 ], [ 127.031178730502234, 36.748305842966211 ], [ 127.032801415017616, 36.745704622674346 ], [ 127.030831993997936, 36.745092186556043 ], [ 127.02090538566847, 36.75934172215409 ] ] ] ] } },
{ "type": "Feature", "properties": { "emd_cd": "44200110", "emd_nm": "읍내동" }, "geometry": { "type": "MultiPolygon", "coordinates": [ [ [ [ 127.013316693349765, 36.767505176298542 ], [ 127.020782301660262, 36.765181054507948 ], [ 127.025795180485289, 36.767006679522375 ], [ 127.029352084768576, 36.765637310274919 ], [ 127.033498609914901, 36.7690220834345 ], [ 127.036198072901996, 36.768260888284892 ], [ 127.033084831285976, 36.763793046278856 ], [ 127.022293347190924, 36.761870278245318 ], [ 127.01957288249892, 36.757577391929473 ], [ 127.015779194025242, 36.755519370163476 ], [ 127.015699838926182, 36.757636642917547 ], [ 127.01252308763587, 36.760608685821843 ], [ 127.013316693349765, 36.767505176298542 ] ] ] ] } },
{ "type": "Feature", "properties": { "emd_cd": "44200111", "emd_nm": "풍기동" }, "geometry": { "type": "MultiPolygon", "coordinates": [ [ [ [ 127.033498609914901, 36.7690220834345 ], [ 127.029352084768576, 36.765637310274919 ], [ 127.025795180485289, 36.767006679522375 ], [ 127.020782301660262, 36.765181054507948 ], [ 127.015801151206347, 36.766172439519949 ], [ 127.013316693349765, 36.767505176298542 ], [ 127.0147772196202, 36.771439748932764 ], [ 127.012003170007873, 36.779419100945994 ], [ 127.031305985654669, 36.77488393377498 ], [ 127.033498609914901, 36.7690220834345 ] ] ] ] } },
{ "type": "Feature", "properties": { "emd_cd": "44200112", "emd_nm": "용화동" }, "geometry": { "type": "MultiPolygon", "coordinates": [ [ [ [ 127.01298010043844, 36.77502072226364 ], [ 127.0147772196202, 36.771439748932764 ], [ 127.013316693349765, 36.767505176298542 ], [ 127.006164189224293, 36.767825981069173 ], [ 127.004383910509645, 36.764762133587311 ], [ 126.996767456193965, 36.760043826850143 ], [ 126.994819023522396, 36.761597313694082 ], [ 126.992865874158738, 36.761062810765743 ], [ 126.987655304787211, 36.76562501644527 ], [ 126.990542264591994, 36.77975626547839 ], [ 126.998564485379347, 36.779493699584407 ], [ 126.996067001818034, 36.776814145273306 ], [ 127.003760013956622, 36.774609682396999 ], [ 127.01298010043844, 36.77502072226364 ] ] ] ] } },
{ "type": "Feature", "properties": { "emd_cd": "44200113", "emd_nm": "모종동" }, "geometry": { "type": "MultiPolygon", "coordinates": [ [ [ [ 127.028168075340972, 36.792629883366857 ], [ 127.029950725352734, 36.791076384906816 ], [ 127.02892449861622, 36.78814856704588 ], [ 127.03192009831082, 36.779626488556559 ], [ 127.030032859065543, 36.777416697452956 ], [ 127.031075880283154, 36.774929380115992 ], [ 127.010277475629934, 36.78072779541764 ], [ 127.012376077690874, 36.787580776782697 ], [ 127.021280138121497, 36.787995508200289 ], [ 127.021198522780125, 36.789312770039395 ], [ 127.028168075340972, 36.792629883366857 ] ] ] ] } },
{ "type": "Feature", "properties": { "emd_cd": "44200114", "emd_nm": "권곡동" }, "geometry": { "type": "MultiPolygon", "coordinates": [ [ [ [ 127.011155434419649, 36.783672055044157 ], [ 127.005488491578859, 36.785130644102367 ], [ 127.005388005907818, 36.790315721315146 ], [ 127.00190368703025, 36.792549350091889 ], [ 126.999964821830844, 36.797428807137806 ], [ 127.023819723401104, 36.798284394464986 ], [ 127.031561882909202, 36.794526075249252 ], [ 127.021198522780125, 36.789312770039395 ], [ 127.021280138121497, 36.787995508200289 ], [ 127.012376077690874, 36.787580776782697 ], [ 127.011155434419649, 36.783672055044157 ] ] ] ] } },
{ "type": "Feature", "properties": { "emd_cd": "44200115", "emd_nm": "배미동" }, "geometry": { "type": "MultiPolygon", "coordinates": [ [ [ [ 126.975559311019353, 36.787652077630192 ], [ 126.961822840337703, 36.788220953093571 ], [ 126.966110404009228, 36.798042074041675 ], [ 126.97071913818165, 36.798304090747415 ], [ 126.972068260355186, 36.797045163079517 ], [ 126.974864850555619, 36.801347639410224 ], [ 126.97940030220515, 36.801855512341803 ], [ 126.979101169560536, 36.797060013225511 ], [ 126.975086703891378, 36.79472279158928 ], [ 126.977032039708163, 36.793091951702756 ], [ 126.975052409699856, 36.791129340251985 ], [ 126.975559311019353, 36.787652077630192 ] ] ] ] } },
{ "type": "Feature", "properties": { "emd_cd": "44200116", "emd_nm": "득산동" }, "geometry": { "type": "MultiPolygon", "coordinates": [ [ [ [ 126.968645818767371, 36.775054851002309 ], [ 126.961661637014032, 36.783107308868509 ], [ 126.955465551399485, 36.7838694292684 ], [ 126.961822840337703, 36.788220953093571 ], [ 126.975500372433089, 36.787546400858773 ], [ 126.975657556334269, 36.780966496661584 ], [ 126.978367847740458, 36.776468527822118 ], [ 126.974331562795044, 36.772884510717077 ], [ 126.97282165547891, 36.774661262471035 ], [ 126.968645818767371, 36.775054851002309 ] ] ] ] } },
{ "type": "Feature", "properties": { "emd_cd": "44200117", "emd_nm": "점양동" }, "geometry": { "type": "MultiPolygon", "coordinates": [ [ [ [ 126.968645818767371, 36.775054851002309 ], [ 126.97282165547891, 36.774661262471035 ], [ 126.976679726577856, 36.770153397733374 ], [ 126.975212562048526, 36.76673251122606 ], [ 126.968126625401311, 36.760302457959099 ], [ 126.966589157837461, 36.764083586350615 ], [ 126.962904741850309, 36.767323592302091 ], [ 126.965985050199123, 36.769032760086645 ], [ 126.968645818767371, 36.775054851002309 ] ] ] ] } },
{ "type": "Feature", "properties": { "emd_cd": "44200118", "emd_nm": "신동" }, "geometry": { "type": "MultiPolygon", "coordinates": [ [ [ [ 127.028157728326974, 36.792548831101435 ], [ 127.031620534753273, 36.794261468408038 ], [ 127.028907431828969, 36.796973635663178 ], [ 127.036604386178126, 36.794400458098195 ], [ 127.038005152019323, 36.773509099326233 ], [ 127.030276122213124, 36.776079662632512 ], [ 127.03192009831082, 36.779626488556559 ], [ 127.02892449861622, 36.78814856704588 ], [ 127.029950725352734, 36.791076384906816 ], [ 127.028157728326974, 36.792548831101435 ] ] ] ] } },
{ "type": "Feature", "properties": { "emd_cd": "44200119", "emd_nm": "남동" }, "geometry": { "type": "MultiPolygon", "coordinates": [ [ [ [ 127.031269497298211, 36.774812575015218 ], [ 127.038155379740815, 36.772842853448964 ], [ 127.035911884976954, 36.763039067975662 ], [ 127.033010014708211, 36.762584846680049 ], [ 127.036198072901996, 36.768260888284892 ], [ 127.03439680617933, 36.768071382822491 ], [ 127.032584805164745, 36.77015192197431 ], [ 127.031269497298211, 36.774812575015218 ] ] ] ] } },
{ "type": "Feature", "properties": { "emd_cd": "44200250", "emd_nm": "염치읍" }, "geometry": { "type": "MultiPolygon", "coordinates": [ [ [ [ 127.032375186239065, 36.833459193759303 ], [ 127.042822056150627, 36.823403341072662 ], [ 127.043337185298554, 36.8149754237227 ], [ 127.0464990805702, 36.807818276340761 ], [ 127.043188982228585, 36.803074930102483 ], [ 127.045610998953151, 36.795496024810859 ], [ 127.048417435781374, 36.793951733426098 ], [ 127.046266573865523, 36.792264581808226 ], [ 127.043371778283642, 36.791897741156738 ], [ 127.039460336467968, 36.794846493722801 ], [ 127.034412626751404, 36.794278435211261 ], [ 127.023819723401104, 36.798284394464986 ], [ 127.000787579266657, 36.796960059290193 ], [ 126.995192575497668, 36.799620969489887 ], [ 126.990753677178432, 36.798988417495288 ], [ 126.989115403392148, 36.797216052569738 ], [ 126.985196199503449, 36.797995496766013 ], [ 126.976891805228675, 36.803931068003244 ], [ 126.971476588486738, 36.810389926615478 ], [ 126.962964571005529, 36.810676818365842 ], [ 126.962923499154442, 36.812932160576054 ], [ 126.965864120392467, 36.815412870432709 ], [ 126.963811795765636, 36.81707921620513 ], [ 126.957093524326879, 36.814606108018587 ], [ 126.946000698204728, 36.814398007235496 ], [ 126.937854685804339, 36.817069780982486 ], [ 126.937126045995853, 36.819934112438851 ], [ 126.93450105835619, 36.821980977054764 ], [ 126.923614112187735, 36.818643131352573 ], [ 126.918197898778587, 36.82194839102187 ], [ 126.91228279582252, 36.822860674944891 ], [ 126.909778767755071, 36.819314238619093 ], [ 126.905699163511159, 36.820291917645427 ], [ 126.908084012066183, 36.826078511815901 ], [ 126.911030879033405, 36.826917895498667 ], [ 126.911607920141321, 36.83373129670737 ], [ 126.914025457681063, 36.835893568890683 ], [ 126.915002576115469, 36.839974031493078 ], [ 126.91399280665739, 36.842877040288307 ], [ 126.920253736183497, 36.847224680549701 ], [ 126.934037207293954, 36.844472261362256 ], [ 126.935902339299489, 36.84680460088493 ], [ 126.939356092894727, 36.847533291337754 ], [ 126.942420442248647, 36.842481183982557 ], [ 126.941939423175043, 36.840743200661947 ], [ 126.950974394862328, 36.838164920806172 ], [ 126.956882835369768, 36.842745853318206 ], [ 126.956206603815943, 36.84473639620365 ], [ 126.958168527610638, 36.846944594421288 ], [ 126.962847922114477, 36.847651470525022 ], [ 126.968657984739906, 36.85147212622185 ], [ 126.967392348322164, 36.843595158095077 ], [ 126.969554325976276, 36.840733280756915 ], [ 126.971098813776706, 36.842215309680029 ], [ 126.9736507747091, 36.840652373625815 ], [ 126.97804855893348, 36.84188487310999 ], [ 126.982229651943683, 36.837053052020501 ], [ 126.988169590363597, 36.842162877456722 ], [ 126.990701210905982, 36.839577590657939 ], [ 126.996681760725011, 36.839216804216477 ], [ 126.998780148816223, 36.836683760789242 ], [ 127.002580955533929, 36.836603408626722 ], [ 127.005111757480876, 36.833918907706796 ], [ 127.005133996804958, 36.830103113237442 ], [ 127.007945734122785, 36.828910322996492 ], [ 127.009524911999591, 36.831766610046856 ], [ 127.015659260105451, 36.829960888301308 ], [ 127.021443422901868, 36.831216346988576 ], [ 127.026469078162123, 36.829636127388589 ], [ 127.027438028975169, 36.827897154286482 ], [ 127.032375186239065, 36.833459193759303 ] ] ] ] } },
{ "type": "Feature", "properties": { "emd_cd": "44200253", "emd_nm": "배방읍" }, "geometry": { "type": "MultiPolygon", "coordinates": [ [ [ [ 127.037083392940005, 36.773614574219444 ], [ 127.036495857153625, 36.794440589337476 ], [ 127.040029965548868, 36.794710378586153 ], [ 127.044254944486084, 36.791805225662792 ], [ 127.049860146867758, 36.794429075572722 ], [ 127.049711983373726, 36.791733023623927 ], [ 127.047337904055155, 36.790636215371528 ], [ 127.049238595089435, 36.789438968180505 ], [ 127.049450318919298, 36.786739993215861 ], [ 127.059937688512292, 36.785692027269029 ], [ 127.06758705826546, 36.78148487540922 ], [ 127.071506534884293, 36.783586613517571 ], [ 127.077420068836702, 36.781015547915885 ], [ 127.080449458754615, 36.777318010921569 ], [ 127.090451827899841, 36.780847732698575 ], [ 127.090847257123443, 36.7842335313305 ], [ 127.08855607501944, 36.787953768902952 ], [ 127.087876724708167, 36.790278445422807 ], [ 127.088231263900155, 36.794898441688822 ], [ 127.08564072091302, 36.795869361380348 ], [ 127.086389349810204, 36.800102721286045 ], [ 127.094495582460951, 36.800301255326815 ], [ 127.096610836985136, 36.801661126029622 ], [ 127.094383373167418, 36.795837065695721 ], [ 127.097712448299248, 36.794468630407259 ], [ 127.09799953442419, 36.792439375954046 ], [ 127.099733946100713, 36.792726490588208 ], [ 127.098932113050637, 36.794245343605176 ], [ 127.10375387748357, 36.799525499467734 ], [ 127.105421777273435, 36.799762540461806 ], [ 127.106719549100106, 36.796977072483607 ], [ 127.111093351789478, 36.797254177805193 ], [ 127.110299425144987, 36.792972002420285 ], [ 127.113652930102887, 36.787166965720672 ], [ 127.113191068542079, 36.781734719743326 ], [ 127.117929161021451, 36.779989361459137 ], [ 127.120197300214926, 36.771798948243649 ], [ 127.118607123492765, 36.763525356657269 ], [ 127.11267413191284, 36.762015000726024 ], [ 127.110035386049134, 36.759391742101073 ], [ 127.102211981785899, 36.758707576552034 ], [ 127.092082789317061, 36.761027476384029 ], [ 127.092128431466421, 36.759270246598476 ], [ 127.095733846809054, 36.75917349584649 ], [ 127.096308113407545, 36.75632152438213 ], [ 127.098390208790804, 36.75562676559359 ], [ 127.093868985279798, 36.749918918425031 ], [ 127.09151931206199, 36.748865172890838 ], [ 127.088924474802468, 36.750523489189845 ], [ 127.086531063065692, 36.749222267656847 ], [ 127.088573152690373, 36.746005626126284 ], [ 127.085535081225885, 36.742485886359553 ], [ 127.087378602120623, 36.740042468301041 ], [ 127.082420211659951, 36.734986748414372 ], [ 127.080479164924199, 36.730298869668424 ], [ 127.083337814250442, 36.728199616561859 ], [ 127.084756779587551, 36.723134940029212 ], [ 127.079959300338601, 36.718345126099059 ], [ 127.079306819962071, 36.710117086472913 ], [ 127.072308104090624, 36.708213343359695 ], [ 127.058521147701342, 36.708339315314468 ], [ 127.055964595079217, 36.705628375312976 ], [ 127.049092506485763, 36.703383890677593 ], [ 127.037538500857409, 36.71088208814183 ], [ 127.034881374542195, 36.714413024966184 ], [ 127.036080006206589, 36.730707271321201 ], [ 127.033676536490916, 36.738229317269962 ], [ 127.02940761210877, 36.740654359055803 ], [ 127.030831993997936, 36.745092186556057 ], [ 127.032801415017616, 36.74570462267436 ], [ 127.031178730502234, 36.748305842966211 ], [ 127.03343034709512, 36.753475056103468 ], [ 127.031088019417027, 36.756645965927753 ], [ 127.030677767277609, 36.76097521785897 ], [ 127.035911884976954, 36.763039067975669 ], [ 127.038329379820894, 36.769684398909682 ], [ 127.037869334871274, 36.773149543958617 ], [ 127.031488120440088, 36.774593883815371 ], [ 127.034110421375871, 36.774206203129467 ], [ 127.031579923354428, 36.774841828040323 ], [ 127.031314476458604, 36.775202293736136 ], [ 127.037083392940005, 36.773614574219444 ] ], [ [ 127.090400969574034, 36.785047458153713 ], [ 127.090676498388063, 36.784547956961021 ], [ 127.090602959428338, 36.784835348394687 ], [ 127.090400969574034, 36.785047458153713 ] ], [ [ 127.090819598133578, 36.784388641819625 ], [ 127.090844387793524, 36.784251618725698 ], [ 127.090823879499737, 36.784380609731585 ], [ 127.090819598133578, 36.784388641819625 ] ], [ [ 127.090737157848352, 36.784447843417873 ], [ 127.090738821366699, 36.784442922119702 ], [ 127.090819598133578, 36.784388641819625 ], [ 127.090737157848352, 36.784447843417873 ] ], [ [ 127.088381312938893, 36.789362048305229 ], [ 127.088382790593172, 36.789321281128871 ], [ 127.088383333446785, 36.789355549845354 ], [ 127.088381312938893, 36.789362048305229 ] ], [ [ 127.037083392940005, 36.773614574219444 ], [ 127.037090872339263, 36.773486830627391 ], [ 127.037087472073523, 36.773545926439247 ], [ 127.037083392940005, 36.773614574219444 ] ], [ [ 127.088383366264154, 36.789206011053103 ], [ 127.088383190798453, 36.789239135888558 ], [ 127.088383810530956, 36.789113277767079 ], [ 127.088383366264154, 36.789206011053103 ] ], [ [ 127.08834738731359, 36.789470151895863 ], [ 127.088368475013041, 36.789402949933375 ], [ 127.088381312938893, 36.789362048305229 ], [ 127.08834738731359, 36.789470151895863 ] ] ] ] } },
{ "type": "Feature", "properties": { "emd_cd": "44200310", "emd_nm": "송악면" }, "geometry": { "type": "MultiPolygon", "coordinates": [ [ [ [ 126.998667068244771, 36.746059791095867 ], [ 127.005884236268514, 36.744685481029784 ], [ 127.008786434112764, 36.745816696597977 ], [ 127.011679889150557, 36.741577992396401 ], [ 127.018303771551317, 36.744173730956454 ], [ 127.033676536490944, 36.738229317269962 ], [ 127.036080006206618, 36.730707271321215 ], [ 127.034881374542195, 36.714413024966184 ], [ 127.037538500857409, 36.710882088141851 ], [ 127.049070867873425, 36.702738255338431 ], [ 127.043209976369653, 36.696060405016603 ], [ 127.029468067122266, 36.689487486421363 ], [ 127.026572931771398, 36.686598220762264 ], [ 127.019585323855523, 36.67715716768916 ], [ 127.019950151034465, 36.675279275561437 ], [ 127.01565394169576, 36.672433650929719 ], [ 127.015423606076908, 36.666457510088833 ], [ 127.008338641185475, 36.658362123976723 ], [ 127.009369656120398, 36.656386085264856 ], [ 127.006196162027749, 36.652875980211675 ], [ 126.989240962348561, 36.648680842584987 ], [ 126.987059380095232, 36.650806721928788 ], [ 126.978062465777995, 36.653631961536099 ], [ 126.978563670102858, 36.660916892985277 ], [ 126.968846023371611, 36.673954372889249 ], [ 126.967822551952395, 36.686588967009719 ], [ 126.972339414337171, 36.690900022083305 ], [ 126.966712965841722, 36.695404195240023 ], [ 126.954716999820576, 36.698897791020109 ], [ 126.949982954015439, 36.703766405047482 ], [ 126.940633855661673, 36.701798100210588 ], [ 126.939695759687382, 36.70290368869324 ], [ 126.942326846696844, 36.706973862915547 ], [ 126.93923743504098, 36.711114897210805 ], [ 126.94182694265686, 36.714644122557814 ], [ 126.941726197179989, 36.718646966884748 ], [ 126.945303536214027, 36.723292701402286 ], [ 126.941808493736374, 36.728032688149618 ], [ 126.946214487211464, 36.734480293807131 ], [ 126.945090842801207, 36.73715775627911 ], [ 126.947190767808067, 36.74190020226915 ], [ 126.951524962089579, 36.740624310881934 ], [ 126.953909475190216, 36.73739745729938 ], [ 126.960640734815783, 36.737706661536549 ], [ 126.973374556435957, 36.732496908805821 ], [ 126.98015975899429, 36.736426985602648 ], [ 126.98861234454732, 36.733989537385042 ], [ 126.99011404173703, 36.736510868448491 ], [ 126.99757058190184, 36.739105740198703 ], [ 126.998667068244771, 36.746059791095867 ] ] ] ] } },
{ "type": "Feature", "properties": { "emd_cd": "44200330", "emd_nm": "탕정면" }, "geometry": { "type": "MultiPolygon", "coordinates": [ [ [ [ 127.090400969574034, 36.785047458153706 ], [ 127.090602959428338, 36.784835348394708 ], [ 127.090676498388063, 36.784547956961021 ], [ 127.090400969574034, 36.785047458153706 ] ] ], [ [ [ 127.031383243616375, 36.836042929908743 ], [ 127.035095693279331, 36.838093681055497 ], [ 127.036881834230485, 36.835856136261448 ], [ 127.042838090606224, 36.835206827699025 ], [ 127.049520297520658, 36.838292486349758 ], [ 127.054453487913278, 36.83047044158851 ], [ 127.063272358733457, 36.832321067332487 ], [ 127.068460325475144, 36.828799278375939 ], [ 127.07338406408698, 36.829233257506431 ], [ 127.076319036416521, 36.827551135920167 ], [ 127.08116766716951, 36.829138015633774 ], [ 127.085270530316592, 36.82709279526491 ], [ 127.089746541286303, 36.828211987626524 ], [ 127.098297159596427, 36.8252810793091 ], [ 127.100603361777303, 36.827273786065113 ], [ 127.102095270677864, 36.825219904833617 ], [ 127.101461891243616, 36.821967776000811 ], [ 127.096581049611288, 36.814944627340097 ], [ 127.098541184438318, 36.810550992358891 ], [ 127.097807141321752, 36.806035443025046 ], [ 127.096217353985168, 36.804994790279189 ], [ 127.096610836985136, 36.801661126029636 ], [ 127.094495582460951, 36.800301255326815 ], [ 127.086389349810204, 36.800102721286045 ], [ 127.08564072091302, 36.795869361380362 ], [ 127.087276924394232, 36.794882012733893 ], [ 127.087996008533864, 36.794990652021539 ], [ 127.088199923987958, 36.794956955361123 ], [ 127.088231263900155, 36.794898441688822 ], [ 127.087876724708138, 36.790278445422814 ], [ 127.08855607501944, 36.787953768902945 ], [ 127.090847257123471, 36.784233531330521 ], [ 127.090451827899841, 36.780847732698568 ], [ 127.07993394585381, 36.777334662006965 ], [ 127.077420068836702, 36.781015547915885 ], [ 127.071506534884293, 36.783586613517564 ], [ 127.06758705826546, 36.78148487540922 ], [ 127.059937688512321, 36.785692027269029 ], [ 127.049450318919298, 36.786739993215853 ], [ 127.049238595089463, 36.789438968180505 ], [ 127.047337904055155, 36.790636215371514 ], [ 127.049711983373726, 36.79173302362392 ], [ 127.049860146867758, 36.794429075572694 ], [ 127.045610998953151, 36.795496024810859 ], [ 127.043188982228585, 36.803074930102483 ], [ 127.0464990805702, 36.807818276340761 ], [ 127.043337185298554, 36.8149754237227 ], [ 127.042822056150627, 36.823403341072662 ], [ 127.032822700805553, 36.832387811837719 ], [ 127.031383243616375, 36.836042929908743 ] ] ] ] } },
{ "type": "Feature", "properties": { "emd_cd": "44200350", "emd_nm": "음봉면" }, "geometry": { "type": "MultiPolygon", "coordinates": [ [ [ [ 127.084619233055349, 36.903506977036713 ], [ 127.084708819519278, 36.901981431926686 ], [ 127.089424228059627, 36.89983825300299 ], [ 127.092951753441795, 36.893611196617279 ], [ 127.087536982750876, 36.889769903643931 ], [ 127.091037951643571, 36.882255638325404 ], [ 127.086313909637326, 36.875838126386903 ], [ 127.088705640786202, 36.867523417633464 ], [ 127.087420302505208, 36.86186239898305 ], [ 127.10457533788346, 36.861063779693815 ], [ 127.107202542019536, 36.860066292647701 ], [ 127.110485247678866, 36.854688249660754 ], [ 127.105389740201574, 36.846095851357923 ], [ 127.098195981157758, 36.840193449570542 ], [ 127.098179130533964, 36.837948499520728 ], [ 127.101912849676083, 36.837040952762848 ], [ 127.10485387163726, 36.838332123574624 ], [ 127.105651678882822, 36.836494823568593 ], [ 127.100890304829946, 36.83165991772168 ], [ 127.101722934244577, 36.828612488050034 ], [ 127.098339240461954, 36.825283487031356 ], [ 127.089746541286303, 36.828211987626531 ], [ 127.08682910894683, 36.826762451491994 ], [ 127.081167667169481, 36.829138015633781 ], [ 127.076319036416493, 36.827551135920167 ], [ 127.07338406408698, 36.829233257506438 ], [ 127.069069915021274, 36.828626066208109 ], [ 127.063272358733457, 36.832321067332487 ], [ 127.05445348791325, 36.830470441588517 ], [ 127.049520297520658, 36.838292486349765 ], [ 127.042838090606224, 36.835206827699025 ], [ 127.036881834230485, 36.835856136261448 ], [ 127.036288407251135, 36.837919020177779 ], [ 127.032463881870143, 36.837496740982999 ], [ 127.031052539602754, 36.835669326200993 ], [ 127.032375186239094, 36.833459193759282 ], [ 127.027438028975169, 36.827897154286468 ], [ 127.026469078162123, 36.829636127388582 ], [ 127.021443422901868, 36.831216346988569 ], [ 127.015659260105451, 36.829960888301301 ], [ 127.00952491199962, 36.831766610046856 ], [ 127.007945734122785, 36.828910322996492 ], [ 127.005133996804958, 36.830103113237442 ], [ 127.005111757480876, 36.833918907706796 ], [ 127.002826774492334, 36.836378716731375 ], [ 126.998780148816223, 36.836683760789242 ], [ 126.996681760725011, 36.839216804216463 ], [ 126.990701210905982, 36.839577590657939 ], [ 126.988169590363569, 36.842162877456701 ], [ 126.982229651943683, 36.837053052020529 ], [ 126.98008149784917, 36.838037677260651 ], [ 126.978954588389414, 36.841560562350907 ], [ 126.9736507747091, 36.840652373625822 ], [ 126.971098813776706, 36.842215309680029 ], [ 126.969554325976276, 36.840733280756929 ], [ 126.967392348322164, 36.843595158095056 ], [ 126.968657984739906, 36.85147212622185 ], [ 126.972614407087249, 36.854415895553018 ], [ 126.972558205671874, 36.857454517566502 ], [ 126.974670232117987, 36.860189040285164 ], [ 126.987763540097475, 36.860537718443837 ], [ 126.996196510362068, 36.865387940990232 ], [ 127.004808008897271, 36.864558382737478 ], [ 127.009292926514163, 36.866323077788842 ], [ 127.00892869051107, 36.873364863841957 ], [ 127.011940655067903, 36.875916843596492 ], [ 127.013502367920964, 36.882457466445445 ], [ 127.016668489969092, 36.881616285071146 ], [ 127.019899642558471, 36.883380529939672 ], [ 127.02298584245645, 36.882974655127292 ], [ 127.02341371895632, 36.878601308164008 ], [ 127.029481510116256, 36.875366259384478 ], [ 127.033889630029989, 36.876869309439812 ], [ 127.035080244110063, 36.872898224799798 ], [ 127.037356590017239, 36.871498249453651 ], [ 127.039453987581481, 36.876031501145683 ], [ 127.045125076286993, 36.879941095725073 ], [ 127.05661576244286, 36.87748853653104 ], [ 127.059333120540643, 36.878231593931034 ], [ 127.062099102328048, 36.884543087187076 ], [ 127.060420741339584, 36.887076713779358 ], [ 127.061133392414405, 36.889217642228459 ], [ 127.057732049968976, 36.88993383056043 ], [ 127.059984968455055, 36.893408164378179 ], [ 127.055583572242952, 36.897338034268735 ], [ 127.05552953091599, 36.899426048618913 ], [ 127.050768092787692, 36.901984926745037 ], [ 127.05184754054055, 36.90397232424742 ], [ 127.053800047361975, 36.90455663964088 ], [ 127.055129843872763, 36.901367863618574 ], [ 127.056086616915536, 36.904447237019987 ], [ 127.060230487127853, 36.904413560571513 ], [ 127.060665551765112, 36.902982891302273 ], [ 127.070530417243674, 36.90502956751569 ], [ 127.073513041168979, 36.901820520414709 ], [ 127.077529193312131, 36.902174561800031 ], [ 127.081062336070445, 36.904539492981002 ], [ 127.084619233055349, 36.903506977036713 ] ] ] ] } },
{ "type": "Feature", "properties": { "emd_cd": "44200360", "emd_nm": "둔포면" }, "geometry": { "type": "MultiPolygon", "coordinates": [ [ [ [ 127.016668489969092, 36.881616285071146 ], [ 127.010238648102074, 36.883448881945874 ], [ 127.006893844302809, 36.888286778354676 ], [ 127.011927722863192, 36.896861071063512 ], [ 127.009596640206979, 36.899296721662175 ], [ 127.00479338178998, 36.900736462494756 ], [ 127.002648393557976, 36.907196255568948 ], [ 126.992265028841331, 36.909124882830028 ], [ 126.991525419009903, 36.911769546687417 ], [ 126.995221375357843, 36.920334084745207 ], [ 126.9883981370008, 36.923976984918404 ], [ 126.985551050708906, 36.93248774936643 ], [ 126.995181417713098, 36.935361294454111 ], [ 127.000794704088605, 36.933605749328407 ], [ 127.003715839433283, 36.935162950558379 ], [ 127.00740331364571, 36.934177343353582 ], [ 127.007444539322037, 36.935731100852585 ], [ 127.010492956863231, 36.935827712694049 ], [ 127.011764144623243, 36.934189715740899 ], [ 127.015333025030799, 36.935431671095003 ], [ 127.019107910538068, 36.933593876210111 ], [ 127.020826231734063, 36.934603653797986 ], [ 127.021362054959354, 36.931086961312573 ], [ 127.025796472689379, 36.928748449200448 ], [ 127.031188829911343, 36.928108425631471 ], [ 127.037379689230022, 36.932330918315479 ], [ 127.047739633279988, 36.933270332215947 ], [ 127.054709669654827, 36.937583306183804 ], [ 127.058501726614367, 36.937396950610747 ], [ 127.059312405484121, 36.939084443752293 ], [ 127.067730799841144, 36.942243061194247 ], [ 127.068626746036685, 36.939972339409508 ], [ 127.073463344375895, 36.94013055827849 ], [ 127.074729154543235, 36.935930873928903 ], [ 127.079402516494227, 36.933744670480451 ], [ 127.08036566474992, 36.930252075812852 ], [ 127.087494444628661, 36.924263492308398 ], [ 127.088953493726649, 36.918525286104021 ], [ 127.093802138162232, 36.913546873335825 ], [ 127.094086384004683, 36.911105089683545 ], [ 127.092976728348944, 36.908539864238826 ], [ 127.08754180668592, 36.907419788610689 ], [ 127.084619233055349, 36.903506977036713 ], [ 127.081062336070445, 36.904539492981002 ], [ 127.077529193312131, 36.902174561800031 ], [ 127.073513041168979, 36.901820520414709 ], [ 127.070530417243674, 36.90502956751569 ], [ 127.060665551765112, 36.902982891302273 ], [ 127.060230487127853, 36.904413560571513 ], [ 127.056086616915536, 36.904447237019987 ], [ 127.055129843872763, 36.901367863618574 ], [ 127.053800047361975, 36.90455663964088 ], [ 127.051216958398612, 36.903624588804448 ], [ 127.050768092787692, 36.901984926745037 ], [ 127.05552953091599, 36.899426048618913 ], [ 127.055583572242952, 36.897338034268735 ], [ 127.059984968455055, 36.893408164378179 ], [ 127.057732049968976, 36.88993383056043 ], [ 127.061133392414405, 36.889217642228459 ], [ 127.060420741339584, 36.887076713779358 ], [ 127.062099102328048, 36.884543087187076 ], [ 127.059333120540643, 36.878231593931034 ], [ 127.05661576244286, 36.87748853653104 ], [ 127.045125076286993, 36.879941095725073 ], [ 127.039453987581481, 36.876031501145683 ], [ 127.037356590017239, 36.871498249453651 ], [ 127.035080244110063, 36.872898224799798 ], [ 127.033889630029989, 36.876869309439812 ], [ 127.029481510116256, 36.875366259384478 ], [ 127.02341371895632, 36.878601308164008 ], [ 127.02298584245645, 36.882974655127292 ], [ 127.019899642558471, 36.883380529939672 ], [ 127.016668489969092, 36.881616285071146 ] ] ] ] } },
{ "type": "Feature", "properties": { "emd_cd": "44200370", "emd_nm": "영인면" }, "geometry": { "type": "MultiPolygon", "coordinates": [ [ [ [ 126.916742764383613, 36.90620846379408 ], [ 126.939625656613131, 36.917331385256688 ], [ 126.97374529915821, 36.925862603089108 ], [ 126.985551050708906, 36.93248774936643 ], [ 126.9883981370008, 36.923976984918404 ], [ 126.995221375357843, 36.920334084745207 ], [ 126.991525419009903, 36.911769546687417 ], [ 126.992265028841331, 36.909124882830028 ], [ 127.002648393557976, 36.907196255568948 ], [ 127.00479338178998, 36.900736462494756 ], [ 127.009596640206979, 36.899296721662175 ], [ 127.011927722863192, 36.896861071063512 ], [ 127.006893844302809, 36.888286778354676 ], [ 127.010238648102074, 36.883448881945874 ], [ 127.013502367920964, 36.882457466445445 ], [ 127.011940655067903, 36.875916843596492 ], [ 127.00892869051107, 36.873364863841957 ], [ 127.009292926514163, 36.866323077788842 ], [ 127.004808008897271, 36.864558382737478 ], [ 126.996196510362068, 36.865387940990232 ], [ 126.987763540097475, 36.860537718443837 ], [ 126.975276363672236, 36.860490601392591 ], [ 126.972558205671874, 36.857454517566502 ], [ 126.972614407087249, 36.854415895553018 ], [ 126.962847922114435, 36.847651470525022 ], [ 126.958168527610638, 36.846944594421274 ], [ 126.956206603815943, 36.84473639620365 ], [ 126.95688283536974, 36.842745853318206 ], [ 126.951478686863084, 36.838265291277118 ], [ 126.947103416115013, 36.838256711193644 ], [ 126.941939423175043, 36.840743200661947 ], [ 126.942420442248647, 36.842481183982549 ], [ 126.939356092894727, 36.847533291337768 ], [ 126.935902339299432, 36.84680460088493 ], [ 126.934037207293954, 36.844472261362249 ], [ 126.918766642741886, 36.847641719712051 ], [ 126.919407272316974, 36.851632199306323 ], [ 126.924128388473719, 36.854493845393428 ], [ 126.923680611430413, 36.861955347000944 ], [ 126.927747290267149, 36.86692635722234 ], [ 126.925128805070585, 36.869384333668208 ], [ 126.917693605416048, 36.868091136499793 ], [ 126.914323970074761, 36.869271535697912 ], [ 126.913892951630501, 36.873255328385447 ], [ 126.91630495658363, 36.87582971492521 ], [ 126.915478148445956, 36.876956595309679 ], [ 126.920425052326351, 36.879480693180383 ], [ 126.917662567864156, 36.881038974990567 ], [ 126.922506927441688, 36.880790951371168 ], [ 126.934322574644639, 36.884769694887645 ], [ 126.931649795737485, 36.891160151927707 ], [ 126.936014692657764, 36.893263388436274 ], [ 126.924915107118721, 36.893338311654041 ], [ 126.924790276316671, 36.895098513128282 ], [ 126.920174168973858, 36.895399219646158 ], [ 126.916742764383613, 36.90620846379408 ] ] ] ] } },
{ "type": "Feature", "properties": { "emd_cd": "44200380", "emd_nm": "인주면" }, "geometry": { "type": "MultiPolygon", "coordinates": [ [ [ [ 126.836675345015891, 36.838433481922436 ], [ 126.84488706860445, 36.884219348168173 ], [ 126.862846415529646, 36.87968533607124 ], [ 126.882647517149081, 36.886764766179951 ], [ 126.905943724862112, 36.888636299340043 ], [ 126.91135404314214, 36.892865926001939 ], [ 126.909704983549602, 36.901601631090521 ], [ 126.916742764383613, 36.90620846379408 ], [ 126.920174168973858, 36.895399219646158 ], [ 126.924790276316671, 36.895098513128282 ], [ 126.924915107118721, 36.893338311654041 ], [ 126.935933636549635, 36.893605362053357 ], [ 126.935747513359814, 36.892275238970832 ], [ 126.933925727073898, 36.893140571630802 ], [ 126.931649795737485, 36.891160151927707 ], [ 126.934322574644639, 36.884769694887645 ], [ 126.922506927441688, 36.880790951371168 ], [ 126.917662567864156, 36.881038974990567 ], [ 126.920425052326351, 36.879480693180383 ], [ 126.915478148445956, 36.876956595309679 ], [ 126.91630495658363, 36.87582971492521 ], [ 126.913892951630501, 36.873255328385447 ], [ 126.914323970074761, 36.869271535697912 ], [ 126.917693605416048, 36.868091136499793 ], [ 126.925128805070585, 36.869384333668208 ], [ 126.927747290267149, 36.86692635722234 ], [ 126.923680611430413, 36.861955347000944 ], [ 126.924128388473719, 36.854493845393428 ], [ 126.919407272316974, 36.851632199306323 ], [ 126.918766642741886, 36.847641719712051 ], [ 126.920063017894321, 36.846687450278495 ], [ 126.91399280665739, 36.842877040288307 ], [ 126.914025457681063, 36.835893568890683 ], [ 126.911607920141307, 36.83373129670737 ], [ 126.911030879033405, 36.826917895498646 ], [ 126.908084012066183, 36.826078511815894 ], [ 126.906966175372276, 36.82090624889068 ], [ 126.899282739565763, 36.820574036657277 ], [ 126.897161032504314, 36.823513941380021 ], [ 126.881115444707191, 36.829992432806677 ], [ 126.877173659196814, 36.828346210696907 ], [ 126.870476587407296, 36.830001839867194 ], [ 126.872287360135388, 36.833459199135163 ], [ 126.869413651955426, 36.833475415404301 ], [ 126.860549430944857, 36.838015792308319 ], [ 126.845352629265221, 36.838282184916174 ], [ 126.843473695508976, 36.83717591012573 ], [ 126.843095388084308, 36.838321641006772 ], [ 126.836675345015891, 36.838433481922436 ] ] ] ] } },
{ "type": "Feature", "properties": { "emd_cd": "44200390", "emd_nm": "선장면" }, "geometry": { "type": "MultiPolygon", "coordinates": [ [ [ [ 126.836675345015891, 36.838433481922436 ], [ 126.843095388084308, 36.838321641006765 ], [ 126.843473695508976, 36.83717591012573 ], [ 126.84535262926525, 36.838282184916174 ], [ 126.860549430944857, 36.838015792308326 ], [ 126.869413651955426, 36.833475415404301 ], [ 126.872287360135402, 36.833459199135163 ], [ 126.870476587407296, 36.830001839867208 ], [ 126.877173659196814, 36.828346210696907 ], [ 126.88111544470722, 36.829992432806677 ], [ 126.886976279008024, 36.827810618557933 ], [ 126.88519730128958, 36.820687701189357 ], [ 126.886359037006088, 36.816779983698595 ], [ 126.884031334980932, 36.814604337001882 ], [ 126.884101072420805, 36.809087687241657 ], [ 126.881878843260097, 36.809140854938171 ], [ 126.881605539476453, 36.802290644357598 ], [ 126.891954305867159, 36.798836370307733 ], [ 126.898332421924252, 36.794086503449776 ], [ 126.902015551576596, 36.793903931515452 ], [ 126.902182026259311, 36.791445446003181 ], [ 126.906392613790899, 36.791359010269787 ], [ 126.911764319325016, 36.782965175681191 ], [ 126.925549788337733, 36.783941798678022 ], [ 126.925803339764954, 36.773027394064322 ], [ 126.918154922714123, 36.771929299442725 ], [ 126.916204811368701, 36.773517997997942 ], [ 126.912231100300758, 36.770490922150906 ], [ 126.910019439161488, 36.772313710850788 ], [ 126.904120758780863, 36.770638939516502 ], [ 126.897083238436451, 36.772959808968061 ], [ 126.893706674711282, 36.772041468758751 ], [ 126.892150390334564, 36.767576634044232 ], [ 126.886652738716535, 36.767565624806096 ], [ 126.887072568108437, 36.766295580586792 ], [ 126.886863404042842, 36.765874290267313 ], [ 126.885218123432182, 36.764347059285818 ], [ 126.883195936943068, 36.765241211753995 ], [ 126.882867580448035, 36.763273345293683 ], [ 126.878494826705207, 36.768614861333084 ], [ 126.871974255085746, 36.770044843177558 ], [ 126.869832640173996, 36.769172308823777 ], [ 126.861451249533104, 36.773058137066982 ], [ 126.862888220617009, 36.768357189594042 ], [ 126.856291672378077, 36.766046724745202 ], [ 126.863051991952787, 36.763479489324844 ], [ 126.859434835293655, 36.7560599899289 ], [ 126.857479660835807, 36.757385211773993 ], [ 126.845434443327832, 36.756748825685371 ], [ 126.845687357557694, 36.753392578454672 ], [ 126.841860305606957, 36.751663768809564 ], [ 126.838989323777795, 36.753032628404625 ], [ 126.837297963159642, 36.756152415993945 ], [ 126.837982045858524, 36.760633611034123 ], [ 126.834309658146694, 36.76022092665719 ], [ 126.830874526318667, 36.762081503298063 ], [ 126.83217574493186, 36.762145033951683 ], [ 126.83093687558555, 36.766400578201413 ], [ 126.832102457085639, 36.770164925812161 ], [ 126.82910551311295, 36.773017425761203 ], [ 126.832223982902008, 36.776030930516946 ], [ 126.833314210891032, 36.783733975713105 ], [ 126.839802029916711, 36.788383671836279 ], [ 126.856493125067217, 36.789441460270453 ], [ 126.859061434256645, 36.794040205891292 ], [ 126.857901297547912, 36.800562319873201 ], [ 126.8482597964842, 36.816914837929588 ], [ 126.837247719309161, 36.83032653964964 ], [ 126.836675345015891, 36.838433481922436 ] ], [ [ 126.88677316868656, 36.766946768203688 ], [ 126.886768495354914, 36.766956171291582 ], [ 126.88676923939245, 36.766952937022232 ], [ 126.88677316868656, 36.766946768203688 ] ], [ [ 126.886856140883509, 36.766780971746421 ], [ 126.886808645267521, 36.766875560605413 ], [ 126.886850623689, 36.766785444950187 ], [ 126.886856140883509, 36.766780971746421 ] ] ] ] } },
{ "type": "Feature", "properties": { "emd_cd": "44200400", "emd_nm": "도고면" }, "geometry": { "type": "MultiPolygon", "coordinates": [ [ [ [ 126.918154922714123, 36.771929299442725 ], [ 126.924752706223956, 36.772258696058515 ], [ 126.925987619779931, 36.766483314150527 ], [ 126.928247211155607, 36.767166957552099 ], [ 126.930670827606832, 36.765366473225022 ], [ 126.929544711063215, 36.7626858927038 ], [ 126.933076250018885, 36.760418156386294 ], [ 126.938669858189954, 36.750927001398864 ], [ 126.935600203680991, 36.746261861899683 ], [ 126.943361978953888, 36.745433231581636 ], [ 126.944572235161417, 36.742236491307445 ], [ 126.947190767808067, 36.74190020226915 ], [ 126.945090842801207, 36.73715775627911 ], [ 126.946214487211464, 36.734480293807131 ], [ 126.941808493736374, 36.728032688149618 ], [ 126.945303536214027, 36.723292701402286 ], [ 126.941726197179989, 36.718646966884748 ], [ 126.94182694265686, 36.714644122557814 ], [ 126.93923743504098, 36.711114897210805 ], [ 126.942326846696844, 36.706973862915547 ], [ 126.939695759687382, 36.70290368869324 ], [ 126.933556259110205, 36.702092417266329 ], [ 126.928392476824939, 36.704543191399701 ], [ 126.921988286505325, 36.700751713579187 ], [ 126.913287243513054, 36.703865752057489 ], [ 126.906780430513123, 36.701614260673011 ], [ 126.902193839251012, 36.702267792335569 ], [ 126.90319349715601, 36.707877977209385 ], [ 126.905427636194091, 36.709593838291255 ], [ 126.902657002182409, 36.711642743197565 ], [ 126.902924120247746, 36.7147334508565 ], [ 126.899039660846583, 36.717029320945912 ], [ 126.898724412701185, 36.723009434462945 ], [ 126.892071376498123, 36.72448339172449 ], [ 126.886629324339552, 36.731438218184266 ], [ 126.874966840383124, 36.728184348413173 ], [ 126.866813877153206, 36.72944668883585 ], [ 126.863714738135442, 36.732073201650977 ], [ 126.863151108231818, 36.735770887317081 ], [ 126.86003162482767, 36.737922588251408 ], [ 126.856780009690354, 36.744098673258009 ], [ 126.8587258304633, 36.744600979186941 ], [ 126.858978849098406, 36.747042146430509 ], [ 126.850042633585403, 36.749055946962947 ], [ 126.847998594201172, 36.750422604991577 ], [ 126.847783792892599, 36.752900107549863 ], [ 126.845687357557694, 36.753392578454672 ], [ 126.845434443327832, 36.756748825685371 ], [ 126.857479660835807, 36.757385211773993 ], [ 126.859434835293655, 36.7560599899289 ], [ 126.863051991952787, 36.763479489324844 ], [ 126.856291672378077, 36.766046724745202 ], [ 126.862888220617009, 36.768357189594042 ], [ 126.861451249533104, 36.773058137066982 ], [ 126.869832640173996, 36.769172308823777 ], [ 126.871974255085746, 36.770044843177558 ], [ 126.878494826705207, 36.768614861333084 ], [ 126.882867580448035, 36.763273345293683 ], [ 126.883195936943068, 36.765241211753995 ], [ 126.885218123432182, 36.764347059285818 ], [ 126.886863404042842, 36.765874290267313 ], [ 126.887072568108437, 36.766295580586792 ], [ 126.886652738716535, 36.767565624806096 ], [ 126.892150390334564, 36.767576634044232 ], [ 126.893706674711282, 36.772041468758751 ], [ 126.897083238436451, 36.772959808968061 ], [ 126.904120758780863, 36.770638939516502 ], [ 126.910019439161488, 36.772313710850788 ], [ 126.912231100300758, 36.770490922150906 ], [ 126.916204811368701, 36.773517997997942 ], [ 126.918154922714123, 36.771929299442725 ] ] ], [ [ [ 126.886856140883509, 36.766780971746421 ], [ 126.88681041530343, 36.766867776716545 ], [ 126.886808645267521, 36.766875560605413 ], [ 126.886856140883509, 36.766780971746421 ] ] ], [ [ [ 126.88676923939245, 36.766952937022232 ], [ 126.886768495354914, 36.766956171291582 ], [ 126.88677316868656, 36.766946768203688 ], [ 126.88676923939245, 36.766952937022232 ] ] ] ] } },
{ "type": "Feature", "properties": { "emd_cd": "44200410", "emd_nm": "신창면" }, "geometry": { "type": "MultiPolygon", "coordinates": [ [ [ [ 126.967222979656128, 36.760665087964668 ], [ 126.962059325191888, 36.756738361107644 ], [ 126.962511572284271, 36.754603323551407 ], [ 126.959764378940093, 36.751453821718442 ], [ 126.959965735765252, 36.746644513128828 ], [ 126.955883491606883, 36.74265449734515 ], [ 126.95515791292398, 36.737744843233209 ], [ 126.953909475190216, 36.73739745729938 ], [ 126.951524962089579, 36.740624310881934 ], [ 126.944572235161417, 36.742236491307445 ], [ 126.943361978953888, 36.745433231581636 ], [ 126.935600203680991, 36.746261861899683 ], [ 126.938669858189954, 36.750927001398864 ], [ 126.933076250018885, 36.760418156386294 ], [ 126.929544711063215, 36.7626858927038 ], [ 126.930670827606832, 36.765366473225022 ], [ 126.928247211155607, 36.767166957552099 ], [ 126.925987619779931, 36.766483314150527 ], [ 126.924854109635504, 36.768510701348568 ], [ 126.924752706223956, 36.772258696058515 ], [ 126.926594096651186, 36.775148575111423 ], [ 126.925549788337733, 36.783941798678022 ], [ 126.911764319325016, 36.782965175681191 ], [ 126.906392613790899, 36.791359010269787 ], [ 126.902182026259311, 36.791445446003181 ], [ 126.902015551576596, 36.793903931515452 ], [ 126.898332421924252, 36.794086503449776 ], [ 126.891954305867159, 36.798836370307733 ], [ 126.881605539476453, 36.802290644357598 ], [ 126.881878843260097, 36.809140854938171 ], [ 126.884101072420805, 36.809087687241657 ], [ 126.884031334980932, 36.814604337001882 ], [ 126.886359037006088, 36.816779983698595 ], [ 126.88519730128958, 36.820687701189357 ], [ 126.886175162135075, 36.82777181788142 ], [ 126.897161032504314, 36.82351394138 ], [ 126.899095140288438, 36.820648189188091 ], [ 126.903189789915999, 36.819949036788287 ], [ 126.909778767755071, 36.819314238619093 ], [ 126.91228279582252, 36.822860674944891 ], [ 126.918197898778587, 36.82194839102187 ], [ 126.92156171435785, 36.818812916064573 ], [ 126.924017802678947, 36.81866975229083 ], [ 126.933544864463457, 36.822108832634555 ], [ 126.937126045995853, 36.819934112438851 ], [ 126.937854685804339, 36.817069780982486 ], [ 126.944731807887422, 36.814517092988176 ], [ 126.95596607333583, 36.814458207132937 ], [ 126.9627529806328, 36.817010365121604 ], [ 126.965367377971262, 36.816387453266579 ], [ 126.962964571005529, 36.810676818365842 ], [ 126.971080534102384, 36.810590330732019 ], [ 126.979439829450527, 36.802382324067565 ], [ 126.974864850555619, 36.801347639410224 ], [ 126.972068260355186, 36.797045163079517 ], [ 126.97071913818165, 36.798304090747415 ], [ 126.966110404009228, 36.798042074041675 ], [ 126.964216273861197, 36.795679227028707 ], [ 126.963385932785968, 36.789749490280677 ], [ 126.955465551399485, 36.7838694292684 ], [ 126.961661637014032, 36.783107308868509 ], [ 126.968645818767371, 36.775054851002309 ], [ 126.965985050199123, 36.769032760086645 ], [ 126.962904741850309, 36.767323592302091 ], [ 126.966589157837461, 36.764083586350615 ], [ 126.967222979656128, 36.760665087964668 ] ] ] ] } }
]
}
