{
"type": "FeatureCollection",
"name": "44230",
"crs": { "type": "name", "properties": { "name": "urn:ogc:def:crs:OGC:1.3:CRS84" } },
"features": [
{ "type": "Feature", "properties": { "emd_cd": "44230101", "emd_nm": "화지동" }, "geometry": { "type": "MultiPolygon", "coordinates": [ [ [ [ 127.097235904954204, 36.209530285594511 ], [ 127.089238880182961, 36.206210625696571 ], [ 127.084753291901379, 36.206393529269519 ], [ 127.079908628174337, 36.202471902368885 ], [ 127.079622441382455, 36.203918122627208 ], [ 127.083429231730634, 36.20799176804929 ], [ 127.089430207451869, 36.207113799092902 ], [ 127.094572055980805, 36.212335294083012 ], [ 127.097235904954204, 36.209530285594511 ] ] ] ] } },
{ "type": "Feature", "properties": { "emd_cd": "44230102", "emd_nm": "반월동" }, "geometry": { "type": "MultiPolygon", "coordinates": [ [ [ [ 127.097069730702358, 36.208741547855517 ], [ 127.083594513213384, 36.201575434094771 ], [ 127.083162250057342, 36.202760244871186 ], [ 127.080180086161135, 36.202550894310484 ], [ 127.084753291901379, 36.206393529269519 ], [ 127.089427699564666, 36.206263729758732 ], [ 127.095798377540021, 36.210003013732965 ], [ 127.097069730702358, 36.208741547855517 ] ] ] ] } },
{ "type": "Feature", "properties": { "emd_cd": "44230103", "emd_nm": "대교동" }, "geometry": { "type": "MultiPolygon", "coordinates": [ [ [ [ 127.093625121674805, 36.211460317522693 ], [ 127.089430207451869, 36.207113799092902 ], [ 127.083429231730634, 36.20799176804929 ], [ 127.079812732776418, 36.203920548619756 ], [ 127.076961253449781, 36.207843945350731 ], [ 127.091676182232447, 36.214061786126187 ], [ 127.093625121674805, 36.211460317522693 ] ] ] ] } },
{ "type": "Feature", "properties": { "emd_cd": "44230104", "emd_nm": "부창동" }, "geometry": { "type": "MultiPolygon", "coordinates": [ [ [ [ 127.066601439011947, 36.190532299077354 ], [ 127.061983159845937, 36.187698352357501 ], [ 127.062884736652052, 36.188253698743843 ], [ 127.060491338903233, 36.190727674976415 ], [ 127.076752905739951, 36.20773809593107 ], [ 127.079908628174337, 36.202471902368885 ], [ 127.087246838259006, 36.200845480567374 ], [ 127.086962439431545, 36.194786050789546 ], [ 127.082676094904372, 36.194863780530405 ], [ 127.075352821099472, 36.190900224121471 ], [ 127.073888217027687, 36.19289215463229 ], [ 127.069874969973071, 36.192745339746565 ], [ 127.068490295801482, 36.189460893852726 ], [ 127.066601439011947, 36.190532299077354 ] ] ] ] } },
{ "type": "Feature", "properties": { "emd_cd": "44230105", "emd_nm": "취암동" }, "geometry": { "type": "MultiPolygon", "coordinates": [ [ [ [ 127.090767937964742, 36.192283980121672 ], [ 127.086962439431545, 36.194786050789546 ], [ 127.087261940250684, 36.200806754324447 ], [ 127.084729917540344, 36.202361115154417 ], [ 127.097069730702358, 36.208741547855517 ], [ 127.098242125851911, 36.207865012964923 ], [ 127.096267006046716, 36.206741135065663 ], [ 127.09908233988844, 36.205886178610285 ], [ 127.097458639753015, 36.202275938283904 ], [ 127.100962509766148, 36.201049279150538 ], [ 127.099941408042298, 36.198840857146926 ], [ 127.103218920262876, 36.197845204121883 ], [ 127.102051272174876, 36.195335896365293 ], [ 127.104946406569951, 36.189357989886311 ], [ 127.090767937964742, 36.192283980121672 ] ] ] ] } },
{ "type": "Feature", "properties": { "emd_cd": "44230106", "emd_nm": "등화동" }, "geometry": { "type": "MultiPolygon", "coordinates": [ [ [ [ 127.081710217732478, 36.179277743560597 ], [ 127.069816129030343, 36.178355905181789 ], [ 127.068606521403836, 36.180553382409258 ], [ 127.065998609589656, 36.179028994213162 ], [ 127.061872266356175, 36.181936679410711 ], [ 127.050858310914379, 36.183711154143573 ], [ 127.058291808984563, 36.189965937553012 ], [ 127.059415899200474, 36.187388068921145 ], [ 127.061530811369323, 36.189623000336539 ], [ 127.062884736652052, 36.188253698743843 ], [ 127.061983159845937, 36.187698352357501 ], [ 127.063716212506804, 36.187647780729634 ], [ 127.066601439011947, 36.190532299077354 ], [ 127.068490295801482, 36.189460893852726 ], [ 127.069874969973071, 36.192745339746565 ], [ 127.073888217027687, 36.19289215463229 ], [ 127.075202424028845, 36.192089925802307 ], [ 127.074254502513497, 36.189999761406149 ], [ 127.078480499909404, 36.188241113713374 ], [ 127.079340107821182, 36.182606656047142 ], [ 127.081761500169733, 36.181090175788007 ], [ 127.081710217732478, 36.179277743560597 ] ] ] ] } },
{ "type": "Feature", "properties": { "emd_cd": "44230107", "emd_nm": "지산동" }, "geometry": { "type": "MultiPolygon", "coordinates": [ [ [ [ 127.097103102241917, 36.208704743401775 ], [ 127.11346009809958, 36.211258936365397 ], [ 127.125810565307745, 36.197889170446608 ], [ 127.123546091068249, 36.195994021421342 ], [ 127.119490299678219, 36.197491588903574 ], [ 127.114608638998504, 36.19632625075176 ], [ 127.114353283580002, 36.194236614690183 ], [ 127.109117798280124, 36.194676201901146 ], [ 127.109133149377797, 36.196525661763324 ], [ 127.102814184191757, 36.196711507744759 ], [ 127.103218920262876, 36.197845204121883 ], [ 127.099941408042298, 36.198840857146926 ], [ 127.100962509766148, 36.201049279150538 ], [ 127.097458639753015, 36.202275938283904 ], [ 127.09908233988844, 36.205886178610285 ], [ 127.096267006046716, 36.206741135065663 ], [ 127.098242125851911, 36.207865012964923 ], [ 127.097103102241917, 36.208704743401775 ] ] ] ] } },
{ "type": "Feature", "properties": { "emd_cd": "44230108", "emd_nm": "덕지동" }, "geometry": { "type": "MultiPolygon", "coordinates": [ [ [ [ 127.096991474863302, 36.208968089810604 ], [ 127.098039141203927, 36.209957608958113 ], [ 127.095032642559246, 36.21097949223023 ], [ 127.095255804932137, 36.212326802708986 ], [ 127.093463582224487, 36.211506727180286 ], [ 127.092266819640813, 36.214169050324358 ], [ 127.105812288851709, 36.214903007526715 ], [ 127.112112962619264, 36.211394611529684 ], [ 127.096991474863302, 36.208968089810604 ] ] ] ] } },
{ "type": "Feature", "properties": { "emd_cd": "44230109", "emd_nm": "내동" }, "geometry": { "type": "MultiPolygon", "coordinates": [ [ [ [ 127.110037851654027, 36.178940213288662 ], [ 127.100666289349093, 36.171709801200038 ], [ 127.096047838780407, 36.175178881428813 ], [ 127.094493350671414, 36.178519605872431 ], [ 127.096197293744595, 36.178527948786268 ], [ 127.096220658327979, 36.185940027367238 ], [ 127.092167272472068, 36.188842413788649 ], [ 127.090155150028508, 36.19221315087038 ], [ 127.091309520859681, 36.193069014153721 ], [ 127.102654521801355, 36.189002209124368 ], [ 127.109806271183714, 36.190638502192265 ], [ 127.112259320221767, 36.187007572192051 ], [ 127.110265267808472, 36.185246844930461 ], [ 127.110037851654027, 36.178940213288662 ] ] ] ] } },
{ "type": "Feature", "properties": { "emd_cd": "44230110", "emd_nm": "강산동" }, "geometry": { "type": "MultiPolygon", "coordinates": [ [ [ [ 127.07457437471173, 36.190307479042652 ], [ 127.082676094904372, 36.194863780530405 ], [ 127.088644857834566, 36.194788352125585 ], [ 127.092167272472068, 36.188842413788649 ], [ 127.096220658327979, 36.185940027367238 ], [ 127.096197293744595, 36.178527948786268 ], [ 127.086747985464385, 36.181787582068445 ], [ 127.080897284542615, 36.181454809965111 ], [ 127.079340107821182, 36.182606656047142 ], [ 127.078480499909404, 36.188241113713374 ], [ 127.07457437471173, 36.190307479042652 ] ] ] ] } },
{ "type": "Feature", "properties": { "emd_cd": "44230111", "emd_nm": "관촉동" }, "geometry": { "type": "MultiPolygon", "coordinates": [ [ [ [ 127.104946406569951, 36.189357989886311 ], [ 127.102120747309485, 36.195011803334474 ], [ 127.102745766645072, 36.19690605306333 ], [ 127.109133149377797, 36.196525661763324 ], [ 127.109117798280124, 36.194676201901146 ], [ 127.111524807896004, 36.194341083771384 ], [ 127.114353283580002, 36.194236614690183 ], [ 127.114234151687583, 36.196167128207378 ], [ 127.116115731225278, 36.19600137713465 ], [ 127.124547429212129, 36.181910914687826 ], [ 127.12300230343287, 36.180898679610053 ], [ 127.121509201788712, 36.183154437313519 ], [ 127.119425051373696, 36.182037489457301 ], [ 127.116310616935451, 36.184023723725865 ], [ 127.115980515716672, 36.186116092484433 ], [ 127.113086954091798, 36.186173041265214 ], [ 127.109806271183714, 36.190638502192265 ], [ 127.104946406569951, 36.189357989886311 ] ] ] ] } },
{ "type": "Feature", "properties": { "emd_cd": "44230250", "emd_nm": "강경읍" }, "geometry": { "type": "MultiPolygon", "coordinates": [ [ [ [ 127.039772694768018, 36.141566149714826 ], [ 127.039686922368858, 36.138272429915972 ], [ 127.034928878020679, 36.139250184679078 ], [ 127.029784071366421, 36.136619546080219 ], [ 127.023435759737268, 36.136649960422332 ], [ 127.020407438071203, 36.13823620496288 ], [ 127.015928643303695, 36.148500258133296 ], [ 127.011877486890484, 36.145835679273304 ], [ 127.00585574137898, 36.147212200920777 ], [ 127.006381083738916, 36.15094425997151 ], [ 127.000285680046659, 36.151404077396386 ], [ 126.997578965182242, 36.158767497859841 ], [ 127.001045421235389, 36.165100395734683 ], [ 127.010115428282234, 36.165903875995873 ], [ 127.010596110542068, 36.16479400031438 ], [ 127.01238236624873, 36.167501630860031 ], [ 127.019831765640845, 36.166725271739317 ], [ 127.02302874042239, 36.164779619362221 ], [ 127.032120059519315, 36.150155507306415 ], [ 127.039772694768018, 36.141566149714826 ] ] ] ] } },
{ "type": "Feature", "properties": { "emd_cd": "44230253", "emd_nm": "연무읍" }, "geometry": { "type": "MultiPolygon", "coordinates": [ [ [ [ 127.090380189336372, 36.0718006156523 ], [ 127.087825663705644, 36.0755567336371 ], [ 127.082260313147842, 36.077760076223548 ], [ 127.075481308479297, 36.084894552516232 ], [ 127.071710516139831, 36.084630359656288 ], [ 127.07010946167189, 36.087598779139753 ], [ 127.065239333381811, 36.089830406153304 ], [ 127.060896161484919, 36.089040687693874 ], [ 127.063132198244759, 36.091568994935457 ], [ 127.060185108529836, 36.094871187206351 ], [ 127.06104744710052, 36.10547631863701 ], [ 127.057806048469857, 36.107050139937577 ], [ 127.058963668087813, 36.110779972901653 ], [ 127.056965321854292, 36.115086988714154 ], [ 127.058753753979104, 36.116740858613106 ], [ 127.062314450520731, 36.115948021196822 ], [ 127.061059271775392, 36.117191204165159 ], [ 127.06300844248095, 36.125223164641973 ], [ 127.060211621494688, 36.12372922917983 ], [ 127.060766506389271, 36.12604169141116 ], [ 127.056106111805619, 36.126785016258957 ], [ 127.055640126089273, 36.130116741836929 ], [ 127.050706138515679, 36.130905148151385 ], [ 127.050124946787946, 36.134162691950962 ], [ 127.044757097131154, 36.134458437411297 ], [ 127.045806036219304, 36.137738302925442 ], [ 127.044525938269928, 36.137593639567932 ], [ 127.045529102279957, 36.138651174239563 ], [ 127.043235328206435, 36.142782395581193 ], [ 127.045461716629276, 36.143047147896674 ], [ 127.044277744424861, 36.143887329526407 ], [ 127.051036197621258, 36.146438172190841 ], [ 127.055702536718229, 36.145664294770178 ], [ 127.058648954221297, 36.142867168108012 ], [ 127.065347558406913, 36.143838112624486 ], [ 127.068591563855108, 36.137752656371596 ], [ 127.071965898542942, 36.13725101694564 ], [ 127.074774548761312, 36.139634256827307 ], [ 127.078853923706845, 36.137672251782348 ], [ 127.083006603700866, 36.138947488873427 ], [ 127.084679482965385, 36.144366515307155 ], [ 127.087197460627692, 36.145778577609398 ], [ 127.091493477502709, 36.146813019254985 ], [ 127.090308979806622, 36.142771114254757 ], [ 127.097537578191094, 36.140820768557361 ], [ 127.102359478608946, 36.14362588937567 ], [ 127.103361684880511, 36.146050112373629 ], [ 127.106606588148594, 36.144527713756347 ], [ 127.10694383437901, 36.148636353332975 ], [ 127.110533914145236, 36.150825191726895 ], [ 127.120899220803295, 36.150762268285867 ], [ 127.126738322460696, 36.148008999724198 ], [ 127.126364343375769, 36.145405196789312 ], [ 127.133652622192798, 36.136155808867116 ], [ 127.133321233745122, 36.132821817883752 ], [ 127.140440569075821, 36.125891615055842 ], [ 127.144610591253354, 36.125634610265912 ], [ 127.150718824885047, 36.119109933792728 ], [ 127.151737340584404, 36.111096504390709 ], [ 127.148435584776649, 36.105082316619971 ], [ 127.15411578117407, 36.096832843776376 ], [ 127.153487020505324, 36.091560099243296 ], [ 127.151203670147808, 36.090039914864974 ], [ 127.1457840043971, 36.090290341753864 ], [ 127.136616746702444, 36.085990264245318 ], [ 127.133774113253892, 36.081492411432841 ], [ 127.134704739658147, 36.076101844445724 ], [ 127.133939269287552, 36.072991849620649 ], [ 127.133583050350722, 36.073405846769475 ], [ 127.132709637481454, 36.07391585797977 ], [ 127.133704041523686, 36.069366588791958 ], [ 127.131055724280273, 36.065768678469027 ], [ 127.122047587079621, 36.063033195086746 ], [ 127.118110262670683, 36.067112106702034 ], [ 127.112670123088392, 36.069212281329428 ], [ 127.109357508780562, 36.072589832436591 ], [ 127.106259783621582, 36.071935575852265 ], [ 127.102030848000396, 36.075776044535715 ], [ 127.094418154935369, 36.073264615564327 ], [ 127.092677835015152, 36.075913292553281 ], [ 127.090380189336372, 36.0718006156523 ] ] ] ] } },
{ "type": "Feature", "properties": { "emd_cd": "44230310", "emd_nm": "성동면" }, "geometry": { "type": "MultiPolygon", "coordinates": [ [ [ [ 126.983650860267801, 36.203385954841949 ], [ 126.985106696710687, 36.202605140462666 ], [ 126.986599566157977, 36.206225802712638 ], [ 126.984015969175886, 36.207039152987093 ], [ 126.986330169045289, 36.210071298832951 ], [ 126.991094264912022, 36.209875832664828 ], [ 126.990565196257663, 36.212231709336336 ], [ 126.992463124559336, 36.211386185339066 ], [ 126.994594686492874, 36.214613994048364 ], [ 126.997684624119046, 36.215471979288573 ], [ 127.003959645726184, 36.214735971307604 ], [ 127.006131253236106, 36.212541667201151 ], [ 127.005334734024501, 36.210187700507767 ], [ 127.007146630630658, 36.209386501242683 ], [ 127.010292668680421, 36.209843541473006 ], [ 127.010653217312594, 36.212916402154335 ], [ 127.012463954985208, 36.211638534600944 ], [ 127.011463701564253, 36.210975919070599 ], [ 127.016183117091117, 36.211722901698202 ], [ 127.015626604333676, 36.212703235185444 ], [ 127.020601324810755, 36.217576864078609 ], [ 127.025669874435081, 36.219587601985637 ], [ 127.024116351050566, 36.219509475069685 ], [ 127.027331893060847, 36.229158210043728 ], [ 127.032454338080669, 36.235470468075107 ], [ 127.042350777736246, 36.232896710764223 ], [ 127.047271845240203, 36.227372527738616 ], [ 127.065053905056061, 36.217675071847744 ], [ 127.064037106099761, 36.21502947474243 ], [ 127.068868711335469, 36.213430943226058 ], [ 127.071834566286697, 36.215566384132572 ], [ 127.07710637498451, 36.207744154427779 ], [ 127.063895804033862, 36.194810638415014 ], [ 127.059415899200474, 36.187388068921145 ], [ 127.058291808984563, 36.189965937553012 ], [ 127.050824903842127, 36.182468368307937 ], [ 127.017942867529356, 36.171506450244053 ], [ 127.008391183393471, 36.165262620225505 ], [ 127.001045421235389, 36.165100395734683 ], [ 127.002430845148879, 36.165919639847033 ], [ 127.001872759839614, 36.170785449692872 ], [ 126.997047596390942, 36.177224217564479 ], [ 126.989087913469419, 36.182602076906939 ], [ 126.986502174263833, 36.191643622107748 ], [ 126.989253446333208, 36.193291784934907 ], [ 126.984978894427982, 36.194210332387584 ], [ 126.983650860267801, 36.203385954841949 ] ] ] ] } },
{ "type": "Feature", "properties": { "emd_cd": "44230320", "emd_nm": "광석면" }, "geometry": { "type": "MultiPolygon", "coordinates": [ [ [ [ 127.032454338080669, 36.235470468075107 ], [ 127.033616564881385, 36.237997301385121 ], [ 127.039675048541824, 36.241358468858998 ], [ 127.040026996589063, 36.24668623991257 ], [ 127.050867517298755, 36.250293972234402 ], [ 127.055408313069421, 36.254700133546791 ], [ 127.064238884513244, 36.256013941184001 ], [ 127.069107790976759, 36.26376432575028 ], [ 127.068193649447579, 36.265875834412476 ], [ 127.070307669357732, 36.270458036668479 ], [ 127.073586696215671, 36.272001062497068 ], [ 127.074983737291163, 36.270069285107937 ], [ 127.07659992458187, 36.270406036594927 ], [ 127.080145512541549, 36.274629427723049 ], [ 127.083259432670943, 36.271159764408594 ], [ 127.090525104223133, 36.27466388395014 ], [ 127.092783241791153, 36.273030791711747 ], [ 127.091338776698578, 36.270215633906012 ], [ 127.095274606845607, 36.266995781526795 ], [ 127.096793227296331, 36.270286948979873 ], [ 127.101694112027417, 36.269044334406864 ], [ 127.100808679382425, 36.265745341759953 ], [ 127.10438110539279, 36.266257386071928 ], [ 127.112376668905668, 36.258108011766168 ], [ 127.11182613407766, 36.252597987745794 ], [ 127.114154282903613, 36.249541399333779 ], [ 127.11283510095727, 36.248762285630107 ], [ 127.118527197492639, 36.247565659625856 ], [ 127.118256157777608, 36.252153194006944 ], [ 127.125273764353409, 36.252778880480491 ], [ 127.126613602316297, 36.249575544082695 ], [ 127.129732795523992, 36.248542650060422 ], [ 127.130089873367751, 36.243520278967466 ], [ 127.134946100923827, 36.238452793237101 ], [ 127.134269165975169, 36.235938962225546 ], [ 127.12962550655611, 36.233001076923387 ], [ 127.117073670579202, 36.233099654886487 ], [ 127.097998679636859, 36.225589451205835 ], [ 127.090093458920478, 36.215013008133191 ], [ 127.090987692239707, 36.213885533670975 ], [ 127.076961253449781, 36.207843945350731 ], [ 127.071834566286697, 36.215566384132572 ], [ 127.068868711335469, 36.213430943226058 ], [ 127.064037106099761, 36.21502947474243 ], [ 127.065053905056061, 36.217675071847744 ], [ 127.047271845240203, 36.227372527738616 ], [ 127.042350777736246, 36.232896710764223 ], [ 127.032454338080669, 36.235470468075107 ] ] ] ] } },
{ "type": "Feature", "properties": { "emd_cd": "44230330", "emd_nm": "노성면" }, "geometry": { "type": "MultiPolygon", "coordinates": [ [ [ [ 127.06528485394567, 36.286016082325133 ], [ 127.068070536801514, 36.290171219725345 ], [ 127.066645551033488, 36.29444727182949 ], [ 127.068423770780925, 36.297090629681271 ], [ 127.072056574385073, 36.294920069953285 ], [ 127.077888111566693, 36.296335830239357 ], [ 127.08413238597231, 36.312057704477596 ], [ 127.084480846376451, 36.316579492784093 ], [ 127.088749129166857, 36.317607618438494 ], [ 127.10759783400276, 36.339929783532234 ], [ 127.115230666024161, 36.330053403794814 ], [ 127.117206256449862, 36.323053746135422 ], [ 127.12087359527915, 36.318376609977932 ], [ 127.118582523246943, 36.312386178149765 ], [ 127.12023236576303, 36.310522118327704 ], [ 127.118673987036146, 36.303748220345334 ], [ 127.120229010735002, 36.299261398141518 ], [ 127.123703022059374, 36.297751031360164 ], [ 127.127534491204642, 36.289216621914292 ], [ 127.138656751718514, 36.284995736775329 ], [ 127.141549071641819, 36.28056492112254 ], [ 127.138940224306296, 36.278342229689365 ], [ 127.137412354262494, 36.273169172870077 ], [ 127.139621334523397, 36.272987278915451 ], [ 127.141101946602163, 36.269035788474056 ], [ 127.137500493726904, 36.267179349209506 ], [ 127.13931308754168, 36.265756760930998 ], [ 127.142265060511122, 36.266612234659277 ], [ 127.142160273758918, 36.261150841152599 ], [ 127.143769056696826, 36.261041561795167 ], [ 127.143783014099498, 36.259110877313006 ], [ 127.141446150579014, 36.260031070427864 ], [ 127.138960858103459, 36.256526007274509 ], [ 127.135072552076068, 36.255847555608085 ], [ 127.133958174711864, 36.250405958339556 ], [ 127.136715751680384, 36.247014815888228 ], [ 127.136970173072513, 36.243998210021815 ], [ 127.140359436637155, 36.244682111773542 ], [ 127.140337148486097, 36.241767617039713 ], [ 127.137916769006893, 36.241780485998518 ], [ 127.134946100923827, 36.238452793237101 ], [ 127.13315798074531, 36.239752912745985 ], [ 127.130089873367751, 36.243520278967466 ], [ 127.129732795523992, 36.248542650060422 ], [ 127.126613602316297, 36.249575544082695 ], [ 127.125273764353409, 36.252778880480491 ], [ 127.118256157777608, 36.252153194006944 ], [ 127.118527197492639, 36.247565659625856 ], [ 127.11283510095727, 36.248762285630107 ], [ 127.114154282903613, 36.249541399333779 ], [ 127.11182613407766, 36.252597987745794 ], [ 127.112376668905668, 36.258108011766168 ], [ 127.10438110539279, 36.266257386071928 ], [ 127.100808679382425, 36.265745341759953 ], [ 127.101770650405456, 36.268935695305622 ], [ 127.099691011662031, 36.270272555728944 ], [ 127.096793227296331, 36.270286948979873 ], [ 127.094849763611634, 36.267190436844963 ], [ 127.091338776698578, 36.270215633906012 ], [ 127.092783241791153, 36.273030791711747 ], [ 127.090525104223133, 36.27466388395014 ], [ 127.083259432670943, 36.271159764408594 ], [ 127.080145512541549, 36.274629427723049 ], [ 127.07659992458187, 36.270406036594927 ], [ 127.074983737291163, 36.270069285107937 ], [ 127.073586696215671, 36.272001062497068 ], [ 127.070307669357732, 36.270458036668479 ], [ 127.06586554796796, 36.277209789743182 ], [ 127.066852955446322, 36.283620833699345 ], [ 127.06528485394567, 36.286016082325133 ] ] ] ] } },
{ "type": "Feature", "properties": { "emd_cd": "44230340", "emd_nm": "상월면" }, "geometry": { "type": "MultiPolygon", "coordinates": [ [ [ [ 127.118581343408394, 36.31228968998964 ], [ 127.121242024363823, 36.318879937292849 ], [ 127.129780110313234, 36.32115018606347 ], [ 127.130602010818762, 36.318169491256555 ], [ 127.13772046875691, 36.31168905144964 ], [ 127.141751000164476, 36.305012359203815 ], [ 127.147801736130816, 36.30903192307057 ], [ 127.147472668793711, 36.311457075665516 ], [ 127.151686103198571, 36.312109491893857 ], [ 127.154548993981834, 36.315862786247294 ], [ 127.158704483389826, 36.316325663827143 ], [ 127.158568606858964, 36.322845974911971 ], [ 127.165043501738268, 36.322464194201309 ], [ 127.170781708822176, 36.326658836285389 ], [ 127.177508112565889, 36.327621552986173 ], [ 127.179299911161365, 36.330600073797584 ], [ 127.183959659506286, 36.331737138934393 ], [ 127.185390213374532, 36.329939785523827 ], [ 127.194331878645514, 36.335167652358663 ], [ 127.197681586883192, 36.333228809884318 ], [ 127.198397095851405, 36.327558902807134 ], [ 127.20258479305474, 36.323436482167843 ], [ 127.202102500660217, 36.317777105350757 ], [ 127.205623910326906, 36.301628107850604 ], [ 127.201473376691581, 36.294216069676892 ], [ 127.202928430106127, 36.289327284423102 ], [ 127.201955522170721, 36.285618516982176 ], [ 127.196919480406663, 36.276465241624635 ], [ 127.194619051594699, 36.27686028189575 ], [ 127.192040544175327, 36.27421135825022 ], [ 127.182281853499006, 36.271228662699578 ], [ 127.166749229992007, 36.274202020094343 ], [ 127.164468000514773, 36.273172032040193 ], [ 127.162345426723078, 36.271731900792325 ], [ 127.165178613845114, 36.266061012734703 ], [ 127.162625654051155, 36.264346691986802 ], [ 127.166741057480579, 36.260853204745594 ], [ 127.167623776294363, 36.257379256821622 ], [ 127.166789981059267, 36.254286138695271 ], [ 127.161184944224956, 36.251145036974208 ], [ 127.161172401167718, 36.246516880911983 ], [ 127.149367868957938, 36.240113285385235 ], [ 127.146752030664658, 36.241385221919828 ], [ 127.144805235255404, 36.240000944382679 ], [ 127.1425530209264, 36.240703891207922 ], [ 127.142302202226944, 36.236938931001347 ], [ 127.137113509282713, 36.236971853048303 ], [ 127.135336864275189, 36.234443146746962 ], [ 127.133392952159426, 36.234308054219269 ], [ 127.136248256671578, 36.240407557104859 ], [ 127.140337148486097, 36.241767617039713 ], [ 127.140359436637155, 36.244682111773542 ], [ 127.136970173072513, 36.243998210021815 ], [ 127.136715751680384, 36.247014815888228 ], [ 127.134054641352463, 36.249795205779201 ], [ 127.134701321314381, 36.255366861282667 ], [ 127.139169586395894, 36.256663739085958 ], [ 127.141446150579014, 36.260031070427864 ], [ 127.143783014099498, 36.259110877313006 ], [ 127.143769056696826, 36.261041561795167 ], [ 127.142160273758918, 36.261150841152599 ], [ 127.142265060511122, 36.266612234659277 ], [ 127.13931308754168, 36.265756760930998 ], [ 127.137500493726904, 36.267179349209506 ], [ 127.141101946602163, 36.269035788474056 ], [ 127.139621334523397, 36.272987278915451 ], [ 127.137412354262494, 36.273169172870077 ], [ 127.138940224306296, 36.278342229689365 ], [ 127.141578282826487, 36.280424455349632 ], [ 127.138656751718514, 36.284995736775329 ], [ 127.127534491204642, 36.289216621914292 ], [ 127.123703022059374, 36.297751031360164 ], [ 127.120229010735002, 36.299261398141518 ], [ 127.118673987036146, 36.303748220345334 ], [ 127.12023236576303, 36.310522118327704 ], [ 127.118581343408394, 36.31228968998964 ] ] ] ] } },
{ "type": "Feature", "properties": { "emd_cd": "44230350", "emd_nm": "부적면" }, "geometry": { "type": "MultiPolygon", "coordinates": [ [ [ [ 127.090093247629426, 36.215013017301622 ], [ 127.09533972299792, 36.223286043619204 ], [ 127.100905453428553, 36.226906760226278 ], [ 127.118334659606063, 36.23255949026948 ], [ 127.139388075574587, 36.234125039485704 ], [ 127.150421315684184, 36.226392132449298 ], [ 127.165652920966863, 36.223389023026286 ], [ 127.175061371576689, 36.20749222298948 ], [ 127.181377760332182, 36.201904109094265 ], [ 127.180948258425218, 36.198504541310939 ], [ 127.183467037782648, 36.191464860854346 ], [ 127.181763955101189, 36.185656190271352 ], [ 127.183107616088165, 36.183734111150379 ], [ 127.189366369534383, 36.182482573632498 ], [ 127.176577462829641, 36.176256758879227 ], [ 127.169132332320828, 36.178072509655465 ], [ 127.163210281461886, 36.177329992696741 ], [ 127.161987857227217, 36.181357926496332 ], [ 127.158319197457175, 36.182442470431489 ], [ 127.141985281482135, 36.176633723346718 ], [ 127.127931824100031, 36.188069822437818 ], [ 127.128032966750979, 36.194404434806501 ], [ 127.11346009809958, 36.211258936365397 ], [ 127.105812288851709, 36.214903007526715 ], [ 127.090987480941536, 36.213885533829021 ], [ 127.090093247629426, 36.215013017301622 ] ] ] ] } },
{ "type": "Feature", "properties": { "emd_cd": "44230360", "emd_nm": "연산면" }, "geometry": { "type": "MultiPolygon", "coordinates": [ [ [ [ 127.239048716786215, 36.235873414741633 ], [ 127.24006783641083, 36.234452968420058 ], [ 127.23814179497667, 36.223953155259615 ], [ 127.235151937578578, 36.216145118801059 ], [ 127.236625604552287, 36.215840242686092 ], [ 127.238707555626945, 36.20586740280536 ], [ 127.242250591217783, 36.201705830804784 ], [ 127.240763387600722, 36.196419617683077 ], [ 127.241898693764853, 36.192538632064227 ], [ 127.23989466853223, 36.188427668950126 ], [ 127.241809314641742, 36.183163985379608 ], [ 127.237639164957457, 36.179144452061415 ], [ 127.226469304394783, 36.179220342147673 ], [ 127.225219452471691, 36.185343224599983 ], [ 127.218532205862346, 36.193980315383087 ], [ 127.219855341223806, 36.195249613945592 ], [ 127.215382708361119, 36.19763558566197 ], [ 127.214726875732595, 36.200997872956364 ], [ 127.211294250171392, 36.202457675365864 ], [ 127.210865678669137, 36.205914977019624 ], [ 127.204031410269224, 36.20179157712581 ], [ 127.203232195237064, 36.197342011195502 ], [ 127.194302583085431, 36.193614357050308 ], [ 127.187659949324257, 36.183402407279736 ], [ 127.183107616088165, 36.183734111150379 ], [ 127.181732271812322, 36.185850292986558 ], [ 127.183467037782648, 36.191464860854346 ], [ 127.180986350547258, 36.198484702933762 ], [ 127.18188589636145, 36.200759141016036 ], [ 127.177868342135824, 36.20624967886851 ], [ 127.175087303669841, 36.207492284508781 ], [ 127.165652920966863, 36.223389023026286 ], [ 127.150421315684184, 36.226392132449298 ], [ 127.139388075574587, 36.234125039485704 ], [ 127.131192305327232, 36.233019341031124 ], [ 127.133106364590134, 36.235367666215652 ], [ 127.135336864275189, 36.234443146746962 ], [ 127.137113509282713, 36.236971853048303 ], [ 127.142302202226944, 36.236938931001347 ], [ 127.1425530209264, 36.240703891207922 ], [ 127.144805235255404, 36.240000944382679 ], [ 127.146752030664658, 36.241385221919828 ], [ 127.149364019973689, 36.240136991449781 ], [ 127.161172401167718, 36.246516880911983 ], [ 127.161184944224956, 36.251145036974208 ], [ 127.166752986741884, 36.254223638351519 ], [ 127.167672547861372, 36.257437712190445 ], [ 127.166741057480579, 36.260853204745594 ], [ 127.162625654051155, 36.264346691986802 ], [ 127.165178613845114, 36.266061012734703 ], [ 127.162345426723078, 36.271731900792325 ], [ 127.166753895691457, 36.274208457119634 ], [ 127.182281853499006, 36.271228662699578 ], [ 127.192040544175327, 36.27421135825022 ], [ 127.194619051594699, 36.27686028189575 ], [ 127.196919480406663, 36.276465241624635 ], [ 127.199718859998043, 36.270322188231312 ], [ 127.197705443956821, 36.267186066972812 ], [ 127.198861755172842, 36.263928324220082 ], [ 127.196346110108266, 36.260502867069917 ], [ 127.200322068420775, 36.257545577029475 ], [ 127.201634234881595, 36.251106287619088 ], [ 127.209439462636155, 36.252935082871076 ], [ 127.208503307153777, 36.254455072291748 ], [ 127.211574703549061, 36.257906634990668 ], [ 127.221253031817781, 36.262202692283743 ], [ 127.227713318861618, 36.257407296177192 ], [ 127.227712447028239, 36.254484352577855 ], [ 127.230190830566443, 36.255870639840232 ], [ 127.23149934607676, 36.254566303497192 ], [ 127.237266587215686, 36.254789500916097 ], [ 127.23855147947647, 36.247566072091146 ], [ 127.237572301008953, 36.24488269329202 ], [ 127.24020199960097, 36.243051108688391 ], [ 127.239048716786215, 36.235873414741633 ] ] ] ] } },
{ "type": "Feature", "properties": { "emd_cd": "44230380", "emd_nm": "벌곡면" }, "geometry": { "type": "MultiPolygon", "coordinates": [ [ [ [ 127.240185543175372, 36.189479299523796 ], [ 127.241898693764853, 36.192538632064227 ], [ 127.240763387600722, 36.196419617683077 ], [ 127.242250591217783, 36.201705830804784 ], [ 127.238707555626945, 36.20586740280536 ], [ 127.236625604552287, 36.215840242686092 ], [ 127.235151937578578, 36.216145118801059 ], [ 127.23814179497667, 36.223953155259615 ], [ 127.24006783641083, 36.234452968420058 ], [ 127.239048716786215, 36.235873414741633 ], [ 127.241026560765036, 36.236095291437735 ], [ 127.246338500287081, 36.231760495142133 ], [ 127.251080471536838, 36.233990902154723 ], [ 127.257865888273201, 36.234269540922618 ], [ 127.263847726871674, 36.237756521884172 ], [ 127.266505159779896, 36.242512598649476 ], [ 127.272725031290278, 36.242629214188824 ], [ 127.274570415942406, 36.245578622584304 ], [ 127.281341728188025, 36.245585909820164 ], [ 127.28027328498564, 36.244335312374432 ], [ 127.282421038889609, 36.241926992222616 ], [ 127.283285976526273, 36.236868202274465 ], [ 127.28176935614573, 36.235885152398509 ], [ 127.287305123386972, 36.234689588868626 ], [ 127.29250042987772, 36.229517695429521 ], [ 127.291613969849408, 36.226617341533611 ], [ 127.293581027648827, 36.223121300634475 ], [ 127.298248898252879, 36.221311183860273 ], [ 127.302551810689707, 36.221876647861052 ], [ 127.303481238691617, 36.229755507209653 ], [ 127.306404727220439, 36.22609854675914 ], [ 127.314416642123561, 36.22245265621175 ], [ 127.318130909915908, 36.215936354635666 ], [ 127.321523192037318, 36.213558298380818 ], [ 127.320750937431328, 36.20886889345369 ], [ 127.323160538063078, 36.203479143044333 ], [ 127.328135034380622, 36.204199439390692 ], [ 127.333575968558492, 36.199883886034243 ], [ 127.329855546140095, 36.194208557481865 ], [ 127.331652930953453, 36.193026005411646 ], [ 127.331913696670355, 36.184711549982758 ], [ 127.326511691631879, 36.177044346143155 ], [ 127.326998760694764, 36.175260158617704 ], [ 127.32035341938851, 36.171084716604597 ], [ 127.321756221207366, 36.168944340999751 ], [ 127.321178222284303, 36.164661778806668 ], [ 127.319056411686873, 36.164256802800828 ], [ 127.318034076281563, 36.161953936830315 ], [ 127.319891825025522, 36.158700503813009 ], [ 127.318399200120012, 36.154077694440872 ], [ 127.323137484362448, 36.145849752443169 ], [ 127.321850858039795, 36.138768204351294 ], [ 127.323086083266872, 36.135978366771091 ], [ 127.322784214022178, 36.126964537763065 ], [ 127.319385643595552, 36.124228067685692 ], [ 127.318547382653094, 36.119733735851781 ], [ 127.310916086137979, 36.120438506670233 ], [ 127.305404221072735, 36.12579937669301 ], [ 127.301690396386974, 36.125203627214226 ], [ 127.298430584090639, 36.134450475384256 ], [ 127.291938781673934, 36.137257105162711 ], [ 127.289279533261691, 36.144655532671557 ], [ 127.280875924875119, 36.141693982159659 ], [ 127.276599586969724, 36.145619246788499 ], [ 127.275320894580688, 36.145003907229167 ], [ 127.272097220076418, 36.148917000493576 ], [ 127.274523988103752, 36.150810018376504 ], [ 127.272690399959913, 36.154946076289086 ], [ 127.276009386335076, 36.158359273886411 ], [ 127.272695481256207, 36.159958273123486 ], [ 127.269014914383661, 36.165573053198656 ], [ 127.256412377767205, 36.171587683809967 ], [ 127.256307071086013, 36.173701417502187 ], [ 127.254013448404478, 36.174324814799725 ], [ 127.251692678494948, 36.187739120861892 ], [ 127.240185543175372, 36.189479299523796 ] ] ] ] } },
{ "type": "Feature", "properties": { "emd_cd": "44230390", "emd_nm": "양촌면" }, "geometry": { "type": "MultiPolygon", "coordinates": [ [ [ [ 127.178675940375697, 36.094231246705689 ], [ 127.174703385874409, 36.096778797198716 ], [ 127.174208073870574, 36.101624830286845 ], [ 127.178015175470179, 36.108336706470602 ], [ 127.180827759214623, 36.110680279951723 ], [ 127.183167831197494, 36.109798065844927 ], [ 127.188136159234119, 36.113049697435898 ], [ 127.191547929476997, 36.112629038341325 ], [ 127.19413754842185, 36.115439855075856 ], [ 127.200088897712106, 36.117667621186285 ], [ 127.201140988798073, 36.116781832175185 ], [ 127.202509851898768, 36.120139697311302 ], [ 127.199497758320334, 36.119315593564771 ], [ 127.197480909425195, 36.120518787438336 ], [ 127.196393796158418, 36.123702121340337 ], [ 127.198432696751127, 36.124848790118968 ], [ 127.190797447272345, 36.132336420275969 ], [ 127.192136912247463, 36.13415536271534 ], [ 127.190051887985192, 36.137047559160671 ], [ 127.19220909808989, 36.140635500089068 ], [ 127.197498713458018, 36.143052155671548 ], [ 127.20077283519997, 36.148777354999467 ], [ 127.20332203599888, 36.147904974526888 ], [ 127.208460209783354, 36.149288509977367 ], [ 127.205832964885644, 36.150556842087141 ], [ 127.20227675980486, 36.157200710899481 ], [ 127.199171045375039, 36.158686868715108 ], [ 127.197458862972681, 36.164316912133849 ], [ 127.201383544135481, 36.168016621938051 ], [ 127.202197846327365, 36.172877090503498 ], [ 127.196374503759316, 36.181148212250889 ], [ 127.187659949324257, 36.183402407279736 ], [ 127.194302583085431, 36.193614357050308 ], [ 127.203232195237064, 36.197342011195502 ], [ 127.204031410269224, 36.20179157712581 ], [ 127.210478074834185, 36.205847956725975 ], [ 127.211294250171392, 36.202457675365864 ], [ 127.214726875732595, 36.200997872956364 ], [ 127.215382708361119, 36.19763558566197 ], [ 127.219855341223806, 36.195249613945592 ], [ 127.218532205862346, 36.193980315383087 ], [ 127.225219452471691, 36.185343224599983 ], [ 127.226899724986126, 36.178904725873139 ], [ 127.239117994171039, 36.179982722267404 ], [ 127.241809314641742, 36.183163985379608 ], [ 127.240185543175372, 36.189479299523796 ], [ 127.251692678494948, 36.187739120861892 ], [ 127.254013448404478, 36.174324814799725 ], [ 127.256307071086013, 36.173701417502187 ], [ 127.256412377767205, 36.171587683809967 ], [ 127.269014914383661, 36.165573053198656 ], [ 127.272695481256207, 36.159958273123486 ], [ 127.276009386335076, 36.158359273886411 ], [ 127.272690399959913, 36.154946076289086 ], [ 127.274523988103752, 36.150810018376504 ], [ 127.272097220076418, 36.148917000493576 ], [ 127.274262734922246, 36.146045020948492 ], [ 127.280875924875119, 36.141693982159659 ], [ 127.289279533261691, 36.144655532671557 ], [ 127.291938781673934, 36.137257105162711 ], [ 127.298430584090639, 36.134450475384256 ], [ 127.301690396386974, 36.125203627214226 ], [ 127.297067739517942, 36.122730769970929 ], [ 127.297021271801398, 36.118874012422005 ], [ 127.294848532632969, 36.117799437251129 ], [ 127.293935117369912, 36.113072083995206 ], [ 127.285280543757338, 36.112164103703101 ], [ 127.274521686686526, 36.107425139818552 ], [ 127.26431334982901, 36.108929698481809 ], [ 127.25809880608368, 36.115259015361033 ], [ 127.256452574857519, 36.112869427178303 ], [ 127.251511986890108, 36.112885751407084 ], [ 127.250345629255662, 36.107365178055801 ], [ 127.246192245502741, 36.104791552344878 ], [ 127.246052348284849, 36.096410008667235 ], [ 127.254717356552547, 36.087443588303763 ], [ 127.248702391534451, 36.083066414674235 ], [ 127.242693120359803, 36.084987526988002 ], [ 127.235185099826154, 36.094000615737301 ], [ 127.225918550165346, 36.099142353374681 ], [ 127.219532892337085, 36.096714034026753 ], [ 127.213874800833793, 36.097938253730817 ], [ 127.212015668735816, 36.100647410965408 ], [ 127.20499278406848, 36.100289291021305 ], [ 127.203808938779048, 36.093650954750338 ], [ 127.200796957774642, 36.091622678797229 ], [ 127.202229880990529, 36.088461916132864 ], [ 127.198042201657472, 36.085791651800136 ], [ 127.19064662321729, 36.08777366816107 ], [ 127.183597491487632, 36.094314827553738 ], [ 127.178675940375697, 36.094231246705689 ] ] ] ] } },
{ "type": "Feature", "properties": { "emd_cd": "44230400", "emd_nm": "가야곡면" }, "geometry": { "type": "MultiPolygon", "coordinates": [ [ [ [ 127.131125628934058, 36.169212925462858 ], [ 127.134189682527264, 36.170604555922431 ], [ 127.138308011152432, 36.165528156964662 ], [ 127.142323042742689, 36.17266465623878 ], [ 127.141524999984, 36.176044967858111 ], [ 127.157210977613474, 36.182418160880466 ], [ 127.161987857227217, 36.181357926496332 ], [ 127.163210281461886, 36.177329992696741 ], [ 127.169132332320828, 36.178072509655465 ], [ 127.175160862211257, 36.176175335099664 ], [ 127.189366369534383, 36.182482573632498 ], [ 127.195739709029709, 36.18138800752488 ], [ 127.202894214364164, 36.171618891419037 ], [ 127.20085894431611, 36.167087457543111 ], [ 127.199094934272622, 36.166375297005942 ], [ 127.19745653545948, 36.164453438910471 ], [ 127.197458862972681, 36.164316912133849 ], [ 127.199171045375039, 36.158686868715108 ], [ 127.20227675980486, 36.157200710899481 ], [ 127.205832964885644, 36.150556842087141 ], [ 127.208460209783354, 36.149288509977367 ], [ 127.203362379454944, 36.147860495215468 ], [ 127.20077283519997, 36.148777354999467 ], [ 127.197498713458018, 36.143052155671548 ], [ 127.19220909808989, 36.140635500089068 ], [ 127.189994755776823, 36.136562800544375 ], [ 127.192136912247463, 36.13415536271534 ], [ 127.190797447272345, 36.132336420275969 ], [ 127.198432696751127, 36.124848790118968 ], [ 127.196393796158418, 36.123702121340337 ], [ 127.197480909425195, 36.120518787438336 ], [ 127.199497758320334, 36.119315593564771 ], [ 127.202509851898768, 36.120139697311302 ], [ 127.201140988798073, 36.116781832175185 ], [ 127.200088897712106, 36.117667621186285 ], [ 127.19413754842185, 36.115439855075856 ], [ 127.191547929476997, 36.112629038341325 ], [ 127.188136159234119, 36.113049697435898 ], [ 127.183167831197494, 36.109798065844927 ], [ 127.180827759214623, 36.110680279951723 ], [ 127.178015175470179, 36.108336706470602 ], [ 127.174208073870574, 36.101624830286845 ], [ 127.174703385874409, 36.096778797198716 ], [ 127.178675940375697, 36.094231246705689 ], [ 127.177029659917395, 36.090945064669086 ], [ 127.170993087568419, 36.087079756319532 ], [ 127.170749948149265, 36.084617615249009 ], [ 127.164466799528228, 36.085372809193537 ], [ 127.158314667634187, 36.083445210726019 ], [ 127.152769205445011, 36.085583557120373 ], [ 127.151203670147808, 36.090039914864974 ], [ 127.153487020505324, 36.091560099243296 ], [ 127.15411578117407, 36.096832843776376 ], [ 127.148435584776649, 36.105082316619971 ], [ 127.151737340584404, 36.111096504390709 ], [ 127.150718824885047, 36.119109933792728 ], [ 127.144610591253354, 36.125634610265912 ], [ 127.140440569075821, 36.125891615055842 ], [ 127.136491437080579, 36.130287895560244 ], [ 127.13978789370961, 36.130207550112537 ], [ 127.141192330784463, 36.131691271666703 ], [ 127.14042764697038, 36.135854194620997 ], [ 127.144398093220261, 36.138395673342224 ], [ 127.142997208438743, 36.141582702132013 ], [ 127.146476650250392, 36.146093000734147 ], [ 127.143374837129684, 36.147306195560567 ], [ 127.141027221688091, 36.151120236962043 ], [ 127.133206768786138, 36.151887340406084 ], [ 127.13451656564493, 36.154269900878553 ], [ 127.133653247610681, 36.163184222200137 ], [ 127.131125628934058, 36.169212925462858 ] ] ] ] } },
{ "type": "Feature", "properties": { "emd_cd": "44230410", "emd_nm": "은진면" }, "geometry": { "type": "MultiPolygon", "coordinates": [ [ [ [ 127.078017039181162, 36.156179434175328 ], [ 127.077729786521516, 36.156147534580548 ], [ 127.077697234027283, 36.156592155156893 ], [ 127.078017039181162, 36.156179434175328 ] ] ], [ [ [ 127.11492274726362, 36.151561571114065 ], [ 127.106725878088923, 36.148046310042552 ], [ 127.106606588148594, 36.144527713756347 ], [ 127.103361684880511, 36.146050112373629 ], [ 127.102359478608946, 36.14362588937567 ], [ 127.097537578191094, 36.140820768557361 ], [ 127.09037467420994, 36.142708062219 ], [ 127.091445406582636, 36.146820463282587 ], [ 127.087387239742071, 36.146428264668806 ], [ 127.087960313305913, 36.153200405264975 ], [ 127.08329810149165, 36.152904283395451 ], [ 127.082973853266367, 36.156006998382352 ], [ 127.078072879862987, 36.156212472648576 ], [ 127.076157872383021, 36.168384156357142 ], [ 127.075050547331685, 36.168353894632645 ], [ 127.076599181186126, 36.17212898591368 ], [ 127.074046122884752, 36.176052596661265 ], [ 127.074334531206489, 36.178264382335648 ], [ 127.081710217732478, 36.179277743560597 ], [ 127.081709589580456, 36.181572460693701 ], [ 127.087581280525384, 36.181601536736814 ], [ 127.094493350671414, 36.178519605872431 ], [ 127.096658210177623, 36.17435874659261 ], [ 127.100666289349093, 36.171709801200038 ], [ 127.110037851654027, 36.178940213288662 ], [ 127.109249679131466, 36.181154470630759 ], [ 127.111833225408915, 36.186875570620501 ], [ 127.115981104296154, 36.186108026191043 ], [ 127.116309979576585, 36.184005952688103 ], [ 127.119425051373696, 36.182037489457301 ], [ 127.121509201788712, 36.183154437313519 ], [ 127.12300230343287, 36.180898679610053 ], [ 127.124547429212129, 36.181910914687826 ], [ 127.12132788250274, 36.189461731218387 ], [ 127.116115731225278, 36.19600137713465 ], [ 127.119490299678219, 36.197491588903574 ], [ 127.122669118835375, 36.195954115319722 ], [ 127.124032657172791, 36.196808170548273 ], [ 127.128032966750979, 36.194404434806501 ], [ 127.127931824100031, 36.188069822437818 ], [ 127.142169524403826, 36.17658414825388 ], [ 127.142323042742689, 36.17266465623878 ], [ 127.138308011152432, 36.165528156964662 ], [ 127.134189682527264, 36.170604555922431 ], [ 127.131125628934058, 36.169212925462858 ], [ 127.133653247610681, 36.163184222200137 ], [ 127.13451656564493, 36.154269900878553 ], [ 127.133206768786138, 36.151887340406084 ], [ 127.141027221688091, 36.151120236962043 ], [ 127.143374837129684, 36.147306195560567 ], [ 127.146476650250392, 36.146093000734147 ], [ 127.142997208438743, 36.141582702132013 ], [ 127.144398093220261, 36.138395673342224 ], [ 127.14042764697038, 36.135854194620997 ], [ 127.140396087373645, 36.130706322343855 ], [ 127.136491437080579, 36.130287895560244 ], [ 127.133315359884804, 36.132797086221224 ], [ 127.133657162948325, 36.136153884286863 ], [ 127.131662321630373, 36.140055146044574 ], [ 127.126364343375769, 36.145405196789312 ], [ 127.126738322460696, 36.148008999724198 ], [ 127.11492274726362, 36.151561571114065 ] ] ] ] } },
{ "type": "Feature", "properties": { "emd_cd": "44230420", "emd_nm": "채운면" }, "geometry": { "type": "MultiPolygon", "coordinates": [ [ [ [ 127.012601720604138, 36.167739428932336 ], [ 127.018592928617252, 36.171768915136191 ], [ 127.052267102059844, 36.183408680820889 ], [ 127.061872266356175, 36.181936679410711 ], [ 127.065998609589656, 36.179028994213162 ], [ 127.068606521403836, 36.180553382409258 ], [ 127.069813028395515, 36.178356727044068 ], [ 127.074391200241152, 36.178204418006089 ], [ 127.074046122884752, 36.176052596661265 ], [ 127.076599181186126, 36.17212898591368 ], [ 127.075050547331685, 36.168353894632645 ], [ 127.076157872383021, 36.168384156357142 ], [ 127.078072879862987, 36.156212472648576 ], [ 127.082973853266367, 36.156006998382352 ], [ 127.08329810149165, 36.152904283395451 ], [ 127.087960313305913, 36.153200405264975 ], [ 127.087387239742071, 36.146428264668806 ], [ 127.088480067543131, 36.146032017898939 ], [ 127.084679482965385, 36.144366515307155 ], [ 127.083006603700866, 36.138947488873427 ], [ 127.078853923706845, 36.137672251782348 ], [ 127.074774548761312, 36.139634256827307 ], [ 127.071965898542942, 36.13725101694564 ], [ 127.068591563855108, 36.137752656371596 ], [ 127.065347558406913, 36.143838112624486 ], [ 127.058648954221297, 36.142867168108012 ], [ 127.055702536718229, 36.145664294770178 ], [ 127.051036197621258, 36.146438172190841 ], [ 127.045470762777398, 36.143687135918576 ], [ 127.044277744424861, 36.143887329526407 ], [ 127.044838597544882, 36.146085988369926 ], [ 127.042515001448535, 36.146483319556758 ], [ 127.040885685168092, 36.141529560140519 ], [ 127.039763122445066, 36.141576741947851 ], [ 127.03213731666024, 36.150156169780388 ], [ 127.02302874042239, 36.164779619362221 ], [ 127.017472269918599, 36.167512486092342 ], [ 127.012601720604138, 36.167739428932336 ] ], [ [ 127.077860668646352, 36.15639492171713 ], [ 127.077729786521516, 36.156147534580548 ], [ 127.078017039181162, 36.156179434175328 ], [ 127.077860668646352, 36.15639492171713 ] ] ] ] } }
]
}
