{
"type": "FeatureCollection",
"name": "44250",
"crs": { "type": "name", "properties": { "name": "urn:ogc:def:crs:OGC:1.3:CRS84" } },
"features": [
{ "type": "Feature", "properties": { "emd_cd": "44250101", "emd_nm": "금암동" }, "geometry": { "type": "MultiPolygon", "coordinates": [ [ [ [ 127.243191433172512, 36.265807163331083 ], [ 127.2415707394224, 36.275792890556573 ], [ 127.243826725402585, 36.279712028910879 ], [ 127.25033549066336, 36.28319595335838 ], [ 127.26000063219854, 36.275864516948481 ], [ 127.259164733860246, 36.274086213548621 ], [ 127.263275003721887, 36.270032775165546 ], [ 127.26269469920517, 36.267212616561395 ], [ 127.264995959735074, 36.265075970074292 ], [ 127.262447316341692, 36.264052675074055 ], [ 127.258373856826339, 36.268712894065416 ], [ 127.257358947574275, 36.268244110651267 ], [ 127.258469323610797, 36.266968509728031 ], [ 127.254170241609259, 36.264428577947136 ], [ 127.250818375233138, 36.264507508477557 ], [ 127.248928106937868, 36.266231660711902 ], [ 127.246837552832886, 36.264476574834156 ], [ 127.243191433172512, 36.265807163331083 ] ] ] ] } },
{ "type": "Feature", "properties": { "emd_cd": "44250310", "emd_nm": "두마면" }, "geometry": { "type": "MultiPolygon", "coordinates": [ [ [ [ 127.26000063219854, 36.275864516948481 ], [ 127.266969976379215, 36.273528234106699 ], [ 127.281186521649389, 36.264959973449194 ], [ 127.290136254387562, 36.265899057225532 ], [ 127.291928661095611, 36.26424146010055 ], [ 127.282966812021513, 36.258796136453626 ], [ 127.282387217195932, 36.255769795218107 ], [ 127.279125826802257, 36.253110511635505 ], [ 127.281337288149828, 36.245532578933783 ], [ 127.274629231293204, 36.245615626248572 ], [ 127.272741090651323, 36.242640604841384 ], [ 127.266909540623985, 36.242676727754983 ], [ 127.260108538209607, 36.23527222615138 ], [ 127.249532246537569, 36.23356655231639 ], [ 127.246425031979285, 36.231661340329445 ], [ 127.241062195097896, 36.236125734368322 ], [ 127.239048694920456, 36.235869864098021 ], [ 127.240229529381963, 36.242998325215837 ], [ 127.237618542365894, 36.244898976622828 ], [ 127.238591055960072, 36.247581575197358 ], [ 127.237271243895009, 36.254735853100613 ], [ 127.239421165659778, 36.258458092284279 ], [ 127.243714694055555, 36.261362765539999 ], [ 127.243191433172512, 36.265807163331083 ], [ 127.246837552832886, 36.264476574834156 ], [ 127.248928106937868, 36.266231660711902 ], [ 127.250818375233138, 36.264507508477557 ], [ 127.254170241609259, 36.264428577947136 ], [ 127.258469323610797, 36.266968509728031 ], [ 127.257358947574275, 36.268244110651267 ], [ 127.258373856826339, 36.268712894065416 ], [ 127.262447316341692, 36.264052675074055 ], [ 127.264232973416199, 36.264137766939584 ], [ 127.26432023736902, 36.266714305329849 ], [ 127.262550393669727, 36.267656584669808 ], [ 127.263275003721887, 36.270032775165546 ], [ 127.259164733860246, 36.274086213548621 ], [ 127.26000063219854, 36.275864516948481 ] ] ] ] } },
{ "type": "Feature", "properties": { "emd_cd": "44250315", "emd_nm": "엄사면" }, "geometry": { "type": "MultiPolygon", "coordinates": [ [ [ [ 127.196366665224872, 36.261184788501971 ], [ 127.198661708768753, 36.2633404499799 ], [ 127.197786481790544, 36.267248350113512 ], [ 127.199739688511812, 36.270117746902969 ], [ 127.197210685839323, 36.274781767632206 ], [ 127.197500373069516, 36.279182973792039 ], [ 127.201933768811017, 36.285660809905615 ], [ 127.202972911154077, 36.289326894068168 ], [ 127.201412244248345, 36.294262195242375 ], [ 127.205479940911232, 36.301592549681494 ], [ 127.212109517043814, 36.301000820882628 ], [ 127.214191702674682, 36.297930399777059 ], [ 127.223446843139939, 36.294924640049935 ], [ 127.227159862802537, 36.296921699597817 ], [ 127.229313334493526, 36.295395197224963 ], [ 127.235361484649644, 36.295427579053758 ], [ 127.237545935781483, 36.29244844344354 ], [ 127.239801839789564, 36.29288375399922 ], [ 127.240151470210975, 36.296309480796317 ], [ 127.247143039832451, 36.29049338437396 ], [ 127.253802524514199, 36.282110604264929 ], [ 127.254230431921371, 36.280478326192643 ], [ 127.248673096256269, 36.283046497487469 ], [ 127.243826725402585, 36.279712028910879 ], [ 127.241371462701395, 36.27459988903518 ], [ 127.243932064080369, 36.261961199033479 ], [ 127.237271243895009, 36.254735853100613 ], [ 127.231534996593538, 36.254577878277829 ], [ 127.230216953406654, 36.255919199906032 ], [ 127.228229380835515, 36.254811216668891 ], [ 127.227752011843364, 36.257478146375796 ], [ 127.220264490044215, 36.262197096703758 ], [ 127.211549218818845, 36.257822211510472 ], [ 127.208488261821003, 36.254433208487185 ], [ 127.209422239903091, 36.252927083228201 ], [ 127.201630525355583, 36.251113250996561 ], [ 127.200359000934924, 36.25755058030397 ], [ 127.196366665224872, 36.261184788501971 ] ] ] ] } },
{ "type": "Feature", "properties": { "emd_cd": "44250330", "emd_nm": "신도안면" }, "geometry": { "type": "MultiPolygon", "coordinates": [ [ [ [ 127.196479305579729, 36.334734154356035 ], [ 127.205927374810486, 36.34316358911461 ], [ 127.203757299204753, 36.346038547405996 ], [ 127.207507135936794, 36.34823277093345 ], [ 127.221193154142, 36.350128638922286 ], [ 127.240488899763648, 36.346837029896932 ], [ 127.241655357424506, 36.339046841666608 ], [ 127.244006075390715, 36.33752153487665 ], [ 127.253780637360137, 36.336928902480565 ], [ 127.255125997028003, 36.329760437983126 ], [ 127.259807907318816, 36.32720980022853 ], [ 127.260741413864594, 36.321652517364861 ], [ 127.258385272769459, 36.317683956447212 ], [ 127.257988575713426, 36.309892894963603 ], [ 127.258483445343686, 36.303518679999556 ], [ 127.260710232280033, 36.302032136214173 ], [ 127.259906936880881, 36.295600344667598 ], [ 127.25406454598108, 36.29680270186121 ], [ 127.246631154400674, 36.290948657208808 ], [ 127.240151470210975, 36.296309480796317 ], [ 127.239801839789564, 36.29288375399922 ], [ 127.237545935781483, 36.29244844344354 ], [ 127.235361484649644, 36.295427579053758 ], [ 127.229313334493526, 36.295395197224963 ], [ 127.227159862802537, 36.296921699597817 ], [ 127.223446843139939, 36.294924640049935 ], [ 127.214191702674682, 36.297930399777059 ], [ 127.212109517043814, 36.301000820882628 ], [ 127.205479940911232, 36.301592549681494 ], [ 127.202215355604594, 36.317640414493859 ], [ 127.202864431190193, 36.322804799970868 ], [ 127.198740230207207, 36.327059941402787 ], [ 127.198496709649163, 36.33211264271781 ], [ 127.196479305579729, 36.334734154356035 ] ] ] ] } }
]
}
