{
"type": "FeatureCollection",
"name": "44770",
"crs": { "type": "name", "properties": { "name": "urn:ogc:def:crs:OGC:1.3:CRS84" } },
"features": [
{ "type": "Feature", "properties": { "emd_cd": "44770250", "emd_nm": "장항읍" }, "geometry": { "type": "MultiPolygon", "coordinates": [ [ [ [ 126.600701818663239, 35.995762845987038 ], [ 126.603649223354054, 35.999647816146194 ], [ 126.606495381455062, 35.999821476865797 ], [ 126.609933613399235, 35.994463279149471 ], [ 126.601747991662123, 35.990974540306986 ], [ 126.600701818663239, 35.995762845987038 ] ] ], [ [ [ 126.626511550674138, 36.005538715221341 ], [ 126.63057996065902, 36.005168920636926 ], [ 126.633656648550101, 36.001380629031551 ], [ 126.632611725437144, 36.000177191868943 ], [ 126.627041870948048, 36.000433494126604 ], [ 126.626511550674138, 36.005538715221341 ] ] ], [ [ [ 126.625327955384336, 36.004500156105991 ], [ 126.625830043449241, 36.004712606009875 ], [ 126.626244566898833, 36.004683937706133 ], [ 126.625327955384336, 36.004500156105991 ] ] ], [ [ [ 126.621927285076325, 36.007105607154521 ], [ 126.623648223039453, 36.007402467375599 ], [ 126.624834720041179, 36.006676200948711 ], [ 126.622435824661977, 36.005862683729717 ], [ 126.621927285076325, 36.007105607154521 ] ] ], [ [ [ 126.612288402305992, 36.009579942907244 ], [ 126.613252952952465, 36.009274175357547 ], [ 126.612566687681067, 36.008995989928138 ], [ 126.612288402305992, 36.009579942907244 ] ] ], [ [ [ 126.608307515014616, 36.012207407674474 ], [ 126.608975241239989, 36.012300869873137 ], [ 126.608973974748082, 36.012113294994606 ], [ 126.608307515014616, 36.012207407674474 ] ] ], [ [ [ 126.661907265832909, 36.04107813486425 ], [ 126.663441116076328, 36.043221370241618 ], [ 126.668514461684495, 36.041746836323526 ], [ 126.672672300317529, 36.046653048968658 ], [ 126.678658761442264, 36.039062974653284 ], [ 126.683525067065744, 36.040115538985766 ], [ 126.691776553406655, 36.038565148510735 ], [ 126.691987399371968, 36.042040408581634 ], [ 126.697369675002079, 36.04390014195743 ], [ 126.699839867746135, 36.043066014161248 ], [ 126.702435296447234, 36.036797326756307 ], [ 126.70047892135419, 36.033440449652531 ], [ 126.703654698858173, 36.031323835882979 ], [ 126.70292426454354, 36.028078270244343 ], [ 126.705104576363851, 36.02632620030991 ], [ 126.710180229369271, 36.026385138153302 ], [ 126.714484439567286, 36.021011434403256 ], [ 126.720378483696081, 36.019435629241919 ], [ 126.730833547625124, 36.004086267541496 ], [ 126.726760166395621, 36.000344382409153 ], [ 126.724405033843084, 36.000102530260015 ], [ 126.703800286384364, 36.006511386241449 ], [ 126.696510677523051, 36.006647654099503 ], [ 126.69830115731844, 36.007350216353785 ], [ 126.683980626304262, 36.006832259725172 ], [ 126.68395791998374, 36.008572756892477 ], [ 126.677046347744422, 36.009059290419081 ], [ 126.667947477998069, 36.004436105622474 ], [ 126.666368900514385, 36.00581269397555 ], [ 126.66119089550871, 36.005705526412108 ], [ 126.660777049256339, 36.008288153949266 ], [ 126.661271387522262, 36.006229634886402 ], [ 126.663190408944658, 36.006191803079652 ], [ 126.662910614194132, 36.008749131071333 ], [ 126.660712308500493, 36.008898367245877 ], [ 126.663000269272544, 36.009452823338215 ], [ 126.660745384849179, 36.010375535613086 ], [ 126.664468506982956, 36.017553866069392 ], [ 126.661866202021287, 36.027767676956515 ], [ 126.659647411029283, 36.028778867075374 ], [ 126.666456657666913, 36.028828164034408 ], [ 126.668748918572334, 36.031203019123488 ], [ 126.661907265832909, 36.04107813486425 ] ] ] ] } },
{ "type": "Feature", "properties": { "emd_cd": "44770253", "emd_nm": "서천읍" }, "geometry": { "type": "MultiPolygon", "coordinates": [ [ [ [ 126.728833711967766, 36.113315036665291 ], [ 126.726588346644633, 36.10607109020949 ], [ 126.728833414098446, 36.084185413348386 ], [ 126.736199592151351, 36.083759024237949 ], [ 126.734381195053444, 36.077733166252841 ], [ 126.730115665930214, 36.074860197981792 ], [ 126.727618132606722, 36.076064702957382 ], [ 126.727864516101107, 36.07485402634984 ], [ 126.730379329511038, 36.074744907567414 ], [ 126.72791246234155, 36.063750937122904 ], [ 126.729025432267548, 36.060168185817751 ], [ 126.712743115046862, 36.056999951283125 ], [ 126.709129662966362, 36.058689814249803 ], [ 126.707932461295158, 36.067282383328298 ], [ 126.707034827057853, 36.068468305977355 ], [ 126.703787875811884, 36.070463161461497 ], [ 126.706440713598212, 36.068598242204473 ], [ 126.705360645194986, 36.066997538242028 ], [ 126.676774721183648, 36.062850568464739 ], [ 126.675708768698698, 36.070683362767568 ], [ 126.662214391077228, 36.073937796788712 ], [ 126.661065467160199, 36.076121698242147 ], [ 126.65582552351448, 36.078806036431338 ], [ 126.659610347763262, 36.081129568230416 ], [ 126.659351579670968, 36.082782262197725 ], [ 126.662755245883304, 36.083427237309962 ], [ 126.66303061731719, 36.086516145874789 ], [ 126.666495285877303, 36.089281047999819 ], [ 126.671354752093208, 36.087593886116494 ], [ 126.672113026248454, 36.091639870071425 ], [ 126.678525064964745, 36.091896825365303 ], [ 126.678751727442332, 36.098602239611012 ], [ 126.683638304100839, 36.101445750958483 ], [ 126.689822466910883, 36.11191023061177 ], [ 126.699185698057747, 36.109954690540604 ], [ 126.708808417950692, 36.112662609351077 ], [ 126.712538891436267, 36.110000512143507 ], [ 126.718261563155849, 36.114962171600133 ], [ 126.722655916452126, 36.115186992325128 ], [ 126.728833711967766, 36.113315036665291 ] ], [ [ 126.727321110749813, 36.075364556605479 ], [ 126.727245711540746, 36.075408904057625 ], [ 126.727558362058431, 36.07512986436911 ], [ 126.727321110749813, 36.075364556605479 ] ] ] ] } },
{ "type": "Feature", "properties": { "emd_cd": "44770310", "emd_nm": "마서면" }, "geometry": { "type": "MultiPolygon", "coordinates": [ [ [ [ 126.576575211464345, 36.032077252152405 ], [ 126.577114786710055, 36.032422444459968 ], [ 126.577453244024312, 36.031998989120574 ], [ 126.576575211464345, 36.032077252152405 ] ] ], [ [ [ 126.630226727454144, 36.035750842424029 ], [ 126.631349278796861, 36.0372093258487 ], [ 126.631624967611856, 36.035410853176401 ], [ 126.630226727454144, 36.035750842424029 ] ] ], [ [ [ 126.646693574131575, 36.088223661779672 ], [ 126.648960890360371, 36.083701432963274 ], [ 126.652459174086729, 36.083207732281693 ], [ 126.652858474656739, 36.080486302863207 ], [ 126.657897949655961, 36.07845680057148 ], [ 126.662214391077228, 36.073937796788712 ], [ 126.675708768698698, 36.070683362767568 ], [ 126.676774721183648, 36.062850568464739 ], [ 126.705360645194986, 36.066997538242028 ], [ 126.706440713598212, 36.068598242204473 ], [ 126.705445573715082, 36.068920306877828 ], [ 126.703630956090706, 36.07038960218722 ], [ 126.703787875811884, 36.070463161461497 ], [ 126.707034827057853, 36.068468305977355 ], [ 126.707932461295158, 36.067282383328298 ], [ 126.709129662966362, 36.058689814249803 ], [ 126.712743115046862, 36.056999951283125 ], [ 126.729025432267548, 36.060168185817751 ], [ 126.73039903691263, 36.057551835356726 ], [ 126.737758090830781, 36.052555214398446 ], [ 126.73656822035953, 36.048937873478252 ], [ 126.740677997491346, 36.045612134529996 ], [ 126.739129918709608, 36.043325512963484 ], [ 126.741367889585888, 36.040554122052541 ], [ 126.739347002427294, 36.035658869803406 ], [ 126.740974457843961, 36.034800336622091 ], [ 126.740538580566692, 36.033018696353416 ], [ 126.746856922748108, 36.028339191190703 ], [ 126.756345088471562, 36.029581275598176 ], [ 126.759332532817112, 36.026151250586146 ], [ 126.748042005916673, 36.025774501838924 ], [ 126.736482721273688, 36.000431905605993 ], [ 126.729663897735975, 36.003564599322317 ], [ 126.730833547625124, 36.004086267541496 ], [ 126.720378483696081, 36.019435629241919 ], [ 126.714484439567286, 36.021011434403256 ], [ 126.710180229369271, 36.026385138153302 ], [ 126.705104576363851, 36.02632620030991 ], [ 126.70292426454354, 36.028078270244343 ], [ 126.703654698858173, 36.031323835882979 ], [ 126.70047892135419, 36.033440449652531 ], [ 126.702435296447234, 36.036797326756307 ], [ 126.699839867746135, 36.043066014161248 ], [ 126.697369675002079, 36.04390014195743 ], [ 126.691987399371968, 36.042040408581634 ], [ 126.691776553406655, 36.038565148510735 ], [ 126.683525067065744, 36.040115538985766 ], [ 126.678658761442264, 36.039062974653284 ], [ 126.672672300317529, 36.046653048968658 ], [ 126.668514461684495, 36.041746836323526 ], [ 126.663441116076328, 36.043221370241618 ], [ 126.661296178471702, 36.040734931963144 ], [ 126.656211077407391, 36.045941520980442 ], [ 126.650009576325132, 36.047146957816757 ], [ 126.643684817865491, 36.056525717926633 ], [ 126.642543668670768, 36.055320809072718 ], [ 126.633244952612074, 36.055348432071852 ], [ 126.631590636422345, 36.053730510165416 ], [ 126.631684368293506, 36.075704455235119 ], [ 126.628761808106674, 36.080165900094265 ], [ 126.626181738032415, 36.080696520418883 ], [ 126.623609663722974, 36.080474591531605 ], [ 126.620248059856635, 36.076406737737877 ], [ 126.620270797806683, 36.080993137107448 ], [ 126.623455810127254, 36.080878406908553 ], [ 126.624596679865533, 36.084162760915085 ], [ 126.632721969048205, 36.081469528081456 ], [ 126.644596595444838, 36.088655892088781 ], [ 126.646693574131575, 36.088223661779672 ] ] ], [ [ [ 126.614088715452127, 36.066951669591162 ], [ 126.6158165133685, 36.067695341306909 ], [ 126.616140629974041, 36.066115677320163 ], [ 126.613904411025686, 36.064142394980749 ], [ 126.614088715452127, 36.066951669591162 ] ] ] ] } },
{ "type": "Feature", "properties": { "emd_cd": "44770320", "emd_nm": "화양면" }, "geometry": { "type": "MultiPolygon", "coordinates": [ [ [ [ 126.759332532817112, 36.026151250586146 ], [ 126.756345088471562, 36.029581275598176 ], [ 126.746856922748108, 36.028339191190703 ], [ 126.741043502248729, 36.032502701043114 ], [ 126.740974457843961, 36.034800336622091 ], [ 126.739347002427294, 36.035658869803406 ], [ 126.741367889585888, 36.040554122052541 ], [ 126.739131395000697, 36.043138044802667 ], [ 126.740677997491346, 36.045612134529996 ], [ 126.736530029188003, 36.049213985121277 ], [ 126.736949493542781, 36.050397199882298 ], [ 126.738005745148115, 36.048659004829901 ], [ 126.74650145491141, 36.055774634807705 ], [ 126.751623884075229, 36.058014234859456 ], [ 126.752919756108341, 36.057127860517994 ], [ 126.754749284720617, 36.059639778001291 ], [ 126.754386538671227, 36.06340040779115 ], [ 126.758544169118181, 36.065080794292044 ], [ 126.764239459421219, 36.066437614998492 ], [ 126.76641406047176, 36.064861608533803 ], [ 126.772776878340565, 36.067779046058199 ], [ 126.780857427857512, 36.068168977389675 ], [ 126.78309782137643, 36.066907755095166 ], [ 126.783069445846664, 36.062667609430704 ], [ 126.787286789526163, 36.062472516605617 ], [ 126.785669182262609, 36.072039063684741 ], [ 126.790461103619009, 36.075023666397129 ], [ 126.800005134212455, 36.076334654526427 ], [ 126.802670464448511, 36.075014373404443 ], [ 126.808598658790487, 36.077438592369383 ], [ 126.811454815701111, 36.076248594325534 ], [ 126.813651494847264, 36.071399167212057 ], [ 126.82228569732402, 36.073607780703753 ], [ 126.825097533925188, 36.070207132057874 ], [ 126.828966075995467, 36.071602868425799 ], [ 126.831383564230379, 36.0693894314076 ], [ 126.830088481528179, 36.065975762943239 ], [ 126.836035322312114, 36.064546703566613 ], [ 126.836107333613754, 36.061212210164612 ], [ 126.840300493708511, 36.055978511503689 ], [ 126.839876719195644, 36.052852885664095 ], [ 126.821092894956422, 36.049924175314402 ], [ 126.81415889052542, 36.041309766115276 ], [ 126.805825557533936, 36.034366418439731 ], [ 126.769713814482614, 36.029646426978957 ], [ 126.759332532817112, 36.026151250586146 ] ] ] ] } },
{ "type": "Feature", "properties": { "emd_cd": "44770330", "emd_nm": "기산면" }, "geometry": { "type": "MultiPolygon", "coordinates": [ [ [ [ 126.727245711540746, 36.075408904057625 ], [ 126.727321110749813, 36.075364556605479 ], [ 126.727558362058431, 36.07512986436911 ], [ 126.727245711540746, 36.075408904057625 ] ] ], [ [ [ 126.787157906420077, 36.095081154566401 ], [ 126.786393090630398, 36.088708046334865 ], [ 126.79009975601285, 36.089114742967688 ], [ 126.791558330088279, 36.086619352910382 ], [ 126.789811537270282, 36.080448198508634 ], [ 126.796226902800925, 36.080610056362488 ], [ 126.797728832196256, 36.076079043837844 ], [ 126.790461103619009, 36.075023666397129 ], [ 126.785669182262609, 36.072039063684741 ], [ 126.787286789526163, 36.062472516605617 ], [ 126.783069445846664, 36.062667609430704 ], [ 126.78309782137643, 36.066907755095166 ], [ 126.780857427857512, 36.068168977389675 ], [ 126.772776878340565, 36.067779046058199 ], [ 126.76641406047176, 36.064861608533803 ], [ 126.763038332628668, 36.066419749203945 ], [ 126.754399406206701, 36.063410113363922 ], [ 126.753536769369049, 36.057607053058803 ], [ 126.74650145491141, 36.055774634807705 ], [ 126.737823998012203, 36.048599377342505 ], [ 126.737758090830781, 36.052555214398446 ], [ 126.730368135076645, 36.05758493022411 ], [ 126.72791246234155, 36.063750937122904 ], [ 126.730379329511038, 36.074744907567414 ], [ 126.727864516101107, 36.07485402634984 ], [ 126.727618132606722, 36.076064702957382 ], [ 126.730115665930214, 36.074860197981792 ], [ 126.734381195053444, 36.077733166252841 ], [ 126.735973926284046, 36.083470181818171 ], [ 126.739635783238185, 36.086652611626413 ], [ 126.745148338200465, 36.095811548855316 ], [ 126.766298646889652, 36.105855115282324 ], [ 126.776363939887943, 36.09925970097914 ], [ 126.780592227278831, 36.098389961145209 ], [ 126.783405686410219, 36.094001818198223 ], [ 126.787157906420077, 36.095081154566401 ] ] ] ] } },
{ "type": "Feature", "properties": { "emd_cd": "44770340", "emd_nm": "한산면" }, "geometry": { "type": "MultiPolygon", "coordinates": [ [ [ [ 126.787157906420077, 36.095081154566401 ], [ 126.792336052585895, 36.097194081094223 ], [ 126.793647107634825, 36.100650675781047 ], [ 126.798869382647425, 36.102235241073416 ], [ 126.799224454056457, 36.104438867264868 ], [ 126.805329663586633, 36.10552771035713 ], [ 126.80512174183977, 36.108201691849175 ], [ 126.809890233128499, 36.110944157891453 ], [ 126.814254102275754, 36.112141985720342 ], [ 126.815361368767867, 36.113970767776188 ], [ 126.819534666269277, 36.113451051580306 ], [ 126.820498489271529, 36.120349856492965 ], [ 126.825012483362173, 36.121112018485718 ], [ 126.826820849833297, 36.122974436810928 ], [ 126.825547979611272, 36.125763641021415 ], [ 126.82741878007289, 36.125494668608432 ], [ 126.83066660367318, 36.121522620106319 ], [ 126.839886555738786, 36.116901170686191 ], [ 126.840583084542104, 36.105773151136781 ], [ 126.837364438809615, 36.104920323740529 ], [ 126.836605332518658, 36.099570441410961 ], [ 126.838336190942272, 36.096677532616354 ], [ 126.839425611286245, 36.087578773642818 ], [ 126.838444238234942, 36.085314631135375 ], [ 126.841914090701408, 36.08221035609327 ], [ 126.842002049851601, 36.079919928971655 ], [ 126.8473291276579, 36.078539018312334 ], [ 126.84612824407597, 36.076842616384575 ], [ 126.848353017497047, 36.074536790994244 ], [ 126.85135021127833, 36.074404417358672 ], [ 126.853785830148638, 36.076389900154034 ], [ 126.857224029265367, 36.07106444221246 ], [ 126.862634007178258, 36.074789273184912 ], [ 126.871094211245691, 36.071572637026904 ], [ 126.870815686701846, 36.067412346043355 ], [ 126.868034838751925, 36.062415188842003 ], [ 126.865538218938525, 36.060935126412765 ], [ 126.839876719195644, 36.052852885664095 ], [ 126.840300493708511, 36.055978511503689 ], [ 126.836107333613754, 36.061212210164612 ], [ 126.836136690172182, 36.064422971173528 ], [ 126.830088481528179, 36.065975762943239 ], [ 126.831383564230379, 36.0693894314076 ], [ 126.828966075995467, 36.071602868425799 ], [ 126.825097533925188, 36.070207132057874 ], [ 126.82228569732402, 36.073607780703753 ], [ 126.813651494847264, 36.071399167212057 ], [ 126.811454815701111, 36.076248594325534 ], [ 126.808598658790487, 36.077438592369383 ], [ 126.802670464448511, 36.075014373404443 ], [ 126.797728832196256, 36.076079043837844 ], [ 126.796226902800925, 36.080610056362488 ], [ 126.790405817179348, 36.07996845802468 ], [ 126.789894648088264, 36.083398818425138 ], [ 126.791558330088279, 36.086619352910382 ], [ 126.79009975601285, 36.089114742967688 ], [ 126.786393090630398, 36.088708046334865 ], [ 126.787157906420077, 36.095081154566401 ] ] ] ] } },
{ "type": "Feature", "properties": { "emd_cd": "44770350", "emd_nm": "마산면" }, "geometry": { "type": "MultiPolygon", "coordinates": [ [ [ [ 126.768278834841695, 36.154169517250068 ], [ 126.771658143791271, 36.156836739671775 ], [ 126.768137321225709, 36.159160753749084 ], [ 126.766990485170624, 36.162309986345022 ], [ 126.766302392328683, 36.167557362616591 ], [ 126.770430745960496, 36.168481009253512 ], [ 126.770621735735233, 36.170172208472621 ], [ 126.766892026595897, 36.173967416726633 ], [ 126.76687887456508, 36.177701210102398 ], [ 126.768517694127937, 36.178842001482188 ], [ 126.767041056552884, 36.181551328726577 ], [ 126.781560264599264, 36.183721214313003 ], [ 126.793204186923646, 36.180793838239843 ], [ 126.794161046110432, 36.178944094632051 ], [ 126.795624503963822, 36.179168494753398 ], [ 126.797873365270121, 36.170085492438794 ], [ 126.793818624091855, 36.170860897213302 ], [ 126.792304628163976, 36.167726087054341 ], [ 126.795985500358654, 36.158344972488379 ], [ 126.794152052850194, 36.156596202423884 ], [ 126.795512901121839, 36.150407604359081 ], [ 126.791434501462149, 36.14216429589063 ], [ 126.793895292125555, 36.140540154457511 ], [ 126.793781768392989, 36.136883238232841 ], [ 126.802112886793381, 36.141298499259769 ], [ 126.811820617872314, 36.136037959670908 ], [ 126.818893784610907, 36.135615235019173 ], [ 126.818818893818232, 36.132555896367315 ], [ 126.82344036381906, 36.129186916399668 ], [ 126.826685563190793, 36.122398484932461 ], [ 126.822751033447076, 36.120019673672715 ], [ 126.820498489271529, 36.120349856492965 ], [ 126.819534666269277, 36.113451051580306 ], [ 126.815361368767867, 36.113970767776188 ], [ 126.814254102275754, 36.112141985720342 ], [ 126.80512174183977, 36.108201691849175 ], [ 126.804964296752473, 36.105300998160907 ], [ 126.799224454056457, 36.104438867264868 ], [ 126.798869382647425, 36.102235241073416 ], [ 126.793647107634825, 36.100650675781047 ], [ 126.792336052585895, 36.097194081094223 ], [ 126.783405686410219, 36.094001818198223 ], [ 126.780592227278831, 36.098389961145209 ], [ 126.776363939887943, 36.09925970097914 ], [ 126.766646943246229, 36.10582540956311 ], [ 126.767793075352742, 36.108157041277259 ], [ 126.77589041776757, 36.112263235458634 ], [ 126.777566775245006, 36.11487537771162 ], [ 126.780375112790523, 36.115165969406576 ], [ 126.780529758618584, 36.116715368088897 ], [ 126.775517175927888, 36.122807003927278 ], [ 126.778555964406024, 36.126404428526897 ], [ 126.777848854885377, 36.140918715274928 ], [ 126.77289509928967, 36.146507353009248 ], [ 126.77081568108008, 36.14696424185653 ], [ 126.768278834841695, 36.154169517250068 ] ] ] ] } },
{ "type": "Feature", "properties": { "emd_cd": "44770360", "emd_nm": "시초면" }, "geometry": { "type": "MultiPolygon", "coordinates": [ [ [ [ 126.768278834841695, 36.154169517250068 ], [ 126.77081568108008, 36.14696424185653 ], [ 126.77289509928967, 36.146507353009248 ], [ 126.777848854885377, 36.140918715274928 ], [ 126.778555964406024, 36.126404428526897 ], [ 126.775517175927888, 36.122807003927278 ], [ 126.777374417574777, 36.119029712011283 ], [ 126.78030752045963, 36.117687568530592 ], [ 126.780375112790523, 36.115165969406576 ], [ 126.777566775245006, 36.11487537771162 ], [ 126.77589041776757, 36.112263235458634 ], [ 126.767793075352742, 36.108157041277259 ], [ 126.766998935306262, 36.105856253298889 ], [ 126.759931355468211, 36.103329022126175 ], [ 126.758227164675773, 36.100968767595234 ], [ 126.745148338200465, 36.095811548855316 ], [ 126.739635783238185, 36.086652611626413 ], [ 126.735639292615602, 36.083269929798568 ], [ 126.728833414098446, 36.084185413348386 ], [ 126.726805309849368, 36.107589159259838 ], [ 126.728645597322412, 36.110813226067165 ], [ 126.732093678162329, 36.110018303759617 ], [ 126.7353178975833, 36.111308234055294 ], [ 126.73850144919102, 36.114557519687352 ], [ 126.740235678738017, 36.114132735216145 ], [ 126.742477071773109, 36.117371024497821 ], [ 126.740653482250039, 36.123037955583378 ], [ 126.733046490642025, 36.123258008358889 ], [ 126.726685559386652, 36.126165674355605 ], [ 126.727958831729239, 36.132755647253184 ], [ 126.734444139398846, 36.130411646450767 ], [ 126.744251709402491, 36.132534743277489 ], [ 126.749108066169697, 36.129246346549841 ], [ 126.753500897233948, 36.128774970186406 ], [ 126.753080216868199, 36.130494589793372 ], [ 126.756791814791171, 36.130249674425322 ], [ 126.754888349646976, 36.135017453332608 ], [ 126.757097658278099, 36.142802669924542 ], [ 126.761299814133324, 36.142247529788484 ], [ 126.762610867977941, 36.147393850058648 ], [ 126.76524350150045, 36.147795086947333 ], [ 126.763458175685628, 36.150789691186688 ], [ 126.765199230492556, 36.1534051469107 ], [ 126.768278834841695, 36.154169517250068 ] ] ] ] } },
{ "type": "Feature", "properties": { "emd_cd": "44770370", "emd_nm": "문산면" }, "geometry": { "type": "MultiPolygon", "coordinates": [ [ [ [ 126.728645597322412, 36.110813226067165 ], [ 126.728833711967766, 36.113315036665291 ], [ 126.718819263801407, 36.115105374547554 ], [ 126.713823118842456, 36.11243459947822 ], [ 126.712538891436267, 36.110000512143507 ], [ 126.708808417950692, 36.112662609351077 ], [ 126.708428344958662, 36.118735703509223 ], [ 126.704364458130641, 36.122901836144429 ], [ 126.704723360872578, 36.12610130946176 ], [ 126.708905271837409, 36.12827934393939 ], [ 126.714850253169587, 36.128047650214128 ], [ 126.719961486754997, 36.135478339408444 ], [ 126.717948876100621, 36.139954871295288 ], [ 126.719234057997269, 36.141109274269567 ], [ 126.718461687204865, 36.144519305618481 ], [ 126.720775832155326, 36.148730688174801 ], [ 126.722989950908769, 36.149614942992123 ], [ 126.722198612684039, 36.153256206842691 ], [ 126.717567159386704, 36.156286473322766 ], [ 126.718114348624269, 36.158502360962316 ], [ 126.71636164322797, 36.161106120481655 ], [ 126.710735123430652, 36.164039118093896 ], [ 126.711472329708414, 36.169367648326059 ], [ 126.715406884089589, 36.172950174242665 ], [ 126.71374563995812, 36.175424586657442 ], [ 126.727588394096557, 36.176114637122531 ], [ 126.734395558940889, 36.181863216568409 ], [ 126.741847254698854, 36.183368484099084 ], [ 126.748528382288413, 36.181077487174768 ], [ 126.765518898180673, 36.183365801818304 ], [ 126.768439502760515, 36.179469407674901 ], [ 126.76687887456508, 36.177701210102398 ], [ 126.766892026595897, 36.173967416726633 ], [ 126.770621735735233, 36.170172208472621 ], [ 126.770430745960496, 36.168481009253512 ], [ 126.766302392328683, 36.167557362616591 ], [ 126.766990485170624, 36.162309986345022 ], [ 126.771508861002161, 36.156278438065144 ], [ 126.765199230492556, 36.1534051469107 ], [ 126.763458175685628, 36.150789691186688 ], [ 126.76524350150045, 36.147795086947333 ], [ 126.762610867977941, 36.147393850058648 ], [ 126.761299814133324, 36.142247529788484 ], [ 126.757097658278099, 36.142802669924542 ], [ 126.754888349646976, 36.135017453332608 ], [ 126.756791814791171, 36.130249674425322 ], [ 126.753080216868199, 36.130494589793372 ], [ 126.753500897233948, 36.128774970186406 ], [ 126.749108066169697, 36.129246346549841 ], [ 126.744251709402491, 36.132534743277489 ], [ 126.734444139398846, 36.130411646450767 ], [ 126.728132064345672, 36.132943925732597 ], [ 126.726685559386652, 36.126165674355605 ], [ 126.733046490642025, 36.123258008358889 ], [ 126.740653482250039, 36.123037955583378 ], [ 126.742477071773109, 36.117371024497821 ], [ 126.740235678738017, 36.114132735216145 ], [ 126.73850144919102, 36.114557519687352 ], [ 126.7353178975833, 36.111308234055294 ], [ 126.732093678162329, 36.110018303759617 ], [ 126.728645597322412, 36.110813226067165 ] ], [ [ 126.755952699918183, 36.131326303736003 ], [ 126.75334947901834, 36.131412845003247 ], [ 126.755998853350746, 36.131231780789903 ], [ 126.755952699918183, 36.131326303736003 ] ] ] ] } },
{ "type": "Feature", "properties": { "emd_cd": "44770380", "emd_nm": "판교면" }, "geometry": { "type": "MultiPolygon", "coordinates": [ [ [ [ 126.638149113178144, 36.138060060381044 ], [ 126.638187384919249, 36.137932935878716 ], [ 126.638009109189611, 36.138010439077661 ], [ 126.638149113178144, 36.138060060381044 ] ] ], [ [ [ 126.639465297432935, 36.132657548187908 ], [ 126.638398771189188, 36.139931304979697 ], [ 126.644194200147751, 36.143297548359492 ], [ 126.645144157560253, 36.147944686090995 ], [ 126.644620710975687, 36.154335135968587 ], [ 126.637384570324059, 36.155465051647369 ], [ 126.639557985940215, 36.160218430172975 ], [ 126.636811167754431, 36.165069785884313 ], [ 126.639848515330968, 36.16982877198614 ], [ 126.640656895816875, 36.176431541969393 ], [ 126.656235491915155, 36.181245096112072 ], [ 126.65800586521317, 36.180790929913307 ], [ 126.658640690191007, 36.177787875353729 ], [ 126.666871916504974, 36.176003542271651 ], [ 126.680848315667177, 36.182421297285401 ], [ 126.683402116278032, 36.187686358285504 ], [ 126.685525209869795, 36.188877844432554 ], [ 126.692084716347651, 36.190066195966558 ], [ 126.694472388542209, 36.18895231073266 ], [ 126.699973145846982, 36.183135050506344 ], [ 126.700463431670784, 36.179424022322578 ], [ 126.707014767903587, 36.178558780993228 ], [ 126.71374563995812, 36.175424586657442 ], [ 126.715406884089589, 36.172950174242665 ], [ 126.711472329708414, 36.169367648326059 ], [ 126.710735123430652, 36.164039118093896 ], [ 126.71636164322797, 36.161106120481655 ], [ 126.718114348624269, 36.158502360962316 ], [ 126.717567159386704, 36.156286473322766 ], [ 126.722964671584123, 36.152101064711594 ], [ 126.722989950908769, 36.149614942992123 ], [ 126.720775832155326, 36.148730688174801 ], [ 126.718461687204865, 36.144519305618481 ], [ 126.719234057997269, 36.141109274269567 ], [ 126.717948876100621, 36.139954871295288 ], [ 126.719829430889192, 36.135196556034025 ], [ 126.714850253169587, 36.128047650214128 ], [ 126.708905271837409, 36.12827934393939 ], [ 126.704723360872578, 36.12610130946176 ], [ 126.704364458130641, 36.122901836144429 ], [ 126.690069896671929, 36.123824812161843 ], [ 126.687222965767731, 36.131617245343399 ], [ 126.686697328440331, 36.129355448359476 ], [ 126.680556581629247, 36.128870277319436 ], [ 126.675394921001811, 36.124888185051724 ], [ 126.666659787180009, 36.131262401235617 ], [ 126.659386687460653, 36.132158727246939 ], [ 126.650970118299128, 36.1296632361584 ], [ 126.649251922640843, 36.13259433227735 ], [ 126.645753288941108, 36.133738740408923 ], [ 126.639465297432935, 36.132657548187908 ] ] ] ] } },
{ "type": "Feature", "properties": { "emd_cd": "44770390", "emd_nm": "종천면" }, "geometry": { "type": "MultiPolygon", "coordinates": [ [ [ [ 126.648960890360371, 36.083701432963274 ], [ 126.64512109019995, 36.09405062587809 ], [ 126.641079835420143, 36.092895331838733 ], [ 126.640248157858949, 36.091077812875064 ], [ 126.634968777256503, 36.093174801361428 ], [ 126.630824608190864, 36.092012412450273 ], [ 126.632782357996817, 36.096149208106766 ], [ 126.631990579057458, 36.099690639680396 ], [ 126.623601977455593, 36.101514559176344 ], [ 126.625931337046666, 36.103808502816129 ], [ 126.622633236099034, 36.107238410169813 ], [ 126.630877446860922, 36.111662604461422 ], [ 126.632443594846166, 36.115427534190097 ], [ 126.632546182594524, 36.120679390644554 ], [ 126.630192568432662, 36.120945013346414 ], [ 126.6295765535139, 36.124562830099379 ], [ 126.626502302522908, 36.126352101836694 ], [ 126.631940918336312, 36.131618810697333 ], [ 126.645753288941108, 36.133738740408923 ], [ 126.650242045770653, 36.131822358643028 ], [ 126.650970118299128, 36.1296632361584 ], [ 126.659386687460653, 36.132158727246939 ], [ 126.666659787180009, 36.131262401235617 ], [ 126.675394921001811, 36.124888185051724 ], [ 126.680556581629247, 36.128870277319436 ], [ 126.686697328440331, 36.129355448359476 ], [ 126.687222965767731, 36.131617245343399 ], [ 126.690069896671929, 36.123824812161843 ], [ 126.704364458130641, 36.122901836144429 ], [ 126.707996302737655, 36.119677388453702 ], [ 126.708808417950692, 36.112662609351077 ], [ 126.699185698057747, 36.109954690540604 ], [ 126.68976252454469, 36.111879424653203 ], [ 126.683638304100839, 36.101445750958483 ], [ 126.678751727442332, 36.098602239611012 ], [ 126.678525064964745, 36.091896825365303 ], [ 126.672113026248454, 36.091639870071425 ], [ 126.671354752093208, 36.087593886116494 ], [ 126.666495285877303, 36.089281047999819 ], [ 126.66303061731719, 36.086516145874789 ], [ 126.662755245883304, 36.083427237309962 ], [ 126.659351579670968, 36.082782262197725 ], [ 126.659610347763262, 36.081129568230416 ], [ 126.65582552351448, 36.078806036431338 ], [ 126.65266416448776, 36.080700288667323 ], [ 126.652459174086729, 36.083207732281693 ], [ 126.648960890360371, 36.083701432963274 ] ] ] ] } },
{ "type": "Feature", "properties": { "emd_cd": "44770400", "emd_nm": "비인면" }, "geometry": { "type": "MultiPolygon", "coordinates": [ [ [ [ 126.576927104901799, 36.126313094454062 ], [ 126.578076840648677, 36.126682465148392 ], [ 126.578457456798361, 36.126406438149019 ], [ 126.576927104901799, 36.126313094454062 ] ] ], [ [ [ 126.638549589703786, 36.133080234826139 ], [ 126.631844393014831, 36.131565999867867 ], [ 126.626502302522908, 36.126352101836694 ], [ 126.6295765535139, 36.124562830099379 ], [ 126.630192568432662, 36.120945013346414 ], [ 126.632979123996705, 36.119399103330501 ], [ 126.630877446860922, 36.111662604461422 ], [ 126.622633236099034, 36.107238410169813 ], [ 126.625931337046666, 36.103808502816129 ], [ 126.623505474780913, 36.101535406140734 ], [ 126.616764020165618, 36.102042627459717 ], [ 126.613746951996674, 36.096967656481503 ], [ 126.614468334349141, 36.095965043792347 ], [ 126.61203455761931, 36.095098940466698 ], [ 126.613066199501787, 36.096619650092649 ], [ 126.608526193963385, 36.099337559034041 ], [ 126.605776130332416, 36.11063679435248 ], [ 126.60612706347959, 36.111736899063622 ], [ 126.607490867599608, 36.110445531751466 ], [ 126.606789834102287, 36.112146959986291 ], [ 126.603486834295225, 36.110699839613069 ], [ 126.600970180901328, 36.11710832941224 ], [ 126.593899076975191, 36.126565273551549 ], [ 126.591208669255153, 36.129081093325674 ], [ 126.583181314261168, 36.131427022775618 ], [ 126.574395663668199, 36.140500604359005 ], [ 126.57791132595996, 36.142562034892954 ], [ 126.578826636983024, 36.147207618732331 ], [ 126.581430680668973, 36.148362967863775 ], [ 126.578166513475679, 36.152483491835063 ], [ 126.579375594021926, 36.154914700106282 ], [ 126.586804634560153, 36.158088415935616 ], [ 126.589438502715225, 36.157219777646887 ], [ 126.59513948980856, 36.162840281999486 ], [ 126.600061115271998, 36.159556330318416 ], [ 126.601742501258116, 36.160396642713302 ], [ 126.603670035308255, 36.165567402024287 ], [ 126.600506590407619, 36.169197725719876 ], [ 126.600216490996473, 36.171369129486983 ], [ 126.601951188387929, 36.172420523285211 ], [ 126.59805538231538, 36.175018833918692 ], [ 126.601677824475658, 36.175072934737514 ], [ 126.609131059991199, 36.171883442047537 ], [ 126.612176824595124, 36.17329460632984 ], [ 126.614620446505825, 36.172043944245132 ], [ 126.619425960159774, 36.175103835948939 ], [ 126.626770343486996, 36.173110503533827 ], [ 126.631900957695493, 36.176130592982339 ], [ 126.6402076886869, 36.176553326764441 ], [ 126.640678325415593, 36.172474528539624 ], [ 126.636811167754431, 36.165069785884313 ], [ 126.639557985940215, 36.160218430172975 ], [ 126.637384570324059, 36.155465051647369 ], [ 126.644620710975687, 36.154335135968587 ], [ 126.645144157560253, 36.147944686090995 ], [ 126.644194200147751, 36.143297548359492 ], [ 126.638398771189188, 36.139931304979697 ], [ 126.638549589703786, 36.133080234826139 ] ], [ [ 126.638149113178144, 36.138060060381044 ], [ 126.638009109189611, 36.138010439077661 ], [ 126.638187384919249, 36.137932935878716 ], [ 126.638149113178144, 36.138060060381044 ] ] ] ] } },
{ "type": "Feature", "properties": { "emd_cd": "44770410", "emd_nm": "서면" }, "geometry": { "type": "MultiPolygon", "coordinates": [ [ [ [ 126.550620704533699, 36.127682097133913 ], [ 126.552456429225202, 36.129127026924557 ], [ 126.552773461423698, 36.12584463957522 ], [ 126.550847044322225, 36.125460463921222 ], [ 126.550620704533699, 36.127682097133913 ] ] ], [ [ [ 126.509989380791808, 36.12986171049063 ], [ 126.509890943018277, 36.129934934429315 ], [ 126.509490612386102, 36.13067659871146 ], [ 126.509989380791808, 36.12986171049063 ] ] ], [ [ [ 126.505505048473879, 36.132823667858673 ], [ 126.506908341578395, 36.131662239197261 ], [ 126.50733880361436, 36.131133841245209 ], [ 126.507827188012513, 36.130349109464099 ], [ 126.505505048473879, 36.132823667858673 ] ] ], [ [ [ 126.484961312706204, 36.137948823499137 ], [ 126.485633490313248, 36.13774264277788 ], [ 126.485667211275029, 36.137411328306868 ], [ 126.484961312706204, 36.137948823499137 ] ] ], [ [ [ 126.493364773293393, 36.159277819409382 ], [ 126.498359603820816, 36.158555000433388 ], [ 126.498568153110611, 36.159191550773663 ], [ 126.503494355407824, 36.161478817076379 ], [ 126.499693124490733, 36.159402192345397 ], [ 126.501534042553914, 36.15608411081508 ], [ 126.506358239051124, 36.159467973743226 ], [ 126.504590790421787, 36.160618406755368 ], [ 126.505393729169839, 36.16109441128291 ], [ 126.510279625533201, 36.157509905069936 ], [ 126.51374975843666, 36.160405509703253 ], [ 126.518028241199616, 36.158890315898645 ], [ 126.522043264291327, 36.162126403554943 ], [ 126.526106693643243, 36.167672936130117 ], [ 126.526151343641416, 36.171815822305348 ], [ 126.528380572059092, 36.174974208270179 ], [ 126.526862783050532, 36.175622854071072 ], [ 126.523918585918793, 36.182848069776981 ], [ 126.525540292221521, 36.187344346043638 ], [ 126.565145356263344, 36.192148272381246 ], [ 126.570960797410592, 36.188745883505725 ], [ 126.580093201902045, 36.177646127946097 ], [ 126.594168345748841, 36.174524076186671 ], [ 126.59805538231538, 36.175018833918692 ], [ 126.601951188387929, 36.172420523285211 ], [ 126.600216490996473, 36.171369129486983 ], [ 126.600506590407619, 36.169197725719876 ], [ 126.603670035308255, 36.165567402024287 ], [ 126.60037482626629, 36.159519972780963 ], [ 126.59513948980856, 36.162840281999486 ], [ 126.589438502715225, 36.157219777646887 ], [ 126.586804634560153, 36.158088415935616 ], [ 126.579375594021926, 36.154914700106282 ], [ 126.578166513475679, 36.152483491835063 ], [ 126.581430680668973, 36.148362967863775 ], [ 126.578826636983024, 36.147207618732331 ], [ 126.57791132595996, 36.142562034892954 ], [ 126.574814885160833, 36.141239413937299 ], [ 126.575451568991397, 36.138550908138164 ], [ 126.570034801284208, 36.140668919818978 ], [ 126.567537892699278, 36.139513819076271 ], [ 126.567573149777417, 36.134863490585104 ], [ 126.563009378312842, 36.13490791970824 ], [ 126.562984519728616, 36.132828041340652 ], [ 126.563937371841732, 36.132776543278425 ], [ 126.56424921990461, 36.132657146491326 ], [ 126.560611685895182, 36.132348383419988 ], [ 126.556274252207771, 36.129137689355879 ], [ 126.556776072010905, 36.132044929988048 ], [ 126.55515493167465, 36.134205815757852 ], [ 126.55612955107982, 36.135726602157895 ], [ 126.541875778892219, 36.147130383874966 ], [ 126.534044802538148, 36.148722041301788 ], [ 126.534584232858947, 36.150294379719107 ], [ 126.519542317451283, 36.152398123801163 ], [ 126.506364622377035, 36.149901630120823 ], [ 126.50628203402097, 36.147266736166173 ], [ 126.500845394477992, 36.140832284720815 ], [ 126.502937288631927, 36.134060535669569 ], [ 126.504978889541405, 36.134255202345109 ], [ 126.505477326371221, 36.134157324505964 ], [ 126.50571974473516, 36.134262145900564 ], [ 126.50637383709045, 36.133614187005641 ], [ 126.502942401846155, 36.134024959679316 ], [ 126.503881583778266, 36.129300905222415 ], [ 126.508772780997461, 36.129479561672774 ], [ 126.502432047770114, 36.12901004299934 ], [ 126.49847525106496, 36.133093039405423 ], [ 126.494374281794492, 36.133532042835725 ], [ 126.493038643441167, 36.136978385911078 ], [ 126.493364773293393, 36.159277819409382 ] ] ], [ [ [ 126.49273240241925, 36.187535518108916 ], [ 126.492948517101581, 36.187891810866937 ], [ 126.493244576413829, 36.18753759439506 ], [ 126.49273240241925, 36.187535518108916 ] ] ] ] } }
]
}
