{
"type": "FeatureCollection",
"name": "44810",
"crs": { "type": "name", "properties": { "name": "urn:ogc:def:crs:OGC:1.3:CRS84" } },
"features": [
{ "type": "Feature", "properties": { "emd_cd": "44810250", "emd_nm": "예산읍" }, "geometry": { "type": "MultiPolygon", "coordinates": [ [ [ [ 126.814838701341358, 36.705525990648866 ], [ 126.81721467506955, 36.710963364922236 ], [ 126.822134167488485, 36.709267908188274 ], [ 126.82181667671685, 36.707988426747328 ], [ 126.826674187289001, 36.708948158747454 ], [ 126.827439233313257, 36.714936525246699 ], [ 126.825640901148404, 36.719437892434108 ], [ 126.832488413323503, 36.725089341706351 ], [ 126.828112674408004, 36.728306412753227 ], [ 126.827900838757557, 36.730146145975453 ], [ 126.832866256012721, 36.732629458536941 ], [ 126.834332501204614, 36.736525397151247 ], [ 126.840362297457077, 36.73462288987885 ], [ 126.840295786524749, 36.736298125409938 ], [ 126.847853058097058, 36.741629849452295 ], [ 126.846199283883919, 36.746837761325615 ], [ 126.850018022023022, 36.74720948107332 ], [ 126.850830006889211, 36.749172478040684 ], [ 126.858984923509567, 36.747039216075102 ], [ 126.858726976680401, 36.744604801283664 ], [ 126.856794020291645, 36.744085047431788 ], [ 126.86003162482767, 36.737922588251408 ], [ 126.863155652077424, 36.735728116668035 ], [ 126.863716672427131, 36.732074591607926 ], [ 126.866806629514016, 36.729442895948111 ], [ 126.874898402171681, 36.728255725160167 ], [ 126.886674047523357, 36.731454202073479 ], [ 126.892080797052628, 36.724478957876435 ], [ 126.898738274318845, 36.723057196635033 ], [ 126.899051729065377, 36.717145764816337 ], [ 126.902870965498693, 36.714768892886774 ], [ 126.902615337284544, 36.711665885384782 ], [ 126.905438561333597, 36.709547448466935 ], [ 126.903200929302912, 36.707877316516644 ], [ 126.900992792028745, 36.700870345087971 ], [ 126.894310841783934, 36.702724682854445 ], [ 126.882880510022716, 36.694596800310542 ], [ 126.875365499633276, 36.693054287343301 ], [ 126.869711172321715, 36.683709473100492 ], [ 126.871680852163337, 36.681489133098601 ], [ 126.870865080030725, 36.679415161361568 ], [ 126.873558442017497, 36.674115104701428 ], [ 126.872439546739812, 36.671957749523095 ], [ 126.8517824573333, 36.664808172014176 ], [ 126.845589400637635, 36.664898549038142 ], [ 126.842974910283203, 36.667508244823964 ], [ 126.83971717926805, 36.66563900399953 ], [ 126.835393880939023, 36.666382294428203 ], [ 126.832742095345807, 36.664979020310156 ], [ 126.831162460619623, 36.666241203952005 ], [ 126.829730758768875, 36.664157584485906 ], [ 126.823903164249046, 36.667521842032194 ], [ 126.824094915999524, 36.679957377334787 ], [ 126.818425710300133, 36.68066581231411 ], [ 126.816074663590342, 36.683520463919798 ], [ 126.817032284610249, 36.688729868417809 ], [ 126.821648241686788, 36.690904369542992 ], [ 126.820622894889027, 36.701203191914104 ], [ 126.818745679068442, 36.703492106829238 ], [ 126.819357061266089, 36.704847642170755 ], [ 126.814838701341358, 36.705525990648866 ] ] ] ] } },
{ "type": "Feature", "properties": { "emd_cd": "44810253", "emd_nm": "삽교읍" }, "geometry": { "type": "MultiPolygon", "coordinates": [ [ [ [ 126.766789139316614, 36.671130207349222 ], [ 126.763966466023689, 36.672627261712513 ], [ 126.759170798112066, 36.670906701701483 ], [ 126.759174743117413, 36.669648381005409 ], [ 126.747488755828257, 36.669623041792569 ], [ 126.743541689343886, 36.670135272978897 ], [ 126.739715538113359, 36.672996145212167 ], [ 126.731553466786821, 36.670343043400791 ], [ 126.729467453982537, 36.671023168712622 ], [ 126.725462796926521, 36.667467541004129 ], [ 126.718968935665998, 36.67119857916181 ], [ 126.712342224108326, 36.670873590823817 ], [ 126.709566764264892, 36.672839529954246 ], [ 126.704807576374634, 36.666717025197315 ], [ 126.707730325594412, 36.664795487839065 ], [ 126.707615043898997, 36.662939961874251 ], [ 126.698238059187261, 36.663231797011406 ], [ 126.689959056493421, 36.659564018475152 ], [ 126.68329935051031, 36.660096460625724 ], [ 126.6810692985283, 36.661678306607882 ], [ 126.655337718542327, 36.654747899229797 ], [ 126.653796995160221, 36.658602642508896 ], [ 126.655938990458878, 36.667251104850543 ], [ 126.659777673999827, 36.670028991587117 ], [ 126.665204940574796, 36.682330403466288 ], [ 126.671251275627014, 36.687905678803965 ], [ 126.669398253736702, 36.689028023142995 ], [ 126.672204383854776, 36.689064985029901 ], [ 126.67708633572893, 36.697010764906594 ], [ 126.679979999660858, 36.698114300174176 ], [ 126.678988551846345, 36.702154615731004 ], [ 126.671733385363481, 36.707675814299087 ], [ 126.678817960855994, 36.715378531456679 ], [ 126.709000739545928, 36.7225219756398 ], [ 126.713200736812709, 36.714355764240892 ], [ 126.715469567254317, 36.712844190194581 ], [ 126.727668934888015, 36.715301967664949 ], [ 126.728626761285142, 36.713888801971727 ], [ 126.726856132499023, 36.7127342394406 ], [ 126.727354106758398, 36.71065726846134 ], [ 126.736035387489366, 36.707576675533666 ], [ 126.739601233046756, 36.712634341876608 ], [ 126.738947993132257, 36.716071022167355 ], [ 126.742265876132848, 36.717344090682353 ], [ 126.742945190098951, 36.719413087948389 ], [ 126.742976316754351, 36.722784228040275 ], [ 126.7388342825801, 36.723268791626701 ], [ 126.738840372143443, 36.724843539229674 ], [ 126.745669456112481, 36.727044596706854 ], [ 126.748540881458979, 36.72527733045829 ], [ 126.75403926695779, 36.735606085652535 ], [ 126.76951077204744, 36.727470996553564 ], [ 126.768354255940878, 36.724525415804756 ], [ 126.757024838637662, 36.7143933121476 ], [ 126.758601755385087, 36.706681047690623 ], [ 126.760651492450705, 36.705788662346073 ], [ 126.76204438983163, 36.701237471708069 ], [ 126.759643840856612, 36.698647859493029 ], [ 126.759891196355341, 36.6960895883579 ], [ 126.757580690479415, 36.694752879040294 ], [ 126.766006610803146, 36.690855122380057 ], [ 126.767860190151708, 36.686980800405323 ], [ 126.767365880035143, 36.679300110841041 ], [ 126.765054422107809, 36.679262202826564 ], [ 126.76515145179529, 36.676398268078515 ], [ 126.76764967978788, 36.676463124065556 ], [ 126.766789139316614, 36.671130207349222 ] ], [ [ 126.767818225088618, 36.686628226544187 ], [ 126.761511391121104, 36.687286568539712 ], [ 126.766209017522442, 36.68674337521503 ], [ 126.767818225088618, 36.686628226544187 ] ], [ [ 126.744641563589369, 36.726329880939872 ], [ 126.743148665006203, 36.725770085845859 ], [ 126.742404637160661, 36.72548657307253 ], [ 126.743329757484119, 36.725662335962383 ], [ 126.744641563589369, 36.726329880939872 ] ], [ [ 126.761306117976034, 36.687352927748499 ], [ 126.760569076266378, 36.687398134980278 ], [ 126.761304004100538, 36.687327484843379 ], [ 126.761306117976034, 36.687352927748499 ] ] ] ] } },
{ "type": "Feature", "properties": { "emd_cd": "44810310", "emd_nm": "대술면" }, "geometry": { "type": "MultiPolygon", "coordinates": [ [ [ [ 126.928853964258465, 36.70400234202436 ], [ 126.933563336386698, 36.70208714974769 ], [ 126.938613265597994, 36.703397323546262 ], [ 126.941172554792487, 36.70149047033847 ], [ 126.949930941617964, 36.703760435140005 ], [ 126.954727879870845, 36.698929866201802 ], [ 126.966705475164247, 36.695464135681512 ], [ 126.972303613705563, 36.690916323633665 ], [ 126.967691125424309, 36.686625308127894 ], [ 126.967646400642082, 36.679329301429988 ], [ 126.964410888408864, 36.678499222497678 ], [ 126.957318750100583, 36.671956366305565 ], [ 126.956809379330323, 36.665634309278026 ], [ 126.957693236416716, 36.66254751277333 ], [ 126.959636038364238, 36.662329570813057 ], [ 126.958586880670751, 36.65850579586332 ], [ 126.959981462625279, 36.655590150478027 ], [ 126.954423281241716, 36.652322116249756 ], [ 126.954775593778095, 36.644759655796214 ], [ 126.948423669249763, 36.64105912852542 ], [ 126.946937387472204, 36.63613697812022 ], [ 126.943595366073779, 36.632932591977145 ], [ 126.94538836989868, 36.628160064816186 ], [ 126.93567197823964, 36.622202600513702 ], [ 126.923929433491395, 36.620907141659693 ], [ 126.917760843592148, 36.62429309183122 ], [ 126.908493783431041, 36.626374125701204 ], [ 126.899331694247522, 36.634219992905273 ], [ 126.893364879551214, 36.63396061782705 ], [ 126.891874430686343, 36.636231204634882 ], [ 126.889616957642772, 36.635590943807486 ], [ 126.884386858201211, 36.639993328036276 ], [ 126.880394979458487, 36.633689436745783 ], [ 126.879821208894271, 36.639298226345204 ], [ 126.877625235615838, 36.64237350159717 ], [ 126.878136251779708, 36.646245597882952 ], [ 126.875585393820046, 36.646709380704301 ], [ 126.876390187788672, 36.648737569571608 ], [ 126.874568316215502, 36.650980307917159 ], [ 126.875902240832644, 36.653058208713389 ], [ 126.872507129850021, 36.653671457084485 ], [ 126.869188060512812, 36.657089415719035 ], [ 126.869620702104896, 36.660147517978579 ], [ 126.86796505742852, 36.660744670451585 ], [ 126.86720938737821, 36.665089438875356 ], [ 126.869143627939238, 36.670005350892993 ], [ 126.873368453511233, 36.672929038495518 ], [ 126.870865080030725, 36.679415161361568 ], [ 126.871680852163337, 36.681489133098601 ], [ 126.869711172321715, 36.683709473100492 ], [ 126.87407048573462, 36.691406162665459 ], [ 126.875365499633276, 36.693054287343301 ], [ 126.882880510022716, 36.694596800310542 ], [ 126.894310841783934, 36.702724682854445 ], [ 126.900992792028745, 36.700870345087971 ], [ 126.902268439066901, 36.702310396424409 ], [ 126.906849983195514, 36.701576315719429 ], [ 126.913289824423885, 36.703849876228851 ], [ 126.922049874370188, 36.700702886899663 ], [ 126.928853964258465, 36.70400234202436 ] ] ] ] } },
{ "type": "Feature", "properties": { "emd_cd": "44810320", "emd_nm": "신양면" }, "geometry": { "type": "MultiPolygon", "coordinates": [ [ [ [ 126.870393163011954, 36.657077267192797 ], [ 126.872507129850021, 36.653671457084485 ], [ 126.875902240832644, 36.653058208713389 ], [ 126.874568316215502, 36.650980307917159 ], [ 126.876390187788672, 36.648737569571608 ], [ 126.875585393820046, 36.646709380704301 ], [ 126.878136251779708, 36.646245597882952 ], [ 126.877625235615838, 36.64237350159717 ], [ 126.879821208894271, 36.639298226345204 ], [ 126.880394979458487, 36.633689436745783 ], [ 126.884386858201211, 36.639993328036276 ], [ 126.889616957642772, 36.635590943807486 ], [ 126.891874430686343, 36.636231204634882 ], [ 126.893364879551214, 36.63396061782705 ], [ 126.899331694247522, 36.634219992905273 ], [ 126.908493783431041, 36.626374125701204 ], [ 126.917760843592148, 36.62429309183122 ], [ 126.923929433491395, 36.620907141659693 ], [ 126.93567197823964, 36.622202600513702 ], [ 126.937078201174444, 36.619719674731236 ], [ 126.937524857111654, 36.615821710360095 ], [ 126.932185612848187, 36.613085459207618 ], [ 126.93031025062345, 36.60866229702507 ], [ 126.93204057355463, 36.603215602896874 ], [ 126.928736837168685, 36.603099998945837 ], [ 126.927164123776762, 36.601423997160829 ], [ 126.928247224979572, 36.600084786271879 ], [ 126.927418319867201, 36.595657701838974 ], [ 126.930360267799486, 36.593578137223787 ], [ 126.930641791758489, 36.591183541094281 ], [ 126.924856695579152, 36.587652926946923 ], [ 126.920481429321157, 36.577541400592459 ], [ 126.917353222644152, 36.576943085143789 ], [ 126.915511643847978, 36.573878400183467 ], [ 126.911474964698584, 36.572216899335452 ], [ 126.910362783270315, 36.566964097839929 ], [ 126.906698420730564, 36.566423512118035 ], [ 126.903833800083859, 36.563193618087375 ], [ 126.904146919632524, 36.561562825400379 ], [ 126.900548645426554, 36.56123177303494 ], [ 126.897799666358949, 36.559023878001142 ], [ 126.887746357271411, 36.561493114463929 ], [ 126.87662250604393, 36.567736247650799 ], [ 126.874031849189095, 36.567466516522508 ], [ 126.872228278607992, 36.569778965323557 ], [ 126.862595505662114, 36.568242214178234 ], [ 126.853580787090038, 36.571634366035944 ], [ 126.849841217553077, 36.571086100749532 ], [ 126.850051013219698, 36.572918582904769 ], [ 126.849687267527912, 36.572941793276826 ], [ 126.848956994792616, 36.569896765633921 ], [ 126.844371104247131, 36.570083456491979 ], [ 126.839827159534408, 36.577171530267563 ], [ 126.841771864684247, 36.586536274514735 ], [ 126.833840876271225, 36.590047767667869 ], [ 126.835471056551611, 36.592643015903676 ], [ 126.831383411681117, 36.597235876394137 ], [ 126.827018478682575, 36.599574024463955 ], [ 126.826753325491595, 36.601904052606926 ], [ 126.823668775311901, 36.602761678493799 ], [ 126.81910350147794, 36.608475090382079 ], [ 126.817430587869978, 36.608066602829538 ], [ 126.822452166806485, 36.610229457682607 ], [ 126.820673896888067, 36.612893911620567 ], [ 126.821322914610107, 36.616376755071542 ], [ 126.825989122607453, 36.616091102303592 ], [ 126.832682299457687, 36.620578795991612 ], [ 126.837468148920578, 36.620745340151778 ], [ 126.842070628631078, 36.625536389380741 ], [ 126.849543372740627, 36.621493680818936 ], [ 126.853676945433961, 36.624603000422027 ], [ 126.855533128640459, 36.628652901079654 ], [ 126.859293191350773, 36.63150850905734 ], [ 126.857880957865063, 36.638855559928309 ], [ 126.860288586254796, 36.64160020533938 ], [ 126.863080357197475, 36.652146135892863 ], [ 126.867275171853947, 36.656299204123101 ], [ 126.870393163011954, 36.657077267192797 ] ] ] ] } },
{ "type": "Feature", "properties": { "emd_cd": "44810330", "emd_nm": "광시면" }, "geometry": { "type": "MultiPolygon", "coordinates": [ [ [ [ 126.818914776263384, 36.608563463983472 ], [ 126.83545725290287, 36.592680682205817 ], [ 126.833840876271225, 36.590047767667869 ], [ 126.841771864684247, 36.586536274514735 ], [ 126.839901231661543, 36.576792566592609 ], [ 126.846078786968448, 36.568251657983794 ], [ 126.844303412208475, 36.564603532160113 ], [ 126.840486225920259, 36.562565726362728 ], [ 126.84004511603905, 36.557438022204273 ], [ 126.837303823836706, 36.553598892180752 ], [ 126.832932236149915, 36.550855077022518 ], [ 126.829070502466635, 36.539445908114359 ], [ 126.829450212271126, 36.536715194949331 ], [ 126.827041028609855, 36.534613631740562 ], [ 126.825204202853428, 36.528991098801477 ], [ 126.81567533409067, 36.529355017969799 ], [ 126.812428810723247, 36.531458110639065 ], [ 126.806266138550171, 36.529978838806322 ], [ 126.805135404979083, 36.526618853891094 ], [ 126.798158911540071, 36.531433152222334 ], [ 126.795507727323638, 36.530913671017089 ], [ 126.784974918071029, 36.534821827755316 ], [ 126.777686437760082, 36.532057018082483 ], [ 126.769043488044773, 36.536424960663666 ], [ 126.76557991292637, 36.535208455676482 ], [ 126.758975487226195, 36.527395002112875 ], [ 126.746562269221997, 36.531720701238342 ], [ 126.746399618884155, 36.533547531268731 ], [ 126.741452452206147, 36.536350741507441 ], [ 126.741017273704955, 36.542588197184095 ], [ 126.737623209380544, 36.545948646883716 ], [ 126.73689446495635, 36.551008798014841 ], [ 126.742056736087719, 36.555784985307575 ], [ 126.745884728021963, 36.5549731058356 ], [ 126.748535018395089, 36.55830471345606 ], [ 126.749745420939078, 36.5652669031562 ], [ 126.748804199003544, 36.572658772551549 ], [ 126.746941468406746, 36.575364333320223 ], [ 126.748498152143029, 36.580473886864986 ], [ 126.751902127775239, 36.579987382998517 ], [ 126.755547243942871, 36.584845128519639 ], [ 126.763304809611355, 36.586646500224262 ], [ 126.772470886966033, 36.594029418007779 ], [ 126.781785591309244, 36.593444072678579 ], [ 126.794716617415844, 36.597644904787629 ], [ 126.797194619205783, 36.600083008052842 ], [ 126.795234263866845, 36.603348425205461 ], [ 126.813149971478879, 36.599831485427472 ], [ 126.816344065811606, 36.60158003266767 ], [ 126.815250042915324, 36.605143667157165 ], [ 126.818914776263384, 36.608563463983472 ] ] ] ] } },
{ "type": "Feature", "properties": { "emd_cd": "44810340", "emd_nm": "대흥면" }, "geometry": { "type": "MultiPolygon", "coordinates": [ [ [ [ 126.866580739116444, 36.670581808823478 ], [ 126.869276984948229, 36.669674921242112 ], [ 126.86720938737821, 36.665089438875356 ], [ 126.86796505742852, 36.660744670451585 ], [ 126.869620702104896, 36.660147517978579 ], [ 126.869188060512812, 36.657089415719035 ], [ 126.863080357197475, 36.652146135892863 ], [ 126.860288586254796, 36.64160020533938 ], [ 126.857880957865063, 36.638855559928309 ], [ 126.859293191350773, 36.63150850905734 ], [ 126.851187089582552, 36.62248862380703 ], [ 126.848356947124486, 36.621780668634791 ], [ 126.842070628631078, 36.625536389380741 ], [ 126.837468148920578, 36.620745340151778 ], [ 126.832682299457687, 36.620578795991612 ], [ 126.825989122607453, 36.616091102303592 ], [ 126.820949873421213, 36.61618678144189 ], [ 126.820803701723406, 36.612316247787916 ], [ 126.822452166806485, 36.610229457682607 ], [ 126.817686747191672, 36.60884923637883 ], [ 126.815226729318752, 36.605045488188757 ], [ 126.816344065811606, 36.60158003266767 ], [ 126.81303359877792, 36.599788524606602 ], [ 126.795234263866845, 36.603348425205461 ], [ 126.797194619205783, 36.600083008052842 ], [ 126.794716617415844, 36.597644904787629 ], [ 126.781785591309244, 36.593444072678579 ], [ 126.777239190296655, 36.592938035374608 ], [ 126.771651036506469, 36.594745846513497 ], [ 126.769444098920403, 36.60156388035626 ], [ 126.772533283777705, 36.6070432144055 ], [ 126.770223359836024, 36.610691442972765 ], [ 126.770603539843634, 36.616085339657886 ], [ 126.776797274699192, 36.624000578333174 ], [ 126.781240365458245, 36.622717237307427 ], [ 126.784760648140349, 36.619395894734723 ], [ 126.797226307414121, 36.6239704570445 ], [ 126.802881738683126, 36.623216200201107 ], [ 126.801442560222924, 36.625808617969611 ], [ 126.802927750543219, 36.63002141866717 ], [ 126.798547085474695, 36.63081036689227 ], [ 126.79819896078746, 36.632737119250571 ], [ 126.806090346277358, 36.63765832401517 ], [ 126.805013338011037, 36.640094305041828 ], [ 126.806387384912597, 36.641715774183034 ], [ 126.811887173549295, 36.642175983851743 ], [ 126.811649712714328, 36.644680697635714 ], [ 126.81317065405851, 36.646035479537197 ], [ 126.809454586293228, 36.64826229894603 ], [ 126.8127730389606, 36.653071881113611 ], [ 126.809280136259858, 36.658276943441649 ], [ 126.808358732149486, 36.66295187218541 ], [ 126.813008227393965, 36.66334355998729 ], [ 126.823569666914395, 36.667896852085192 ], [ 126.829730758768875, 36.664157584485906 ], [ 126.831162460619623, 36.666241203952005 ], [ 126.832742095345807, 36.664979020310156 ], [ 126.835393880939023, 36.666382294428203 ], [ 126.83971717926805, 36.66563900399953 ], [ 126.842974910283203, 36.667508244823964 ], [ 126.845589400637635, 36.664898549038142 ], [ 126.8517824573333, 36.664808172014176 ], [ 126.856954775618831, 36.665989195922123 ], [ 126.85827938738295, 36.667736456164647 ], [ 126.860683349707912, 36.666999858787541 ], [ 126.866580739116444, 36.670581808823478 ] ] ] ] } },
{ "type": "Feature", "properties": { "emd_cd": "44810350", "emd_nm": "응봉면" }, "geometry": { "type": "MultiPolygon", "coordinates": [ [ [ [ 126.764060684140958, 36.67260755277465 ], [ 126.769421483335051, 36.669513676400122 ], [ 126.770094976722845, 36.667212606160483 ], [ 126.773928999629348, 36.667772508135855 ], [ 126.777803834812616, 36.664101395214026 ], [ 126.787109884618687, 36.664309348098641 ], [ 126.792418918145444, 36.656372777345169 ], [ 126.797249145682414, 36.657144942435707 ], [ 126.798609072379264, 36.660914071423903 ], [ 126.808091082681585, 36.662624951173683 ], [ 126.8127730389606, 36.653071881113611 ], [ 126.809454586293228, 36.64826229894603 ], [ 126.81317065405851, 36.646035479537197 ], [ 126.811649712714328, 36.644680697635714 ], [ 126.811887173549295, 36.642175983851743 ], [ 126.806387384912597, 36.641715774183034 ], [ 126.805013338011037, 36.640094305041828 ], [ 126.806090346277358, 36.63765832401517 ], [ 126.79819896078746, 36.632737119250571 ], [ 126.798547085474695, 36.63081036689227 ], [ 126.802927750543219, 36.63002141866717 ], [ 126.801442560222924, 36.625808617969611 ], [ 126.802881738683126, 36.623216200201107 ], [ 126.797226307414121, 36.6239704570445 ], [ 126.784760648140349, 36.619395894734723 ], [ 126.781240365458245, 36.622717237307427 ], [ 126.776797274699192, 36.624000578333174 ], [ 126.771089138311694, 36.616541134782537 ], [ 126.764843251761249, 36.619275913877637 ], [ 126.761381778166566, 36.617689522807296 ], [ 126.755948376030958, 36.623617850341184 ], [ 126.758634167636345, 36.626681456976875 ], [ 126.757582658407088, 36.6318871355558 ], [ 126.749736020966239, 36.635255382690559 ], [ 126.751824262685844, 36.645659160968769 ], [ 126.747931121550479, 36.648091523335047 ], [ 126.745536647016863, 36.646346138135364 ], [ 126.742166012948388, 36.648566721991294 ], [ 126.736145283470933, 36.648420430736806 ], [ 126.736115780116165, 36.651680702005336 ], [ 126.737759443075362, 36.65314546438799 ], [ 126.736371979753642, 36.655616523419326 ], [ 126.737205812742431, 36.658430733242987 ], [ 126.735795205207339, 36.659544791552563 ], [ 126.742194351339776, 36.662482564411306 ], [ 126.745400791339321, 36.67065657450123 ], [ 126.759174743117413, 36.669648381005409 ], [ 126.759170798112066, 36.670906701701483 ], [ 126.764060684140958, 36.67260755277465 ] ] ] ] } },
{ "type": "Feature", "properties": { "emd_cd": "44810360", "emd_nm": "덕산면" }, "geometry": { "type": "MultiPolygon", "coordinates": [ [ [ [ 126.627965318438086, 36.736274490613532 ], [ 126.631080890175809, 36.730145203576576 ], [ 126.63360656197851, 36.729064971586581 ], [ 126.633962600505441, 36.7253012177908 ], [ 126.643214938585402, 36.718091606241956 ], [ 126.644396831828601, 36.715318096539498 ], [ 126.648206832909196, 36.714948626202748 ], [ 126.650541045163735, 36.712719298228635 ], [ 126.658776264643123, 36.713410916666561 ], [ 126.669869565829302, 36.711886793903226 ], [ 126.671561845280337, 36.715127912672699 ], [ 126.675394480897239, 36.71478904744253 ], [ 126.678882642580632, 36.716567466189481 ], [ 126.671733385363481, 36.707675814299087 ], [ 126.678988551846345, 36.702154615731004 ], [ 126.679979999660858, 36.698114300174176 ], [ 126.67708633572893, 36.697010764906594 ], [ 126.672204383854776, 36.689064985029901 ], [ 126.669398253736702, 36.689028023142995 ], [ 126.671251275627014, 36.687905678803965 ], [ 126.670454969968816, 36.686524638933342 ], [ 126.665204940574796, 36.682330403466288 ], [ 126.659777673999827, 36.670028991587117 ], [ 126.655938990458878, 36.667251104850543 ], [ 126.653694880867093, 36.660062135926609 ], [ 126.655337718542327, 36.654747899229797 ], [ 126.651928127025585, 36.649853546487108 ], [ 126.641642133105535, 36.647939093706078 ], [ 126.634935138643286, 36.650086325590905 ], [ 126.628165259040813, 36.649450330917745 ], [ 126.626493161288437, 36.645472728214308 ], [ 126.619101757398667, 36.638975413025044 ], [ 126.624654973520379, 36.631420688809513 ], [ 126.623887450211882, 36.626724165924657 ], [ 126.626103087844825, 36.625139794575375 ], [ 126.626532408372171, 36.618071611783854 ], [ 126.625519441689718, 36.618041818927431 ], [ 126.623012144902646, 36.617383375875164 ], [ 126.626517307756558, 36.618011224735667 ], [ 126.626502337505798, 36.613886172443159 ], [ 126.623427935408074, 36.609136412603377 ], [ 126.61576125062038, 36.617443336785477 ], [ 126.616960366345751, 36.619446580126372 ], [ 126.615367350756244, 36.623449183238925 ], [ 126.60618119819064, 36.625283628776835 ], [ 126.605919416514354, 36.622966062972303 ], [ 126.602148315929639, 36.619033979498667 ], [ 126.596741646584661, 36.62151061607608 ], [ 126.586409637026421, 36.617749493227244 ], [ 126.585485503222785, 36.626244611113542 ], [ 126.588187382849043, 36.635483712815784 ], [ 126.587066181006961, 36.637496299434538 ], [ 126.589734001144421, 36.640588870062409 ], [ 126.59026812963819, 36.645656495456535 ], [ 126.595254146522478, 36.649322805792252 ], [ 126.595866828681721, 36.651574508931212 ], [ 126.588967309493768, 36.663532173379402 ], [ 126.5950824489192, 36.668232205682941 ], [ 126.59819561644575, 36.674700621267256 ], [ 126.599104529883292, 36.678684791146601 ], [ 126.59618146929202, 36.685398160779584 ], [ 126.600287308333733, 36.690487910135424 ], [ 126.600134303897576, 36.696906681730276 ], [ 126.604927286194581, 36.698455835703392 ], [ 126.606170527476252, 36.702112053544241 ], [ 126.609684813913191, 36.704308043821158 ], [ 126.605550383419839, 36.710178991380765 ], [ 126.605225196284024, 36.714547785186475 ], [ 126.602371946877483, 36.720046941932317 ], [ 126.604699374884746, 36.72485578159813 ], [ 126.609151221233844, 36.729058604489715 ], [ 126.608761550655558, 36.73293511267152 ], [ 126.610418225405155, 36.73409707000976 ], [ 126.623566294320028, 36.733348513013219 ], [ 126.627965318438086, 36.736274490613532 ] ] ] ] } },
{ "type": "Feature", "properties": { "emd_cd": "44810370", "emd_nm": "봉산면" }, "geometry": { "type": "MultiPolygon", "coordinates": [ [ [ [ 126.694368489910275, 36.784701944828434 ], [ 126.695611448550864, 36.782660216164317 ], [ 126.692417329962851, 36.779126143703969 ], [ 126.694091338757801, 36.777443016573869 ], [ 126.691664192574819, 36.770271881393185 ], [ 126.692511990725265, 36.769285770142559 ], [ 126.689663403306056, 36.768119929725437 ], [ 126.689203484284292, 36.76605273718522 ], [ 126.695142846454047, 36.756697319511751 ], [ 126.69267607980035, 36.754292209423966 ], [ 126.699504684130517, 36.750052414729595 ], [ 126.697864894610703, 36.749360235857168 ], [ 126.699223430766381, 36.748124784875337 ], [ 126.698561491386073, 36.743181149880037 ], [ 126.700570933945116, 36.742006143464458 ], [ 126.699608128546473, 36.736577968071053 ], [ 126.69649646169033, 36.734365770702055 ], [ 126.693182932624836, 36.72840131177329 ], [ 126.695587277790139, 36.725697110208998 ], [ 126.697554083688644, 36.725780689419437 ], [ 126.69707894185585, 36.724093104019545 ], [ 126.698777014385044, 36.722765551819194 ], [ 126.705534591530864, 36.723439916189569 ], [ 126.708138816469145, 36.722201013401936 ], [ 126.679543923951343, 36.714817786785396 ], [ 126.678882642580632, 36.716567466189481 ], [ 126.675394480897239, 36.71478904744253 ], [ 126.671995425485051, 36.715283420359881 ], [ 126.669869565829302, 36.711886793903226 ], [ 126.656066780642774, 36.713480671896917 ], [ 126.654131990511686, 36.71207365621725 ], [ 126.644396831828601, 36.715318096539498 ], [ 126.643214938585402, 36.718091606241956 ], [ 126.633276717979143, 36.726085129014308 ], [ 126.63360656197851, 36.729064971586581 ], [ 126.631080890175809, 36.730145203576576 ], [ 126.627965318438086, 36.736274490613532 ], [ 126.628774540018895, 36.738511392727389 ], [ 126.633037152784695, 36.740627386699209 ], [ 126.632455955440605, 36.742358707870636 ], [ 126.634196473513356, 36.744798636832357 ], [ 126.632320552473743, 36.757239972829915 ], [ 126.637283565444207, 36.75838780491739 ], [ 126.644995787888192, 36.751785368445759 ], [ 126.645861102533402, 36.753137475157224 ], [ 126.649736714601431, 36.753151598329858 ], [ 126.653220818949876, 36.750484066874542 ], [ 126.652776141780521, 36.756593350747565 ], [ 126.647755407336192, 36.759291613068577 ], [ 126.647527988463395, 36.761070497097009 ], [ 126.651156123920487, 36.766346841933085 ], [ 126.649167560936434, 36.770038216768441 ], [ 126.650362802484594, 36.771801050471467 ], [ 126.653330594695305, 36.771791380413767 ], [ 126.653618871584996, 36.774982685809512 ], [ 126.65674273467539, 36.776143282752116 ], [ 126.659754826110614, 36.771232883708919 ], [ 126.663398318592641, 36.77029288748529 ], [ 126.667255045723593, 36.774145756774914 ], [ 126.668981856659883, 36.780651410322797 ], [ 126.674112039921567, 36.783111046649928 ], [ 126.68002650737067, 36.783686247837025 ], [ 126.683030770766166, 36.781343156840776 ], [ 126.685387186648953, 36.783852529867566 ], [ 126.687694359227976, 36.782347845928946 ], [ 126.688090207469912, 36.779718203559753 ], [ 126.689351164804492, 36.783538310657917 ], [ 126.694368489910275, 36.784701944828434 ] ] ] ] } },
{ "type": "Feature", "properties": { "emd_cd": "44810380", "emd_nm": "고덕면" }, "geometry": { "type": "MultiPolygon", "coordinates": [ [ [ [ 126.742404637160661, 36.72548657307253 ], [ 126.743148665006203, 36.725770085845859 ], [ 126.744641563589369, 36.726329880939872 ], [ 126.742404637160661, 36.72548657307253 ] ] ], [ [ [ 126.68936634821641, 36.766168109766014 ], [ 126.689663403306056, 36.768119929725437 ], [ 126.692511990725265, 36.769285770142559 ], [ 126.691664192574819, 36.770271881393185 ], [ 126.694091338757801, 36.777443016573869 ], [ 126.692417329962851, 36.779126143703969 ], [ 126.695611448550864, 36.782660216164317 ], [ 126.693984557349779, 36.784858943683396 ], [ 126.697467588596396, 36.79489667719357 ], [ 126.695423528524145, 36.799613663841377 ], [ 126.699593265379477, 36.802208113752719 ], [ 126.713647639708071, 36.803515177441362 ], [ 126.727979994174916, 36.796024302237022 ], [ 126.73626993596308, 36.786308659221518 ], [ 126.737222884852329, 36.780447645395327 ], [ 126.743473875106616, 36.777871928993108 ], [ 126.746598317304901, 36.767082250691494 ], [ 126.759116474149891, 36.763277515421031 ], [ 126.767809681590748, 36.756355439772634 ], [ 126.76605253522564, 36.755141334243383 ], [ 126.772023956866249, 36.750797983092298 ], [ 126.772436816349838, 36.748438532959739 ], [ 126.763339057579486, 36.745813857543574 ], [ 126.76185747878425, 36.743454105868103 ], [ 126.758720031376384, 36.743552546658577 ], [ 126.750419654884709, 36.73891748492791 ], [ 126.753914507347204, 36.736106466746726 ], [ 126.75343693414851, 36.733852977160062 ], [ 126.748540881458979, 36.72527733045829 ], [ 126.745669456112481, 36.727044596706854 ], [ 126.738927264676306, 36.724977348207261 ], [ 126.7388342825801, 36.723268791626701 ], [ 126.742976316754351, 36.722784228040275 ], [ 126.742770324938633, 36.718552593141162 ], [ 126.738947993132257, 36.716071022167355 ], [ 126.739601233046756, 36.712634341876608 ], [ 126.735291538634144, 36.707624125595402 ], [ 126.727354106758398, 36.71065726846134 ], [ 126.726856132499023, 36.7127342394406 ], [ 126.728626761285142, 36.713888801971727 ], [ 126.727668934888015, 36.715301967664949 ], [ 126.715469567254317, 36.712844190194581 ], [ 126.713200736812709, 36.714355764240892 ], [ 126.709153063945124, 36.722469066922407 ], [ 126.698777014385044, 36.722765551819194 ], [ 126.69707894185585, 36.724093104019545 ], [ 126.697554083688644, 36.725780689419437 ], [ 126.695587277790139, 36.725697110208998 ], [ 126.693347241752718, 36.728156265014178 ], [ 126.69649646169033, 36.734365770702055 ], [ 126.699608128546473, 36.736577968071053 ], [ 126.700570933945116, 36.742006143464458 ], [ 126.698561491386073, 36.743181149880037 ], [ 126.699223430766381, 36.748124784875337 ], [ 126.697864894610703, 36.749360235857168 ], [ 126.699504684130517, 36.750052414729595 ], [ 126.69267607980035, 36.754292209423966 ], [ 126.695142846454047, 36.756697319511751 ], [ 126.68936634821641, 36.766168109766014 ] ] ] ] } },
{ "type": "Feature", "properties": { "emd_cd": "44810390", "emd_nm": "신암면" }, "geometry": { "type": "MultiPolygon", "coordinates": [ [ [ [ 126.750407017521354, 36.738878701408012 ], [ 126.758720031376384, 36.743552546658577 ], [ 126.76185747878425, 36.743454105868103 ], [ 126.763339057579486, 36.745813857543574 ], [ 126.772436816349838, 36.748438532959739 ], [ 126.776049265422969, 36.754874977450299 ], [ 126.782496664939814, 36.758242293822576 ], [ 126.783244200744605, 36.761495269302891 ], [ 126.786960094100166, 36.764011608569277 ], [ 126.788043614809766, 36.762984417764059 ], [ 126.794195536499672, 36.767728570356439 ], [ 126.800670629202386, 36.766231136869756 ], [ 126.801981000971722, 36.76829973826424 ], [ 126.798907515001318, 36.773854007569568 ], [ 126.80066147229671, 36.775038144839968 ], [ 126.802112039800249, 36.775427358194733 ], [ 126.810393563786192, 36.770045956438992 ], [ 126.813720217128534, 36.7734268248186 ], [ 126.823291417834213, 36.776120703116852 ], [ 126.82484658898494, 36.777305096146669 ], [ 126.814298289142016, 36.785234662079354 ], [ 126.816897886145966, 36.787076261100978 ], [ 126.823366340724192, 36.783859168406025 ], [ 126.836108920995258, 36.786170090118439 ], [ 126.833890444717298, 36.784413683156586 ], [ 126.83512303351425, 36.782559609630361 ], [ 126.834488222448613, 36.778540130656204 ], [ 126.832456462087009, 36.77815806595472 ], [ 126.832223982902008, 36.776030930516946 ], [ 126.829243025331849, 36.773700476207743 ], [ 126.829387851167596, 36.771598596795627 ], [ 126.832095003866854, 36.770172160120609 ], [ 126.829077653637967, 36.769526497438207 ], [ 126.831191657918879, 36.767955681995325 ], [ 126.83217574493186, 36.762145033951683 ], [ 126.830873370908876, 36.762082339674222 ], [ 126.834309658127154, 36.760220935668265 ], [ 126.837982045858524, 36.760633611034123 ], [ 126.837938413354365, 36.753949439878681 ], [ 126.841860305606957, 36.751663768809564 ], [ 126.847229157610158, 36.753256599761336 ], [ 126.850438424729035, 36.748097449572256 ], [ 126.846199283883919, 36.746837761325615 ], [ 126.847853058097058, 36.741629849452295 ], [ 126.840295786524749, 36.736298125409938 ], [ 126.840362297457077, 36.73462288987885 ], [ 126.834332501204614, 36.736525397151247 ], [ 126.832866256012721, 36.732629458536941 ], [ 126.827900838757557, 36.730146145975453 ], [ 126.827935991628706, 36.728504148416434 ], [ 126.832457156715819, 36.724799246014229 ], [ 126.825640901148404, 36.719437892434108 ], [ 126.827436911819973, 36.713965963892413 ], [ 126.826893510373125, 36.709261610297986 ], [ 126.824710418444994, 36.707877433412271 ], [ 126.82181667671685, 36.707988426747328 ], [ 126.822134167488485, 36.709267908188274 ], [ 126.819408624730812, 36.710623847036224 ], [ 126.810155141941593, 36.710164318007834 ], [ 126.808194204126934, 36.713775804708483 ], [ 126.810512466911931, 36.715443630928711 ], [ 126.805614865986016, 36.717109246392042 ], [ 126.796092766685774, 36.725729866144029 ], [ 126.793333331541248, 36.721227368880278 ], [ 126.784974014735184, 36.725683740663627 ], [ 126.775960663936829, 36.726074498234418 ], [ 126.772874251666821, 36.721329580928241 ], [ 126.770718919186862, 36.720788807637589 ], [ 126.76713029208662, 36.723972430892239 ], [ 126.76951077204744, 36.727470996553564 ], [ 126.755240536127744, 36.734462712144818 ], [ 126.750407017521354, 36.738878701408012 ] ] ] ] } },
{ "type": "Feature", "properties": { "emd_cd": "44810400", "emd_nm": "오가면" }, "geometry": { "type": "MultiPolygon", "coordinates": [ [ [ [ 126.766681236199403, 36.671067384615249 ], [ 126.766789139316614, 36.671130207349222 ], [ 126.76664781696509, 36.671036076776382 ], [ 126.766681236199403, 36.671067384615249 ] ] ], [ [ [ 126.761511391121104, 36.687286568539712 ], [ 126.765042054776771, 36.686922108085064 ], [ 126.767818225088618, 36.686628226544187 ], [ 126.761511391121104, 36.687286568539712 ] ] ], [ [ [ 126.760435462670955, 36.687422510242108 ], [ 126.761306117976034, 36.687352927748499 ], [ 126.761304004100538, 36.687327484843379 ], [ 126.760435462670955, 36.687422510242108 ] ] ], [ [ [ 126.766791803377743, 36.670289734724207 ], [ 126.76764967978788, 36.676463124065556 ], [ 126.76515145179529, 36.676398268078515 ], [ 126.765054422107809, 36.679262202826564 ], [ 126.767365880035143, 36.679300110841041 ], [ 126.767224525946801, 36.684041085351694 ], [ 126.767939294366002, 36.686573648853688 ], [ 126.767752180896082, 36.687252366548911 ], [ 126.766006610803146, 36.690855122380057 ], [ 126.757580690479415, 36.694752879040294 ], [ 126.759891196355341, 36.6960895883579 ], [ 126.759643840856612, 36.698647859493029 ], [ 126.76204438983163, 36.701237471708069 ], [ 126.760651492450705, 36.705788662346073 ], [ 126.758601755385087, 36.706681047690623 ], [ 126.757024838637662, 36.7143933121476 ], [ 126.766715599406211, 36.724214644541128 ], [ 126.77134762799399, 36.720612712187275 ], [ 126.775960663936829, 36.726074498234418 ], [ 126.778971284278668, 36.726547167184798 ], [ 126.784974014735184, 36.725683740663627 ], [ 126.793333331541248, 36.721227368880278 ], [ 126.796092766685774, 36.725729866144029 ], [ 126.805614865986016, 36.717109246392042 ], [ 126.810512466911931, 36.715443630928711 ], [ 126.808194204126934, 36.713775804708483 ], [ 126.810155141941593, 36.710164318007834 ], [ 126.817008461220709, 36.710644265976946 ], [ 126.814838701341358, 36.705525990648866 ], [ 126.819357061266089, 36.704847642170755 ], [ 126.821769030812291, 36.692726240480312 ], [ 126.821648241686788, 36.690904369542992 ], [ 126.816690846606647, 36.688195226232104 ], [ 126.816150317157934, 36.682863293979857 ], [ 126.818425710300133, 36.68066581231411 ], [ 126.824094915999524, 36.679957377334787 ], [ 126.823569666914395, 36.667896852085192 ], [ 126.813008227393965, 36.66334355998729 ], [ 126.798609072379264, 36.660914071423903 ], [ 126.797249145682414, 36.657144942435707 ], [ 126.79415484897477, 36.656155450025864 ], [ 126.791558986311713, 36.656952671518553 ], [ 126.787109884618687, 36.664309348098641 ], [ 126.777803834812616, 36.664101395214026 ], [ 126.773928999629348, 36.667772508135855 ], [ 126.770094976722845, 36.667212606160483 ], [ 126.769421483335051, 36.669513676400122 ], [ 126.766791803377743, 36.670289734724207 ] ], [ [ 126.818314102591614, 36.704012488857302 ], [ 126.818228636081443, 36.703856788103813 ], [ 126.818391429278833, 36.703768900082871 ], [ 126.818314102591614, 36.704012488857302 ] ] ] ] } }
]
}
