{
"type": "FeatureCollection",
"name": "31140",
"crs": { "type": "name", "properties": { "name": "urn:ogc:def:crs:OGC:1.3:CRS84" } },
"features": [
{ "type": "Feature", "properties": { "emd_cd": "31140101", "emd_nm": "무거동" }, "geometry": { "type": "MultiPolygon", "coordinates": [ [ [ [ 129.23653927620893, 35.536172097320126 ], [ 129.238812202645505, 35.53986831215532 ], [ 129.241997173821204, 35.540052986498488 ], [ 129.244162573996363, 35.542789153394459 ], [ 129.249492159090863, 35.544703412445699 ], [ 129.248883581984842, 35.546255564979198 ], [ 129.252226345960139, 35.548754726525203 ], [ 129.254608938442232, 35.553415240057774 ], [ 129.255918261433578, 35.554345052131353 ], [ 129.261689392911762, 35.55168238441464 ], [ 129.260690589863572, 35.552331673232167 ], [ 129.262770636791174, 35.556174171828964 ], [ 129.26510738924631, 35.556835320589521 ], [ 129.270841550440792, 35.55342249363116 ], [ 129.28037466124664, 35.553161752458315 ], [ 129.294670118144722, 35.54519487686958 ], [ 129.29432646803528, 35.543129217039493 ], [ 129.290335906951526, 35.541597728291485 ], [ 129.287850725753714, 35.5445483537518 ], [ 129.281640134562281, 35.544649439658947 ], [ 129.27452104700771, 35.547161739955612 ], [ 129.273286749971192, 35.5464541377901 ], [ 129.274552135017728, 35.542246489953229 ], [ 129.273224853685321, 35.541166312511336 ], [ 129.264832158194565, 35.54376630315636 ], [ 129.266563754553914, 35.538644957933457 ], [ 129.261895873136183, 35.538372707201503 ], [ 129.259273100314033, 35.535021394956523 ], [ 129.254620528047582, 35.534967474652781 ], [ 129.253851090872644, 35.532728717535917 ], [ 129.247789192109792, 35.533346209115138 ], [ 129.245601548996063, 35.536090011501933 ], [ 129.23653927620893, 35.536172097320126 ] ] ] ] } },
{ "type": "Feature", "properties": { "emd_cd": "31140102", "emd_nm": "옥동" }, "geometry": { "type": "MultiPolygon", "coordinates": [ [ [ [ 129.257213131320782, 35.534357172340172 ], [ 129.261895873143999, 35.538372707201248 ], [ 129.266563754561844, 35.538644957933137 ], [ 129.264832158202381, 35.543766303156119 ], [ 129.273224853693364, 35.541166312511002 ], [ 129.274552135025772, 35.542246489952895 ], [ 129.273286749979206, 35.546454137789866 ], [ 129.274521047015725, 35.547161739955357 ], [ 129.281640134570438, 35.544649439658613 ], [ 129.287850725761871, 35.544548353751459 ], [ 129.290080151388082, 35.541632211257152 ], [ 129.294541110054155, 35.543635754409443 ], [ 129.295383637287529, 35.539764881887706 ], [ 129.297514653866841, 35.539510894381692 ], [ 129.296195794119939, 35.532963424686855 ], [ 129.299071756587409, 35.529560101436211 ], [ 129.290941358432008, 35.525931946220048 ], [ 129.295944743857689, 35.523688008780809 ], [ 129.297758661327833, 35.524902516233325 ], [ 129.301532848353276, 35.51781800669621 ], [ 129.300510577005809, 35.515703081902942 ], [ 129.298345576766707, 35.515275409791208 ], [ 129.297751341832111, 35.517681983398887 ], [ 129.289633506746895, 35.521757224984256 ], [ 129.28709786800087, 35.52000503212335 ], [ 129.287460582457413, 35.51806563502322 ], [ 129.282188186955125, 35.516873263682889 ], [ 129.280654844152167, 35.520682912210688 ], [ 129.274075634348975, 35.523750708223261 ], [ 129.274285255406426, 35.52920828890219 ], [ 129.264373318960168, 35.530839917383837 ], [ 129.260686467231437, 35.529441856854874 ], [ 129.257579754331204, 35.53158366498814 ], [ 129.257213131320782, 35.534357172340172 ] ] ] ] } },
{ "type": "Feature", "properties": { "emd_cd": "31140103", "emd_nm": "두왕동" }, "geometry": { "type": "MultiPolygon", "coordinates": [ [ [ [ 129.309942642735137, 35.505031818648888 ], [ 129.308283137516156, 35.496982910695252 ], [ 129.30617954022847, 35.497607110125266 ], [ 129.304234057421212, 35.495255791755547 ], [ 129.30090809405425, 35.495100351970031 ], [ 129.296520183656412, 35.501374405743043 ], [ 129.29375543051998, 35.502808884154959 ], [ 129.291985517159645, 35.507136404122392 ], [ 129.290596741694998, 35.506974027406031 ], [ 129.290761316946771, 35.508743288605679 ], [ 129.289023237628214, 35.509098004038648 ], [ 129.288258578799855, 35.514969720144663 ], [ 129.283513025266529, 35.51714034650557 ], [ 129.287460582457413, 35.51806563502322 ], [ 129.28709786800087, 35.52000503212335 ], [ 129.289633506746895, 35.521757224984256 ], [ 129.297751341832111, 35.517681983398887 ], [ 129.298345576766707, 35.515275409791208 ], [ 129.300510577005809, 35.515703081902942 ], [ 129.301393856889916, 35.517844832462906 ], [ 129.307799384062037, 35.518360636966563 ], [ 129.309657694061201, 35.516418466283433 ], [ 129.308740023740341, 35.507615396192861 ], [ 129.309942642735137, 35.505031818648888 ] ] ] ] } },
{ "type": "Feature", "properties": { "emd_cd": "31140104", "emd_nm": "신정동" }, "geometry": { "type": "MultiPolygon", "coordinates": [ [ [ [ 129.321970680520906, 35.549961645532093 ], [ 129.326180283946599, 35.541629165134971 ], [ 129.312836280680756, 35.538140044899428 ], [ 129.315102023850017, 35.53194526507454 ], [ 129.323585942624874, 35.531139347082096 ], [ 129.321348314252987, 35.527979575655088 ], [ 129.314501097330748, 35.524448598216978 ], [ 129.308912199008745, 35.518077439484699 ], [ 129.301393856889916, 35.517844832462906 ], [ 129.297758661327833, 35.52490251623334 ], [ 129.295944743857689, 35.523688008780809 ], [ 129.291273362218988, 35.525122659063797 ], [ 129.291212895641593, 35.526878863113666 ], [ 129.299071756587409, 35.529560101436218 ], [ 129.296195794119939, 35.532963424686848 ], [ 129.297514653866813, 35.539510894381692 ], [ 129.295383637287557, 35.539764881887741 ], [ 129.294670118153107, 35.545194876869246 ], [ 129.302828233517801, 35.546457026560304 ], [ 129.303049264300114, 35.550876782651684 ], [ 129.304519117677756, 35.552295489889346 ], [ 129.321970680520906, 35.549961645532093 ] ] ] ] } },
{ "type": "Feature", "properties": { "emd_cd": "31140105", "emd_nm": "달동" }, "geometry": { "type": "MultiPolygon", "coordinates": [ [ [ [ 129.341401422295121, 35.532825254162837 ], [ 129.332468210330831, 35.533362576707503 ], [ 129.327457614438742, 35.530377454573497 ], [ 129.322221771906584, 35.532051118100917 ], [ 129.315102023850017, 35.53194526507454 ], [ 129.312836280680756, 35.538140044899428 ], [ 129.326180283946599, 35.541629165134971 ], [ 129.324860811121425, 35.545468243242944 ], [ 129.329580849901845, 35.546768585983934 ], [ 129.330820393450153, 35.543906938517537 ], [ 129.33565944307793, 35.544358061748838 ], [ 129.336152164800978, 35.536442991734447 ], [ 129.340419533711412, 35.535937246544151 ], [ 129.341401422295121, 35.532825254162837 ] ] ] ] } },
{ "type": "Feature", "properties": { "emd_cd": "31140106", "emd_nm": "삼산동" }, "geometry": { "type": "MultiPolygon", "coordinates": [ [ [ [ 129.363038045346173, 35.540617665949902 ], [ 129.351374215481712, 35.53600543798585 ], [ 129.350349864871333, 35.534117564215641 ], [ 129.341401422295121, 35.532825254162837 ], [ 129.340419533711412, 35.535937246544151 ], [ 129.336152164800978, 35.536442991734447 ], [ 129.33565944307793, 35.544358061748838 ], [ 129.330820393450153, 35.543906938517537 ], [ 129.329580849901845, 35.546768585983934 ], [ 129.324900337744396, 35.545372780489842 ], [ 129.32197186515225, 35.549904599617285 ], [ 129.346970970093025, 35.549576515157391 ], [ 129.363208664915646, 35.543988535503793 ], [ 129.364466937135774, 35.542976227329987 ], [ 129.363038045346173, 35.540617665949902 ] ] ] ] } },
{ "type": "Feature", "properties": { "emd_cd": "31140107", "emd_nm": "여천동" }, "geometry": { "type": "MultiPolygon", "coordinates": [ [ [ [ 129.367373312619208, 35.52549999114882 ], [ 129.3633270353873, 35.520178452516426 ], [ 129.36413247995651, 35.510994055677514 ], [ 129.360451888369056, 35.511255939683352 ], [ 129.352589695296189, 35.515588744636801 ], [ 129.351929786803026, 35.50885316431939 ], [ 129.347587279931787, 35.510545358129477 ], [ 129.345749345545585, 35.509569870510418 ], [ 129.340031912869733, 35.51452124717612 ], [ 129.34434890353532, 35.52160582356678 ], [ 129.343721338848894, 35.526656787447386 ], [ 129.341094842645504, 35.531216767173937 ], [ 129.342205301092378, 35.533212660225736 ], [ 129.350349864871333, 35.534117564215641 ], [ 129.351374215481712, 35.53600543798585 ], [ 129.364643033374364, 35.540612690170171 ], [ 129.378064661825704, 35.52803618683236 ], [ 129.374566859953575, 35.529238981603591 ], [ 129.372991002060502, 35.524702325515676 ], [ 129.35752762510586, 35.528808752220705 ], [ 129.367373312619208, 35.52549999114882 ] ] ] ] } },
{ "type": "Feature", "properties": { "emd_cd": "31140108", "emd_nm": "야음동" }, "geometry": { "type": "MultiPolygon", "coordinates": [ [ [ [ 129.312578598056177, 35.520905826501235 ], [ 129.323585942624874, 35.531139347082096 ], [ 129.327617508969155, 35.530390595813948 ], [ 129.335244769546449, 35.533551695357971 ], [ 129.341490069531005, 35.53272000354248 ], [ 129.34434890353532, 35.52160582356678 ], [ 129.339889053273112, 35.514901157018528 ], [ 129.327432582116359, 35.521725483354842 ], [ 129.318794217287234, 35.518830074024223 ], [ 129.312578598056177, 35.520905826501235 ] ] ] ] } },
{ "type": "Feature", "properties": { "emd_cd": "31140109", "emd_nm": "선암동" }, "geometry": { "type": "MultiPolygon", "coordinates": [ [ [ [ 129.339889053273112, 35.514901157018528 ], [ 129.345466679866604, 35.508098371457031 ], [ 129.342455501083776, 35.504460673992448 ], [ 129.332082169288043, 35.506304832213559 ], [ 129.329186828408893, 35.508619667130581 ], [ 129.328821639132912, 35.51151158001003 ], [ 129.32446928391218, 35.513417991873439 ], [ 129.320917573744737, 35.513478480476465 ], [ 129.317657751622846, 35.510432507208129 ], [ 129.310610433450222, 35.509052902901473 ], [ 129.313362642953535, 35.508533494190836 ], [ 129.313027755614371, 35.505447862321695 ], [ 129.31129307624542, 35.504824033880531 ], [ 129.311753807049001, 35.506514047058488 ], [ 129.311005368916113, 35.504846403529868 ], [ 129.308949303541993, 35.505204339282734 ], [ 129.309668905401082, 35.516308866926202 ], [ 129.308449388101025, 35.517855745371705 ], [ 129.313164769157879, 35.522410604939644 ], [ 129.312578598056177, 35.520905826501235 ], [ 129.318794217287234, 35.518830074024223 ], [ 129.327432582116359, 35.521725483354842 ], [ 129.339889053273112, 35.514901157018528 ] ], [ [ 129.31102771752316, 35.508257491575357 ], [ 129.310001593261063, 35.507678151605866 ], [ 129.310112650103434, 35.506483376382917 ], [ 129.31162079694866, 35.506780452444588 ], [ 129.31102771752316, 35.508257491575357 ] ] ] ] } },
{ "type": "Feature", "properties": { "emd_cd": "31140110", "emd_nm": "상개동" }, "geometry": { "type": "MultiPolygon", "coordinates": [ [ [ [ 129.329539119311846, 35.510473517393422 ], [ 129.325634321690245, 35.502012534871781 ], [ 129.323240621191559, 35.501034624495666 ], [ 129.324772801178341, 35.50087077339402 ], [ 129.324501142468819, 35.498719540571365 ], [ 129.320311329284095, 35.498403819539995 ], [ 129.320927603649068, 35.496014871422744 ], [ 129.328933634745766, 35.489240236693355 ], [ 129.328073413043853, 35.488195391468196 ], [ 129.326727585454108, 35.489589427365964 ], [ 129.323335204705302, 35.487332634406869 ], [ 129.32024608863631, 35.48766602368638 ], [ 129.318373912571303, 35.492951019241822 ], [ 129.314021946635165, 35.491767885236236 ], [ 129.309047812901213, 35.49437997305504 ], [ 129.307897362623009, 35.496716538306153 ], [ 129.309291808347211, 35.504183375616577 ], [ 129.311753807040304, 35.506514047058822 ], [ 129.311293076236723, 35.504824033880787 ], [ 129.312963584486113, 35.505328335526301 ], [ 129.313563427139769, 35.506981659976773 ], [ 129.313334193387448, 35.508559254739922 ], [ 129.311195399877732, 35.508350255474873 ], [ 129.310610433441639, 35.509052902901722 ], [ 129.317657751614036, 35.510432507208478 ], [ 129.320917573735954, 35.513478480476707 ], [ 129.325926144413785, 35.513380923720909 ], [ 129.329539119311846, 35.510473517393422 ] ] ], [ [ [ 129.310112650094879, 35.506483376383251 ], [ 129.311255964303797, 35.508248253247785 ], [ 129.311620796940076, 35.506780452444929 ], [ 129.310112650094879, 35.506483376383251 ] ] ] ] } },
{ "type": "Feature", "properties": { "emd_cd": "31140111", "emd_nm": "부곡동" }, "geometry": { "type": "MultiPolygon", "coordinates": [ [ [ [ 129.354291536865219, 35.491968602939238 ], [ 129.349495267726923, 35.488815056529482 ], [ 129.343881859593921, 35.493487267566536 ], [ 129.340459546920698, 35.49063028244003 ], [ 129.333245419975327, 35.492500323891882 ], [ 129.331603153455603, 35.4895654168132 ], [ 129.332793618418123, 35.488723169279368 ], [ 129.328073413052778, 35.488195391467848 ], [ 129.328933634754662, 35.489240236692993 ], [ 129.320927603657879, 35.496014871422396 ], [ 129.320311329292878, 35.498403819539647 ], [ 129.324501142477743, 35.498719540571024 ], [ 129.324772801187294, 35.500870773393764 ], [ 129.323240621200483, 35.501034624495333 ], [ 129.325634321699141, 35.502012534871305 ], [ 129.329186828408893, 35.508619667130567 ], [ 129.336977077473819, 35.504685900103716 ], [ 129.344240514580321, 35.505233805705316 ], [ 129.346440377282249, 35.499004647280024 ], [ 129.349484712457894, 35.498041753968828 ], [ 129.354291536865219, 35.491968602939238 ] ] ] ] } },
{ "type": "Feature", "properties": { "emd_cd": "31140112", "emd_nm": "고사동" }, "geometry": { "type": "MultiPolygon", "coordinates": [ [ [ [ 129.344240514580321, 35.505233805705316 ], [ 129.345541900231098, 35.507700648690857 ], [ 129.344224319558009, 35.510283686989382 ], [ 129.347587279931787, 35.510545358129477 ], [ 129.362305917544745, 35.504820934375296 ], [ 129.36697734238868, 35.497734280465636 ], [ 129.370166165227602, 35.498396523584347 ], [ 129.371382302629968, 35.497249558626386 ], [ 129.369232432660084, 35.493838685289916 ], [ 129.357747593635025, 35.496137033858226 ], [ 129.357342173095986, 35.493196065331119 ], [ 129.356272784445736, 35.493573884588358 ], [ 129.357581002163499, 35.492099317514707 ], [ 129.352417456029627, 35.489874859446019 ], [ 129.354291536865219, 35.491968602939238 ], [ 129.349484712457894, 35.498041753968828 ], [ 129.346440377282249, 35.499004647280024 ], [ 129.344240514580321, 35.505233805705316 ] ] ] ] } },
{ "type": "Feature", "properties": { "emd_cd": "31140113", "emd_nm": "성암동" }, "geometry": { "type": "MultiPolygon", "coordinates": [ [ [ [ 129.328073413052778, 35.488195391467848 ], [ 129.332793618418123, 35.488723169279368 ], [ 129.331603153455603, 35.4895654168132 ], [ 129.333245419975327, 35.492500323891882 ], [ 129.340459546920698, 35.49063028244003 ], [ 129.343881859593921, 35.493487267566536 ], [ 129.349495267726923, 35.488815056529482 ], [ 129.351865432791101, 35.490373467484403 ], [ 129.352304721138182, 35.487770993800893 ], [ 129.355004893645628, 35.488616275224544 ], [ 129.355175231993485, 35.48708479141478 ], [ 129.356511259014468, 35.487279514669396 ], [ 129.356341495017148, 35.478491969174442 ], [ 129.353554912560526, 35.476598564032521 ], [ 129.353186584467295, 35.473556877707807 ], [ 129.347066819003828, 35.47222873083043 ], [ 129.346599895250819, 35.470251634681034 ], [ 129.341295403437016, 35.475693061091867 ], [ 129.339578134714117, 35.475378868034227 ], [ 129.339882626651843, 35.478663144532071 ], [ 129.337752417524001, 35.482058201386167 ], [ 129.329438931167772, 35.485895479081186 ], [ 129.328073413052778, 35.488195391467848 ] ] ] ] } },
{ "type": "Feature", "properties": { "emd_cd": "31140114", "emd_nm": "황성동" }, "geometry": { "type": "MultiPolygon", "coordinates": [ [ [ [ 129.371052233400178, 35.452578742361254 ], [ 129.373402525134679, 35.452694552558022 ], [ 129.377297324745115, 35.451472578896279 ], [ 129.371052233400178, 35.452578742361254 ] ] ], [ [ [ 129.37903974737921, 35.45092059077934 ], [ 129.380399088060813, 35.455475581256366 ], [ 129.384268649199896, 35.460454432929211 ], [ 129.391172049330862, 35.467503063197071 ], [ 129.380626119315423, 35.455405197600811 ], [ 129.37903974737921, 35.45092059077934 ] ] ], [ [ [ 129.346721617070642, 35.470473160360932 ], [ 129.347066819003828, 35.47222873083043 ], [ 129.350159659675455, 35.471892536266701 ], [ 129.355068369535871, 35.474752526912205 ], [ 129.362988552850226, 35.472784756204156 ], [ 129.364449039707154, 35.468007074416654 ], [ 129.367999916483114, 35.469768467294671 ], [ 129.372996433040271, 35.469857498782034 ], [ 129.374067993332972, 35.468466180915641 ], [ 129.378174021835207, 35.471295422225069 ], [ 129.383223633623345, 35.468234147176958 ], [ 129.377544151052859, 35.460932314383513 ], [ 129.373602593147126, 35.462313429541688 ], [ 129.371001441035702, 35.457341445776059 ], [ 129.373896645769719, 35.455984089149183 ], [ 129.370257820710549, 35.457257717318683 ], [ 129.368681094920106, 35.454244613437346 ], [ 129.354337625815646, 35.459272508400147 ], [ 129.350538147242105, 35.468280659954026 ], [ 129.346721617070642, 35.470473160360932 ] ] ], [ [ [ 129.349024531427546, 35.467302552946329 ], [ 129.349298548794792, 35.467238023447599 ], [ 129.349212279499, 35.466965636705197 ], [ 129.349024531427546, 35.467302552946329 ] ] ] ] } },
{ "type": "Feature", "properties": { "emd_cd": "31140115", "emd_nm": "용연동" }, "geometry": { "type": "MultiPolygon", "coordinates": [ [ [ [ 129.352417456029627, 35.489874859446019 ], [ 129.357581002163499, 35.492099317514707 ], [ 129.356272784445736, 35.493573884588358 ], [ 129.357342173095986, 35.493196065331119 ], [ 129.357747593635025, 35.496137033858226 ], [ 129.363078151966732, 35.491358243590284 ], [ 129.364381113607266, 35.491916995189634 ], [ 129.366381086055156, 35.486728733987938 ], [ 129.365750277306461, 35.484342834073637 ], [ 129.368081793198172, 35.484688831089805 ], [ 129.370473508085041, 35.479017092333351 ], [ 129.370083884547654, 35.475302307568903 ], [ 129.372998018984447, 35.472588015838873 ], [ 129.37383966324461, 35.469260635594523 ], [ 129.366822895151529, 35.469700986110126 ], [ 129.364449039707154, 35.468007074416654 ], [ 129.361475612882117, 35.473684451767632 ], [ 129.353215261314489, 35.473778784927902 ], [ 129.353554912560526, 35.476598564032521 ], [ 129.356341495017148, 35.478491969174442 ], [ 129.356511259014468, 35.487279514669396 ], [ 129.355175231993485, 35.48708479141478 ], [ 129.355004893645628, 35.488616275224544 ], [ 129.352304721138182, 35.487770993800893 ], [ 129.352417456029627, 35.489874859446019 ] ] ] ] } },
{ "type": "Feature", "properties": { "emd_cd": "31140116", "emd_nm": "남화동" }, "geometry": { "type": "MultiPolygon", "coordinates": [ [ [ [ 129.369764134812982, 35.480574057438702 ], [ 129.37379515854866, 35.480898549838642 ], [ 129.375487932620274, 35.479208595206437 ], [ 129.381267892077972, 35.480644125867201 ], [ 129.381207952993179, 35.478648780824713 ], [ 129.383974078324769, 35.478775330917962 ], [ 129.385516578624447, 35.476812221239911 ], [ 129.388027532263436, 35.477837997041696 ], [ 129.386617762120409, 35.476695959437343 ], [ 129.383974892648865, 35.476704797016815 ], [ 129.384574287674781, 35.475622740666097 ], [ 129.380746210394278, 35.471706012649683 ], [ 129.377561063401771, 35.472180834946627 ], [ 129.378674927836755, 35.471610665475438 ], [ 129.374067993332972, 35.468466180915641 ], [ 129.374287424024374, 35.470394578880565 ], [ 129.370083884547654, 35.475302307568903 ], [ 129.369764134812982, 35.480574057438702 ] ] ] ] } },
{ "type": "Feature", "properties": { "emd_cd": "31140117", "emd_nm": "용잠동" }, "geometry": { "type": "MultiPolygon", "coordinates": [ [ [ [ 129.369764134812982, 35.480574057438702 ], [ 129.368081793198172, 35.484688831089805 ], [ 129.365750277306461, 35.484342834073637 ], [ 129.366381086055156, 35.486728733987938 ], [ 129.364381113607266, 35.491916995189634 ], [ 129.36232479233837, 35.491858656031319 ], [ 129.360030187375202, 35.495101863421262 ], [ 129.369232432660084, 35.493838685289916 ], [ 129.372162084520056, 35.498013458298573 ], [ 129.375695623041508, 35.50002295432305 ], [ 129.379313651549779, 35.499859323237452 ], [ 129.388901148632925, 35.48769029718698 ], [ 129.384690827224915, 35.48428481444892 ], [ 129.38697885033298, 35.483705562290716 ], [ 129.383722066536791, 35.480851148473995 ], [ 129.383974078324769, 35.478775330917962 ], [ 129.381207952993179, 35.478648780824713 ], [ 129.381267892077972, 35.480644125867201 ], [ 129.375487932620274, 35.479208595206437 ], [ 129.37379515854866, 35.480898549838642 ], [ 129.369764134812982, 35.480574057438702 ] ] ] ] } },
{ "type": "Feature", "properties": { "emd_cd": "31140118", "emd_nm": "장생포동" }, "geometry": { "type": "MultiPolygon", "coordinates": [ [ [ [ 129.367248629187344, 35.503879517023769 ], [ 129.366823857968285, 35.507155703560265 ], [ 129.368369005075152, 35.509558414199539 ], [ 129.370200358023027, 35.509589396445769 ], [ 129.37247329622133, 35.507464381162201 ], [ 129.378774626908552, 35.505772375196962 ], [ 129.380565923188584, 35.502541585976992 ], [ 129.369921081510455, 35.501051486656259 ], [ 129.367248629187344, 35.503879517023769 ] ] ] ] } },
{ "type": "Feature", "properties": { "emd_cd": "31140119", "emd_nm": "매암동" }, "geometry": { "type": "MultiPolygon", "coordinates": [ [ [ [ 129.351929786803026, 35.50885316431939 ], [ 129.352589695296189, 35.515588744636801 ], [ 129.360451888369056, 35.511255939683352 ], [ 129.36413247995651, 35.510994055677514 ], [ 129.3633270353873, 35.520178452516426 ], [ 129.367373312619208, 35.52549999114882 ], [ 129.375947589567829, 35.522389483895303 ], [ 129.374989897123271, 35.517554456015219 ], [ 129.384816034344027, 35.515948662933361 ], [ 129.386022159738218, 35.511125769020211 ], [ 129.384802017683398, 35.51075033275977 ], [ 129.387700741901853, 35.507660547970687 ], [ 129.388583377683887, 35.504693932125633 ], [ 129.387384886317193, 35.504128386399387 ], [ 129.388700842934867, 35.504280752302066 ], [ 129.387395541606452, 35.501865051567677 ], [ 129.389379407926157, 35.501778203871943 ], [ 129.385235041052226, 35.500862048234652 ], [ 129.379365869059029, 35.502969609212819 ], [ 129.378774626918556, 35.505772375196678 ], [ 129.37247329623122, 35.507464381161917 ], [ 129.370294851053188, 35.509578255994761 ], [ 129.367808786029343, 35.508944585097744 ], [ 129.366531214190445, 35.503725395864841 ], [ 129.351929786803026, 35.50885316431939 ] ] ] ] } }
]
}
