{
"type": "FeatureCollection",
"name": "31170",
"crs": { "type": "name", "properties": { "name": "urn:ogc:def:crs:OGC:1.3:CRS84" } },
"features": [
{ "type": "Feature", "properties": { "emd_cd": "31170101", "emd_nm": "방어동" }, "geometry": { "type": "MultiPolygon", "coordinates": [ [ [ [ 129.394423592516432, 35.521788627882785 ], [ 129.403364242194442, 35.520163647407678 ], [ 129.406801279066514, 35.516568197220884 ], [ 129.405165510753676, 35.516846143560407 ], [ 129.404708789103637, 35.515212651046738 ], [ 129.406992453887511, 35.508785289014988 ], [ 129.404368871954915, 35.505273600022555 ], [ 129.410390812396514, 35.495088608142233 ], [ 129.41607745249101, 35.48952556522859 ], [ 129.417302003093226, 35.49150783889133 ], [ 129.424289139648465, 35.490191458804944 ], [ 129.42744075041665, 35.49230581389407 ], [ 129.433254940814606, 35.489407082461192 ], [ 129.432469754782971, 35.488429133666735 ], [ 129.436984063383164, 35.484826365629949 ], [ 129.432057909509325, 35.480331359237084 ], [ 129.431776285915618, 35.478021451457927 ], [ 129.427796234604671, 35.478152564961611 ], [ 129.431162552204086, 35.47835968744873 ], [ 129.432125245767082, 35.481519183722092 ], [ 129.42977686408895, 35.484383358895535 ], [ 129.425689109975622, 35.484977828037131 ], [ 129.424386961382083, 35.484206200282301 ], [ 129.425155150371836, 35.481669504906726 ], [ 129.42769971880918, 35.481111924367426 ], [ 129.42868935895217, 35.479953491882803 ], [ 129.418293686862199, 35.482406803521151 ], [ 129.414239294434594, 35.478408703933546 ], [ 129.415710430476537, 35.475643838502656 ], [ 129.411867375856787, 35.472363165182337 ], [ 129.404853266834465, 35.471457876046792 ], [ 129.407116111735121, 35.473241194972161 ], [ 129.404882038598174, 35.47624765210653 ], [ 129.401279658785199, 35.476242604715495 ], [ 129.401279184392479, 35.476413853366353 ], [ 129.404369004946716, 35.477167376186195 ], [ 129.404289140536662, 35.486622193150289 ], [ 129.408490193534618, 35.493246860593935 ], [ 129.403228392504161, 35.49980742615417 ], [ 129.3957601679015, 35.501237319368549 ], [ 129.397414299578088, 35.511892936631448 ], [ 129.387665823437345, 35.527391100814974 ], [ 129.394423592516432, 35.521788627882785 ] ] ] ] } },
{ "type": "Feature", "properties": { "emd_cd": "31170102", "emd_nm": "화정동" }, "geometry": { "type": "MultiPolygon", "coordinates": [ [ [ [ 129.404368871954915, 35.505273600022555 ], [ 129.406992453887511, 35.508785289014988 ], [ 129.405165510753676, 35.516846143560407 ], [ 129.419120746580148, 35.513063718651495 ], [ 129.418932801727777, 35.510826355940225 ], [ 129.420598430172817, 35.509369676687761 ], [ 129.418916333597338, 35.506792487313035 ], [ 129.421281080349132, 35.506637821585407 ], [ 129.424814072212428, 35.503265357505498 ], [ 129.425049817354562, 35.497719577335793 ], [ 129.428565687607374, 35.496608323251216 ], [ 129.427181382320356, 35.491313589887078 ], [ 129.425397291437946, 35.491932103959229 ], [ 129.424289139648465, 35.490191458804944 ], [ 129.417302003093226, 35.49150783889133 ], [ 129.41607745249101, 35.48952556522859 ], [ 129.410390812396514, 35.495088608142233 ], [ 129.404368871954915, 35.505273600022555 ] ] ] ] } },
{ "type": "Feature", "properties": { "emd_cd": "31170103", "emd_nm": "일산동" }, "geometry": { "type": "MultiPolygon", "coordinates": [ [ [ [ 129.445216746614051, 35.490623665343485 ], [ 129.44578041512068, 35.491440491240382 ], [ 129.445734565470133, 35.490564716985951 ], [ 129.445216746614051, 35.490623665343485 ] ] ], [ [ [ 129.42115124721596, 35.505979183147282 ], [ 129.429816234946856, 35.505198645938258 ], [ 129.432415096794301, 35.507578354059866 ], [ 129.432156120086034, 35.505452060997257 ], [ 129.433900315560606, 35.504241755178917 ], [ 129.4372354901964, 35.506592175056475 ], [ 129.441464982914425, 35.507042072723337 ], [ 129.443540195307037, 35.505586142767818 ], [ 129.443613198292297, 35.502270111247803 ], [ 129.439256044384194, 35.500101322880482 ], [ 129.433050242768132, 35.500158677294891 ], [ 129.430456876696923, 35.495625870960843 ], [ 129.433610938925483, 35.491288843115349 ], [ 129.439609071436621, 35.49328373864936 ], [ 129.440299589290845, 35.49523029161594 ], [ 129.443426475471739, 35.493732002136717 ], [ 129.444494897815332, 35.491568316777865 ], [ 129.440008543911489, 35.490990704876786 ], [ 129.439307993637925, 35.48721685007181 ], [ 129.437012318035528, 35.484859143003753 ], [ 129.432469754782971, 35.488429133666735 ], [ 129.433254940814606, 35.489407082461192 ], [ 129.42744075041665, 35.49230581389407 ], [ 129.428565687607374, 35.496608323251216 ], [ 129.425049817354562, 35.497719577335793 ], [ 129.424814072212428, 35.503265357505498 ], [ 129.42115124721596, 35.505979183147282 ] ] ] ] } },
{ "type": "Feature", "properties": { "emd_cd": "31170104", "emd_nm": "전하동" }, "geometry": { "type": "MultiPolygon", "coordinates": [ [ [ [ 129.44649719590015, 35.52013572717653 ], [ 129.445048295606796, 35.510945136364285 ], [ 129.442084857835255, 35.509237147517418 ], [ 129.441858428468151, 35.511042481671062 ], [ 129.433557915334404, 35.511249203771406 ], [ 129.429816234946856, 35.505198645938258 ], [ 129.418916333597338, 35.506792487313035 ], [ 129.420598430172817, 35.509369676687761 ], [ 129.418932801727777, 35.510826355940225 ], [ 129.419120746580148, 35.513063718651495 ], [ 129.408315411220542, 35.516089533235814 ], [ 129.409440352755297, 35.521423844700166 ], [ 129.415848302492691, 35.519019118030855 ], [ 129.425054249371868, 35.519012262487756 ], [ 129.426194282010272, 35.520622794176489 ], [ 129.434455777165113, 35.519090562696007 ], [ 129.44649719590015, 35.52013572717653 ] ] ] ] } },
{ "type": "Feature", "properties": { "emd_cd": "31170105", "emd_nm": "미포동" }, "geometry": { "type": "MultiPolygon", "coordinates": [ [ [ [ 129.454126916219138, 35.52606286446138 ], [ 129.4467486984434, 35.529357633313367 ], [ 129.435095974508101, 35.527456886656957 ], [ 129.433232613800243, 35.534830047871935 ], [ 129.435341942010183, 35.535004547963219 ], [ 129.436552321763088, 35.540250571004883 ], [ 129.443093657970309, 35.545120685489465 ], [ 129.445418415045083, 35.543679884951949 ], [ 129.451932303748009, 35.544506239242345 ], [ 129.453623687747751, 35.542209330112463 ], [ 129.451017703695101, 35.535827409332491 ], [ 129.454126916219138, 35.52606286446138 ] ] ] ] } },
{ "type": "Feature", "properties": { "emd_cd": "31170106", "emd_nm": "주전동" }, "geometry": { "type": "MultiPolygon", "coordinates": [ [ [ [ 129.458155545085447, 35.553754420612357 ], [ 129.458232484006913, 35.55371762708306 ], [ 129.458178944879762, 35.553705157787221 ], [ 129.458155545085447, 35.553754420612357 ] ] ], [ [ [ 129.43600626094991, 35.561657596627185 ], [ 129.439154445042732, 35.566568059364435 ], [ 129.43833570474979, 35.567830971819383 ], [ 129.445142938598138, 35.567350188923626 ], [ 129.448000809925077, 35.570635131672269 ], [ 129.452418102785856, 35.571497883419475 ], [ 129.458362863703911, 35.561250370574008 ], [ 129.45777631824842, 35.56206121612837 ], [ 129.456855758128853, 35.562073168638307 ], [ 129.458037763115755, 35.553343339140369 ], [ 129.454823928770395, 35.551047566462834 ], [ 129.455123494082699, 35.548082502169208 ], [ 129.452475890410113, 35.544043027326254 ], [ 129.445418415045083, 35.543679884951949 ], [ 129.443093657970309, 35.545120685489465 ], [ 129.440438194734156, 35.54964860213051 ], [ 129.443532007677902, 35.55503125315721 ], [ 129.440936263885192, 35.555679871299063 ], [ 129.440372581741599, 35.558047225657198 ], [ 129.43600626094991, 35.561657596627185 ] ] ], [ [ [ 129.457950659423574, 35.557738674801016 ], [ 129.457936671233767, 35.557658423169116 ], [ 129.457897629390459, 35.557709466588513 ], [ 129.457950659423574, 35.557738674801016 ] ] ] ] } },
{ "type": "Feature", "properties": { "emd_cd": "31170107", "emd_nm": "동부동" }, "geometry": { "type": "MultiPolygon", "coordinates": [ [ [ [ 129.443093657970309, 35.545120685489465 ], [ 129.436552321763088, 35.540250571004883 ], [ 129.435341942010183, 35.535004547963219 ], [ 129.433232613800243, 35.534830047871935 ], [ 129.42689534909627, 35.539679121989586 ], [ 129.423802946641047, 35.54504986156693 ], [ 129.414610514007308, 35.547824454053035 ], [ 129.408541518796625, 35.545482642372676 ], [ 129.407159979507725, 35.550108551686797 ], [ 129.413331337113704, 35.554717235436179 ], [ 129.414422358117719, 35.557947018669935 ], [ 129.413367149446827, 35.558736199341219 ], [ 129.419899308347397, 35.563744962234708 ], [ 129.438117067352209, 35.567974437340418 ], [ 129.439154445042732, 35.566568059364435 ], [ 129.435926023512224, 35.560706325607399 ], [ 129.440372581741599, 35.558047225657198 ], [ 129.440936263885192, 35.555679871299063 ], [ 129.443532007677902, 35.55503125315721 ], [ 129.440438194734156, 35.54964860213051 ], [ 129.443093657970309, 35.545120685489465 ] ] ] ] } },
{ "type": "Feature", "properties": { "emd_cd": "31170108", "emd_nm": "서부동" }, "geometry": { "type": "MultiPolygon", "coordinates": [ [ [ [ 129.439770931888688, 35.520245950037584 ], [ 129.44023400858066, 35.522259033245895 ], [ 129.445973620034181, 35.522334124259793 ], [ 129.446728888182378, 35.524160726509635 ], [ 129.444191010382667, 35.525448297597585 ], [ 129.446783560308489, 35.524505917616203 ], [ 129.447335064451664, 35.526138804780771 ], [ 129.450431062364459, 35.524682370874345 ], [ 129.447070497994162, 35.5175408090915 ], [ 129.44649719590015, 35.52013572717653 ], [ 129.439770931888688, 35.520245950037584 ] ] ], [ [ [ 129.438459323966327, 35.51982636205986 ], [ 129.426194282010272, 35.520622794176489 ], [ 129.425054249371868, 35.519012262487756 ], [ 129.415848302492691, 35.519019118030855 ], [ 129.409800503580755, 35.521090869027027 ], [ 129.410437817880364, 35.524067835392891 ], [ 129.401241881854872, 35.529485555412307 ], [ 129.405632516540663, 35.53469468479301 ], [ 129.406637034661856, 35.537401506320627 ], [ 129.405582275722452, 35.541647772398989 ], [ 129.407965994507947, 35.544924909764553 ], [ 129.414610514007308, 35.547824454053035 ], [ 129.423802946641047, 35.54504986156693 ], [ 129.42689534909627, 35.539679121989586 ], [ 129.433342624487835, 35.534692279303627 ], [ 129.435095974508101, 35.527456886656957 ], [ 129.438628251251174, 35.528367482248818 ], [ 129.438459323966327, 35.51982636205986 ] ] ] ] } }
]
}
