{
"type": "FeatureCollection",
"name": "31200",
"crs": { "type": "name", "properties": { "name": "urn:ogc:def:crs:OGC:1.3:CRS84" } },
"features": [
{ "type": "Feature", "properties": { "emd_cd": "31200101", "emd_nm": "창평동" }, "geometry": { "type": "MultiPolygon", "coordinates": [ [ [ [ 129.352133689687889, 35.604172447740766 ], [ 129.349502617517089, 35.603816416311716 ], [ 129.348918801787221, 35.610566985653598 ], [ 129.351155292321494, 35.617186773611877 ], [ 129.358778227242652, 35.62211582754572 ], [ 129.363058160943268, 35.622159325927505 ], [ 129.367899783416306, 35.625853030566887 ], [ 129.370984561022453, 35.625246322307014 ], [ 129.373371481238536, 35.627069376282478 ], [ 129.380550572872352, 35.625117084334043 ], [ 129.384400566116426, 35.6285421237951 ], [ 129.39120160257923, 35.627759951679188 ], [ 129.392703911926077, 35.626262583938249 ], [ 129.392501109058685, 35.623377285611639 ], [ 129.387174556983609, 35.622106329412283 ], [ 129.377880472031165, 35.610237184121225 ], [ 129.359617448325366, 35.606366584407048 ], [ 129.353840313755825, 35.607463865666105 ], [ 129.352133689687889, 35.604172447740766 ] ], [ [ 129.357358536315274, 35.621104457962375 ], [ 129.357558469855405, 35.621223458104339 ], [ 129.357613486297652, 35.621256210245718 ], [ 129.357358536315274, 35.621104457962375 ] ], [ [ 129.356953570016231, 35.62092352275377 ], [ 129.356826148901121, 35.620827155209682 ], [ 129.356955839962495, 35.62092512934813 ], [ 129.356953570016231, 35.62092352275377 ] ], [ [ 129.35617305874473, 35.619816518207351 ], [ 129.356205223141814, 35.619856386287957 ], [ 129.356314429340756, 35.619945309503407 ], [ 129.356265287621198, 35.619905293164472 ], [ 129.356205223141814, 35.619856386287957 ], [ 129.356161806884842, 35.61982059807999 ], [ 129.35617305874473, 35.619816518207351 ] ] ] ] } },
{ "type": "Feature", "properties": { "emd_cd": "31200102", "emd_nm": "호계동" }, "geometry": { "type": "MultiPolygon", "coordinates": [ [ [ [ 129.352172109627617, 35.617204683019366 ], [ 129.347453727720108, 35.628977209330834 ], [ 129.35038740577852, 35.631118136918282 ], [ 129.361762290213647, 35.635345880861543 ], [ 129.379280480577449, 35.637181173371992 ], [ 129.381426721204491, 35.629585062152174 ], [ 129.379769661543918, 35.62882807485898 ], [ 129.379205631564076, 35.625577797265315 ], [ 129.373384465776553, 35.627091390491401 ], [ 129.370984561022453, 35.625246322307014 ], [ 129.367899783416306, 35.625853030566887 ], [ 129.363186084445545, 35.622208250966906 ], [ 129.358791330993768, 35.622133462785129 ], [ 129.352172109627617, 35.617204683019366 ] ], [ [ 129.37923713109663, 35.637173143750978 ], [ 129.379237164175123, 35.637173134634502 ], [ 129.379240512393693, 35.637173764041307 ], [ 129.37923713109663, 35.637173143750978 ] ], [ [ 129.364029940719377, 35.62303563102018 ], [ 129.364024872537271, 35.62301817947111 ], [ 129.364080791553249, 35.623005492413981 ], [ 129.364029940719377, 35.62303563102018 ] ] ] ] } },
{ "type": "Feature", "properties": { "emd_cd": "31200103", "emd_nm": "매곡동" }, "geometry": { "type": "MultiPolygon", "coordinates": [ [ [ [ 129.352825125400983, 35.641244770120899 ], [ 129.349672716449049, 35.642255576463761 ], [ 129.348079015006334, 35.646308339502326 ], [ 129.351793596853668, 35.6506368146729 ], [ 129.354440062889921, 35.648171461659786 ], [ 129.356083049146633, 35.650249367400946 ], [ 129.358177094115916, 35.649149422614904 ], [ 129.359349212480566, 35.653038491927646 ], [ 129.368585061178436, 35.664091148724758 ], [ 129.36843186922502, 35.665978953865135 ], [ 129.372609491378171, 35.668936511684336 ], [ 129.375674845804355, 35.668495378667266 ], [ 129.37714956613155, 35.664384128740117 ], [ 129.375537156840323, 35.660232997807711 ], [ 129.380231090813908, 35.655797641354425 ], [ 129.382103716975337, 35.650550402477037 ], [ 129.382146069675031, 35.647136986200692 ], [ 129.377603997478474, 35.64067052161603 ], [ 129.379227940887461, 35.637197984727898 ], [ 129.361762290213647, 35.635345880861543 ], [ 129.357548567338341, 35.632720674675355 ], [ 129.358304626978651, 35.635427265268731 ], [ 129.352825125400983, 35.641244770120899 ] ], [ [ 129.372496392675373, 35.667876756351966 ], [ 129.372508830809608, 35.667877150639264 ], [ 129.372496348622434, 35.667876783525813 ], [ 129.372496392675373, 35.667876756351966 ] ], [ [ 129.3648169950294, 35.657904425523398 ], [ 129.364835422632694, 35.6579182405398 ], [ 129.364922917934194, 35.657983859683817 ], [ 129.3648169950294, 35.657904425523398 ] ], [ [ 129.352004547629718, 35.646971224408468 ], [ 129.351986329542285, 35.6463697654859 ], [ 129.352717498019075, 35.646661568848664 ], [ 129.352004547629718, 35.646971224408468 ] ] ] ] } },
{ "type": "Feature", "properties": { "emd_cd": "31200104", "emd_nm": "가대동" }, "geometry": { "type": "MultiPolygon", "coordinates": [ [ [ [ 129.291101354545674, 35.592904043137345 ], [ 129.289518120843297, 35.596311913814553 ], [ 129.295442390776401, 35.604478186056241 ], [ 129.296051699345014, 35.607787421427261 ], [ 129.299275554608329, 35.609672607768239 ], [ 129.29953321374748, 35.614277527980278 ], [ 129.30693409443171, 35.615478374822302 ], [ 129.312013720198024, 35.619097476100258 ], [ 129.312573094958282, 35.622606542697483 ], [ 129.318621803089684, 35.621203222970173 ], [ 129.319014711352253, 35.616006740745952 ], [ 129.317585163602473, 35.613654259308944 ], [ 129.318885201954487, 35.60770711540367 ], [ 129.315614848469295, 35.599830216203507 ], [ 129.318131514889814, 35.597026105038239 ], [ 129.32237786848188, 35.597590694951016 ], [ 129.321492827909736, 35.594852249670751 ], [ 129.317217007435659, 35.594219982553923 ], [ 129.309580941782457, 35.589034458313712 ], [ 129.305909403447771, 35.59024761809431 ], [ 129.303604106313969, 35.594126831042956 ], [ 129.291101354545674, 35.592904043137345 ] ] ] ] } },
{ "type": "Feature", "properties": { "emd_cd": "31200105", "emd_nm": "신천동" }, "geometry": { "type": "MultiPolygon", "coordinates": [ [ [ [ 129.339350033912808, 35.638405062850232 ], [ 129.336868663986934, 35.645019182960262 ], [ 129.342004817117839, 35.646934658161612 ], [ 129.345176475957089, 35.645885089475065 ], [ 129.345985562051339, 35.647137021757324 ], [ 129.348079015006334, 35.646308339502326 ], [ 129.349672361611454, 35.642255225991335 ], [ 129.35440861745198, 35.640632031131361 ], [ 129.354274083592799, 35.638632436402673 ], [ 129.358304727020254, 35.635427418189593 ], [ 129.347453727720108, 35.628977209330834 ], [ 129.339350033912808, 35.638405062850232 ] ] ] ] } },
{ "type": "Feature", "properties": { "emd_cd": "31200106", "emd_nm": "중산동" }, "geometry": { "type": "MultiPolygon", "coordinates": [ [ [ [ 129.352242136525291, 35.646448828844619 ], [ 129.352004536706033, 35.646971251478504 ], [ 129.352717973006207, 35.646661612527396 ], [ 129.352242136525291, 35.646448828844619 ] ] ], [ [ [ 129.336244362392392, 35.643780023057388 ], [ 129.335870402681707, 35.655836022807442 ], [ 129.333827444388135, 35.660106810229742 ], [ 129.337662482901806, 35.665628242531447 ], [ 129.335738946365922, 35.669133000320144 ], [ 129.340461482836389, 35.669962507197518 ], [ 129.348721484661837, 35.677177631708311 ], [ 129.353556697629529, 35.679419536237937 ], [ 129.364114275448401, 35.678919098337282 ], [ 129.365058008017542, 35.675704526232622 ], [ 129.37158319966133, 35.67208158675659 ], [ 129.372416047706309, 35.667861141475278 ], [ 129.368408945369623, 35.665941287413737 ], [ 129.368555868144796, 35.664104901019407 ], [ 129.359349212480566, 35.653038491927646 ], [ 129.358176555022794, 35.649149865836641 ], [ 129.356083049146633, 35.650249367400946 ], [ 129.354440051768762, 35.648171443666833 ], [ 129.351793897707466, 35.650637435678242 ], [ 129.348746812441789, 35.646363133341886 ], [ 129.345015547267678, 35.647074981523062 ], [ 129.345176961205283, 35.645884952898889 ], [ 129.344756267623552, 35.645891244821613 ], [ 129.342004817117839, 35.646934658161612 ], [ 129.336244362392392, 35.643780023057388 ] ], [ [ 129.336267155728876, 35.648706520284108 ], [ 129.33626691438576, 35.64870689949111 ], [ 129.336266659707093, 35.648706728956469 ], [ 129.336267155728876, 35.648706520284108 ] ], [ [ 129.345034500928307, 35.646083378853334 ], [ 129.3450345119698, 35.646083378821857 ], [ 129.345075703578175, 35.646100277429596 ], [ 129.345034500928307, 35.646083378853334 ] ], [ [ 129.346693058701163, 35.674479530500868 ], [ 129.346710508941726, 35.674479110947608 ], [ 129.346699897178183, 35.67448238595388 ], [ 129.346693058701163, 35.674479530500868 ] ] ] ] } },
{ "type": "Feature", "properties": { "emd_cd": "31200107", "emd_nm": "상안동" }, "geometry": { "type": "MultiPolygon", "coordinates": [ [ [ [ 129.326725551881651, 35.605301259719013 ], [ 129.31817546872918, 35.609162662530061 ], [ 129.317556131565709, 35.613689692780738 ], [ 129.319245692156812, 35.619801132014501 ], [ 129.316330760269523, 35.622348361258879 ], [ 129.316737668550388, 35.624637109796474 ], [ 129.328824374409209, 35.625236592297192 ], [ 129.328482924520841, 35.62777490282447 ], [ 129.331179479333144, 35.630902736003321 ], [ 129.333720247239768, 35.628835529651077 ], [ 129.335953255791367, 35.630178394979922 ], [ 129.341033452847228, 35.631275848037468 ], [ 129.346026570819816, 35.630571777858449 ], [ 129.349188679277148, 35.626957620568291 ], [ 129.351513807450345, 35.618455700427383 ], [ 129.349601505055318, 35.609973287520937 ], [ 129.338255377605861, 35.614076740989205 ], [ 129.337380279519124, 35.613452179914518 ], [ 129.332765576038582, 35.612236247026196 ], [ 129.330054086692797, 35.612223473671882 ], [ 129.326389738011954, 35.607889966256806 ], [ 129.326725551881651, 35.605301259719013 ] ], [ [ 129.33792607366027, 35.613917088567426 ], [ 129.337930422965798, 35.613930415394378 ], [ 129.337928421615288, 35.613924283253276 ], [ 129.33792607366027, 35.613917088567426 ] ], [ [ 129.339500225594975, 35.630770747811255 ], [ 129.339309397190874, 35.630721343213771 ], [ 129.339488639626353, 35.630764209993501 ], [ 129.339690830458778, 35.630732953963957 ], [ 129.339723788548326, 35.630749850545627 ], [ 129.339500225594975, 35.630770747811255 ] ] ] ] } },
{ "type": "Feature", "properties": { "emd_cd": "31200108", "emd_nm": "천곡동" }, "geometry": { "type": "MultiPolygon", "coordinates": [ [ [ [ 129.317980139851073, 35.645268947403807 ], [ 129.311761018449005, 35.644246162518748 ], [ 129.309646713044543, 35.646069116600664 ], [ 129.30943284577944, 35.648695914511798 ], [ 129.303935480438355, 35.651614418440289 ], [ 129.304258424685997, 35.657035201107476 ], [ 129.307715413831289, 35.657185661687386 ], [ 129.311139853045802, 35.660552471790623 ], [ 129.314873288644492, 35.658264199786956 ], [ 129.318055153848235, 35.658827439676863 ], [ 129.319357503294924, 35.656387761444016 ], [ 129.323624103431911, 35.658616004405218 ], [ 129.32903648331947, 35.658231665718702 ], [ 129.33013285021633, 35.659987120910579 ], [ 129.32866871096212, 35.660455588867713 ], [ 129.328633861680885, 35.662665997303016 ], [ 129.33102368632737, 35.665559647403249 ], [ 129.332884281682993, 35.665226675755093 ], [ 129.33416024530689, 35.669800448266329 ], [ 129.335722416414256, 35.669144609544652 ], [ 129.337656909706993, 35.665621345317987 ], [ 129.333827444388135, 35.660106810229742 ], [ 129.335866659135746, 35.655836033201517 ], [ 129.336197265051425, 35.643977173183821 ], [ 129.34467896767822, 35.631330094247048 ], [ 129.333720247239768, 35.628835529651077 ], [ 129.330198602328181, 35.633575753903067 ], [ 129.332525927597601, 35.634405551345552 ], [ 129.332052533409126, 35.635959132887301 ], [ 129.325394651876081, 35.636491651487795 ], [ 129.322462920477477, 35.635187597401604 ], [ 129.32003231086037, 35.637906097000055 ], [ 129.320364516287356, 35.641664910189725 ], [ 129.31807807465583, 35.64279086077304 ], [ 129.317980139851073, 35.645268947403807 ] ], [ [ 129.336244362392392, 35.643780023057388 ], [ 129.336244681084878, 35.64377966166068 ], [ 129.336243982489975, 35.643781592335905 ], [ 129.336244362392392, 35.643780023057388 ] ] ] ] } },
{ "type": "Feature", "properties": { "emd_cd": "31200109", "emd_nm": "달천동" }, "geometry": { "type": "MultiPolygon", "coordinates": [ [ [ [ 129.300178359115961, 35.614275146276839 ], [ 129.294701714146868, 35.618331265894668 ], [ 129.294004561419428, 35.620616845753574 ], [ 129.295254121898324, 35.622026934360534 ], [ 129.294597971607431, 35.626032962419153 ], [ 129.298139199481341, 35.631429284099497 ], [ 129.296184836010355, 35.637917672252925 ], [ 129.297286111136088, 35.64258504933975 ], [ 129.296267287737521, 35.644784016933315 ], [ 129.298361614850393, 35.647671020402051 ], [ 129.302940311497963, 35.647814261650865 ], [ 129.302578614649036, 35.65173193796516 ], [ 129.309414057353592, 35.648708769701294 ], [ 129.309639334969745, 35.646082916015274 ], [ 129.311748655792655, 35.644261416950599 ], [ 129.317992415779287, 35.645271159327429 ], [ 129.318089497883705, 35.642800925061962 ], [ 129.320364494563421, 35.641665000375042 ], [ 129.321405368934023, 35.635761136665757 ], [ 129.328797093729918, 35.635312819823895 ], [ 129.329983024427946, 35.636648801740058 ], [ 129.33279535247695, 35.635085672752936 ], [ 129.330198602328181, 35.633575753903067 ], [ 129.331786849385679, 35.631019094767225 ], [ 129.329126596116936, 35.629214066233622 ], [ 129.328824374409209, 35.625236592297192 ], [ 129.317784531999564, 35.625187346704934 ], [ 129.315325063318909, 35.621798517843651 ], [ 129.312573094958282, 35.622606542697483 ], [ 129.312013720198024, 35.619097476100258 ], [ 129.30693409443171, 35.615478374822302 ], [ 129.300178359115961, 35.614275146276839 ] ], [ [ 129.327173447390749, 35.625322767752415 ], [ 129.327175722903917, 35.625314974537751 ], [ 129.327181155525267, 35.625320791135671 ], [ 129.327173447390749, 35.625322767752415 ] ] ] ] } },
{ "type": "Feature", "properties": { "emd_cd": "31200110", "emd_nm": "시례동" }, "geometry": { "type": "MultiPolygon", "coordinates": [ [ [ [ 129.318752413812717, 35.597047184431688 ], [ 129.315620743270443, 35.59984482868682 ], [ 129.318870638900052, 35.607711182498974 ], [ 129.326719264119617, 35.605296499887238 ], [ 129.32638237526146, 35.607873231256129 ], [ 129.330042543719287, 35.612232004240042 ], [ 129.338255377605861, 35.614076740989205 ], [ 129.346989175657825, 35.609857150339444 ], [ 129.348966090811416, 35.610259863615269 ], [ 129.349832308690594, 35.605325022441548 ], [ 129.348129164397051, 35.594886652355733 ], [ 129.341807591418956, 35.596222446300438 ], [ 129.334078564575123, 35.593850274978507 ], [ 129.331157130290052, 35.595677166872477 ], [ 129.331196899549553, 35.599137305703501 ], [ 129.318752413812717, 35.597047184431688 ] ], [ [ 129.326744155086374, 35.6052730894625 ], [ 129.326796388729321, 35.605223972718754 ], [ 129.326743684034767, 35.605303950680167 ], [ 129.326744155086374, 35.6052730894625 ] ] ] ] } },
{ "type": "Feature", "properties": { "emd_cd": "31200111", "emd_nm": "무룡동" }, "geometry": { "type": "MultiPolygon", "coordinates": [ [ [ [ 129.402267918235793, 35.605761044932123 ], [ 129.392859227347117, 35.607330258749187 ], [ 129.39066166406522, 35.615311437789153 ], [ 129.385285268115837, 35.619455688721416 ], [ 129.387220122147454, 35.622089978540131 ], [ 129.392501109058685, 35.623377285611639 ], [ 129.391960256141886, 35.627169447222258 ], [ 129.39348006932363, 35.628720414829637 ], [ 129.405246954403196, 35.62831089313962 ], [ 129.408819955696316, 35.632250298215304 ], [ 129.414311695420366, 35.627376001260721 ], [ 129.414417210674799, 35.624158502427989 ], [ 129.41707950222056, 35.619802556380968 ], [ 129.42317142208779, 35.620910672386067 ], [ 129.436638767844613, 35.615526985086511 ], [ 129.434453202134591, 35.612961455983402 ], [ 129.437693593544196, 35.608764905502106 ], [ 129.43948989246428, 35.610122592508084 ], [ 129.441604265298309, 35.608511377787558 ], [ 129.44417892498879, 35.610046405020363 ], [ 129.443435140639025, 35.602994317285649 ], [ 129.44033832054518, 35.604559369150351 ], [ 129.436614249651058, 35.603549821921419 ], [ 129.428002056414755, 35.604135673808862 ], [ 129.422288624444349, 35.606134575470755 ], [ 129.402267918235793, 35.605761044932123 ] ], [ [ 129.42871899167622, 35.604175061724277 ], [ 129.428718980640525, 35.604175061763399 ], [ 129.428723944448194, 35.604174620563199 ], [ 129.42871899167622, 35.604175061724277 ] ] ] ] } },
{ "type": "Feature", "properties": { "emd_cd": "31200112", "emd_nm": "구유동" }, "geometry": { "type": "MultiPolygon", "coordinates": [ [ [ [ 129.4434134944037, 35.5998942094703 ], [ 129.443715238962085, 35.608668393875327 ], [ 129.446711161730093, 35.612552155988553 ], [ 129.452693379127169, 35.616042660466412 ], [ 129.449969424617251, 35.614119670597226 ], [ 129.457847732659076, 35.613738248381061 ], [ 129.457163672782684, 35.608573629772167 ], [ 129.459023927929991, 35.606441383918344 ], [ 129.460734368549055, 35.607576346691083 ], [ 129.46154024664466, 35.606235243553904 ], [ 129.459502872215893, 35.601930294196933 ], [ 129.458873955505339, 35.594393340780456 ], [ 129.451256118660126, 35.59632468635813 ], [ 129.448356539398731, 35.599327047817852 ], [ 129.4434134944037, 35.5998942094703 ] ], [ [ 129.453791740581238, 35.613550177742809 ], [ 129.453797220452486, 35.613527616212892 ], [ 129.453797220503162, 35.613527625225451 ], [ 129.453791740581238, 35.613550177742809 ] ] ] ] } },
{ "type": "Feature", "properties": { "emd_cd": "31200113", "emd_nm": "정자동" }, "geometry": { "type": "MultiPolygon", "coordinates": [ [ [ [ 129.43781035857981, 35.608795144274517 ], [ 129.43449793137853, 35.613218736494851 ], [ 129.438006295618038, 35.618778878412328 ], [ 129.443959941608853, 35.623129806354299 ], [ 129.452313126962423, 35.6184975050259 ], [ 129.454051636966341, 35.616405756276407 ], [ 129.450675298459686, 35.618122643319651 ], [ 129.450453486072377, 35.614390396305566 ], [ 129.445189276237727, 35.61056355586166 ], [ 129.441608143144578, 35.608514130550766 ], [ 129.439485371450672, 35.61012535784247 ], [ 129.43781035857981, 35.608795144274517 ] ] ] ] } },
{ "type": "Feature", "properties": { "emd_cd": "31200114", "emd_nm": "신명동" }, "geometry": { "type": "MultiPolygon", "coordinates": [ [ [ [ 129.433057669788383, 35.640145606720885 ], [ 129.427246529769349, 35.647799701996902 ], [ 129.429772229703843, 35.648172022185165 ], [ 129.43075733090734, 35.650907800442752 ], [ 129.434758187659355, 35.651573151156974 ], [ 129.439299646834797, 35.655248628332089 ], [ 129.442059192083036, 35.654995086293255 ], [ 129.449688654151942, 35.650910561075598 ], [ 129.445799592962061, 35.645663285236729 ], [ 129.442148123386318, 35.64580925894267 ], [ 129.441171708611478, 35.639586700328195 ], [ 129.433057669788383, 35.640145606720885 ] ], [ [ 129.446496450071976, 35.652504437701744 ], [ 129.446506769839885, 35.652525435266099 ], [ 129.446509874745146, 35.652531759737791 ], [ 129.446496450071976, 35.652504437701744 ] ] ] ] } },
{ "type": "Feature", "properties": { "emd_cd": "31200115", "emd_nm": "대안동" }, "geometry": { "type": "MultiPolygon", "coordinates": [ [ [ [ 129.391960256141886, 35.627169447222258 ], [ 129.384418094338827, 35.628537047961331 ], [ 129.380550572872352, 35.625117084334043 ], [ 129.379204420412378, 35.625571420008697 ], [ 129.381280696504405, 35.631866278572225 ], [ 129.377484496824621, 35.640052015070715 ], [ 129.382146069675031, 35.647136986200692 ], [ 129.382103716975337, 35.650550402477037 ], [ 129.380231090813908, 35.655797641354425 ], [ 129.375537156840323, 35.660232997807711 ], [ 129.377184421414995, 35.666842818522838 ], [ 129.372654557107523, 35.669223437078855 ], [ 129.381859897915916, 35.671218471551697 ], [ 129.399999379774158, 35.667588388906942 ], [ 129.403356046483481, 35.662992201306636 ], [ 129.411001151004939, 35.663809720904766 ], [ 129.42812438599546, 35.65673385361125 ], [ 129.428233002080532, 35.655558155404727 ], [ 129.43277105506229, 35.656682495692209 ], [ 129.435140683010871, 35.651948578707042 ], [ 129.43075733090734, 35.650907800442752 ], [ 129.429772229703843, 35.648172022185165 ], [ 129.427240032141754, 35.647752975895159 ], [ 129.429841905350912, 35.643553069859564 ], [ 129.422167229413134, 35.642861063777438 ], [ 129.42173019612494, 35.640128166325653 ], [ 129.418059613721852, 35.638226282948203 ], [ 129.410744960508254, 35.638364268641652 ], [ 129.409460693468247, 35.632109279275952 ], [ 129.405246954403196, 35.62831089313962 ], [ 129.395428860403655, 35.628968831188068 ], [ 129.391960256141886, 35.627169447222258 ] ], [ [ 129.42494959912645, 35.657215072261927 ], [ 129.424947849456885, 35.657224613876494 ], [ 129.424956135798936, 35.657179340863493 ], [ 129.42494959912645, 35.657215072261927 ] ] ] ] } },
{ "type": "Feature", "properties": { "emd_cd": "31200116", "emd_nm": "당사동" }, "geometry": { "type": "MultiPolygon", "coordinates": [ [ [ [ 129.443034083695522, 35.587364870334511 ], [ 129.438345586124171, 35.593340771586924 ], [ 129.441351115700797, 35.599010460468378 ], [ 129.448376979010959, 35.599319536462659 ], [ 129.451256118660126, 35.59632468635813 ], [ 129.458703066018586, 35.594244349598156 ], [ 129.460304111847847, 35.605385318923581 ], [ 129.461625632783949, 35.60616959286159 ], [ 129.463858554661726, 35.599600806799721 ], [ 129.463804330661361, 35.593481891399406 ], [ 129.462558182888472, 35.592979893149142 ], [ 129.463410589980271, 35.585544773239775 ], [ 129.460808618651015, 35.584305495154204 ], [ 129.457592661476838, 35.585126121335854 ], [ 129.456714042624185, 35.584179491598746 ], [ 129.456717872134959, 35.583339473104374 ], [ 129.456819289875966, 35.584177922392684 ], [ 129.457338912792778, 35.584831181382654 ], [ 129.457140149704287, 35.582706430133328 ], [ 129.457829943899554, 35.583152478903706 ], [ 129.458670460391033, 35.583311785972583 ], [ 129.45597308327811, 35.580643933999852 ], [ 129.451811422405513, 35.580099946953219 ], [ 129.448513518563402, 35.5854957461815 ], [ 129.443034083695522, 35.587364870334511 ] ], [ [ 129.462975832117593, 35.597655145881539 ], [ 129.462975842997139, 35.597655118801455 ], [ 129.462984714458685, 35.597716516065333 ], [ 129.462975832117593, 35.597655145881539 ] ] ] ] } },
{ "type": "Feature", "properties": { "emd_cd": "31200117", "emd_nm": "신현동" }, "geometry": { "type": "MultiPolygon", "coordinates": [ [ [ [ 129.411518878596951, 35.586811209272305 ], [ 129.398309670777962, 35.591138916783748 ], [ 129.400337479598676, 35.592015895278742 ], [ 129.39749123182628, 35.597283256689956 ], [ 129.393247428901475, 35.599987283466803 ], [ 129.394365829076065, 35.603439860214536 ], [ 129.392859227347117, 35.607330258749187 ], [ 129.402267918235793, 35.605761044932123 ], [ 129.422285560649868, 35.606152251261392 ], [ 129.436611002268762, 35.603547255986243 ], [ 129.44033832054518, 35.604559369150351 ], [ 129.44399227603148, 35.602348263219042 ], [ 129.436816196890845, 35.591327353402562 ], [ 129.436193248830733, 35.587611443417558 ], [ 129.431151202237373, 35.584033899822316 ], [ 129.427925999026087, 35.583457761812525 ], [ 129.422366059435944, 35.587057345630342 ], [ 129.411518878596951, 35.586811209272305 ] ], [ [ 129.428335370851187, 35.60411856799783 ], [ 129.428313552026282, 35.604099700370043 ], [ 129.428345967545425, 35.604118990115218 ], [ 129.428335370851187, 35.60411856799783 ] ] ] ] } },
{ "type": "Feature", "properties": { "emd_cd": "31200118", "emd_nm": "산하동" }, "geometry": { "type": "MultiPolygon", "coordinates": [ [ [ [ 129.416458844861012, 35.620458699257675 ], [ 129.414311695420366, 35.627376001260721 ], [ 129.409460693468247, 35.632109279275952 ], [ 129.410744960508254, 35.638364268641652 ], [ 129.418059613721852, 35.638226282948203 ], [ 129.42173019612494, 35.640128166325653 ], [ 129.422167229413134, 35.642861063777438 ], [ 129.426072913006749, 35.644213006780362 ], [ 129.430091790433949, 35.643794632729332 ], [ 129.433642550132163, 35.63993085400687 ], [ 129.441039438222475, 35.638832248489067 ], [ 129.442942900285942, 35.635170059612975 ], [ 129.440639555371149, 35.632819723970691 ], [ 129.44078459062419, 35.630243971143308 ], [ 129.443883272116466, 35.622146515420532 ], [ 129.438006295618038, 35.618778878412328 ], [ 129.436611052724942, 35.615504553221228 ], [ 129.42317142208779, 35.620910672386067 ], [ 129.416458844861012, 35.620458699257675 ] ], [ [ 129.442048675618196, 35.635915371110379 ], [ 129.441951776344126, 35.636046347242399 ], [ 129.442016741176275, 35.635958532792642 ], [ 129.442048675618196, 35.635915371110379 ] ] ] ] } },
{ "type": "Feature", "properties": { "emd_cd": "31200119", "emd_nm": "어물동" }, "geometry": { "type": "MultiPolygon", "coordinates": [ [ [ [ 129.403569684931881, 35.560945817646129 ], [ 129.399539153851492, 35.568540477583213 ], [ 129.396670099316424, 35.568923112346219 ], [ 129.394494458396849, 35.571973869225666 ], [ 129.400358977365499, 35.576498358743997 ], [ 129.399742032081775, 35.581593533516404 ], [ 129.396999129624419, 35.584027570260822 ], [ 129.398281235469113, 35.591116478320579 ], [ 129.411905017567051, 35.58673531383355 ], [ 129.422350611628815, 35.587031884248553 ], [ 129.427925999026087, 35.583457761812525 ], [ 129.434888874372945, 35.586167608409198 ], [ 129.438345586124171, 35.593340771586924 ], [ 129.441010010474884, 35.591110551786244 ], [ 129.441921278781592, 35.587622391428219 ], [ 129.448423061558003, 35.585518523561589 ], [ 129.452577726756743, 35.579616544640864 ], [ 129.451834992438648, 35.571544920085842 ], [ 129.448077346931569, 35.570677226561919 ], [ 129.445168262645666, 35.567357693561227 ], [ 129.440489773731457, 35.568406954594423 ], [ 129.437001530347374, 35.566746974007593 ], [ 129.429536671775651, 35.567007926706985 ], [ 129.420062377334148, 35.563765450248532 ], [ 129.413320971688194, 35.558795093996046 ], [ 129.411138657251058, 35.561230615079232 ], [ 129.403569684931881, 35.560945817646129 ] ] ], [ [ [ 129.453636205474311, 35.577678632675585 ], [ 129.452940365564217, 35.577137451433025 ], [ 129.453868631478684, 35.578106095478027 ], [ 129.453636205474311, 35.577678632675585 ] ] ], [ [ [ 129.452979135515164, 35.578860037004176 ], [ 129.452773875178423, 35.578242074759139 ], [ 129.452869316712338, 35.578871443938517 ], [ 129.452979135515164, 35.578860037004176 ] ] ], [ [ [ 129.453332001896996, 35.578986778124467 ], [ 129.453413657142022, 35.578264814627666 ], [ 129.453358904535207, 35.578259071420256 ], [ 129.4532904651455, 35.578957371732137 ], [ 129.452751884672637, 35.579059711015795 ], [ 129.453332001896996, 35.578986778124467 ] ] ] ] } },
{ "type": "Feature", "properties": { "emd_cd": "31200120", "emd_nm": "명촌동" }, "geometry": { "type": "MultiPolygon", "coordinates": [ [ [ [ 129.351556366996164, 35.549353739914572 ], [ 129.349558872517576, 35.552130929139729 ], [ 129.350588749867853, 35.553982393269962 ], [ 129.349300302828624, 35.557949837965502 ], [ 129.353348575000581, 35.560315630633696 ], [ 129.356985777505628, 35.556134477482153 ], [ 129.37182195810928, 35.556523990444845 ], [ 129.37166641771995, 35.553229308021521 ], [ 129.372058478441261, 35.552693386434463 ], [ 129.37231402728483, 35.550815528939999 ], [ 129.372182422988317, 35.55062865449446 ], [ 129.378970344454871, 35.546505940304392 ], [ 129.381022872457834, 35.542757797500329 ], [ 129.379072088858692, 35.543984062298648 ], [ 129.378567153828584, 35.5384052780256 ], [ 129.381696883990259, 35.536357891773541 ], [ 129.374554582079782, 35.539535711151906 ], [ 129.370387667053478, 35.538876066638501 ], [ 129.363195089794971, 35.543998346223717 ], [ 129.348126559412435, 35.54926042358057 ], [ 129.351556366996164, 35.549353739914572 ] ], [ [ 129.375570859210086, 35.548063193999575 ], [ 129.375594366882552, 35.548047979388912 ], [ 129.375594376260295, 35.548049998250676 ], [ 129.375570859210086, 35.548063193999575 ] ], [ [ 129.372166767484941, 35.55104905538218 ], [ 129.37216889591474, 35.551010698940146 ], [ 129.372169975999924, 35.551010542400498 ], [ 129.372166767484941, 35.55104905538218 ] ], [ [ 129.372142601852431, 35.551331386719795 ], [ 129.372147957903167, 35.551189173702568 ], [ 129.372154409294893, 35.551502974096614 ], [ 129.372142601852431, 35.551331386719795 ] ] ] ] } },
{ "type": "Feature", "properties": { "emd_cd": "31200121", "emd_nm": "진장동" }, "geometry": { "type": "MultiPolygon", "coordinates": [ [ [ [ 129.354690770409917, 35.557688142223583 ], [ 129.350988242200515, 35.577423367421524 ], [ 129.355973841492926, 35.580478158383343 ], [ 129.359358112892579, 35.58046794183705 ], [ 129.359573422785218, 35.571756905622749 ], [ 129.361394981779313, 35.567306636069354 ], [ 129.362607795059461, 35.566881909412167 ], [ 129.363235182138993, 35.562427077614394 ], [ 129.364894303774719, 35.560837279715166 ], [ 129.365454914140287, 35.560125066439888 ], [ 129.367188136011691, 35.561234112265652 ], [ 129.372019113817743, 35.556930199706024 ], [ 129.364107873990605, 35.557082614161104 ], [ 129.359774613809435, 35.556030884094831 ], [ 129.359088121021102, 35.556215847887444 ], [ 129.357915501983825, 35.556021333665434 ], [ 129.356995607542046, 35.556135133478975 ], [ 129.354690770409917, 35.557688142223583 ] ], [ [ 129.36487594357547, 35.560752803160064 ], [ 129.364897760146903, 35.560752647273382 ], [ 129.36488976369219, 35.560752707427639 ], [ 129.36487594357547, 35.560752803160064 ] ], [ [ 129.357985179883173, 35.556074925663495 ], [ 129.357957603354237, 35.556051780954995 ], [ 129.357956573769826, 35.556050909747761 ], [ 129.357985179883173, 35.556074925663495 ] ], [ [ 129.354744071521026, 35.558554296732979 ], [ 129.354737991189552, 35.558568699130547 ], [ 129.35467406552894, 35.558720077745178 ], [ 129.354744071521026, 35.558554296732979 ] ], [ [ 129.362460742055902, 35.566377430137081 ], [ 129.362526780695589, 35.566268699256348 ], [ 129.362515053424687, 35.56628801293153 ], [ 129.362460742055902, 35.566377430137081 ] ], [ [ 129.362544020735243, 35.566219302093927 ], [ 129.362540350616342, 35.566229831119308 ], [ 129.362526780695589, 35.566268699256348 ], [ 129.362544020735243, 35.566219302093927 ] ] ], [ [ [ 129.360021499201878, 35.570838315418335 ], [ 129.360047031369788, 35.570866810298014 ], [ 129.3600833815984, 35.570842484575998 ], [ 129.360021499201878, 35.570838315418335 ] ] ] ] } },
{ "type": "Feature", "properties": { "emd_cd": "31200122", "emd_nm": "연암동" }, "geometry": { "type": "MultiPolygon", "coordinates": [ [ [ [ 129.360393322026994, 35.570610787516031 ], [ 129.360429590619674, 35.570612725454829 ], [ 129.360331741494093, 35.570607482854442 ], [ 129.360393322026994, 35.570610787516031 ] ] ], [ [ [ 129.359270750637762, 35.580493977965688 ], [ 129.356135676748437, 35.58050749688821 ], [ 129.358475224649055, 35.585638947555879 ], [ 129.36310641345807, 35.588407895740566 ], [ 129.369800759731447, 35.587962128101118 ], [ 129.372796425052684, 35.589488076511103 ], [ 129.375250092892429, 35.588043069850869 ], [ 129.382904900343419, 35.588322118552206 ], [ 129.388469554451376, 35.592148391727463 ], [ 129.398049589544343, 35.590365579409173 ], [ 129.396935081837654, 35.584040957185223 ], [ 129.3992244469664, 35.582701893855109 ], [ 129.400615305868314, 35.578803872224633 ], [ 129.399807413779541, 35.574989312504819 ], [ 129.394526726933577, 35.572247439607082 ], [ 129.390481632137664, 35.571622629757869 ], [ 129.382293383971643, 35.574794831485853 ], [ 129.378589595219665, 35.572135232525817 ], [ 129.371358730994302, 35.574473023195459 ], [ 129.365191207490653, 35.57142616907371 ], [ 129.3600833815984, 35.570842484575998 ], [ 129.359270750637762, 35.580493977965688 ] ], [ [ 129.360254761924153, 35.577395828322487 ], [ 129.360258573827821, 35.5773971238428 ], [ 129.360254270594766, 35.577456351183116 ], [ 129.360254761924153, 35.577395828322487 ] ], [ [ 129.358095933316264, 35.584477574195212 ], [ 129.358097920956197, 35.58449785625465 ], [ 129.358095401858691, 35.584472177066509 ], [ 129.358095933316264, 35.584477574195212 ] ], [ [ 129.371176222033597, 35.574459027267068 ], [ 129.371107907764895, 35.574443509298703 ], [ 129.371042696695696, 35.574428693794601 ], [ 129.371176222033597, 35.574459027267068 ] ], [ [ 129.360135900955044, 35.578764452180366 ], [ 129.360126740442382, 35.578855211941871 ], [ 129.360123017867352, 35.578891292500607 ], [ 129.360135900955044, 35.578764452180366 ] ], [ [ 129.360309584027164, 35.576872071655259 ], [ 129.360312189823844, 35.576808252797854 ], [ 129.360314312592607, 35.576759811329531 ], [ 129.360309584027164, 35.576872071655259 ] ], [ [ 129.360253972855645, 35.577495963616983 ], [ 129.360254022589402, 35.577489798668381 ], [ 129.360263068711049, 35.577578782811798 ], [ 129.360253972855645, 35.577495963616983 ] ], [ [ 129.370287789695055, 35.574080089710357 ], [ 129.370198643019535, 35.574022580913407 ], [ 129.37019863133159, 35.574020030307331 ], [ 129.370287789695055, 35.574080089710357 ] ] ] ] } },
{ "type": "Feature", "properties": { "emd_cd": "31200123", "emd_nm": "효문동" }, "geometry": { "type": "MultiPolygon", "coordinates": [ [ [ [ 129.365510902856244, 35.560120418000871 ], [ 129.360321504435205, 35.570572849802723 ], [ 129.370518779647455, 35.574309968014731 ], [ 129.375978083211692, 35.573885020140544 ], [ 129.378589595219665, 35.572135232525817 ], [ 129.38281079759588, 35.574691602869784 ], [ 129.386875470785384, 35.572409679190507 ], [ 129.394508809283479, 35.572224352992535 ], [ 129.396670077254612, 35.568923112418517 ], [ 129.380868221179156, 35.56010895233026 ], [ 129.374788347048707, 35.559576539768969 ], [ 129.37209843295588, 35.556900447708436 ], [ 129.367188136011691, 35.561234112265652 ], [ 129.365510902856244, 35.560120418000871 ] ], [ [ 129.364687235643146, 35.571350186810591 ], [ 129.364687235602418, 35.571350177797797 ], [ 129.364687257583739, 35.571350159705879 ], [ 129.364687235643146, 35.571350186810591 ] ], [ [ 129.361219674365117, 35.569102137443927 ], [ 129.361249294847511, 35.568873085879538 ], [ 129.361219312002646, 35.569104977581979 ], [ 129.361219674365117, 35.569102137443927 ] ] ] ] } },
{ "type": "Feature", "properties": { "emd_cd": "31200124", "emd_nm": "양정동" }, "geometry": { "type": "MultiPolygon", "coordinates": [ [ [ [ 129.378962960530686, 35.546504620495703 ], [ 129.372182288393731, 35.550637748927159 ], [ 129.371669389429428, 35.55583808196922 ], [ 129.372959323317986, 35.558389441079569 ], [ 129.381620249905723, 35.56043618483055 ], [ 129.396015360806359, 35.568754318783476 ], [ 129.399521348398196, 35.568500050575459 ], [ 129.403940468349333, 35.560641288218328 ], [ 129.411138657251058, 35.561230615079232 ], [ 129.413320971688194, 35.558795093996046 ], [ 129.397295651472916, 35.552865797166803 ], [ 129.395588904939757, 35.544338696995332 ], [ 129.38688875417111, 35.535368422171878 ], [ 129.382866199546442, 35.533182029319384 ], [ 129.379164480489123, 35.536593830787098 ], [ 129.381520049990911, 35.536731926549642 ], [ 129.378568657599033, 35.538406156589652 ], [ 129.379064355998452, 35.543990593832525 ], [ 129.381028075631292, 35.542759754951959 ], [ 129.378962960530686, 35.546504620495703 ] ], [ [ 129.392290494684801, 35.541838147126192 ], [ 129.392290285736522, 35.541838264971119 ], [ 129.392293364824383, 35.541836497475536 ], [ 129.392290494684801, 35.541838147126192 ] ], [ [ 129.396353964212182, 35.551105124701927 ], [ 129.396353776728404, 35.551105125315814 ], [ 129.396353676500098, 35.551104927360463 ], [ 129.396353964212182, 35.551105124701927 ] ], [ [ 129.381059259782717, 35.542766434510831 ], [ 129.381083712011332, 35.542767339950132 ], [ 129.381083715239129, 35.542768024921301 ], [ 129.381059259782717, 35.542766434510831 ] ] ], [ [ [ 129.375338161824374, 35.559757311114105 ], [ 129.375443083041489, 35.559739500729506 ], [ 129.37574251199635, 35.559637978795074 ], [ 129.375338161824374, 35.559757311114105 ] ] ] ] } },
{ "type": "Feature", "properties": { "emd_cd": "31200125", "emd_nm": "화봉동" }, "geometry": { "type": "MultiPolygon", "coordinates": [ [ [ [ 129.356621340899466, 35.580858641154798 ], [ 129.350988242200515, 35.577423367421524 ], [ 129.348903386451639, 35.581076108511965 ], [ 129.348197297372565, 35.58873072581229 ], [ 129.352907011195612, 35.589134443740242 ], [ 129.35259084078487, 35.59287566126325 ], [ 129.360395314696632, 35.593872736805238 ], [ 129.365009890038579, 35.600461483977107 ], [ 129.383531286726253, 35.604588807006003 ], [ 129.384898370487662, 35.60722887023816 ], [ 129.389847687459167, 35.606013099918073 ], [ 129.392859329866155, 35.607321849463823 ], [ 129.394365829076065, 35.603439860214536 ], [ 129.393247428901475, 35.599987283466803 ], [ 129.397490130073862, 35.597288091183984 ], [ 129.400337479598676, 35.592015895278742 ], [ 129.396031659731818, 35.590699187772735 ], [ 129.388437056425602, 35.592122728375244 ], [ 129.38289366846405, 35.58832221718577 ], [ 129.375653176677957, 35.588014717562345 ], [ 129.372220083509745, 35.589493600045323 ], [ 129.369800759731447, 35.587962128101118 ], [ 129.363107527852719, 35.58840789239693 ], [ 129.36308673449247, 35.587287621487242 ], [ 129.359101532474341, 35.585712925082362 ], [ 129.358475224649055, 35.585638947555879 ], [ 129.356621340899466, 35.580858641154798 ] ], [ [ 129.35909376367357, 35.58575730038848 ], [ 129.359081029136973, 35.585749406858682 ], [ 129.359093763593449, 35.585757282362991 ], [ 129.35909376367357, 35.58575730038848 ] ], [ [ 129.366215700881412, 35.600525689147958 ], [ 129.366186542469109, 35.600544524079979 ], [ 129.366215810825139, 35.600525598686836 ], [ 129.366215700881412, 35.600525689147958 ] ] ] ] } },
{ "type": "Feature", "properties": { "emd_cd": "31200126", "emd_nm": "송정동" }, "geometry": { "type": "MultiPolygon", "coordinates": [ [ [ [ 129.352896851111581, 35.589165225212092 ], [ 129.348587386126184, 35.588748493974379 ], [ 129.348179283866727, 35.598348845295526 ], [ 129.349502732984178, 35.603804852517072 ], [ 129.352909442300842, 35.604428324356334 ], [ 129.35380868949207, 35.6074526470411 ], [ 129.359617448325366, 35.606366584407048 ], [ 129.376571554714758, 35.609903186074774 ], [ 129.385519557417808, 35.618836177704623 ], [ 129.390635562748173, 35.615295947974701 ], [ 129.390545488972577, 35.612465642302112 ], [ 129.393039625349871, 35.608851972282231 ], [ 129.392331960346837, 35.606882059574886 ], [ 129.38987455193498, 35.606020457919186 ], [ 129.385257266005112, 35.607310798863438 ], [ 129.383531286726253, 35.604588807006003 ], [ 129.365038533326157, 35.600475097072092 ], [ 129.36046173575528, 35.593920667557917 ], [ 129.352593842648218, 35.592875778697881 ], [ 129.352896851111581, 35.589165225212092 ] ] ] ] } },
{ "type": "Feature", "properties": { "emd_cd": "31200127", "emd_nm": "염포동" }, "geometry": { "type": "MultiPolygon", "coordinates": [ [ [ [ 129.392848529743759, 35.522209362164759 ], [ 129.382440801450571, 35.532825840014475 ], [ 129.386906258009674, 35.535307186528243 ], [ 129.395588904939757, 35.544338696995332 ], [ 129.397469244782371, 35.549633582227152 ], [ 129.396091529395704, 35.550626236468808 ], [ 129.396690393982027, 35.552141388469494 ], [ 129.413320971688194, 35.558795093996046 ], [ 129.414371453035471, 35.558030183573081 ], [ 129.413283581901197, 35.554702310977596 ], [ 129.407085047451005, 35.550066055613073 ], [ 129.408493353662038, 35.545322041885349 ], [ 129.40559071414242, 35.54166366091227 ], [ 129.406634541066211, 35.537466984480936 ], [ 129.401219266800268, 35.529443035284508 ], [ 129.410370791450617, 35.524071018864639 ], [ 129.409016925466545, 35.516613295770505 ], [ 129.406600915750857, 35.516692491786365 ], [ 129.403357521675105, 35.520166734196749 ], [ 129.392848529743759, 35.522209362164759 ] ], [ [ 129.39576622665831, 35.544556454955618 ], [ 129.39576625982923, 35.544556472872969 ], [ 129.395772559721053, 35.544588637354337 ], [ 129.39576622665831, 35.544556454955618 ] ], [ [ 129.396901564944841, 35.527403320805114 ], [ 129.394872252006451, 35.528358477215995 ], [ 129.391345744539052, 35.524712416542563 ], [ 129.39261795687321, 35.522765514333919 ], [ 129.395427122183008, 35.523501498905098 ], [ 129.396901564944841, 35.527403320805114 ] ], [ [ 129.395841412596525, 35.544745426004454 ], [ 129.395807778874087, 35.544684798032428 ], [ 129.395799628548531, 35.544666609605009 ], [ 129.395834928637044, 35.544684682212136 ], [ 129.395841412596525, 35.544745426004454 ] ] ] ] } }
]
}
