{
"type": "FeatureCollection",
"name": "28185",
"crs": { "type": "name", "properties": { "name": "urn:ogc:def:crs:OGC:1.3:CRS84" } },
"features": [
{ "type": "Feature", "properties": { "emd_cd": "28185101", "emd_nm": "옥련동" }, "geometry": { "type": "MultiPolygon", "coordinates": [ [ [ [ 126.634758662822577, 37.430704050489645 ], [ 126.646034155135325, 37.430851155913871 ], [ 126.64752144801551, 37.436037421148562 ], [ 126.649101756361262, 37.436634075586355 ], [ 126.650660852490077, 37.436634091245296 ], [ 126.648973742999118, 37.435394236726246 ], [ 126.649843705121768, 37.434725192491221 ], [ 126.656651983661902, 37.435029175165027 ], [ 126.661000779200194, 37.426552818372549 ], [ 126.658546732907254, 37.42393542024201 ], [ 126.661320830874757, 37.417273337061204 ], [ 126.656328454996455, 37.417347922251317 ], [ 126.64824472589865, 37.413164734240169 ], [ 126.64665167139772, 37.415296747490963 ], [ 126.641186760532293, 37.41290536219045 ], [ 126.634758662822577, 37.430704050489645 ] ] ] ] } },
{ "type": "Feature", "properties": { "emd_cd": "28185102", "emd_nm": "선학동" }, "geometry": { "type": "MultiPolygon", "coordinates": [ [ [ [ 126.685522147523656, 37.430241048209744 ], [ 126.687250121415943, 37.433582339360726 ], [ 126.697616713657098, 37.433672271189216 ], [ 126.695413815668658, 37.438682356751599 ], [ 126.705025169460669, 37.438963812504284 ], [ 126.706630666043253, 37.434307072428716 ], [ 126.704629200649663, 37.425676450616045 ], [ 126.69530852006703, 37.417112090791697 ], [ 126.693913330208687, 37.417990465813908 ], [ 126.698146894544109, 37.423260315268593 ], [ 126.691453038304033, 37.42293011944205 ], [ 126.685522147523656, 37.430241048209744 ] ] ] ] } },
{ "type": "Feature", "properties": { "emd_cd": "28185103", "emd_nm": "연수동" }, "geometry": { "type": "MultiPolygon", "coordinates": [ [ [ [ 126.669314840819666, 37.425191338660248 ], [ 126.672157592950441, 37.425861081576102 ], [ 126.671473559653791, 37.427422022889033 ], [ 126.677259168185572, 37.431442805560671 ], [ 126.685522147523656, 37.43024104820973 ], [ 126.691453038304033, 37.422930119442064 ], [ 126.698146894544109, 37.423260315268621 ], [ 126.693913330208687, 37.417990465813908 ], [ 126.69530852006703, 37.417112090791697 ], [ 126.687072398533886, 37.410831078385144 ], [ 126.685456033475873, 37.406634643854332 ], [ 126.676595464664643, 37.412451056648216 ], [ 126.675664351456675, 37.413679721910995 ], [ 126.678404843974491, 37.418147772097711 ], [ 126.669314840819666, 37.425191338660248 ] ] ] ] } },
{ "type": "Feature", "properties": { "emd_cd": "28185104", "emd_nm": "청학동" }, "geometry": { "type": "MultiPolygon", "coordinates": [ [ [ [ 126.656402499604098, 37.434436379063584 ], [ 126.66003224946887, 37.435563544018606 ], [ 126.675796495223537, 37.430348234527806 ], [ 126.671473559653791, 37.427422022889033 ], [ 126.672157592950441, 37.425861081576102 ], [ 126.669314840819666, 37.425191338660248 ], [ 126.678404843974491, 37.418147772097711 ], [ 126.676120898700546, 37.414104543146877 ], [ 126.670298084116581, 37.41759500631165 ], [ 126.667679442429602, 37.415647150591646 ], [ 126.661877645242583, 37.41665927966298 ], [ 126.658546732907311, 37.423935420242003 ], [ 126.661000779200194, 37.426552818372549 ], [ 126.656402499604098, 37.434436379063584 ] ] ] ] } },
{ "type": "Feature", "properties": { "emd_cd": "28185105", "emd_nm": "동춘동" }, "geometry": { "type": "MultiPolygon", "coordinates": [ [ [ [ 126.641186760532293, 37.41290536219045 ], [ 126.64665167139772, 37.415296747490963 ], [ 126.64824472589865, 37.413164734240169 ], [ 126.656328454996455, 37.417347922251317 ], [ 126.667679442429602, 37.41564715059166 ], [ 126.670298084116553, 37.417595006311664 ], [ 126.685456033475873, 37.406634643854325 ], [ 126.667426788234948, 37.39225091758788 ], [ 126.641186760532293, 37.41290536219045 ] ] ] ] } },
{ "type": "Feature", "properties": { "emd_cd": "28185106", "emd_nm": "송도동" }, "geometry": { "type": "MultiPolygon", "coordinates": [ [ [ [ 126.583048282804796, 37.354726317358718 ], [ 126.642198248784666, 37.354939954389174 ], [ 126.642072935971939, 37.347883531216979 ], [ 126.643147734538786, 37.347759405932521 ], [ 126.648154439912048, 37.349437356348041 ], [ 126.654659027905666, 37.355959433689932 ], [ 126.616272418942557, 37.379449553663555 ], [ 126.609966983584044, 37.387187299794945 ], [ 126.60993760390356, 37.392923302282206 ], [ 126.60818099651307, 37.393987871870856 ], [ 126.608162732494364, 37.397591126476748 ], [ 126.609907502124187, 37.398666234545281 ], [ 126.609814709101499, 37.41632166980159 ], [ 126.596156170697469, 37.415834083280011 ], [ 126.589697595679283, 37.419385366273623 ], [ 126.58965838542828, 37.426685256876461 ], [ 126.592257837718748, 37.426694167217818 ], [ 126.592282894832067, 37.422820837133379 ], [ 126.60102726238236, 37.419655458474097 ], [ 126.604858538599089, 37.425275769370018 ], [ 126.608071400892399, 37.426766107947273 ], [ 126.632756313762812, 37.426846846253156 ], [ 126.634555290253303, 37.418043500530992 ], [ 126.637947897025583, 37.419435404738593 ], [ 126.641581514395384, 37.412368843354436 ], [ 126.661759391917258, 37.395597865829529 ], [ 126.672498376404135, 37.389236196944793 ], [ 126.68499607310298, 37.387172290408664 ], [ 126.68269502202611, 37.384795230356595 ], [ 126.695056953605913, 37.382729017012657 ], [ 126.697704667308884, 37.379197450514425 ], [ 126.696945842680108, 37.374987023825945 ], [ 126.687079447359679, 37.36389371297453 ], [ 126.684263640562179, 37.362148603186753 ], [ 126.678546872743368, 37.365651284405082 ], [ 126.663449396304955, 37.350535556611405 ], [ 126.65473787366345, 37.355899485955071 ], [ 126.649157111104415, 37.350136472782658 ], [ 126.647565801942847, 37.348945893854733 ], [ 126.644514800720316, 37.347783154148495 ], [ 126.640737685157831, 37.347538720231007 ], [ 126.6407642455993, 37.341863812967297 ], [ 126.62270889807283, 37.341807113034378 ], [ 126.622679663931351, 37.347478688886234 ], [ 126.615011556806806, 37.347452408713053 ], [ 126.614845346871476, 37.34313230024491 ], [ 126.614687443528425, 37.347451241298238 ], [ 126.58309054829661, 37.347293812829683 ], [ 126.583048282804796, 37.354726317358718 ] ] ] ] } }
]
}
