{
"type": "FeatureCollection",
"name": "28237",
"crs": { "type": "name", "properties": { "name": "urn:ogc:def:crs:OGC:1.3:CRS84" } },
"features": [
{ "type": "Feature", "properties": { "emd_cd": "28237101", "emd_nm": "부평동" }, "geometry": { "type": "MultiPolygon", "coordinates": [ [ [ [ 126.708252900666722, 37.486652447585328 ], [ 126.709902858214463, 37.489081755280232 ], [ 126.709869812821992, 37.48980165160895 ], [ 126.71008293896503, 37.490038707282622 ], [ 126.716820715918615, 37.491391655959433 ], [ 126.715587731366938, 37.503870060560352 ], [ 126.716833269120073, 37.505246770774839 ], [ 126.720681273936819, 37.506072273606279 ], [ 126.720756195514184, 37.507562652064195 ], [ 126.731260051811233, 37.506966868389263 ], [ 126.734523480305583, 37.501689950784538 ], [ 126.733344330677355, 37.493425079170237 ], [ 126.736534991963666, 37.493625181789994 ], [ 126.735487096477669, 37.490833798640551 ], [ 126.732150112849553, 37.488817076199794 ], [ 126.730965048739819, 37.48325650702823 ], [ 126.732270910601656, 37.483582714138926 ], [ 126.732200635073667, 37.482144893400374 ], [ 126.729370929292102, 37.479963659751505 ], [ 126.729024948373734, 37.481859933712329 ], [ 126.727991555977908, 37.480282041351465 ], [ 126.732703023279129, 37.476889752001604 ], [ 126.732827938692381, 37.474751044538955 ], [ 126.73043540004484, 37.472302662547115 ], [ 126.722054187242961, 37.470190457672551 ], [ 126.719424666530358, 37.474045734246822 ], [ 126.711829317430329, 37.477394294175568 ], [ 126.711841474453905, 37.48549163371078 ], [ 126.708252900666722, 37.486652447585328 ] ] ] ] } },
{ "type": "Feature", "properties": { "emd_cd": "28237102", "emd_nm": "십정동" }, "geometry": { "type": "MultiPolygon", "coordinates": [ [ [ [ 126.684231185605839, 37.473555309746551 ], [ 126.691029229708462, 37.47903117662986 ], [ 126.690091777111164, 37.483158083025806 ], [ 126.692750646527472, 37.484107847026323 ], [ 126.692332449330152, 37.485097148054535 ], [ 126.699761224957712, 37.484818429808236 ], [ 126.704764833330302, 37.486982315449069 ], [ 126.71022535275263, 37.48686499777024 ], [ 126.711841474453934, 37.485491633710772 ], [ 126.712360889959172, 37.481924043174601 ], [ 126.708000484905142, 37.469322934703023 ], [ 126.704888925097251, 37.469596980191312 ], [ 126.703253865280274, 37.467662651766297 ], [ 126.697759481336959, 37.468072000785249 ], [ 126.688233106480709, 37.470709278427591 ], [ 126.684231185605839, 37.473555309746551 ] ] ] ] } },
{ "type": "Feature", "properties": { "emd_cd": "28237103", "emd_nm": "산곡동" }, "geometry": { "type": "MultiPolygon", "coordinates": [ [ [ [ 126.716820715918615, 37.49139165595944 ], [ 126.710082938965058, 37.490038707282608 ], [ 126.708027148370249, 37.486539811946955 ], [ 126.703487178856619, 37.486843121085627 ], [ 126.699515327863224, 37.484979161247431 ], [ 126.69750642233457, 37.490389777861417 ], [ 126.694674451019054, 37.492853899679247 ], [ 126.691440262507186, 37.492550911152534 ], [ 126.692813757248274, 37.49531656575509 ], [ 126.688936097396592, 37.498570686328975 ], [ 126.692165500044027, 37.501675997307849 ], [ 126.688588903558667, 37.505228272495657 ], [ 126.688258275660857, 37.509291735312466 ], [ 126.693330573250037, 37.513748434850619 ], [ 126.703802888289005, 37.513579624107805 ], [ 126.703527115254559, 37.510510360611327 ], [ 126.716223547256703, 37.503275463268032 ], [ 126.716820715918615, 37.49139165595944 ] ] ] ] } },
{ "type": "Feature", "properties": { "emd_cd": "28237104", "emd_nm": "청천동" }, "geometry": { "type": "MultiPolygon", "coordinates": [ [ [ [ 126.687789783641392, 37.508648470892084 ], [ 126.686792647471393, 37.512258649370452 ], [ 126.68329674552345, 37.514525615252197 ], [ 126.683272346879207, 37.517024461578785 ], [ 126.686152633382662, 37.521736699042883 ], [ 126.68916836060022, 37.523522477177721 ], [ 126.721880423754286, 37.523671225937143 ], [ 126.720810367852749, 37.506200981213901 ], [ 126.716833269120073, 37.505246770774832 ], [ 126.716692076297306, 37.503887126198819 ], [ 126.714373963945974, 37.503567697876584 ], [ 126.713236760821658, 37.505723973589348 ], [ 126.703527115254559, 37.510510360611327 ], [ 126.703802888289005, 37.513579624107805 ], [ 126.702357071959682, 37.514240760244945 ], [ 126.693330573250037, 37.513748434850619 ], [ 126.687789783641392, 37.508648470892084 ] ] ] ] } },
{ "type": "Feature", "properties": { "emd_cd": "28237105", "emd_nm": "삼산동" }, "geometry": { "type": "MultiPolygon", "coordinates": [ [ [ [ 126.730199927646282, 37.516842272263574 ], [ 126.733548283098159, 37.517444643533331 ], [ 126.731333440404725, 37.522743806977111 ], [ 126.73302340137964, 37.522220165450236 ], [ 126.733182356999905, 37.523901544549901 ], [ 126.76060017953283, 37.523605038086458 ], [ 126.760275981221341, 37.515915621540785 ], [ 126.753451107560082, 37.516734950473854 ], [ 126.749880319741635, 37.513980437812499 ], [ 126.745953490617509, 37.515100331313413 ], [ 126.743652563636346, 37.510253143804206 ], [ 126.741470428628688, 37.508987976654055 ], [ 126.742289676389987, 37.50642211242252 ], [ 126.731491639936067, 37.506955540882949 ], [ 126.732190833955443, 37.514757946733035 ], [ 126.730952951933943, 37.514350409424793 ], [ 126.730199927646282, 37.516842272263574 ] ] ] ] } },
{ "type": "Feature", "properties": { "emd_cd": "28237106", "emd_nm": "갈산동" }, "geometry": { "type": "MultiPolygon", "coordinates": [ [ [ [ 126.731491639936067, 37.506955540882949 ], [ 126.720815630971813, 37.507450475307692 ], [ 126.722219902904257, 37.522665332415265 ], [ 126.719172823502163, 37.523781913597752 ], [ 126.733182356999905, 37.523901544549901 ], [ 126.73302340137964, 37.522220165450236 ], [ 126.731333440404725, 37.522743806977111 ], [ 126.733548283098159, 37.517444643533331 ], [ 126.730199927646282, 37.516842272263574 ], [ 126.730952951933943, 37.514350409424793 ], [ 126.732190833955443, 37.514757946733035 ], [ 126.731491639936067, 37.506955540882949 ] ] ] ] } },
{ "type": "Feature", "properties": { "emd_cd": "28237107", "emd_nm": "부개동" }, "geometry": { "type": "MultiPolygon", "coordinates": [ [ [ [ 126.727991555977908, 37.480282041351451 ], [ 126.729024948373734, 37.481859933712329 ], [ 126.729370929292102, 37.479963659751505 ], [ 126.732200635073667, 37.48214489340036 ], [ 126.732270910601656, 37.483582714138919 ], [ 126.730965048739847, 37.483256507028223 ], [ 126.732150112849567, 37.488817076199794 ], [ 126.736459816465583, 37.492873383271984 ], [ 126.733344330677355, 37.493425079170251 ], [ 126.734523480305583, 37.501689950784531 ], [ 126.731260051811262, 37.506966868389256 ], [ 126.742289676389987, 37.50642211242252 ], [ 126.743759405326742, 37.501547517893485 ], [ 126.741757178368687, 37.495079986968058 ], [ 126.741829310789342, 37.484026802707874 ], [ 126.732604111405024, 37.476994250133842 ], [ 126.727991555977908, 37.480282041351451 ] ] ] ] } },
{ "type": "Feature", "properties": { "emd_cd": "28237108", "emd_nm": "일신동" }, "geometry": { "type": "MultiPolygon", "coordinates": [ [ [ [ 126.73088259788625, 37.473037299990644 ], [ 126.732827938692381, 37.474751044538955 ], [ 126.732604111405024, 37.476994250133821 ], [ 126.741829310789342, 37.484026802707859 ], [ 126.742410767244465, 37.486914391900243 ], [ 126.751548357651913, 37.484741820964381 ], [ 126.752009696299382, 37.480917153891014 ], [ 126.748120289982239, 37.478130203535713 ], [ 126.747708517440159, 37.474984901948346 ], [ 126.742952561609215, 37.471953419749568 ], [ 126.739323815785809, 37.470629404625107 ], [ 126.73088259788625, 37.473037299990644 ] ] ] ] } },
{ "type": "Feature", "properties": { "emd_cd": "28237109", "emd_nm": "구산동" }, "geometry": { "type": "MultiPolygon", "coordinates": [ [ [ [ 126.739323815785809, 37.470629404625107 ], [ 126.747708517440159, 37.474984901948346 ], [ 126.748120289982239, 37.478130203535713 ], [ 126.752041458921781, 37.480987318708216 ], [ 126.751548357651913, 37.484741820964381 ], [ 126.755550072697289, 37.482913154175925 ], [ 126.754967909811157, 37.480928589162801 ], [ 126.759159065533098, 37.476920215224922 ], [ 126.765159434861616, 37.475182167389647 ], [ 126.76775324479047, 37.471762415713023 ], [ 126.766084936028705, 37.469779919461722 ], [ 126.757081526936759, 37.469184530123123 ], [ 126.753496218199345, 37.465044409013394 ], [ 126.748927697419475, 37.465881178868571 ], [ 126.746259994969506, 37.464533197661588 ], [ 126.739323815785809, 37.470629404625107 ] ] ] ] } }
]
}
