{
"type": "FeatureCollection",
"name": "11290",
"crs": { "type": "name", "properties": { "name": "urn:ogc:def:crs:OGC:1.3:CRS84" } },
"features": [
{ "type": "Feature", "properties": { "emd_cd": "11290101", "emd_nm": "성북동" }, "geometry": { "type": "MultiPolygon", "coordinates": [ [ [ [ 127.003422813287528, 37.588058054597802 ], [ 127.004023011968883, 37.588017976581028 ], [ 127.004007393113312, 37.587850357617185 ], [ 127.003422813287528, 37.588058054597802 ] ] ], [ [ [ 126.976777332001049, 37.597982190081076 ], [ 126.978480622316368, 37.601015191021048 ], [ 126.990848836263282, 37.604045206094504 ], [ 127.001080606445072, 37.6013900043409 ], [ 127.003490047195285, 37.598041537864589 ], [ 127.007766226731732, 37.596041231930627 ], [ 127.008329355669233, 37.593119417087351 ], [ 127.00549522477327, 37.589119868034999 ], [ 127.00181221223275, 37.591338303574865 ], [ 127.003514883964783, 37.588434160335872 ], [ 127.00095307427253, 37.592300959619429 ], [ 126.989215059744552, 37.591247762388903 ], [ 126.976777332001049, 37.597982190081076 ] ] ] ] } },
{ "type": "Feature", "properties": { "emd_cd": "11290102", "emd_nm": "성북동1가" }, "geometry": { "type": "MultiPolygon", "coordinates": [ [ [ [ 127.001689325794771, 37.590705974688078 ], [ 127.003883999913256, 37.590931161287642 ], [ 127.006338227152909, 37.588555414515291 ], [ 127.003902837926006, 37.587647196606362 ], [ 127.001689325794771, 37.590705974688078 ] ] ] ] } },
{ "type": "Feature", "properties": { "emd_cd": "11290103", "emd_nm": "돈암동" }, "geometry": { "type": "MultiPolygon", "coordinates": [ [ [ [ 127.00555453127852, 37.597090992531982 ], [ 127.006758440586125, 37.598721554559418 ], [ 127.011066524659114, 37.598391362556626 ], [ 127.012630997904608, 37.601867660943611 ], [ 127.018582933230135, 37.598596281930142 ], [ 127.027085567836863, 37.604510736891513 ], [ 127.0304383327111, 37.60411471093699 ], [ 127.027001651721335, 37.600724725514688 ], [ 127.024070305685726, 37.590400810543272 ], [ 127.022597050587791, 37.589835147159079 ], [ 127.021337340528405, 37.591383239269241 ], [ 127.022003442106453, 37.59687591313449 ], [ 127.016063526847219, 37.596839322564357 ], [ 127.013586922138998, 37.598274382333337 ], [ 127.01265515070267, 37.59668808476281 ], [ 127.013782560057948, 37.5948803828189 ], [ 127.0066771137556, 37.590855686895758 ], [ 127.008315988527073, 37.594173308274684 ], [ 127.00555453127852, 37.597090992531982 ] ], [ [ 127.018673997697093, 37.598343840151756 ], [ 127.018639628144186, 37.598384488513304 ], [ 127.01859038699692, 37.59821165995352 ], [ 127.018673997697093, 37.598343840151756 ] ], [ [ 127.018854007073813, 37.598521541881702 ], [ 127.018734190255969, 37.598619541383201 ], [ 127.018791393694571, 37.598502990798103 ], [ 127.018854007073813, 37.598521541881702 ] ], [ [ 127.019031818609534, 37.598642896144575 ], [ 127.018918473148048, 37.598618316054718 ], [ 127.018899983823758, 37.59853129277311 ], [ 127.019031818609534, 37.598642896144575 ] ] ] ] } },
{ "type": "Feature", "properties": { "emd_cd": "11290104", "emd_nm": "동소문동1가" }, "geometry": { "type": "MultiPolygon", "coordinates": [ [ [ [ 127.005197126031263, 37.589495092914085 ], [ 127.008021475585082, 37.59171219568826 ], [ 127.009278489442508, 37.589839458883766 ], [ 127.006338227152938, 37.588555414515291 ], [ 127.005197126031263, 37.589495092914085 ] ] ] ] } },
{ "type": "Feature", "properties": { "emd_cd": "11290105", "emd_nm": "동소문동2가" }, "geometry": { "type": "MultiPolygon", "coordinates": [ [ [ [ 127.006216272160103, 37.588507784345985 ], [ 127.01000700444493, 37.588994969558129 ], [ 127.008230278673565, 37.587809252308425 ], [ 127.006216272160103, 37.588507784345985 ] ] ] ] } },
{ "type": "Feature", "properties": { "emd_cd": "11290106", "emd_nm": "동소문동3가" }, "geometry": { "type": "MultiPolygon", "coordinates": [ [ [ [ 127.013149189708912, 37.591782646291158 ], [ 127.01000700444493, 37.588994969558129 ], [ 127.009413651870844, 37.589899662745729 ], [ 127.013149189708912, 37.591782646291158 ] ] ] ] } },
{ "type": "Feature", "properties": { "emd_cd": "11290107", "emd_nm": "동소문동4가" }, "geometry": { "type": "MultiPolygon", "coordinates": [ [ [ [ 127.011539559157072, 37.593888637907575 ], [ 127.013149189708912, 37.591782646291158 ], [ 127.009278489442508, 37.589839458883766 ], [ 127.008021475585082, 37.59171219568826 ], [ 127.011539559157072, 37.593888637907575 ] ] ] ] } },
{ "type": "Feature", "properties": { "emd_cd": "11290108", "emd_nm": "동소문동5가" }, "geometry": { "type": "MultiPolygon", "coordinates": [ [ [ [ 127.016481446952966, 37.592670749864496 ], [ 127.016661779779056, 37.590346519744671 ], [ 127.013149189708912, 37.591782646291158 ], [ 127.014298631295816, 37.592257940987594 ], [ 127.016481446952966, 37.592670749864496 ] ] ] ] } },
{ "type": "Feature", "properties": { "emd_cd": "11290109", "emd_nm": "동소문동6가" }, "geometry": { "type": "MultiPolygon", "coordinates": [ [ [ [ 127.011539559157072, 37.593888637907575 ], [ 127.015902753308211, 37.595473937095889 ], [ 127.016481446952966, 37.592670749864496 ], [ 127.013149189708912, 37.591782646291158 ], [ 127.011539559157072, 37.593888637907575 ] ] ] ] } },
{ "type": "Feature", "properties": { "emd_cd": "11290110", "emd_nm": "동소문동7가" }, "geometry": { "type": "MultiPolygon", "coordinates": [ [ [ [ 127.014429228374453, 37.598352399486672 ], [ 127.015902753308211, 37.595473937095889 ], [ 127.014833562271036, 37.594268879082392 ], [ 127.01265515070267, 37.59668808476281 ], [ 127.014429228374453, 37.598352399486672 ] ] ] ] } },
{ "type": "Feature", "properties": { "emd_cd": "11290111", "emd_nm": "삼선동1가" }, "geometry": { "type": "MultiPolygon", "coordinates": [ [ [ [ 127.004027915453179, 37.587709911599951 ], [ 127.008666854279284, 37.588100082735743 ], [ 127.009874653677414, 37.585918889004517 ], [ 127.008734964359235, 37.583364786707605 ], [ 127.010588907684991, 37.580254616708608 ], [ 127.007020692696273, 37.582012589086688 ], [ 127.006625782247625, 37.586124994494909 ], [ 127.004027915453179, 37.587709911599951 ] ] ] ] } },
{ "type": "Feature", "properties": { "emd_cd": "11290112", "emd_nm": "삼선동2가" }, "geometry": { "type": "MultiPolygon", "coordinates": [ [ [ [ 127.008666854279284, 37.588100082735743 ], [ 127.01000700444493, 37.588994969558129 ], [ 127.011794928308831, 37.584253103268907 ], [ 127.014716691012509, 37.584491096495128 ], [ 127.015070515006954, 37.582555585495335 ], [ 127.009777367321547, 37.580815269992208 ], [ 127.008666854279284, 37.588100082735743 ] ] ] ] } },
{ "type": "Feature", "properties": { "emd_cd": "11290113", "emd_nm": "삼선동3가" }, "geometry": { "type": "MultiPolygon", "coordinates": [ [ [ [ 127.010419412807053, 37.588364177518798 ], [ 127.013178583608948, 37.589242487818922 ], [ 127.014419275173168, 37.586742809496812 ], [ 127.016395721899784, 37.586471965991187 ], [ 127.014868866389577, 37.584497998955086 ], [ 127.01179677354672, 37.584251769649292 ], [ 127.010419412807053, 37.588364177518798 ] ] ] ] } },
{ "type": "Feature", "properties": { "emd_cd": "11290114", "emd_nm": "삼선동4가" }, "geometry": { "type": "MultiPolygon", "coordinates": [ [ [ [ 127.016661779779056, 37.590346519744671 ], [ 127.010419412807053, 37.588364177518798 ], [ 127.01000700444493, 37.588994969558129 ], [ 127.01317768820212, 37.591196462840088 ], [ 127.016661779779056, 37.590346519744671 ] ] ] ] } },
{ "type": "Feature", "properties": { "emd_cd": "11290115", "emd_nm": "삼선동5가" }, "geometry": { "type": "MultiPolygon", "coordinates": [ [ [ [ 127.016661779779056, 37.590346519744671 ], [ 127.018789275805801, 37.588701191248219 ], [ 127.014419275173154, 37.586742809496791 ], [ 127.013178583608948, 37.589242487818936 ], [ 127.016661779779056, 37.590346519744671 ] ] ] ] } },
{ "type": "Feature", "properties": { "emd_cd": "11290116", "emd_nm": "동선동1가" }, "geometry": { "type": "MultiPolygon", "coordinates": [ [ [ [ 127.018930131798101, 37.594466355236406 ], [ 127.019897455141844, 37.5913730478349 ], [ 127.016949051404367, 37.59043931101418 ], [ 127.016483564296706, 37.592670578409013 ], [ 127.018930131798101, 37.594466355236406 ] ] ] ] } },
{ "type": "Feature", "properties": { "emd_cd": "11290117", "emd_nm": "동선동2가" }, "geometry": { "type": "MultiPolygon", "coordinates": [ [ [ [ 127.018789275805801, 37.588701191248219 ], [ 127.016661779779056, 37.590346519744671 ], [ 127.022722028119901, 37.590874185563251 ], [ 127.022495055969983, 37.589021035281391 ], [ 127.018789275805801, 37.588701191248219 ] ] ] ] } },
{ "type": "Feature", "properties": { "emd_cd": "11290118", "emd_nm": "동선동3가" }, "geometry": { "type": "MultiPolygon", "coordinates": [ [ [ [ 127.018930131798101, 37.594466355236406 ], [ 127.022003442106453, 37.59687591313449 ], [ 127.021131318044965, 37.591229863011357 ], [ 127.019581298372302, 37.591540301373094 ], [ 127.018930131798101, 37.594466355236406 ] ] ] ] } },
{ "type": "Feature", "properties": { "emd_cd": "11290119", "emd_nm": "동선동4가" }, "geometry": { "type": "MultiPolygon", "coordinates": [ [ [ [ 127.02146795964498, 37.597070103795566 ], [ 127.020603502253351, 37.595935295309353 ], [ 127.016481446952966, 37.592670749864496 ], [ 127.016159540250285, 37.594245260442726 ], [ 127.019200534963602, 37.597125488299774 ], [ 127.02146795964498, 37.597070103795566 ] ] ] ] } },
{ "type": "Feature", "properties": { "emd_cd": "11290120", "emd_nm": "동선동5가" }, "geometry": { "type": "MultiPolygon", "coordinates": [ [ [ [ 127.014429228374453, 37.598352399486672 ], [ 127.016063526847219, 37.596839322564357 ], [ 127.019293880444295, 37.596624671412997 ], [ 127.016159540250285, 37.594245260442726 ], [ 127.014429228374453, 37.598352399486672 ] ] ] ] } },
{ "type": "Feature", "properties": { "emd_cd": "11290121", "emd_nm": "안암동1가" }, "geometry": { "type": "MultiPolygon", "coordinates": [ [ [ [ 127.020601145821743, 37.586705743461636 ], [ 127.018789275805801, 37.588701191248219 ], [ 127.019674239514259, 37.589413953879706 ], [ 127.022495055969983, 37.589021035281391 ], [ 127.023791096928363, 37.590721316825309 ], [ 127.025753375423122, 37.588473161990926 ], [ 127.020601145821743, 37.586705743461636 ] ] ] ] } },
{ "type": "Feature", "properties": { "emd_cd": "11290122", "emd_nm": "안암동2가" }, "geometry": { "type": "MultiPolygon", "coordinates": [ [ [ [ 127.020601145821743, 37.586705743461636 ], [ 127.024204731309112, 37.588886066883816 ], [ 127.025809424612476, 37.588555446453277 ], [ 127.025236335839992, 37.586445049988157 ], [ 127.021273028537777, 37.584788272585804 ], [ 127.020601145821743, 37.586705743461636 ] ] ] ] } },
{ "type": "Feature", "properties": { "emd_cd": "11290123", "emd_nm": "안암동3가" }, "geometry": { "type": "MultiPolygon", "coordinates": [ [ [ [ 127.024828047262758, 37.586273178235373 ], [ 127.023769562420412, 37.584752825132661 ], [ 127.026035890521683, 37.581886817476239 ], [ 127.02275757053097, 37.581431905160606 ], [ 127.021273028537777, 37.584788272585804 ], [ 127.024828047262758, 37.586273178235373 ] ] ] ] } },
{ "type": "Feature", "properties": { "emd_cd": "11290124", "emd_nm": "안암동4가" }, "geometry": { "type": "MultiPolygon", "coordinates": [ [ [ [ 127.026035890521683, 37.581886817476239 ], [ 127.026422867765305, 37.58054461833639 ], [ 127.024426267383078, 37.579180685862625 ], [ 127.02275757053097, 37.581431905160606 ], [ 127.026035890521683, 37.581886817476239 ] ] ] ] } },
{ "type": "Feature", "properties": { "emd_cd": "11290125", "emd_nm": "안암동5가" }, "geometry": { "type": "MultiPolygon", "coordinates": [ [ [ [ 127.025640274907531, 37.596323922941139 ], [ 127.035551685559355, 37.588914433899944 ], [ 127.026422867765305, 37.58054461833639 ], [ 127.023769562420412, 37.584752825132661 ], [ 127.02590015371095, 37.588185483243343 ], [ 127.02359622311775, 37.592328457817928 ], [ 127.025640274907531, 37.596323922941139 ] ] ] ] } },
{ "type": "Feature", "properties": { "emd_cd": "11290126", "emd_nm": "보문동4가" }, "geometry": { "type": "MultiPolygon", "coordinates": [ [ [ [ 127.019946513877031, 37.584289962678262 ], [ 127.021303325156168, 37.584701926050535 ], [ 127.02278267965211, 37.581387716275792 ], [ 127.021710002088838, 37.581022104188733 ], [ 127.019946513877031, 37.584289962678262 ] ] ] ] } },
{ "type": "Feature", "properties": { "emd_cd": "11290127", "emd_nm": "보문동5가" }, "geometry": { "type": "MultiPolygon", "coordinates": [ [ [ [ 127.01835641764599, 37.583741346638128 ], [ 127.019946513877031, 37.584289962678262 ], [ 127.021710002088838, 37.581022104188733 ], [ 127.02020134698634, 37.580509484126672 ], [ 127.01835641764599, 37.583741346638128 ] ] ] ] } },
{ "type": "Feature", "properties": { "emd_cd": "11290128", "emd_nm": "보문동6가" }, "geometry": { "type": "MultiPolygon", "coordinates": [ [ [ [ 127.01677373027286, 37.581713856649927 ], [ 127.01835641764599, 37.583741346638128 ], [ 127.021824336046308, 37.578861762314652 ], [ 127.018090680181757, 37.577566726539359 ], [ 127.01677373027286, 37.581713856649927 ] ] ], [ [ [ 127.015351101823427, 37.581935998863081 ], [ 127.015613030605707, 37.581817488201658 ], [ 127.016206303309929, 37.581906135989946 ], [ 127.015351101823427, 37.581935998863081 ] ] ], [ [ [ 127.014988951308169, 37.58221514822597 ], [ 127.015096810537202, 37.582159752253041 ], [ 127.014917145673181, 37.582244906958728 ], [ 127.014988951308169, 37.58221514822597 ] ] ] ] } },
{ "type": "Feature", "properties": { "emd_cd": "11290129", "emd_nm": "보문동7가" }, "geometry": { "type": "MultiPolygon", "coordinates": [ [ [ [ 127.02278267965211, 37.581387716275792 ], [ 127.024402587003081, 37.579189853488593 ], [ 127.022890490604951, 37.577820970519404 ], [ 127.02020134698634, 37.580509484126672 ], [ 127.02278267965211, 37.581387716275792 ] ] ] ] } },
{ "type": "Feature", "properties": { "emd_cd": "11290130", "emd_nm": "보문동1가" }, "geometry": { "type": "MultiPolygon", "coordinates": [ [ [ [ 127.017877872081016, 37.587950458043572 ], [ 127.020036281425632, 37.587712143948984 ], [ 127.021303325156168, 37.584701926050535 ], [ 127.019946513877031, 37.584289962678262 ], [ 127.017877872081016, 37.587950458043572 ] ] ] ] } },
{ "type": "Feature", "properties": { "emd_cd": "11290131", "emd_nm": "보문동2가" }, "geometry": { "type": "MultiPolygon", "coordinates": [ [ [ [ 127.01835641764599, 37.583741346638128 ], [ 127.016619862710726, 37.586978354407726 ], [ 127.017877872081016, 37.587950458043572 ], [ 127.019946513877031, 37.584289962678262 ], [ 127.01835641764599, 37.583741346638128 ] ] ] ] } },
{ "type": "Feature", "properties": { "emd_cd": "11290132", "emd_nm": "보문동3가" }, "geometry": { "type": "MultiPolygon", "coordinates": [ [ [ [ 127.014716691012509, 37.584491096495128 ], [ 127.016619862710726, 37.586978354407726 ], [ 127.01835641764599, 37.583741346638128 ], [ 127.015613030605707, 37.581817488201658 ], [ 127.014716691012509, 37.584491096495128 ] ] ] ] } },
{ "type": "Feature", "properties": { "emd_cd": "11290133", "emd_nm": "정릉동" }, "geometry": { "type": "MultiPolygon", "coordinates": [ [ [ [ 127.01859038699692, 37.59821165995352 ], [ 127.018712636685834, 37.598452691371328 ], [ 127.018866345314024, 37.598501457144494 ], [ 127.01859038699692, 37.59821165995352 ] ] ], [ [ [ 127.018889048987816, 37.598645593161521 ], [ 127.018791393694571, 37.598502990798103 ], [ 127.018734190255969, 37.598619541383201 ], [ 127.018889048987816, 37.598645593161521 ] ] ], [ [ [ 127.018899983823758, 37.59853129277311 ], [ 127.018982904013029, 37.598660625738773 ], [ 127.019079007891122, 37.598704192056765 ], [ 127.018899983823758, 37.59853129277311 ] ] ], [ [ [ 126.974916198562099, 37.628970108329952 ], [ 126.977804442178453, 37.633910573155354 ], [ 126.98395908913642, 37.636438036926037 ], [ 126.993721211761141, 37.631447513917848 ], [ 126.9992694711665, 37.626179843426172 ], [ 127.007900972653275, 37.623985482917263 ], [ 127.007286115367876, 37.620399127753167 ], [ 127.014817161145089, 37.614217575545617 ], [ 127.015791786837994, 37.607162684626118 ], [ 127.01961334832626, 37.605223363597183 ], [ 127.017670758554331, 37.603838303447375 ], [ 127.021972464848147, 37.602061339578476 ], [ 127.021444874672511, 37.60014167787736 ], [ 127.017213760662514, 37.598741052755074 ], [ 127.012630997904608, 37.601867660943611 ], [ 127.011066524659114, 37.598391362556626 ], [ 127.006758440586125, 37.598721554559418 ], [ 127.005450898034226, 37.597088347136562 ], [ 127.0010806064451, 37.601390004340928 ], [ 126.986669620971412, 37.604024085711266 ], [ 126.986578597225218, 37.613972041591254 ], [ 126.983714352809102, 37.617758566147636 ], [ 126.983644676131192, 37.621143971352801 ], [ 126.979603816413018, 37.626379775104745 ], [ 126.979927083451813, 37.628571916934874 ], [ 126.974916198562099, 37.628970108329952 ] ] ] ] } },
{ "type": "Feature", "properties": { "emd_cd": "11290134", "emd_nm": "길음동" }, "geometry": { "type": "MultiPolygon", "coordinates": [ [ [ [ 127.014403416432074, 37.613688349020585 ], [ 127.017095502060883, 37.614798285536963 ], [ 127.022196170484463, 37.611368844611377 ], [ 127.030184430311081, 37.612366246193474 ], [ 127.030270067393928, 37.60890011262542 ], [ 127.024857157669459, 37.602559777861799 ], [ 127.02014751925627, 37.602286040538687 ], [ 127.017666459112476, 37.603856323691375 ], [ 127.01961334832626, 37.605223363597183 ], [ 127.015791786837994, 37.607162684626118 ], [ 127.014403416432074, 37.613688349020585 ] ] ] ] } },
{ "type": "Feature", "properties": { "emd_cd": "11290135", "emd_nm": "종암동" }, "geometry": { "type": "MultiPolygon", "coordinates": [ [ [ [ 127.025640274907531, 37.596323922941139 ], [ 127.027001651721335, 37.600724725514688 ], [ 127.0304383327111, 37.60411471093699 ], [ 127.038854596980656, 37.602403589757763 ], [ 127.040878370376603, 37.600422940757262 ], [ 127.041090827028256, 37.595559098708172 ], [ 127.035551685559355, 37.588914433899944 ], [ 127.025640274907531, 37.596323922941139 ] ] ] ] } },
{ "type": "Feature", "properties": { "emd_cd": "11290136", "emd_nm": "하월곡동" }, "geometry": { "type": "MultiPolygon", "coordinates": [ [ [ [ 127.043527610124286, 37.610936673098017 ], [ 127.042913274420471, 37.605216536847955 ], [ 127.048006930919058, 37.605285791119321 ], [ 127.048212662297146, 37.601416610449846 ], [ 127.050384883623181, 37.600449372626265 ], [ 127.047341823275644, 37.59617790384106 ], [ 127.043039411802866, 37.59696690147716 ], [ 127.041174640874999, 37.595492577959227 ], [ 127.040878370376603, 37.600422940757262 ], [ 127.038854596980656, 37.602403589757763 ], [ 127.025301035486123, 37.604220110552312 ], [ 127.036043331717892, 37.612437035584882 ], [ 127.043527610124286, 37.610936673098017 ] ] ] ] } },
{ "type": "Feature", "properties": { "emd_cd": "11290137", "emd_nm": "상월곡동" }, "geometry": { "type": "MultiPolygon", "coordinates": [ [ [ [ 127.042273936975036, 37.607048645747753 ], [ 127.043527610124286, 37.610936673098017 ], [ 127.046380497108458, 37.611619188900058 ], [ 127.045440738683823, 37.609704929256615 ], [ 127.047431881576713, 37.607829903729908 ], [ 127.051481382091069, 37.610035998084633 ], [ 127.052483049597654, 37.60904819281977 ], [ 127.050585728806965, 37.606866493878812 ], [ 127.052770068712704, 37.602512017747024 ], [ 127.049208042863071, 37.600733834873147 ], [ 127.048006930919058, 37.605285791119321 ], [ 127.043478106567491, 37.604768504019923 ], [ 127.042273936975036, 37.607048645747753 ] ] ] ] } },
{ "type": "Feature", "properties": { "emd_cd": "11290138", "emd_nm": "장위동" }, "geometry": { "type": "MultiPolygon", "coordinates": [ [ [ [ 127.037356611946038, 37.612838157466868 ], [ 127.049728543375409, 37.624262977688034 ], [ 127.063285192998833, 37.61425866261132 ], [ 127.051240483227502, 37.607799186913745 ], [ 127.052483049597654, 37.60904819281977 ], [ 127.051481382091069, 37.610035998084633 ], [ 127.047431881576713, 37.607829903729908 ], [ 127.045440738683823, 37.609704929256615 ], [ 127.046380497108458, 37.611619188900058 ], [ 127.040544446962784, 37.611089431522657 ], [ 127.037356611946038, 37.612838157466868 ] ] ] ] } },
{ "type": "Feature", "properties": { "emd_cd": "11290139", "emd_nm": "석관동" }, "geometry": { "type": "MultiPolygon", "coordinates": [ [ [ [ 127.050585728806965, 37.606866493878812 ], [ 127.063411158696283, 37.614308835323364 ], [ 127.06965941492652, 37.615737646521666 ], [ 127.071647464441526, 37.613867423975002 ], [ 127.071554645719573, 37.60757296951072 ], [ 127.062189453289264, 37.605122284681073 ], [ 127.059189904848452, 37.60106833869024 ], [ 127.052071115522509, 37.600149265745003 ], [ 127.052428604738211, 37.60440613942756 ], [ 127.050585728806965, 37.606866493878812 ] ] ] ] } }
]
}
