{
"type": "FeatureCollection",
"name": "11305",
"crs": { "type": "name", "properties": { "name": "urn:ogc:def:crs:OGC:1.3:CRS84" } },
"features": [
{ "type": "Feature", "properties": { "emd_cd": "11305101", "emd_nm": "미아동" }, "geometry": { "type": "MultiPolygon", "coordinates": [ [ [ [ 127.00717924505129, 37.620856650676764 ], [ 127.008864353882018, 37.625028671190051 ], [ 127.02433425005043, 37.630906267613625 ], [ 127.023445740221732, 37.634756406509545 ], [ 127.027829203935852, 37.634925885531374 ], [ 127.026738760310778, 37.633920451896792 ], [ 127.02891199692138, 37.633774333314605 ], [ 127.032748018770633, 37.627429481702336 ], [ 127.034333587001186, 37.621247394321323 ], [ 127.038921523206298, 37.619025860948021 ], [ 127.039859566829691, 37.615491003688092 ], [ 127.030247580832309, 37.608973458034662 ], [ 127.030177087623159, 37.612357048955914 ], [ 127.022116734381129, 37.611336612368675 ], [ 127.017536834916257, 37.614616138183322 ], [ 127.010146059236206, 37.616798094617366 ], [ 127.00717924505129, 37.620856650676764 ] ] ] ] } },
{ "type": "Feature", "properties": { "emd_cd": "11305102", "emd_nm": "번동" }, "geometry": { "type": "MultiPolygon", "coordinates": [ [ [ [ 127.022990951655217, 37.635432493910827 ], [ 127.03085803969563, 37.642870350230226 ], [ 127.039767512160395, 37.632195800349109 ], [ 127.049732802059097, 37.624262174076371 ], [ 127.039323114361423, 37.615730792625207 ], [ 127.038921523206298, 37.619025860948021 ], [ 127.034333587001186, 37.621247394321323 ], [ 127.032748018770633, 37.627429481702336 ], [ 127.02891199692138, 37.633774333314605 ], [ 127.026566340438606, 37.634995319413235 ], [ 127.023445740221732, 37.634756406509545 ], [ 127.023424029771945, 37.633354578666129 ], [ 127.022990951655217, 37.635432493910827 ] ] ] ] } },
{ "type": "Feature", "properties": { "emd_cd": "11305103", "emd_nm": "수유동" }, "geometry": { "type": "MultiPolygon", "coordinates": [ [ [ [ 126.984200894925195, 37.636340649942071 ], [ 126.98613257024013, 37.640427868585867 ], [ 126.985224049849919, 37.641636001876506 ], [ 126.988552470264054, 37.641788526608792 ], [ 126.997487406045892, 37.650418883444694 ], [ 127.002420051067404, 37.648978018496756 ], [ 127.008002714694584, 37.650431207849842 ], [ 127.021130985207648, 37.64900212412315 ], [ 127.03085803969563, 37.642870350230226 ], [ 127.023022125261164, 37.635494475515031 ], [ 127.02433425005043, 37.630906267613625 ], [ 127.018001444635786, 37.629537023488474 ], [ 127.015752442512849, 37.627065759513421 ], [ 127.007888323250157, 37.62402715391115 ], [ 126.999272948173441, 37.626202304907714 ], [ 126.993693736761912, 37.63147384770128 ], [ 126.984200894925195, 37.636340649942071 ] ] ] ] } },
{ "type": "Feature", "properties": { "emd_cd": "11305104", "emd_nm": "우이동" }, "geometry": { "type": "MultiPolygon", "coordinates": [ [ [ [ 126.979658144623599, 37.656038741366004 ], [ 126.982856864457702, 37.656449594694806 ], [ 126.986543981439013, 37.659485233063165 ], [ 126.988268221076524, 37.664391241949446 ], [ 126.994017257913924, 37.666783020985861 ], [ 126.993981413528317, 37.674907177619453 ], [ 126.992197543813091, 37.679626879313908 ], [ 126.997311145691043, 37.683466119360119 ], [ 127.008662392090471, 37.684449387699217 ], [ 127.009416566994176, 37.679572709250849 ], [ 127.012143517203214, 37.679106413817358 ], [ 127.013940115331366, 37.675233934902884 ], [ 127.018717720628715, 37.670868305364735 ], [ 127.015774454040638, 37.667039428299915 ], [ 127.015354377494305, 37.663749907602238 ], [ 127.016989136797577, 37.662233969523342 ], [ 127.014521291707979, 37.662032791520168 ], [ 127.012653560308976, 37.653470030857406 ], [ 127.012899813263004, 37.6507636395528 ], [ 127.014963301316286, 37.649120123914173 ], [ 127.008002714694584, 37.650431207849842 ], [ 127.002420051067404, 37.648978018496756 ], [ 126.997487406045892, 37.650418883444694 ], [ 126.988552470264054, 37.641788526608792 ], [ 126.984956069649996, 37.641464157257701 ], [ 126.983247225985721, 37.643683461352992 ], [ 126.985717922801854, 37.646092939119313 ], [ 126.979658144623599, 37.656038741366004 ] ] ] ] } }
]
}
