{
"type": "FeatureCollection",
"name": "11320",
"crs": { "type": "name", "properties": { "name": "urn:ogc:def:crs:OGC:1.3:CRS84" } },
"features": [
{ "type": "Feature", "properties": { "emd_cd": "11320105", "emd_nm": "쌍문동" }, "geometry": { "type": "MultiPolygon", "coordinates": [ [ [ [ 127.012450750281118, 37.65215967140967 ], [ 127.01452711030332, 37.661993958906443 ], [ 127.017410231376061, 37.662078297362143 ], [ 127.017076690707853, 37.659913211213151 ], [ 127.019723085319384, 37.655762493660994 ], [ 127.023795934343156, 37.654131931351635 ], [ 127.028162972882953, 37.659060078145885 ], [ 127.042265841535396, 37.661811589272737 ], [ 127.03085531959843, 37.642868368757647 ], [ 127.021446837575013, 37.648875880525438 ], [ 127.015096452576984, 37.649282131148375 ], [ 127.012450750281118, 37.65215967140967 ] ] ] ] } },
{ "type": "Feature", "properties": { "emd_cd": "11320106", "emd_nm": "방학동" }, "geometry": { "type": "MultiPolygon", "coordinates": [ [ [ [ 127.020767830074206, 37.672029044762603 ], [ 127.031560163737851, 37.675154064085703 ], [ 127.033105438697874, 37.673628134806251 ], [ 127.035866236795428, 37.674130646214941 ], [ 127.036804949017409, 37.671583140734349 ], [ 127.039819788090114, 37.671792397250485 ], [ 127.039580815467005, 37.669951697815115 ], [ 127.048528997982984, 37.669174896216916 ], [ 127.051424842661092, 37.66070392682041 ], [ 127.045882093340509, 37.662192928403108 ], [ 127.037659706235132, 37.661755518019106 ], [ 127.028162972882953, 37.659060078145885 ], [ 127.025247858967717, 37.65426643414829 ], [ 127.020835174997003, 37.654589968320543 ], [ 127.015320751523177, 37.663632920121252 ], [ 127.015759325732475, 37.666994759882179 ], [ 127.020767830074206, 37.672029044762603 ] ] ] ] } },
{ "type": "Feature", "properties": { "emd_cd": "11320107", "emd_nm": "창동" }, "geometry": { "type": "MultiPolygon", "coordinates": [ [ [ [ 127.042265841535396, 37.661811589272737 ], [ 127.051106552158629, 37.660792806970825 ], [ 127.053416919620673, 37.657505239552158 ], [ 127.055929570427764, 37.645957748203152 ], [ 127.055776351752598, 37.640627460811935 ], [ 127.053689923408598, 37.640978521446016 ], [ 127.051352686229691, 37.644816070727501 ], [ 127.046544857435975, 37.641145171829848 ], [ 127.044029010111601, 37.633640601437236 ], [ 127.041657908818124, 37.631467100804549 ], [ 127.042526023236803, 37.630420676101473 ], [ 127.03085531959843, 37.642868368757647 ], [ 127.042265841535396, 37.661811589272737 ] ] ] ] } },
{ "type": "Feature", "properties": { "emd_cd": "11320108", "emd_nm": "도봉동" }, "geometry": { "type": "MultiPolygon", "coordinates": [ [ [ [ 127.031560163737851, 37.675154064085703 ], [ 127.018233032566584, 37.670653015572441 ], [ 127.012121534667017, 37.679092135401142 ], [ 127.009364671335746, 37.679581037686084 ], [ 127.007620695058208, 37.691618463132812 ], [ 127.009711369805245, 37.693363333547694 ], [ 127.009666155231088, 37.696699804177747 ], [ 127.013878369357698, 37.698800676445984 ], [ 127.015415072197627, 37.70145529764897 ], [ 127.025315132314489, 37.699580603553194 ], [ 127.027687298891408, 37.70093749939069 ], [ 127.032414062928737, 37.691838916363928 ], [ 127.041108472898529, 37.695299823286248 ], [ 127.043072483371134, 37.695231034444731 ], [ 127.044904265256065, 37.692405386890471 ], [ 127.048631668719196, 37.694062911036475 ], [ 127.051858550004269, 37.684512651948111 ], [ 127.048528997982984, 37.669174896216916 ], [ 127.039580815467005, 37.669951697815115 ], [ 127.039819788090114, 37.671792397250485 ], [ 127.036804949017409, 37.671583140734349 ], [ 127.035866236795428, 37.674130646214941 ], [ 127.033105438697874, 37.673628134806251 ], [ 127.031560163737851, 37.675154064085703 ] ] ] ] } }
]
}
