{
"type": "FeatureCollection",
"name": "11380",
"crs": { "type": "name", "properties": { "name": "urn:ogc:def:crs:OGC:1.3:CRS84" } },
"features": [
{ "type": "Feature", "properties": { "emd_cd": "11380101", "emd_nm": "수색동" }, "geometry": { "type": "MultiPolygon", "coordinates": [ [ [ [ 126.882030618106995, 37.590817739397437 ], [ 126.887337374389915, 37.593919701173384 ], [ 126.885466467156036, 37.591103625923019 ], [ 126.887158944898857, 37.588532786933506 ], [ 126.899643638509673, 37.58981691666645 ], [ 126.903624966390566, 37.588117217226973 ], [ 126.901549890792367, 37.585155823303182 ], [ 126.902359377948244, 37.58069552794597 ], [ 126.898975806945415, 37.578995540005373 ], [ 126.902635191548967, 37.57639039620679 ], [ 126.888886648349271, 37.584649851388804 ], [ 126.882030618106995, 37.590817739397437 ] ] ] ] } },
{ "type": "Feature", "properties": { "emd_cd": "11380102", "emd_nm": "녹번동" }, "geometry": { "type": "MultiPolygon", "coordinates": [ [ [ [ 126.948164259940327, 37.608634269366796 ], [ 126.939971790061875, 37.603095285632598 ], [ 126.941403238367727, 37.600656521964922 ], [ 126.938724457144644, 37.597504388351418 ], [ 126.934795558635344, 37.6010456830385 ], [ 126.92076498840656, 37.601706816309566 ], [ 126.922742404877866, 37.606454078068609 ], [ 126.92717261304648, 37.609075538904243 ], [ 126.930005779744675, 37.608398147541635 ], [ 126.940937038241984, 37.610709615996591 ], [ 126.946113620974089, 37.610575570929136 ], [ 126.948164259940327, 37.608634269366796 ] ] ] ] } },
{ "type": "Feature", "properties": { "emd_cd": "11380103", "emd_nm": "불광동" }, "geometry": { "type": "MultiPolygon", "coordinates": [ [ [ [ 126.91946043713304, 37.628195833944268 ], [ 126.924997166828618, 37.629757076248907 ], [ 126.930994029024163, 37.628009976895747 ], [ 126.932031385117341, 37.626396092009216 ], [ 126.948865284819576, 37.625837097280346 ], [ 126.95032278257186, 37.610616223138557 ], [ 126.948164259940327, 37.608634269366796 ], [ 126.946113620974089, 37.610575570929136 ], [ 126.940937038241984, 37.610709615996591 ], [ 126.93144543222617, 37.60876360241955 ], [ 126.920459934993772, 37.61974056241322 ], [ 126.91946043713304, 37.628195833944268 ] ] ] ] } },
{ "type": "Feature", "properties": { "emd_cd": "11380104", "emd_nm": "갈현동" }, "geometry": { "type": "MultiPolygon", "coordinates": [ [ [ [ 126.90521361346633, 37.619868027115288 ], [ 126.907117144124385, 37.621941467426765 ], [ 126.906626823319542, 37.624495621253473 ], [ 126.908610479345, 37.626265551503401 ], [ 126.908801644770477, 37.629087918838181 ], [ 126.915149651786663, 37.630904946125526 ], [ 126.919804955421256, 37.627758287414757 ], [ 126.921272711406303, 37.618836263519427 ], [ 126.917912923672887, 37.615010079662611 ], [ 126.917293142770163, 37.611301290901949 ], [ 126.909907768378233, 37.61444075369603 ], [ 126.90521361346633, 37.619868027115288 ] ] ] ] } },
{ "type": "Feature", "properties": { "emd_cd": "11380105", "emd_nm": "구산동" }, "geometry": { "type": "MultiPolygon", "coordinates": [ [ [ [ 126.917293142770163, 37.611301290901949 ], [ 126.915286279224162, 37.607432017451053 ], [ 126.909701966228553, 37.607627733077351 ], [ 126.90942923180134, 37.605443269791671 ], [ 126.904964184548987, 37.604525961284146 ], [ 126.901413549690062, 37.606190775247143 ], [ 126.900304066332964, 37.611191358374114 ], [ 126.903361008312899, 37.618839392455442 ], [ 126.90521361346633, 37.619868027115288 ], [ 126.909907768378233, 37.61444075369603 ], [ 126.917293142770163, 37.611301290901949 ] ] ] ] } },
{ "type": "Feature", "properties": { "emd_cd": "11380106", "emd_nm": "대조동" }, "geometry": { "type": "MultiPolygon", "coordinates": [ [ [ [ 126.93144543222617, 37.60876360241955 ], [ 126.92717261304648, 37.609075538904243 ], [ 126.922742404877866, 37.606454078068609 ], [ 126.917293142770163, 37.611301290901949 ], [ 126.917912923672887, 37.615010079662611 ], [ 126.921272711406303, 37.618836263519427 ], [ 126.93144543222617, 37.60876360241955 ] ] ] ] } },
{ "type": "Feature", "properties": { "emd_cd": "11380107", "emd_nm": "응암동" }, "geometry": { "type": "MultiPolygon", "coordinates": [ [ [ [ 126.91284409683, 37.587222454487943 ], [ 126.91585881869814, 37.598988605582548 ], [ 126.92076498840656, 37.601706816309566 ], [ 126.934795558635344, 37.6010456830385 ], [ 126.938724457144644, 37.597504388351418 ], [ 126.930231084625191, 37.59453540864866 ], [ 126.927761825285231, 37.591570914751884 ], [ 126.928008962564732, 37.588385367161841 ], [ 126.92382062713601, 37.587095267124731 ], [ 126.920858965899242, 37.582939197132674 ], [ 126.915937262020037, 37.583094665571913 ], [ 126.916365028030384, 37.585890120215232 ], [ 126.91284409683, 37.587222454487943 ] ] ] ] } },
{ "type": "Feature", "properties": { "emd_cd": "11380108", "emd_nm": "역촌동" }, "geometry": { "type": "MultiPolygon", "coordinates": [ [ [ [ 126.922742404877866, 37.606454078068609 ], [ 126.92014802448405, 37.600788561261488 ], [ 126.914667315462736, 37.598850821436663 ], [ 126.913639114009769, 37.60101670849162 ], [ 126.906744159558926, 37.601769568496074 ], [ 126.901505152820533, 37.605356453370121 ], [ 126.904964184548987, 37.604525961284146 ], [ 126.90942923180134, 37.605443269791671 ], [ 126.909701966228553, 37.607627733077351 ], [ 126.915286279224162, 37.607432017451053 ], [ 126.917293142770163, 37.611301290901949 ], [ 126.922742404877866, 37.606454078068609 ] ] ] ] } },
{ "type": "Feature", "properties": { "emd_cd": "11380109", "emd_nm": "신사동" }, "geometry": { "type": "MultiPolygon", "coordinates": [ [ [ [ 126.900152387718762, 37.603116448272324 ], [ 126.913287916114214, 37.60114339497617 ], [ 126.915928434426036, 37.599110018528144 ], [ 126.913196807433053, 37.588645058790426 ], [ 126.910442414606436, 37.589595396746674 ], [ 126.903624966390566, 37.588117217226973 ], [ 126.899643638509673, 37.58981691666645 ], [ 126.898961339518422, 37.592678428708048 ], [ 126.901829535076033, 37.595141382918754 ], [ 126.900152387718762, 37.603116448272324 ] ] ] ] } },
{ "type": "Feature", "properties": { "emd_cd": "11380110", "emd_nm": "증산동" }, "geometry": { "type": "MultiPolygon", "coordinates": [ [ [ [ 126.898975806945415, 37.578995540005373 ], [ 126.902359377948244, 37.58069552794597 ], [ 126.901549890792367, 37.585155823303182 ], [ 126.903624966390566, 37.588117217226973 ], [ 126.910442414606436, 37.589595396746674 ], [ 126.913196807433053, 37.588645058790426 ], [ 126.902057476428908, 37.576756972850333 ], [ 126.898975806945415, 37.578995540005373 ] ] ] ] } },
{ "type": "Feature", "properties": { "emd_cd": "11380114", "emd_nm": "진관동" }, "geometry": { "type": "MultiPolygon", "coordinates": [ [ [ [ 126.904801745243802, 37.649201010943564 ], [ 126.913720477606972, 37.644755614993322 ], [ 126.924122631448071, 37.646106297954027 ], [ 126.9296990721719, 37.650048124709556 ], [ 126.936136529005992, 37.651485788415393 ], [ 126.940334932905174, 37.656767843590991 ], [ 126.947564574424817, 37.659215381800749 ], [ 126.947882154310904, 37.657125806799179 ], [ 126.957107825353688, 37.65283718945544 ], [ 126.959267423864702, 37.642132675936246 ], [ 126.963328475504923, 37.633245196353599 ], [ 126.959795751887853, 37.629786405073972 ], [ 126.949655901382044, 37.625287399528247 ], [ 126.932031385117341, 37.626396092009216 ], [ 126.930994029024163, 37.628009976895747 ], [ 126.924997166828618, 37.629757076248907 ], [ 126.919329720410431, 37.628185471811392 ], [ 126.915149651786663, 37.630904946125526 ], [ 126.908801644770477, 37.629087918838181 ], [ 126.906201881852667, 37.633220085223989 ], [ 126.911210093202612, 37.63590557769264 ], [ 126.910091792229636, 37.638509468979265 ], [ 126.912504551679035, 37.644222037706989 ], [ 126.904801745243802, 37.649201010943564 ] ] ] ] } }
]
}
