{
"type": "FeatureCollection",
"name": "11410",
"crs": { "type": "name", "properties": { "name": "urn:ogc:def:crs:OGC:1.3:CRS84" } },
"features": [
{ "type": "Feature", "properties": { "emd_cd": "11410101", "emd_nm": "충정로2가" }, "geometry": { "type": "MultiPolygon", "coordinates": [ [ [ [ 126.965711378512808, 37.566775502197537 ], [ 126.966594902599851, 37.563477211189984 ], [ 126.962335539855374, 37.563327625792759 ], [ 126.960850213826802, 37.565299406044858 ], [ 126.965711378512808, 37.566775502197537 ] ] ] ] } },
{ "type": "Feature", "properties": { "emd_cd": "11410102", "emd_nm": "충정로3가" }, "geometry": { "type": "MultiPolygon", "coordinates": [ [ [ [ 126.963109046803694, 37.559194528561932 ], [ 126.959746320897821, 37.561203503242794 ], [ 126.9589717594435, 37.565414403991241 ], [ 126.96551148079827, 37.563187560183572 ], [ 126.964381944281229, 37.561485575240404 ], [ 126.965449618647668, 37.560290698803236 ], [ 126.963109046803694, 37.559194528561932 ] ] ] ] } },
{ "type": "Feature", "properties": { "emd_cd": "11410103", "emd_nm": "합동" }, "geometry": { "type": "MultiPolygon", "coordinates": [ [ [ [ 126.965295920105035, 37.562419166828164 ], [ 126.967971538192657, 37.56225308514675 ], [ 126.968081208434072, 37.561653778247887 ], [ 126.965449618647668, 37.560290698803236 ], [ 126.965295920105035, 37.562419166828164 ] ] ] ] } },
{ "type": "Feature", "properties": { "emd_cd": "11410104", "emd_nm": "미근동" }, "geometry": { "type": "MultiPolygon", "coordinates": [ [ [ [ 126.969464786370906, 37.561975157383614 ], [ 126.965295920105035, 37.562419166828164 ], [ 126.966978258927298, 37.565511720614793 ], [ 126.969464786370906, 37.561975157383614 ] ] ] ] } },
{ "type": "Feature", "properties": { "emd_cd": "11410105", "emd_nm": "냉천동" }, "geometry": { "type": "MultiPolygon", "coordinates": [ [ [ [ 126.958720620300184, 37.565887016889455 ], [ 126.963925983352766, 37.568418962575905 ], [ 126.962947045629377, 37.569641071414203 ], [ 126.965711378512808, 37.566775502197537 ], [ 126.958720620300184, 37.565887016889455 ] ] ] ] } },
{ "type": "Feature", "properties": { "emd_cd": "11410106", "emd_nm": "천연동" }, "geometry": { "type": "MultiPolygon", "coordinates": [ [ [ [ 126.96289395273287, 37.569431457216886 ], [ 126.963925983352766, 37.568418962575905 ], [ 126.959056858793431, 37.565525274246475 ], [ 126.955556998275668, 37.567324165682102 ], [ 126.96289395273287, 37.569431457216886 ] ] ] ] } },
{ "type": "Feature", "properties": { "emd_cd": "11410107", "emd_nm": "옥천동" }, "geometry": { "type": "MultiPolygon", "coordinates": [ [ [ [ 126.96289395273287, 37.569431457216886 ], [ 126.959147915628691, 37.569327000142671 ], [ 126.955267926274871, 37.568323113612969 ], [ 126.959698371956122, 37.570223715464685 ], [ 126.96289395273287, 37.569431457216886 ] ] ] ] } },
{ "type": "Feature", "properties": { "emd_cd": "11410108", "emd_nm": "영천동" }, "geometry": { "type": "MultiPolygon", "coordinates": [ [ [ [ 126.960477903743538, 37.571989501555286 ], [ 126.962909917907311, 37.56968517165064 ], [ 126.959698371956122, 37.570223715464685 ], [ 126.955267926274871, 37.568323113612969 ], [ 126.953702036721239, 37.569480565825444 ], [ 126.955155373243983, 37.571182273632374 ], [ 126.960477903743538, 37.571989501555286 ] ] ] ] } },
{ "type": "Feature", "properties": { "emd_cd": "11410109", "emd_nm": "현저동" }, "geometry": { "type": "MultiPolygon", "coordinates": [ [ [ [ 126.948949841218479, 37.575726407218404 ], [ 126.953629907581117, 37.578818413667761 ], [ 126.960477903743509, 37.571989501555279 ], [ 126.953204709698909, 37.569567254639679 ], [ 126.951030633551753, 37.570938171047118 ], [ 126.948949841218479, 37.575726407218404 ] ] ] ] } },
{ "type": "Feature", "properties": { "emd_cd": "11410110", "emd_nm": "북아현동" }, "geometry": { "type": "MultiPolygon", "coordinates": [ [ [ [ 126.949550000151774, 37.565623167097534 ], [ 126.951741987780366, 37.570397601121229 ], [ 126.953606837337659, 37.569539082439874 ], [ 126.958842316066367, 37.565735649810712 ], [ 126.95928070668981, 37.562082784157504 ], [ 126.96164617400872, 37.559089555874223 ], [ 126.959133017345096, 37.557243021012752 ], [ 126.948936805375325, 37.556990103400814 ], [ 126.947986997163753, 37.55874684989891 ], [ 126.950185166328538, 37.561166928577514 ], [ 126.949550000151774, 37.565623167097534 ] ] ] ] } },
{ "type": "Feature", "properties": { "emd_cd": "11410111", "emd_nm": "홍제동" }, "geometry": { "type": "MultiPolygon", "coordinates": [ [ [ [ 126.956341481961203, 37.598921440162371 ], [ 126.959033346554676, 37.595059021387598 ], [ 126.95750800016171, 37.593547277775542 ], [ 126.957201789897368, 37.579819236836208 ], [ 126.948446010319145, 37.57575528367741 ], [ 126.941845400700586, 37.581054239577611 ], [ 126.94206122426084, 37.584160533468371 ], [ 126.936901534758448, 37.582851662872166 ], [ 126.935467921437734, 37.585821563198586 ], [ 126.936315368436269, 37.588292319531583 ], [ 126.945096750204016, 37.592254455009801 ], [ 126.946926616298953, 37.594474394736089 ], [ 126.947085940991826, 37.598272079088858 ], [ 126.949659216901551, 37.598102104939578 ], [ 126.951306271467686, 37.595962124799236 ], [ 126.95549621241085, 37.59583706441726 ], [ 126.956341481961203, 37.598921440162371 ] ] ] ] } },
{ "type": "Feature", "properties": { "emd_cd": "11410112", "emd_nm": "대현동" }, "geometry": { "type": "MultiPolygon", "coordinates": [ [ [ [ 126.949550000151774, 37.565623167097534 ], [ 126.950185166328538, 37.561166928577514 ], [ 126.947986997163753, 37.55874684989891 ], [ 126.948936805375325, 37.556990103400814 ], [ 126.941067902509317, 37.556483422571461 ], [ 126.941577344347962, 37.559110950317901 ], [ 126.940402841804456, 37.559330577109826 ], [ 126.944616698773359, 37.560562164132847 ], [ 126.947377167192272, 37.566311996530295 ], [ 126.949550000151774, 37.565623167097534 ] ] ] ] } },
{ "type": "Feature", "properties": { "emd_cd": "11410113", "emd_nm": "대신동" }, "geometry": { "type": "MultiPolygon", "coordinates": [ [ [ [ 126.947377167192272, 37.566311996530295 ], [ 126.944616698773359, 37.560562164132847 ], [ 126.940407361168525, 37.560310180190655 ], [ 126.943232719543545, 37.564035955106391 ], [ 126.942544174853921, 37.566510601815445 ], [ 126.945788940333159, 37.565909984316022 ], [ 126.9447601398507, 37.569115588844944 ], [ 126.946105256614686, 37.569240618234581 ], [ 126.947377167192272, 37.566311996530295 ] ] ] ] } },
{ "type": "Feature", "properties": { "emd_cd": "11410114", "emd_nm": "신촌동" }, "geometry": { "type": "MultiPolygon", "coordinates": [ [ [ [ 126.945552778951665, 37.569139897477356 ], [ 126.945788940333159, 37.565909984316022 ], [ 126.942544174853921, 37.566510601815445 ], [ 126.943232719543545, 37.564035955106391 ], [ 126.940448696871755, 37.561458179012625 ], [ 126.941198916893995, 37.560044606145794 ], [ 126.943407666989501, 37.560513426425977 ], [ 126.943112184211785, 37.559444950468951 ], [ 126.937295851560933, 37.559683404349805 ], [ 126.935020819799362, 37.56134090233023 ], [ 126.934785530928551, 37.56443302661544 ], [ 126.938560811530124, 37.569172884110309 ], [ 126.943392613565152, 37.570959425845196 ], [ 126.945552778951665, 37.569139897477356 ] ] ], [ [ [ 126.947002400194094, 37.567941108292203 ], [ 126.950928421132886, 37.570949822114208 ], [ 126.951873495064888, 37.570231135918135 ], [ 126.949550000151774, 37.565623167097534 ], [ 126.947002400194094, 37.567941108292203 ] ] ] ] } },
{ "type": "Feature", "properties": { "emd_cd": "11410115", "emd_nm": "봉원동" }, "geometry": { "type": "MultiPolygon", "coordinates": [ [ [ [ 126.943392613565152, 37.570959425845196 ], [ 126.943452790663358, 37.574572694389609 ], [ 126.94572047674788, 37.577360910000905 ], [ 126.948949841218479, 37.575726407218383 ], [ 126.951030633551781, 37.570938171047125 ], [ 126.946771551633162, 37.567903159970008 ], [ 126.943392613565152, 37.570959425845196 ] ] ] ] } },
{ "type": "Feature", "properties": { "emd_cd": "11410116", "emd_nm": "창천동" }, "geometry": { "type": "MultiPolygon", "coordinates": [ [ [ [ 126.927187829450659, 37.561790437692153 ], [ 126.941577344347962, 37.559110950317901 ], [ 126.941067902509317, 37.556483422571461 ], [ 126.936857046105814, 37.555098829795099 ], [ 126.926593785482027, 37.558848503457767 ], [ 126.927187829450659, 37.561790437692153 ] ] ] ] } },
{ "type": "Feature", "properties": { "emd_cd": "11410117", "emd_nm": "연희동" }, "geometry": { "type": "MultiPolygon", "coordinates": [ [ [ [ 126.916772974185932, 37.567811368481706 ], [ 126.927926724390346, 37.576543154080738 ], [ 126.936750514335827, 37.580269038733768 ], [ 126.939255756524972, 37.584121173622449 ], [ 126.94206122426084, 37.584160533468371 ], [ 126.941845400700586, 37.581054239577611 ], [ 126.94572047674788, 37.577360910000905 ], [ 126.943452790663358, 37.574572694389609 ], [ 126.94344787479389, 37.571004457375238 ], [ 126.936108881912091, 37.56698011379148 ], [ 126.935020819799362, 37.56134090233023 ], [ 126.931944497914273, 37.562518218041404 ], [ 126.931140823289525, 37.561033191064311 ], [ 126.928482456361806, 37.560995915479744 ], [ 126.927356740500144, 37.561780804214109 ], [ 126.928282159834396, 37.563332191023562 ], [ 126.926013605705478, 37.565104745727254 ], [ 126.916772974185932, 37.567811368481706 ] ] ] ] } },
{ "type": "Feature", "properties": { "emd_cd": "11410118", "emd_nm": "홍은동" }, "geometry": { "type": "MultiPolygon", "coordinates": [ [ [ [ 126.922784313773249, 37.585533335209234 ], [ 126.927741253600757, 37.588081973651413 ], [ 126.927765651723064, 37.591583035383827 ], [ 126.930262183859, 37.594564907624033 ], [ 126.940866237654745, 37.598732909207484 ], [ 126.939944970449986, 37.603058070065856 ], [ 126.95037206777809, 37.610605216492814 ], [ 126.950564662451612, 37.608359683705629 ], [ 126.954042052696565, 37.605073251330644 ], [ 126.952375126361034, 37.602476035968962 ], [ 126.953061098503596, 37.598758628688742 ], [ 126.956341481961203, 37.598921440162371 ], [ 126.956098624930689, 37.596211899845549 ], [ 126.951306271467686, 37.595962124799236 ], [ 126.949659216901551, 37.598102104939578 ], [ 126.947085940991826, 37.598272079088858 ], [ 126.946926616298953, 37.594474394736089 ], [ 126.945096750204016, 37.592254455009801 ], [ 126.936315368436269, 37.588292319531583 ], [ 126.936750514335827, 37.580269038733768 ], [ 126.927219122233367, 37.57606044866781 ], [ 126.922784313773249, 37.585533335209234 ] ] ] ] } },
{ "type": "Feature", "properties": { "emd_cd": "11410119", "emd_nm": "북가좌동" }, "geometry": { "type": "MultiPolygon", "coordinates": [ [ [ [ 126.920858965899242, 37.582939197132674 ], [ 126.921512295370221, 37.580775806893357 ], [ 126.917435314666704, 37.580908463725962 ], [ 126.913404430240064, 37.572874858777766 ], [ 126.911344244214575, 37.57210704052391 ], [ 126.913728557755078, 37.571510347652854 ], [ 126.912971223215337, 37.570461365941291 ], [ 126.908767463265733, 37.571446656759413 ], [ 126.901827732660507, 37.576540902682382 ], [ 126.912845609440964, 37.587226284810647 ], [ 126.916377511378613, 37.585864379060304 ], [ 126.915935026093749, 37.583089672490132 ], [ 126.920858965899242, 37.582939197132674 ] ] ] ] } },
{ "type": "Feature", "properties": { "emd_cd": "11410120", "emd_nm": "남가좌동" }, "geometry": { "type": "MultiPolygon", "coordinates": [ [ [ [ 126.916772974185932, 37.567811368481706 ], [ 126.910079007031058, 37.571777783609576 ], [ 126.912865158487577, 37.57044303233625 ], [ 126.913453849861796, 37.570935313031065 ], [ 126.911344244214575, 37.57210704052391 ], [ 126.913404430240064, 37.572874858777766 ], [ 126.917435314666704, 37.580908463725962 ], [ 126.921512295370221, 37.580775806893357 ], [ 126.920858965899242, 37.582939197132674 ], [ 126.922784313773249, 37.585533335209234 ], [ 126.927258649559334, 37.575710431125749 ], [ 126.916772974185932, 37.567811368481706 ] ] ] ] } }
]
}
