{
"type": "FeatureCollection",
"name": "11470",
"crs": { "type": "name", "properties": { "name": "urn:ogc:def:crs:OGC:1.3:CRS84" } },
"features": [
{ "type": "Feature", "properties": { "emd_cd": "11470101", "emd_nm": "신정동" }, "geometry": { "type": "MultiPolygon", "coordinates": [ [ [ [ 126.825091829649338, 37.514697927952646 ], [ 126.829852636646564, 37.517671379046902 ], [ 126.83211863352777, 37.516338114370804 ], [ 126.831160014369601, 37.514544836273878 ], [ 126.833243305765322, 37.51606155764545 ], [ 126.837724966095834, 37.513568946078095 ], [ 126.844810609243709, 37.513928685395847 ], [ 126.848605379655638, 37.515952429341304 ], [ 126.848652382027296, 37.520691814337816 ], [ 126.84676065134866, 37.522074720227899 ], [ 126.852505379194184, 37.521078399295412 ], [ 126.848870162412567, 37.527898067022939 ], [ 126.863969294642331, 37.529792034442799 ], [ 126.865568053599119, 37.522647200849612 ], [ 126.868362246533252, 37.524013858850147 ], [ 126.878871035822726, 37.522528776382799 ], [ 126.87934627428389, 37.520857292728934 ], [ 126.878121337147107, 37.519046641013141 ], [ 126.879545939059128, 37.517655542202426 ], [ 126.877306567637319, 37.515966454768993 ], [ 126.877942005374805, 37.513377388650675 ], [ 126.873996689234673, 37.51129739019941 ], [ 126.875198851781718, 37.511789544653432 ], [ 126.876845435996046, 37.51084885165865 ], [ 126.873850121411465, 37.509162140311481 ], [ 126.875040819782626, 37.507713446884345 ], [ 126.873590524125532, 37.503543961949866 ], [ 126.87027489827598, 37.505833904001065 ], [ 126.86352464927279, 37.505051174123459 ], [ 126.862637013273215, 37.506791400993784 ], [ 126.864097306863115, 37.508355167017712 ], [ 126.860316115075875, 37.506609441400485 ], [ 126.858344351352486, 37.509868315904669 ], [ 126.855592898838182, 37.509104688270632 ], [ 126.852907061849109, 37.510643034950704 ], [ 126.847269852570776, 37.509524429700882 ], [ 126.844680215971849, 37.505754943969265 ], [ 126.840762192366441, 37.50601637245704 ], [ 126.835304294285095, 37.502816496720378 ], [ 126.830615186264751, 37.506313242973121 ], [ 126.831013579403617, 37.507976968229734 ], [ 126.827048949834335, 37.508536401471062 ], [ 126.828009649390197, 37.512267759821924 ], [ 126.825091829649338, 37.514697927952646 ] ] ] ] } },
{ "type": "Feature", "properties": { "emd_cd": "11470102", "emd_nm": "목동" }, "geometry": { "type": "MultiPolygon", "coordinates": [ [ [ [ 126.862118450641972, 37.544490635371893 ], [ 126.864466520293277, 37.551242254575158 ], [ 126.872644058312744, 37.547072037451748 ], [ 126.88081448879322, 37.548078969319235 ], [ 126.889943759772379, 37.534873550027825 ], [ 126.888661084083878, 37.532165747948362 ], [ 126.890682192417771, 37.531536786360299 ], [ 126.8833455727071, 37.527280767386713 ], [ 126.880676878224875, 37.52753800393296 ], [ 126.881123852173857, 37.526132188821961 ], [ 126.878701284986022, 37.525123103840421 ], [ 126.879117791174338, 37.52250740847078 ], [ 126.868362246533252, 37.524013858850147 ], [ 126.865568053599119, 37.522647200849612 ], [ 126.863777365681159, 37.540710670136463 ], [ 126.862118450641972, 37.544490635371893 ] ] ] ] } },
{ "type": "Feature", "properties": { "emd_cd": "11470103", "emd_nm": "신월동" }, "geometry": { "type": "MultiPolygon", "coordinates": [ [ [ [ 126.821602642070829, 37.539756201421838 ], [ 126.825379711323393, 37.541608026486671 ], [ 126.827564358106571, 37.5476815098014 ], [ 126.829748749196696, 37.547707772731904 ], [ 126.829984850678343, 37.541656151726983 ], [ 126.833102428755595, 37.54184940554255 ], [ 126.834404957148806, 37.536457649276947 ], [ 126.8404756221328, 37.52648497341189 ], [ 126.848870162412567, 37.527898067022939 ], [ 126.852505379194184, 37.521078399295412 ], [ 126.846841167740237, 37.522142310178857 ], [ 126.848652382027296, 37.520691814337816 ], [ 126.848605379655638, 37.515952429341304 ], [ 126.842406303401788, 37.513066885478182 ], [ 126.833243305765322, 37.51606155764545 ], [ 126.831160014369601, 37.514544836273878 ], [ 126.831927975957612, 37.516665352534183 ], [ 126.828898016623839, 37.517492581943024 ], [ 126.825104253492853, 37.514801831269637 ], [ 126.828009649390197, 37.512267759821924 ], [ 126.827048949834335, 37.508536401471062 ], [ 126.824737825900826, 37.508281299276312 ], [ 126.823104345706454, 37.516220147489562 ], [ 126.82568016808284, 37.520249979079892 ], [ 126.825781473059408, 37.524202196717127 ], [ 126.828857885721305, 37.526529585879317 ], [ 126.828300663337671, 37.5290770945943 ], [ 126.825304137759218, 37.529956328885213 ], [ 126.821867737299783, 37.534903052131398 ], [ 126.821602642070829, 37.539756201421838 ] ] ] ] } }
]
}
