{
"type": "FeatureCollection",
"name": "11530",
"crs": { "type": "name", "properties": { "name": "urn:ogc:def:crs:OGC:1.3:CRS84" } },
"features": [
{ "type": "Feature", "properties": { "emd_cd": "11530101", "emd_nm": "신도림동" }, "geometry": { "type": "MultiPolygon", "coordinates": [ [ [ [ 126.873845257959204, 37.508896521211597 ], [ 126.876896917684761, 37.510769438088211 ], [ 126.873873951639098, 37.511175082525462 ], [ 126.877928997382995, 37.513309079535183 ], [ 126.879301904046599, 37.517960817521427 ], [ 126.884433148566117, 37.513849365380359 ], [ 126.889729817130117, 37.512273248124387 ], [ 126.892425896944602, 37.509124893305973 ], [ 126.882378402367067, 37.503386556706985 ], [ 126.874480043889449, 37.506726884108396 ], [ 126.873845257959204, 37.508896521211597 ] ] ] ] } },
{ "type": "Feature", "properties": { "emd_cd": "11530102", "emd_nm": "구로동" }, "geometry": { "type": "MultiPolygon", "coordinates": [ [ [ [ 126.867407266250311, 37.495552729185469 ], [ 126.870117316780124, 37.502176399808484 ], [ 126.871708056297351, 37.50407737133019 ], [ 126.873562135438718, 37.503545192601997 ], [ 126.874239028881306, 37.507180799290254 ], [ 126.875030436314987, 37.507700551510339 ], [ 126.87383490598171, 37.508732348408131 ], [ 126.873776062569462, 37.509015738379404 ], [ 126.873899975786941, 37.509242563088151 ], [ 126.875620831870194, 37.511127970013106 ], [ 126.876847261256742, 37.510839483221353 ], [ 126.876573050003344, 37.511137783742313 ], [ 126.875850071656089, 37.511277752483529 ], [ 126.875085084368393, 37.511805911176275 ], [ 126.874923052293354, 37.510905975598902 ], [ 126.874691907813983, 37.510693786259587 ], [ 126.87420759665207, 37.510658477828073 ], [ 126.8737947770353, 37.511129064149323 ], [ 126.875102098712219, 37.512414363173228 ], [ 126.87610753222198, 37.512448402321873 ], [ 126.876451445683429, 37.512957379300403 ], [ 126.876386486726247, 37.513330584201725 ], [ 126.876650783363061, 37.51370675043426 ], [ 126.877279229529023, 37.513741146362094 ], [ 126.87791231740087, 37.513361797386381 ], [ 126.877528459182926, 37.51470937524865 ], [ 126.877789681179095, 37.515590931212451 ], [ 126.877321961146919, 37.516001267409486 ], [ 126.878637726202228, 37.516420056767636 ], [ 126.877928997382995, 37.513309079535183 ], [ 126.876740668517769, 37.513654083084511 ], [ 126.876510374601978, 37.513452737273973 ], [ 126.876465622300699, 37.512819289613283 ], [ 126.876162738544551, 37.512401897432149 ], [ 126.875125698887615, 37.512377276391248 ], [ 126.873873951639098, 37.511175082525462 ], [ 126.875190352704337, 37.511866210353169 ], [ 126.876634191450151, 37.511166950580993 ], [ 126.876904135737931, 37.510849904691092 ], [ 126.873915991235194, 37.509136172674538 ], [ 126.875063882197239, 37.50778645232753 ], [ 126.875031529760278, 37.507588738955889 ], [ 126.874282264864817, 37.507175277703574 ], [ 126.8743601418699, 37.506870464146822 ], [ 126.882725806381487, 37.50339916011341 ], [ 126.89228257189832, 37.509063943570474 ], [ 126.893972142402134, 37.50500938445294 ], [ 126.892758556363034, 37.500842870226478 ], [ 126.896120709281149, 37.489342501767233 ], [ 126.903194682365793, 37.484998750661035 ], [ 126.898865422472937, 37.478341715805037 ], [ 126.895872551015586, 37.478339077971512 ], [ 126.892033530070776, 37.480780901303177 ], [ 126.891414643874029, 37.483784443856578 ], [ 126.883941927715213, 37.486575571787284 ], [ 126.880470796430075, 37.487514242646604 ], [ 126.880892505645335, 37.485711321891792 ], [ 126.878460131360455, 37.486653242213478 ], [ 126.874562372654367, 37.485366247240066 ], [ 126.876790087550418, 37.488570801456802 ], [ 126.872748138835007, 37.488430594730431 ], [ 126.872838932174545, 37.490014380975843 ], [ 126.874651018307716, 37.489898940338705 ], [ 126.874129794516719, 37.491337636266728 ], [ 126.870227777749889, 37.489596147498538 ], [ 126.870016336302143, 37.493657077024167 ], [ 126.867407266250311, 37.495552729185469 ] ] ] ] } },
{ "type": "Feature", "properties": { "emd_cd": "11530103", "emd_nm": "가리봉동" }, "geometry": { "type": "MultiPolygon", "coordinates": [ [ [ [ 126.880239900053084, 37.487449133865958 ], [ 126.891414643874029, 37.483784443856578 ], [ 126.892033530070776, 37.480780901303177 ], [ 126.896227556399168, 37.478952796726936 ], [ 126.88878455307912, 37.479789898375593 ], [ 126.880239900053084, 37.487449133865958 ] ] ] ] } },
{ "type": "Feature", "properties": { "emd_cd": "11530106", "emd_nm": "고척동" }, "geometry": { "type": "MultiPolygon", "coordinates": [ [ [ [ 126.845316037082497, 37.507823393844753 ], [ 126.852818318646897, 37.510734914996604 ], [ 126.855611017780362, 37.509209316350933 ], [ 126.858314061764048, 37.509975137370638 ], [ 126.860335261098882, 37.506592255240868 ], [ 126.864107585345067, 37.508362657247105 ], [ 126.862654189910216, 37.50679916975983 ], [ 126.863395812922874, 37.505123283541316 ], [ 126.870218297764282, 37.505863483915107 ], [ 126.871787949708292, 37.503264939490968 ], [ 126.870117316780124, 37.502176399808484 ], [ 126.868516598907945, 37.496063407887014 ], [ 126.864137990174498, 37.49411359167965 ], [ 126.863205730683887, 37.496521504374456 ], [ 126.856724913552981, 37.497522227122211 ], [ 126.856086890720945, 37.502186360543412 ], [ 126.85462278735848, 37.502540713485203 ], [ 126.852792040742699, 37.499464759118396 ], [ 126.849910306100455, 37.501270390003668 ], [ 126.845316037082497, 37.507823393844753 ] ] ] ] } },
{ "type": "Feature", "properties": { "emd_cd": "11530107", "emd_nm": "개봉동" }, "geometry": { "type": "MultiPolygon", "coordinates": [ [ [ [ 126.835712109082479, 37.500565116706049 ], [ 126.836384968412361, 37.503143182141507 ], [ 126.840723838517832, 37.506075515753501 ], [ 126.844670116603979, 37.505771058406225 ], [ 126.845316037082497, 37.507823393844753 ], [ 126.852470628057389, 37.499644103163781 ], [ 126.85462278735848, 37.502540713485203 ], [ 126.856086890720945, 37.502186360543412 ], [ 126.856724913552981, 37.497522227122211 ], [ 126.863205730683887, 37.496521504374456 ], [ 126.864137990174498, 37.49411359167965 ], [ 126.867407266250311, 37.495552729185469 ], [ 126.86776438732862, 37.493582198884511 ], [ 126.855164693599647, 37.485170938189434 ], [ 126.852700166303535, 37.481818660950815 ], [ 126.84698612337678, 37.481894668865387 ], [ 126.848485808150656, 37.482368636840604 ], [ 126.847430872145509, 37.482395953729757 ], [ 126.847993963487895, 37.484320484783531 ], [ 126.843903675845866, 37.486658690733485 ], [ 126.849007737940738, 37.490305544768894 ], [ 126.848176816352904, 37.494652123005068 ], [ 126.850571511704374, 37.495556655913745 ], [ 126.84413571604378, 37.499689876537268 ], [ 126.835712109082479, 37.500565116706049 ] ] ] ] } },
{ "type": "Feature", "properties": { "emd_cd": "11530108", "emd_nm": "오류동" }, "geometry": { "type": "MultiPolygon", "coordinates": [ [ [ [ 126.823804975459794, 37.488325311190252 ], [ 126.827712097986009, 37.490882392607055 ], [ 126.827140013483074, 37.493136749788597 ], [ 126.837910849144819, 37.493230362364521 ], [ 126.83412267651137, 37.4986223063026 ], [ 126.836475729261849, 37.500957849615062 ], [ 126.84413571604378, 37.499689876537268 ], [ 126.850571511704374, 37.495556655913745 ], [ 126.848176816352904, 37.494652123005068 ], [ 126.849438162506331, 37.491115710531183 ], [ 126.846057082852894, 37.487195746454987 ], [ 126.843806746682773, 37.486134810143653 ], [ 126.841853285153974, 37.48886159407332 ], [ 126.83669058748859, 37.486920464088442 ], [ 126.835792514860657, 37.485702434619782 ], [ 126.837775440122257, 37.483582875403769 ], [ 126.832177279335653, 37.48393252891983 ], [ 126.827665781111008, 37.488423857990774 ], [ 126.823804975459794, 37.488325311190252 ] ] ] ] } },
{ "type": "Feature", "properties": { "emd_cd": "11530109", "emd_nm": "궁동" }, "geometry": { "type": "MultiPolygon", "coordinates": [ [ [ [ 126.819380998976641, 37.50046412270418 ], [ 126.821564197170119, 37.502156387890025 ], [ 126.822222623469997, 37.50768743708754 ], [ 126.830661275031432, 37.508272977134851 ], [ 126.832004442102075, 37.504680656143812 ], [ 126.836384968412361, 37.503143182141507 ], [ 126.83412267651137, 37.4986223063026 ], [ 126.837910849144819, 37.493230362364521 ], [ 126.827140013483074, 37.493136749788597 ], [ 126.819380998976641, 37.50046412270418 ] ] ] ] } },
{ "type": "Feature", "properties": { "emd_cd": "11530110", "emd_nm": "온수동" }, "geometry": { "type": "MultiPolygon", "coordinates": [ [ [ [ 126.813012074792752, 37.496400723739157 ], [ 126.814282651672428, 37.498267899845516 ], [ 126.819639847046261, 37.499210603192004 ], [ 126.826936861968093, 37.494232694766652 ], [ 126.827712097986009, 37.490882392607055 ], [ 126.823171741590997, 37.48813139002494 ], [ 126.822762025207254, 37.489979414104852 ], [ 126.814574622624008, 37.493193310127324 ], [ 126.813012074792752, 37.496400723739157 ] ] ] ] } },
{ "type": "Feature", "properties": { "emd_cd": "11530111", "emd_nm": "천왕동" }, "geometry": { "type": "MultiPolygon", "coordinates": [ [ [ [ 126.830874449134242, 37.481442100676112 ], [ 126.832177279335653, 37.48393252891983 ], [ 126.837775440122257, 37.483582875403769 ], [ 126.835792514860657, 37.485702434619782 ], [ 126.83669058748859, 37.486920464088442 ], [ 126.841853285153974, 37.48886159407332 ], [ 126.842674828330345, 37.486619761753495 ], [ 126.847993963487895, 37.484320484783531 ], [ 126.847430872145509, 37.482395953729757 ], [ 126.847484317159214, 37.482362623320739 ], [ 126.847836326128544, 37.482400428144885 ], [ 126.848373010011883, 37.482394457537467 ], [ 126.848485808150656, 37.482368636840604 ], [ 126.846049044302987, 37.480925404477922 ], [ 126.844954909553948, 37.473472498533773 ], [ 126.83830053849222, 37.475391998931066 ], [ 126.834639959024784, 37.474362537473986 ], [ 126.834871794102639, 37.47575103773147 ], [ 126.831747938306847, 37.477651307717103 ], [ 126.832169860044786, 37.48115806785124 ], [ 126.830874449134242, 37.481442100676112 ] ] ] ] } },
{ "type": "Feature", "properties": { "emd_cd": "11530112", "emd_nm": "항동" }, "geometry": { "type": "MultiPolygon", "coordinates": [ [ [ [ 126.814645940775193, 37.474720545892431 ], [ 126.819367130480487, 37.479863479214941 ], [ 126.819289625655301, 37.48547505915738 ], [ 126.823038540089911, 37.488380333238624 ], [ 126.827665781111008, 37.488423857990774 ], [ 126.832177279335653, 37.48393252891983 ], [ 126.830874449134242, 37.481442100676112 ], [ 126.832169860044786, 37.48115806785124 ], [ 126.832476882117845, 37.478469560706806 ], [ 126.829204153768202, 37.476195662248166 ], [ 126.821717315232092, 37.475220346209241 ], [ 126.819423193488845, 37.476327857941214 ], [ 126.817640241286071, 37.473187900295173 ], [ 126.814645940775193, 37.474720545892431 ] ] ] ] } }
]
}
