{
"type": "FeatureCollection",
"name": "11545",
"crs": { "type": "name", "properties": { "name": "urn:ogc:def:crs:OGC:1.3:CRS84" } },
"features": [
{ "type": "Feature", "properties": { "emd_cd": "11545101", "emd_nm": "가산동" }, "geometry": { "type": "MultiPolygon", "coordinates": [ [ [ [ 126.885799355648103, 37.464263486606633 ], [ 126.872743984685684, 37.482424945195909 ], [ 126.872444340044623, 37.486110034857305 ], [ 126.874219292494359, 37.485187651227847 ], [ 126.878458098751551, 37.486672323281539 ], [ 126.888784960548151, 37.479789592423856 ], [ 126.895850563156259, 37.47850661758811 ], [ 126.89667634981565, 37.475818772634362 ], [ 126.894099104644894, 37.474534872530754 ], [ 126.893877765371002, 37.472215779245076 ], [ 126.886987276008071, 37.472034381420428 ], [ 126.889680479347703, 37.465883497492072 ], [ 126.885799355648103, 37.464263486606633 ] ] ] ] } },
{ "type": "Feature", "properties": { "emd_cd": "11545102", "emd_nm": "독산동" }, "geometry": { "type": "MultiPolygon", "coordinates": [ [ [ [ 126.882745270623403, 37.464390804936642 ], [ 126.889680479347703, 37.465883497492072 ], [ 126.886987276008071, 37.472034381420428 ], [ 126.893877765371002, 37.472215779245076 ], [ 126.894099104644894, 37.474534872530754 ], [ 126.89667634981565, 37.475818772634362 ], [ 126.896211884496736, 37.478672364036299 ], [ 126.90978586342419, 37.480766138927237 ], [ 126.908630011591768, 37.479083462592932 ], [ 126.911812653243061, 37.477793632728222 ], [ 126.911042997413261, 37.473862766414058 ], [ 126.908165039047176, 37.472758980282443 ], [ 126.912348135422917, 37.465862373529724 ], [ 126.902586183209479, 37.462251174820246 ], [ 126.900145490683514, 37.458146022229201 ], [ 126.898454011655446, 37.459336228135292 ], [ 126.896864895244704, 37.457354495353698 ], [ 126.89284943473784, 37.457930650191834 ], [ 126.895490139791207, 37.452738483426039 ], [ 126.889641890190333, 37.452315512510701 ], [ 126.885339769760321, 37.459637163568388 ], [ 126.888875248608585, 37.460946988338272 ], [ 126.882745270623403, 37.464390804936642 ] ] ] ] } },
{ "type": "Feature", "properties": { "emd_cd": "11545103", "emd_nm": "시흥동" }, "geometry": { "type": "MultiPolygon", "coordinates": [ [ [ [ 126.902586183209479, 37.462251174820246 ], [ 126.913702639248342, 37.465377981004224 ], [ 126.914026147724158, 37.457889802526054 ], [ 126.922186682205435, 37.45662740606123 ], [ 126.92478898449896, 37.452813555057254 ], [ 126.928400477548664, 37.450986045414489 ], [ 126.928279256903991, 37.449352337992686 ], [ 126.923252950782626, 37.445772850473325 ], [ 126.920274545845345, 37.440466214830629 ], [ 126.912308591650557, 37.438579338644395 ], [ 126.909405655622706, 37.433864577954608 ], [ 126.902987338237082, 37.434067490656211 ], [ 126.898977655451603, 37.438701848865819 ], [ 126.899925692433811, 37.439556336187501 ], [ 126.897268961049789, 37.445436816097676 ], [ 126.894649711016129, 37.446698192886984 ], [ 126.896049568087264, 37.448042886834564 ], [ 126.893982391774742, 37.452718065012988 ], [ 126.894830334323714, 37.452442792347753 ], [ 126.895490139791207, 37.452738483426039 ], [ 126.89284943473784, 37.457930650191834 ], [ 126.896864895244704, 37.457354495353698 ], [ 126.898454011655446, 37.459336228135292 ], [ 126.900145490683514, 37.458146022229201 ], [ 126.902586183209479, 37.462251174820246 ] ] ] ] } }
]
}
