{
"type": "FeatureCollection",
"name": "11560",
"crs": { "type": "name", "properties": { "name": "urn:ogc:def:crs:OGC:1.3:CRS84" } },
"features": [
{ "type": "Feature", "properties": { "emd_cd": "11560101", "emd_nm": "영등포동" }, "geometry": { "type": "MultiPolygon", "coordinates": [ [ [ [ 126.897637894634329, 37.511858467324735 ], [ 126.908386946600473, 37.517033896165231 ], [ 126.915935639193279, 37.517227166824533 ], [ 126.904055667333779, 37.509661882584616 ], [ 126.901722224112177, 37.509865154431679 ], [ 126.900325066753368, 37.51205249582425 ], [ 126.897637894634329, 37.511858467324735 ] ] ], [ [ [ 126.900960615932377, 37.520456392810338 ], [ 126.902794014642993, 37.525957764938866 ], [ 126.901347615166955, 37.51853088005231 ], [ 126.900960615932377, 37.520456392810338 ] ] ] ] } },
{ "type": "Feature", "properties": { "emd_cd": "11560102", "emd_nm": "영등포동1가" }, "geometry": { "type": "MultiPolygon", "coordinates": [ [ [ [ 126.908497074614445, 37.516815275214483 ], [ 126.914197067830088, 37.518527265589285 ], [ 126.916873525079168, 37.517240997155241 ], [ 126.908497074614445, 37.516815275214483 ] ] ] ] } },
{ "type": "Feature", "properties": { "emd_cd": "11560103", "emd_nm": "영등포동2가" }, "geometry": { "type": "MultiPolygon", "coordinates": [ [ [ [ 126.91249380896592, 37.524111488537564 ], [ 126.917363644147684, 37.518979719444665 ], [ 126.91645478117826, 37.517653712824412 ], [ 126.907942133083822, 37.51935513104867 ], [ 126.909128965993162, 37.522694585886136 ], [ 126.91249380896592, 37.524111488537564 ] ] ] ] } },
{ "type": "Feature", "properties": { "emd_cd": "11560104", "emd_nm": "영등포동3가" }, "geometry": { "type": "MultiPolygon", "coordinates": [ [ [ [ 126.90488031694322, 37.519862656196821 ], [ 126.911837747673047, 37.51850024300353 ], [ 126.911887216284413, 37.518242595801482 ], [ 126.9066943480654, 37.516381652136289 ], [ 126.90488031694322, 37.519862656196821 ] ] ] ] } },
{ "type": "Feature", "properties": { "emd_cd": "11560105", "emd_nm": "영등포동4가" }, "geometry": { "type": "MultiPolygon", "coordinates": [ [ [ [ 126.901123831430965, 37.520569633576386 ], [ 126.905457595428174, 37.519862505388815 ], [ 126.9066943480654, 37.516381652136289 ], [ 126.902646209169816, 37.515415456797001 ], [ 126.901123831430965, 37.520569633576386 ] ] ] ] } },
{ "type": "Feature", "properties": { "emd_cd": "11560106", "emd_nm": "영등포동5가" }, "geometry": { "type": "MultiPolygon", "coordinates": [ [ [ [ 126.905120380984258, 37.522708834689567 ], [ 126.908641984679463, 37.522164049517073 ], [ 126.907942133083822, 37.51935513104867 ], [ 126.904803678978908, 37.519994201861081 ], [ 126.905120380984258, 37.522708834689567 ] ] ] ] } },
{ "type": "Feature", "properties": { "emd_cd": "11560107", "emd_nm": "영등포동6가" }, "geometry": { "type": "MultiPolygon", "coordinates": [ [ [ [ 126.901849124675252, 37.523203270588922 ], [ 126.905120380984258, 37.522708834689567 ], [ 126.904803678978908, 37.519994201861081 ], [ 126.901123831430965, 37.520569633576386 ], [ 126.901849124675252, 37.523203270588922 ] ] ] ] } },
{ "type": "Feature", "properties": { "emd_cd": "11560108", "emd_nm": "영등포동7가" }, "geometry": { "type": "MultiPolygon", "coordinates": [ [ [ [ 126.902794014642993, 37.525957764938866 ], [ 126.911057063212553, 37.526342349668411 ], [ 126.91249380896592, 37.524111488537564 ], [ 126.908641984679463, 37.522164049517073 ], [ 126.901849124675252, 37.523203270588922 ], [ 126.902794014642993, 37.525957764938866 ] ] ] ] } },
{ "type": "Feature", "properties": { "emd_cd": "11560109", "emd_nm": "영등포동8가" }, "geometry": { "type": "MultiPolygon", "coordinates": [ [ [ [ 126.906834409880418, 37.532750773814406 ], [ 126.907071255375854, 37.525686999881678 ], [ 126.902920453329997, 37.526098560827556 ], [ 126.905442609488588, 37.532149606229517 ], [ 126.906834409880418, 37.532750773814406 ] ] ] ] } },
{ "type": "Feature", "properties": { "emd_cd": "11560110", "emd_nm": "여의도동" }, "geometry": { "type": "MultiPolygon", "coordinates": [ [ [ [ 126.949886565098893, 37.517508156544864 ], [ 126.9257539158816, 37.51561274620807 ], [ 126.916106106869321, 37.519695090237349 ], [ 126.911077305645705, 37.526292378000754 ], [ 126.904830702488923, 37.541416529073615 ], [ 126.922414032513913, 37.541429615892021 ], [ 126.927100204951586, 37.53903513920077 ], [ 126.930311868549822, 37.541352426460698 ], [ 126.944218015812879, 37.534238815507905 ], [ 126.949876836826434, 37.527028923832319 ], [ 126.949886565098893, 37.517508156544864 ] ] ] ] } },
{ "type": "Feature", "properties": { "emd_cd": "11560111", "emd_nm": "당산동1가" }, "geometry": { "type": "MultiPolygon", "coordinates": [ [ [ [ 126.89623452940981, 37.524070102801815 ], [ 126.901744443145361, 37.523234915247372 ], [ 126.901122859339594, 37.518804384643722 ], [ 126.895294452082965, 37.520190171606266 ], [ 126.89623452940981, 37.524070102801815 ] ] ] ] } },
{ "type": "Feature", "properties": { "emd_cd": "11560112", "emd_nm": "당산동2가" }, "geometry": { "type": "MultiPolygon", "coordinates": [ [ [ [ 126.892024622662191, 37.524724649962799 ], [ 126.89623452940981, 37.524070102801815 ], [ 126.895294452082965, 37.520190171606266 ], [ 126.891633290618415, 37.520748926273228 ], [ 126.892024622662191, 37.524724649962799 ] ] ] ] } },
{ "type": "Feature", "properties": { "emd_cd": "11560113", "emd_nm": "당산동3가" }, "geometry": { "type": "MultiPolygon", "coordinates": [ [ [ [ 126.902722400613229, 37.52596088556934 ], [ 126.901744443145361, 37.523234915247372 ], [ 126.892024622662191, 37.524724649962799 ], [ 126.894143529227108, 37.529231169638862 ], [ 126.902722400613229, 37.52596088556934 ] ] ] ] } },
{ "type": "Feature", "properties": { "emd_cd": "11560114", "emd_nm": "당산동4가" }, "geometry": { "type": "MultiPolygon", "coordinates": [ [ [ [ 126.894143529227108, 37.529231169638862 ], [ 126.896547019199687, 37.532302105448871 ], [ 126.904091580950819, 37.528879613231233 ], [ 126.902794014642993, 37.525957764938866 ], [ 126.894143529227108, 37.529231169638862 ] ] ] ] } },
{ "type": "Feature", "properties": { "emd_cd": "11560115", "emd_nm": "당산동5가" }, "geometry": { "type": "MultiPolygon", "coordinates": [ [ [ [ 126.898954202318222, 37.535364614838343 ], [ 126.905442609488588, 37.532149606229517 ], [ 126.904091580950819, 37.528879613231233 ], [ 126.896547019199687, 37.532302105448871 ], [ 126.898954202318222, 37.535364614838343 ] ] ] ] } },
{ "type": "Feature", "properties": { "emd_cd": "11560116", "emd_nm": "당산동6가" }, "geometry": { "type": "MultiPolygon", "coordinates": [ [ [ [ 126.906019930870599, 37.534133422026315 ], [ 126.906510847363265, 37.533695376646541 ], [ 126.906559545481898, 37.533648492083039 ], [ 126.906019930870599, 37.534133422026315 ] ] ], [ [ [ 126.900645994908317, 37.537479710869832 ], [ 126.904976618923044, 37.535099816906126 ], [ 126.907352763966543, 37.532804283774276 ], [ 126.905746689118232, 37.531998531341912 ], [ 126.898954202318222, 37.535364614838343 ], [ 126.900645994908317, 37.537479710869832 ] ] ] ] } },
{ "type": "Feature", "properties": { "emd_cd": "11560117", "emd_nm": "당산동" }, "geometry": { "type": "MultiPolygon", "coordinates": [ [ [ [ 126.902190955312449, 37.544127522019565 ], [ 126.906535282656307, 37.539353649101749 ], [ 126.911057063212553, 37.526342349668411 ], [ 126.907084465414883, 37.525662647553531 ], [ 126.907352763966543, 37.532804283774276 ], [ 126.89384364746455, 37.542216825165447 ], [ 126.900123856746006, 37.541780015224475 ], [ 126.902190955312449, 37.544127522019565 ] ], [ [ 126.906510847363265, 37.533695376646541 ], [ 126.906019930870599, 37.534133422026315 ], [ 126.906559545481898, 37.533648492083039 ], [ 126.906510847363265, 37.533695376646541 ] ] ] ] } },
{ "type": "Feature", "properties": { "emd_cd": "11560118", "emd_nm": "도림동" }, "geometry": { "type": "MultiPolygon", "coordinates": [ [ [ [ 126.892167305218408, 37.509376915326797 ], [ 126.900325066753368, 37.51205249582425 ], [ 126.903746090948616, 37.509602350181638 ], [ 126.909988650644564, 37.512435869002722 ], [ 126.910114027539365, 37.510360267935631 ], [ 126.898244754941217, 37.505373415589112 ], [ 126.899225458245326, 37.504033341083804 ], [ 126.892167305218408, 37.509376915326797 ] ] ] ] } },
{ "type": "Feature", "properties": { "emd_cd": "11560119", "emd_nm": "문래동1가" }, "geometry": { "type": "MultiPolygon", "coordinates": [ [ [ [ 126.891054354012084, 37.510434208690548 ], [ 126.903071943372851, 37.515197437964176 ], [ 126.904062992633001, 37.514614981902582 ], [ 126.892167305218408, 37.509376915326797 ], [ 126.891054354012084, 37.510434208690548 ] ] ] ] } },
{ "type": "Feature", "properties": { "emd_cd": "11560120", "emd_nm": "문래동2가" }, "geometry": { "type": "MultiPolygon", "coordinates": [ [ [ [ 126.889735886765408, 37.511707220873525 ], [ 126.893313427306921, 37.515061140861938 ], [ 126.89722805161432, 37.513160253265404 ], [ 126.891863045980088, 37.510429475059198 ], [ 126.889735886765408, 37.511707220873525 ] ] ] ] } },
{ "type": "Feature", "properties": { "emd_cd": "11560121", "emd_nm": "문래동3가" }, "geometry": { "type": "MultiPolygon", "coordinates": [ [ [ [ 126.889728756826202, 37.521045350501204 ], [ 126.900542420893487, 37.519241710600767 ], [ 126.903071943372851, 37.515197437964176 ], [ 126.89722805161432, 37.513160253265404 ], [ 126.88880862362457, 37.517225012699768 ], [ 126.889728756826202, 37.521045350501204 ] ] ] ] } },
{ "type": "Feature", "properties": { "emd_cd": "11560122", "emd_nm": "문래동4가" }, "geometry": { "type": "MultiPolygon", "coordinates": [ [ [ [ 126.888808151158983, 37.517223273327396 ], [ 126.893313427306921, 37.515061140861938 ], [ 126.889924989529689, 37.51169939881585 ], [ 126.886958435321247, 37.513491956508588 ], [ 126.888808151158983, 37.517223273327396 ] ] ] ] } },
{ "type": "Feature", "properties": { "emd_cd": "11560123", "emd_nm": "문래동5가" }, "geometry": { "type": "MultiPolygon", "coordinates": [ [ [ [ 126.888808151158983, 37.517223273327396 ], [ 126.887847760560192, 37.512958596940209 ], [ 126.884385395035451, 37.513783383142538 ], [ 126.878259493988878, 37.519028873474348 ], [ 126.882054218932922, 37.519702950582605 ], [ 126.882233726451261, 37.51823900561547 ], [ 126.888808151158983, 37.517223273327396 ] ] ] ] } },
{ "type": "Feature", "properties": { "emd_cd": "11560124", "emd_nm": "문래동6가" }, "geometry": { "type": "MultiPolygon", "coordinates": [ [ [ [ 126.881729775687077, 37.522439709595858 ], [ 126.88190456092633, 37.521036776413297 ], [ 126.889728756826202, 37.521045350501204 ], [ 126.888808151158983, 37.517223273327396 ], [ 126.878666312280657, 37.519703205666254 ], [ 126.878982461343114, 37.522591195814549 ], [ 126.881729775687077, 37.522439709595858 ] ] ] ] } },
{ "type": "Feature", "properties": { "emd_cd": "11560125", "emd_nm": "양평동1가" }, "geometry": { "type": "MultiPolygon", "coordinates": [ [ [ [ 126.886229778655704, 37.525607552432099 ], [ 126.892024622662191, 37.524724649962799 ], [ 126.891633290618415, 37.520748926273228 ], [ 126.885285654206058, 37.521726782147731 ], [ 126.886229778655704, 37.525607552432099 ] ] ] ] } },
{ "type": "Feature", "properties": { "emd_cd": "11560126", "emd_nm": "양평동2가" }, "geometry": { "type": "MultiPolygon", "coordinates": [ [ [ [ 126.886229778655704, 37.525607552432099 ], [ 126.885000174386477, 37.520567037450903 ], [ 126.88190456092633, 37.521036776413297 ], [ 126.88240612885599, 37.525581792107943 ], [ 126.886229778655704, 37.525607552432099 ] ] ] ] } },
{ "type": "Feature", "properties": { "emd_cd": "11560127", "emd_nm": "양평동3가" }, "geometry": { "type": "MultiPolygon", "coordinates": [ [ [ [ 126.89184289518289, 37.534624645637514 ], [ 126.896547019199687, 37.532302105448871 ], [ 126.892024622662191, 37.524724649962799 ], [ 126.882994570315162, 37.526097419404685 ], [ 126.88857029382757, 37.528600141143642 ], [ 126.89184289518289, 37.534624645637514 ] ] ] ] } },
{ "type": "Feature", "properties": { "emd_cd": "11560128", "emd_nm": "양평동4가" }, "geometry": { "type": "MultiPolygon", "coordinates": [ [ [ [ 126.896024068717637, 37.540548065623462 ], [ 126.900626289672431, 37.537493046747947 ], [ 126.896547019199687, 37.532302105448871 ], [ 126.891807674894537, 37.535164992450241 ], [ 126.896024068717637, 37.540548065623462 ] ] ] ] } },
{ "type": "Feature", "properties": { "emd_cd": "11560129", "emd_nm": "양평동5가" }, "geometry": { "type": "MultiPolygon", "coordinates": [ [ [ [ 126.892320496476557, 37.542663751092796 ], [ 126.896024068717637, 37.540548065623462 ], [ 126.891807674894537, 37.535164992450241 ], [ 126.889820978802163, 37.539607302949733 ], [ 126.892320496476557, 37.542663751092796 ] ] ] ] } },
{ "type": "Feature", "properties": { "emd_cd": "11560130", "emd_nm": "양평동6가" }, "geometry": { "type": "MultiPolygon", "coordinates": [ [ [ [ 126.886520504312841, 37.545539832612533 ], [ 126.892320496476557, 37.542663751092796 ], [ 126.889821373141231, 37.539608429562946 ], [ 126.886520504312841, 37.545539832612533 ] ] ] ] } },
{ "type": "Feature", "properties": { "emd_cd": "11560131", "emd_nm": "양화동" }, "geometry": { "type": "MultiPolygon", "coordinates": [ [ [ [ 126.877928344834999, 37.553336488451357 ], [ 126.880440194795625, 37.556286363458014 ], [ 126.898899537189166, 37.548009656005796 ], [ 126.902190955312449, 37.544127522019565 ], [ 126.900123856746006, 37.541780015224475 ], [ 126.896527066533764, 37.542992193165453 ], [ 126.89567687360379, 37.541713107045844 ], [ 126.886505262192912, 37.545819620597356 ], [ 126.888128034440953, 37.542757179240233 ], [ 126.88542291179435, 37.542306848109966 ], [ 126.877928344834999, 37.553336488451357 ] ] ] ] } },
{ "type": "Feature", "properties": { "emd_cd": "11560132", "emd_nm": "신길동" }, "geometry": { "type": "MultiPolygon", "coordinates": [ [ [ [ 126.898244754941217, 37.505373415589112 ], [ 126.910114027539365, 37.510360267935631 ], [ 126.909988650644564, 37.512435869002722 ], [ 126.917363644147684, 37.518979719444665 ], [ 126.926866533959455, 37.515543663426058 ], [ 126.919822312003149, 37.497800559799025 ], [ 126.912372677707666, 37.496298208988648 ], [ 126.909481449938212, 37.492583172248807 ], [ 126.908182402886283, 37.497582563485373 ], [ 126.903287923397102, 37.497497559600362 ], [ 126.898244754941217, 37.505373415589112 ] ] ] ] } },
{ "type": "Feature", "properties": { "emd_cd": "11560133", "emd_nm": "대림동" }, "geometry": { "type": "MultiPolygon", "coordinates": [ [ [ [ 126.909450108430207, 37.492598690073081 ], [ 126.903197855929065, 37.485001492343876 ], [ 126.898144181181095, 37.486935105073968 ], [ 126.89612404005365, 37.489337918648431 ], [ 126.89276213234568, 37.500833458087428 ], [ 126.893976662987782, 37.50501165908198 ], [ 126.892279707623388, 37.509073617628715 ], [ 126.902056652574032, 37.501217229714911 ], [ 126.901078496317353, 37.499724709381915 ], [ 126.903287923397102, 37.497497559600362 ], [ 126.908182402886283, 37.497582563485373 ], [ 126.909450108430207, 37.492598690073081 ] ] ] ] } },
{ "type": "Feature", "properties": { "emd_cd": "11560134", "emd_nm": "양평동" }, "geometry": { "type": "MultiPolygon", "coordinates": [ [ [ [ 126.889439779565592, 37.529779802678384 ], [ 126.882650340104917, 37.525829162840601 ], [ 126.881729775687077, 37.522439709595858 ], [ 126.878982461343114, 37.522591195814549 ], [ 126.878546981534114, 37.525074154449371 ], [ 126.880939433959426, 37.525912320289365 ], [ 126.880870174732877, 37.52771221951307 ], [ 126.889439779565592, 37.529779802678384 ] ] ], [ [ [ 126.888128034440953, 37.542757179240233 ], [ 126.891817018333924, 37.535127781112664 ], [ 126.890648443959265, 37.531613167938289 ], [ 126.88851501525366, 37.532216523414014 ], [ 126.890101131174916, 37.534369430851271 ], [ 126.88542291179435, 37.542306848109966 ], [ 126.888128034440953, 37.542757179240233 ] ] ], [ [ [ 126.900351672432876, 37.537662342592256 ], [ 126.901055946009222, 37.537865225626312 ], [ 126.901232526902021, 37.537083755600023 ], [ 126.900351672432876, 37.537662342592256 ] ] ], [ [ [ 126.899354193663598, 37.538599047709241 ], [ 126.900462772432761, 37.538356481263726 ], [ 126.900728994021833, 37.538138596501867 ], [ 126.900340945618694, 37.537679551371212 ], [ 126.899354193663598, 37.538599047709241 ] ] ], [ [ [ 126.899560388512597, 37.539241957826718 ], [ 126.898144839369834, 37.539119850126994 ], [ 126.898147831995345, 37.539746997440403 ], [ 126.899560388512597, 37.539241957826718 ] ] ], [ [ [ 126.897727553336452, 37.539411793069441 ], [ 126.898065494295906, 37.539410783146678 ], [ 126.89812788450395, 37.539238450925161 ], [ 126.897727553336452, 37.539411793069441 ] ] ], [ [ [ 126.89384364746455, 37.542216825165447 ], [ 126.894131405017276, 37.541648948734469 ], [ 126.893316854834069, 37.542091826609358 ], [ 126.89384364746455, 37.542216825165447 ] ] ] ] } }
]
}
