{
"type": "FeatureCollection",
"name": "11590",
"crs": { "type": "name", "properties": { "name": "urn:ogc:def:crs:OGC:1.3:CRS84" } },
"features": [
{ "type": "Feature", "properties": { "emd_cd": "11590101", "emd_nm": "노량진동" }, "geometry": { "type": "MultiPolygon", "coordinates": [ [ [ [ 126.932385698057061, 37.515575178554755 ], [ 126.950207891854021, 37.51742455799301 ], [ 126.948378485834326, 37.515570391168552 ], [ 126.950088684529845, 37.513428686750721 ], [ 126.94831431187842, 37.51059019347835 ], [ 126.950609111361373, 37.508063997603195 ], [ 126.94084751419598, 37.505196855210599 ], [ 126.935146332783759, 37.506879961826463 ], [ 126.934451625794495, 37.513133552146293 ], [ 126.932385698057061, 37.515575178554755 ] ] ] ] } },
{ "type": "Feature", "properties": { "emd_cd": "11590102", "emd_nm": "상도동" }, "geometry": { "type": "MultiPolygon", "coordinates": [ [ [ [ 126.928176679336161, 37.503090883953341 ], [ 126.929299116763247, 37.504361802388701 ], [ 126.932357848673917, 37.503770208341237 ], [ 126.932760482490878, 37.506093990590117 ], [ 126.933769622260115, 37.505128686045239 ], [ 126.935925303581286, 37.507098555433032 ], [ 126.94084751419598, 37.505196855210599 ], [ 126.951293566673968, 37.508009059436468 ], [ 126.949852843428445, 37.505219472034071 ], [ 126.946169791396926, 37.503205127579406 ], [ 126.951322756166363, 37.498381843358821 ], [ 126.950366104918118, 37.50002051200147 ], [ 126.953526809947419, 37.500639589864292 ], [ 126.952360586681081, 37.50061851354949 ], [ 126.953484641990002, 37.501323214361307 ], [ 126.952383265456348, 37.504598890031957 ], [ 126.953325008437886, 37.507016177450886 ], [ 126.952321544886431, 37.506656581134493 ], [ 126.951641097906631, 37.508067302990078 ], [ 126.953120740371205, 37.508714825537872 ], [ 126.954646841929076, 37.507509392772043 ], [ 126.953637519290638, 37.504367551215537 ], [ 126.95679742782724, 37.499203104489347 ], [ 126.961937232505605, 37.497444611500612 ], [ 126.962909308812414, 37.494766379376692 ], [ 126.961377658145736, 37.492874067027358 ], [ 126.959363839824533, 37.493802864043033 ], [ 126.953727265151727, 37.490641614846005 ], [ 126.946964171861367, 37.494125663184889 ], [ 126.942619652791663, 37.492142450211823 ], [ 126.932415468793252, 37.492873075667006 ], [ 126.929859189589223, 37.49400334354501 ], [ 126.930092896556431, 37.497785888671864 ], [ 126.928652942851599, 37.498861000170706 ], [ 126.930239034527659, 37.499537293281506 ], [ 126.930418841261925, 37.500029680228693 ], [ 126.928176679336161, 37.503090883953341 ] ] ], [ [ [ 126.952777681404527, 37.501579240853758 ], [ 126.952835917721174, 37.502040774258198 ], [ 126.953018658946391, 37.50190670878186 ], [ 126.952777681404527, 37.501579240853758 ] ] ] ] } },
{ "type": "Feature", "properties": { "emd_cd": "11590103", "emd_nm": "상도1동" }, "geometry": { "type": "MultiPolygon", "coordinates": [ [ [ [ 126.946169791396926, 37.503205127579413 ], [ 126.949852843428445, 37.505219472034057 ], [ 126.951293566673968, 37.508009059436475 ], [ 126.953325008437886, 37.507016177450858 ], [ 126.952383265456348, 37.504598890031971 ], [ 126.953484641990002, 37.501323214361307 ], [ 126.952360586681081, 37.50061851354949 ], [ 126.953526809947419, 37.500639589864292 ], [ 126.950366104918118, 37.500020512001448 ], [ 126.951479235735903, 37.498751544526705 ], [ 126.951322756166363, 37.498381843358835 ], [ 126.946169791396926, 37.503205127579413 ] ], [ [ 126.953019233061454, 37.501700975045779 ], [ 126.952305040551693, 37.501767777053942 ], [ 126.952253424960489, 37.501510619605682 ], [ 126.953019233061454, 37.501700975045779 ] ] ] ] } },
{ "type": "Feature", "properties": { "emd_cd": "11590104", "emd_nm": "본동" }, "geometry": { "type": "MultiPolygon", "coordinates": [ [ [ [ 126.961909695955825, 37.513117118072167 ], [ 126.954609770387918, 37.507541318419705 ], [ 126.948478307645772, 37.509799371987519 ], [ 126.950088684529874, 37.513428686750714 ], [ 126.948378485834326, 37.515570391168573 ], [ 126.950207891854021, 37.51742455799301 ], [ 126.961909695955825, 37.513117118072167 ] ] ] ] } },
{ "type": "Feature", "properties": { "emd_cd": "11590105", "emd_nm": "흑석동" }, "geometry": { "type": "MultiPolygon", "coordinates": [ [ [ [ 126.954609770387918, 37.507541318419705 ], [ 126.961909695955825, 37.513117118072167 ], [ 126.974053494802646, 37.507476106822303 ], [ 126.971980165878279, 37.504641031533986 ], [ 126.96657927172275, 37.502767346674183 ], [ 126.961937232505605, 37.497444611500612 ], [ 126.95679742782724, 37.499203104489347 ], [ 126.953637519290638, 37.504367551215509 ], [ 126.954609770387918, 37.507541318419705 ] ] ] ] } },
{ "type": "Feature", "properties": { "emd_cd": "11590106", "emd_nm": "동작동" }, "geometry": { "type": "MultiPolygon", "coordinates": [ [ [ [ 126.982780657171361, 37.492649680719481 ], [ 126.974838990725956, 37.494968264673155 ], [ 126.972262309362662, 37.493296426599514 ], [ 126.964907386487653, 37.493383647618543 ], [ 126.961937232505605, 37.497444611500612 ], [ 126.96657927172275, 37.502767346674183 ], [ 126.971980165878279, 37.504641031533986 ], [ 126.974053494802646, 37.507476106822303 ], [ 126.980399285541381, 37.506553096155187 ], [ 126.980379119439277, 37.50286451479014 ], [ 126.985383463892703, 37.499864312312688 ], [ 126.98292022606374, 37.496994016212128 ], [ 126.982780657171361, 37.492649680719481 ] ] ] ] } },
{ "type": "Feature", "properties": { "emd_cd": "11590107", "emd_nm": "사당동" }, "geometry": { "type": "MultiPolygon", "coordinates": [ [ [ [ 126.974838990725956, 37.494968264673155 ], [ 126.982780657171361, 37.492649680719481 ], [ 126.981686967675429, 37.476530385123858 ], [ 126.970522602719868, 37.475376494210586 ], [ 126.961068855973949, 37.48355761650852 ], [ 126.961966884536835, 37.488627762085734 ], [ 126.960778984023818, 37.490822870900189 ], [ 126.962909308812442, 37.494766379376699 ], [ 126.964907386487653, 37.493383647618543 ], [ 126.971501818107257, 37.493249410894279 ], [ 126.974838990725956, 37.494968264673155 ] ] ] ] } },
{ "type": "Feature", "properties": { "emd_cd": "11590108", "emd_nm": "대방동" }, "geometry": { "type": "MultiPolygon", "coordinates": [ [ [ [ 126.920243806955995, 37.498507188503353 ], [ 126.926858775202177, 37.51555428126715 ], [ 126.932385698057075, 37.515575178554762 ], [ 126.934451625794495, 37.513133552146293 ], [ 126.935188567053302, 37.506863695511896 ], [ 126.933769622260144, 37.505128686045239 ], [ 126.932760482490878, 37.506093990590131 ], [ 126.932357848673917, 37.503770208341251 ], [ 126.928370013651886, 37.503680851187902 ], [ 126.930381578833348, 37.49968362028212 ], [ 126.920243806955995, 37.498507188503353 ] ] ] ] } },
{ "type": "Feature", "properties": { "emd_cd": "11590109", "emd_nm": "신대방동" }, "geometry": { "type": "MultiPolygon", "coordinates": [ [ [ [ 126.903197842898734, 37.485002807794103 ], [ 126.912402495059979, 37.496309962490209 ], [ 126.927029787151, 37.499346509214774 ], [ 126.930092896556431, 37.497785888671871 ], [ 126.929859189589223, 37.49400334354501 ], [ 126.927479063264713, 37.495015049822619 ], [ 126.92415123664, 37.48997794212454 ], [ 126.918702233629915, 37.490130977458556 ], [ 126.911274438944076, 37.486267589778912 ], [ 126.903197842898734, 37.485002807794103 ] ] ] ] } }
]
}
