{
"type": "FeatureCollection",
"name": "11620",
"crs": { "type": "name", "properties": { "name": "urn:ogc:def:crs:OGC:1.3:CRS84" } },
"features": [
{ "type": "Feature", "properties": { "emd_cd": "11620101", "emd_nm": "봉천동" }, "geometry": { "type": "MultiPolygon", "coordinates": [ [ [ [ 126.966583793974991, 37.457957955281053 ], [ 126.965460695453018, 37.454989976535089 ], [ 126.961646588460738, 37.456122540799633 ], [ 126.957100929800603, 37.459758719261302 ], [ 126.955567857101727, 37.4626860558609 ], [ 126.956156646896304, 37.465804992112957 ], [ 126.953254669875406, 37.470828784420448 ], [ 126.946790992402157, 37.472604592879655 ], [ 126.937090639747879, 37.479405270113219 ], [ 126.935582492781947, 37.480978911537797 ], [ 126.937788071074962, 37.483890247725164 ], [ 126.934433742143852, 37.484651511797331 ], [ 126.934200142480023, 37.486700074523583 ], [ 126.928868846333557, 37.489090956069639 ], [ 126.924155028002701, 37.489963681775968 ], [ 126.927446527283038, 37.494994711894684 ], [ 126.937303324523995, 37.491942109213731 ], [ 126.948769615468152, 37.493788400946229 ], [ 126.953698620974151, 37.490609879042964 ], [ 126.959314592170244, 37.49380570263115 ], [ 126.96105235180049, 37.493258232460178 ], [ 126.961063258163506, 37.483580716263425 ], [ 126.970251836021262, 37.476535976949947 ], [ 126.971168947302814, 37.469209494796907 ], [ 126.973992012966605, 37.465067271542871 ], [ 126.966583793974991, 37.457957955281053 ] ] ] ] } },
{ "type": "Feature", "properties": { "emd_cd": "11620102", "emd_nm": "신림동" }, "geometry": { "type": "MultiPolygon", "coordinates": [ [ [ [ 126.918700988552473, 37.490152609596073 ], [ 126.928868846333557, 37.489090956069639 ], [ 126.934200142480023, 37.486700074523583 ], [ 126.934433742143852, 37.484651511797331 ], [ 126.937788071074962, 37.483890247725164 ], [ 126.935582492781947, 37.480978911537797 ], [ 126.937090639747879, 37.479405270113219 ], [ 126.946790992402157, 37.472604592879655 ], [ 126.953254669875406, 37.470828784420448 ], [ 126.956156646896304, 37.465804992112957 ], [ 126.955567857101727, 37.4626860558609 ], [ 126.957100929800603, 37.459758719261302 ], [ 126.961646588460738, 37.456122540799633 ], [ 126.967635494879218, 37.455828356907958 ], [ 126.97056906863736, 37.449452552771106 ], [ 126.964289430983584, 37.446267331952306 ], [ 126.963803151551389, 37.440786962606772 ], [ 126.93862161819402, 37.436028537844962 ], [ 126.937353619267725, 37.440871459478892 ], [ 126.93055408998886, 37.445468512885483 ], [ 126.928366028031391, 37.451011919013915 ], [ 126.924779312884581, 37.452844110894411 ], [ 126.922186912258255, 37.456623612983847 ], [ 126.914029972506015, 37.457905320662249 ], [ 126.913723998070694, 37.465469331625641 ], [ 126.908197317544605, 37.472683492747649 ], [ 126.911359247749971, 37.474506963552621 ], [ 126.911833976620301, 37.47782103937012 ], [ 126.908614264491931, 37.479072908494246 ], [ 126.909785581325963, 37.480765688207534 ], [ 126.899048676102979, 37.4793593759724 ], [ 126.903197842898734, 37.485002807794103 ], [ 126.911250604910592, 37.486257615517104 ], [ 126.918700988552473, 37.490152609596073 ] ] ] ] } },
{ "type": "Feature", "properties": { "emd_cd": "11620103", "emd_nm": "남현동" }, "geometry": { "type": "MultiPolygon", "coordinates": [ [ [ [ 126.97056906863736, 37.449452552771106 ], [ 126.966583793974991, 37.457957955281053 ], [ 126.973992012966605, 37.465067271542871 ], [ 126.971168947302814, 37.469209494796907 ], [ 126.970522602719868, 37.475376494210586 ], [ 126.98158258544774, 37.476530718953036 ], [ 126.982746458841987, 37.472006938960789 ], [ 126.987935171932918, 37.465932344607147 ], [ 126.988635447985928, 37.458166060814968 ], [ 126.974579304147952, 37.454412771452319 ], [ 126.97056906863736, 37.449452552771106 ] ] ] ] } }
]
}
