{
"type": "FeatureCollection",
"name": "11650",
"crs": { "type": "name", "properties": { "name": "urn:ogc:def:crs:OGC:1.3:CRS84" } },
"features": [
{ "type": "Feature", "properties": { "emd_cd": "11650101", "emd_nm": "방배동" }, "geometry": { "type": "MultiPolygon", "coordinates": [ [ [ [ 126.985387196960247, 37.499858978909693 ], [ 126.994756916778442, 37.495853603125504 ], [ 126.995198425045643, 37.493968700481346 ], [ 126.999809855284681, 37.493039638005428 ], [ 127.000806774507609, 37.483563086494016 ], [ 127.004465739567564, 37.482740140234846 ], [ 127.010111329387186, 37.472544628115685 ], [ 127.002734609224163, 37.467124597130713 ], [ 126.996751664183677, 37.467072402360259 ], [ 126.996768293094249, 37.461873392442236 ], [ 126.993354123126593, 37.461495856239559 ], [ 126.988645544825758, 37.458144780172454 ], [ 126.987302805067401, 37.467614444449687 ], [ 126.983214882963026, 37.471570836840364 ], [ 126.981708069746404, 37.476292244727169 ], [ 126.982929725240737, 37.496993585227301 ], [ 126.985387196960247, 37.499858978909693 ] ] ] ] } },
{ "type": "Feature", "properties": { "emd_cd": "11650102", "emd_nm": "양재동" }, "geometry": { "type": "MultiPolygon", "coordinates": [ [ [ [ 127.04797405512663, 37.46063343948007 ], [ 127.042117470268423, 37.461530564599464 ], [ 127.039241183897545, 37.45823675913941 ], [ 127.037083629450677, 37.4519007907126 ], [ 127.034754466935325, 37.452617552276948 ], [ 127.037127465231237, 37.455207595168879 ], [ 127.033731932740409, 37.461237077869477 ], [ 127.034693075126356, 37.464154714907544 ], [ 127.029928211433898, 37.465351589055643 ], [ 127.028967928313435, 37.467720645341338 ], [ 127.03203058666432, 37.471493386560098 ], [ 127.021633709324234, 37.477004677884764 ], [ 127.022664810006958, 37.479019760292978 ], [ 127.025575491345847, 37.480866599617279 ], [ 127.032536794172259, 37.481012173762274 ], [ 127.034304560350492, 37.482211578239891 ], [ 127.033855704824134, 37.484336866685112 ], [ 127.041750046971003, 37.48543708735297 ], [ 127.045190373756498, 37.477355413462284 ], [ 127.051181521839737, 37.471788995798704 ], [ 127.043012014925665, 37.46565640310385 ], [ 127.04797405512663, 37.46063343948007 ] ] ] ] } },
{ "type": "Feature", "properties": { "emd_cd": "11650103", "emd_nm": "우면동" }, "geometry": { "type": "MultiPolygon", "coordinates": [ [ [ [ 127.010111329387186, 37.472544628115685 ], [ 127.021067583993656, 37.477280821987229 ], [ 127.030301245286466, 37.473346642991913 ], [ 127.03203058666432, 37.471493386560098 ], [ 127.028967928313435, 37.467720645341338 ], [ 127.029928211433898, 37.465351589055643 ], [ 127.02836167670516, 37.459893589034664 ], [ 127.021502709671083, 37.45622595579718 ], [ 127.010823032813562, 37.455422996799022 ], [ 127.004968522914808, 37.463186912695548 ], [ 127.003666016665903, 37.467865380129702 ], [ 127.010111329387186, 37.472544628115685 ] ] ] ] } },
{ "type": "Feature", "properties": { "emd_cd": "11650104", "emd_nm": "원지동" }, "geometry": { "type": "MultiPolygon", "coordinates": [ [ [ [ 127.061144801166719, 37.42998541345893 ], [ 127.052169135855067, 37.428339797607741 ], [ 127.047368970646389, 37.430701816254469 ], [ 127.046311400718821, 37.433447227172373 ], [ 127.041089991840721, 37.437769048377923 ], [ 127.03557349162061, 37.439004012508093 ], [ 127.035171548298038, 37.440941925441955 ], [ 127.038230070735821, 37.445180345264262 ], [ 127.036409446765759, 37.451496773287957 ], [ 127.042117470268423, 37.461530564599464 ], [ 127.045415598846589, 37.461345130042247 ], [ 127.050962449860222, 37.451945642852529 ], [ 127.063529571847923, 37.437899773953113 ], [ 127.063495195340039, 37.433908180220953 ], [ 127.061144801166719, 37.42998541345893 ] ] ] ] } },
{ "type": "Feature", "properties": { "emd_cd": "11650106", "emd_nm": "잠원동" }, "geometry": { "type": "MultiPolygon", "coordinates": [ [ [ [ 126.997428323705833, 37.517357838925619 ], [ 127.008578450147169, 37.52559472525256 ], [ 127.013171868501757, 37.522589894199946 ], [ 127.015221275676637, 37.524853965017243 ], [ 127.017822177074763, 37.521811965021783 ], [ 127.021326342218487, 37.511101557522032 ], [ 127.001154240918282, 37.505002023115473 ], [ 126.997756709118121, 37.511915227247627 ], [ 127.001133274173299, 37.513596005900418 ], [ 126.997428323705833, 37.517357838925619 ] ] ] ] } },
{ "type": "Feature", "properties": { "emd_cd": "11650107", "emd_nm": "반포동" }, "geometry": { "type": "MultiPolygon", "coordinates": [ [ [ [ 127.000294110055492, 37.49181464450858 ], [ 126.98054107192317, 37.502691083460675 ], [ 126.980406751392167, 37.506548322201546 ], [ 126.985547648396107, 37.50654309230962 ], [ 126.990702347569965, 37.513090322632301 ], [ 126.997428323705833, 37.517357838925619 ], [ 127.001133274173299, 37.513596005900418 ], [ 126.997756709118121, 37.511915227247627 ], [ 127.001154240918282, 37.505002023115473 ], [ 127.021326342218487, 37.511101557522032 ], [ 127.024484592151197, 37.504477662583071 ], [ 127.018604091096591, 37.503033999036489 ], [ 127.019758939112478, 37.499995929638501 ], [ 127.015861404901869, 37.501532399561583 ], [ 127.01251726736507, 37.498972750623764 ], [ 127.008808642280712, 37.498510735182926 ], [ 127.010169497657117, 37.497296096582858 ], [ 127.00352401010646, 37.495968927147103 ], [ 127.000294110055492, 37.49181464450858 ] ] ] ] } },
{ "type": "Feature", "properties": { "emd_cd": "11650108", "emd_nm": "서초동" }, "geometry": { "type": "MultiPolygon", "coordinates": [ [ [ [ 127.024484592151197, 37.504477662583071 ], [ 127.034304560350492, 37.482211578239891 ], [ 127.030419978406798, 37.480299414505311 ], [ 127.024380473343584, 37.480613844630675 ], [ 127.021633709324234, 37.477004677884764 ], [ 127.017067139529701, 37.47634824808997 ], [ 127.01393818472701, 37.473226401057765 ], [ 127.010111329387186, 37.472544628115685 ], [ 127.004465739567564, 37.482740140234846 ], [ 127.000806774507609, 37.483563086494016 ], [ 126.999852371468194, 37.491565224283306 ], [ 127.004973640761889, 37.496745167604708 ], [ 127.010169497657117, 37.497296096582858 ], [ 127.008808642280712, 37.498510735182926 ], [ 127.01251726736507, 37.498972750623764 ], [ 127.015861404901869, 37.501532399561583 ], [ 127.019758939112478, 37.499995929638501 ], [ 127.018604091096591, 37.503033999036489 ], [ 127.024484592151197, 37.504477662583071 ] ] ] ] } },
{ "type": "Feature", "properties": { "emd_cd": "11650109", "emd_nm": "내곡동" }, "geometry": { "type": "MultiPolygon", "coordinates": [ [ [ [ 127.058602764707715, 37.457410222416861 ], [ 127.058855564985578, 37.460620434755924 ], [ 127.062371574936449, 37.462956567033416 ], [ 127.061438042352165, 37.469011898222107 ], [ 127.070422133394345, 37.470994289904169 ], [ 127.076873551585592, 37.475068794838258 ], [ 127.084877034947283, 37.475350668381417 ], [ 127.085029567242842, 37.471106243553514 ], [ 127.091593614482775, 37.465568495861788 ], [ 127.092096610647999, 37.46227438303039 ], [ 127.095784299390786, 37.46061074972463 ], [ 127.095213552408183, 37.456321231182415 ], [ 127.08882077755807, 37.449749640575838 ], [ 127.087854779647969, 37.44489432999768 ], [ 127.083861595754215, 37.443921704061495 ], [ 127.081249964515251, 37.44111901004122 ], [ 127.072249536633137, 37.442200334436613 ], [ 127.06938810375047, 37.446022859301976 ], [ 127.065752402909084, 37.44644082291456 ], [ 127.058754821736656, 37.452997266997428 ], [ 127.060462206420297, 37.454683308761496 ], [ 127.058602764707715, 37.457410222416861 ] ] ] ] } },
{ "type": "Feature", "properties": { "emd_cd": "11650110", "emd_nm": "염곡동" }, "geometry": { "type": "MultiPolygon", "coordinates": [ [ [ [ 127.043012014925665, 37.46565640310385 ], [ 127.04885926193262, 37.469893067015363 ], [ 127.051014899969275, 37.469349797742538 ], [ 127.050727613105863, 37.467279402546097 ], [ 127.061438042352165, 37.469011898222107 ], [ 127.062371574936449, 37.462956567033416 ], [ 127.058855564985578, 37.460620434755924 ], [ 127.058427502713201, 37.45688004733649 ], [ 127.050276260802534, 37.457048061816067 ], [ 127.047172738471872, 37.46240810014887 ], [ 127.043012014925665, 37.46565640310385 ] ] ] ] } },
{ "type": "Feature", "properties": { "emd_cd": "11650111", "emd_nm": "신원동" }, "geometry": { "type": "MultiPolygon", "coordinates": [ [ [ [ 127.063529571847923, 37.437899773953113 ], [ 127.045431509160181, 37.461298992693138 ], [ 127.050276260802534, 37.457048061816067 ], [ 127.059506113970684, 37.457015881154931 ], [ 127.060462206420297, 37.454683308761496 ], [ 127.058970575010861, 37.45335466341438 ], [ 127.058754821736656, 37.452997266997428 ], [ 127.065752402909084, 37.44644082291456 ], [ 127.071203564937207, 37.444362949827607 ], [ 127.072007469697937, 37.438856839326832 ], [ 127.073843196765992, 37.437407747254092 ], [ 127.071271879864014, 37.435601374277759 ], [ 127.07095223189539, 37.430213132720745 ], [ 127.068270030429829, 37.430679346276413 ], [ 127.065681322578683, 37.428985368364884 ], [ 127.061144801166719, 37.42998541345893 ], [ 127.063495195340039, 37.433908180220953 ], [ 127.063529571847923, 37.437899773953113 ] ] ] ] } }
]
}
