{
"type": "FeatureCollection",
"name": "11680",
"crs": { "type": "name", "properties": { "name": "urn:ogc:def:crs:OGC:1.3:CRS84" } },
"features": [
{ "type": "Feature", "properties": { "emd_cd": "11680101", "emd_nm": "역삼동" }, "geometry": { "type": "MultiPolygon", "coordinates": [ [ [ [ 127.043851730209227, 37.510275454871227 ], [ 127.048289501043811, 37.505948092367284 ], [ 127.052862676502286, 37.496307761665513 ], [ 127.031611307599192, 37.489554884663498 ], [ 127.024484592151197, 37.504477662583071 ], [ 127.043851730209227, 37.510275454871227 ] ] ] ] } },
{ "type": "Feature", "properties": { "emd_cd": "11680103", "emd_nm": "개포동" }, "geometry": { "type": "MultiPolygon", "coordinates": [ [ [ [ 127.078789043618585, 37.497419997117625 ], [ 127.081422307136066, 37.495482367811071 ], [ 127.080349466881913, 37.49406345592557 ], [ 127.072658905181626, 37.491549952854335 ], [ 127.075621590081255, 37.486025900878992 ], [ 127.078026259797241, 37.486118739050688 ], [ 127.072591750908529, 37.47937708459758 ], [ 127.07650552687528, 37.474493567704265 ], [ 127.065113398249153, 37.469370946388217 ], [ 127.050798624837554, 37.467245549273741 ], [ 127.051050428111154, 37.46936523506379 ], [ 127.048669227744213, 37.470059738507494 ], [ 127.051181521839737, 37.471788995798704 ], [ 127.045227651476921, 37.477303411852063 ], [ 127.044658128768475, 37.480726437393514 ], [ 127.059238166617675, 37.48893004542677 ], [ 127.068144701565458, 37.490929453223011 ], [ 127.074760542055344, 37.496259076176905 ], [ 127.078789043618585, 37.497419997117625 ] ] ] ] } },
{ "type": "Feature", "properties": { "emd_cd": "11680104", "emd_nm": "청담동" }, "geometry": { "type": "MultiPolygon", "coordinates": [ [ [ [ 127.046514065913584, 37.533933165800555 ], [ 127.065464973148451, 37.525088033762657 ], [ 127.063711124303609, 37.521609444540445 ], [ 127.041271422877159, 37.517218728450587 ], [ 127.039058278101678, 37.523180601731461 ], [ 127.040693639472536, 37.527810913596156 ], [ 127.043760521483847, 37.527028712311861 ], [ 127.046514065913584, 37.533933165800555 ] ] ] ] } },
{ "type": "Feature", "properties": { "emd_cd": "11680105", "emd_nm": "삼성동" }, "geometry": { "type": "MultiPolygon", "coordinates": [ [ [ [ 127.041271422877159, 37.517218728450587 ], [ 127.063711124303609, 37.521609444540445 ], [ 127.066455238941671, 37.525089502690051 ], [ 127.068868273040053, 37.510299925525345 ], [ 127.048986067564769, 37.504515858577648 ], [ 127.044365533069026, 37.509036578637087 ], [ 127.041271422877159, 37.517218728450587 ] ] ] ] } },
{ "type": "Feature", "properties": { "emd_cd": "11680106", "emd_nm": "대치동" }, "geometry": { "type": "MultiPolygon", "coordinates": [ [ [ [ 127.048986067564769, 37.504515858577648 ], [ 127.068868974399194, 37.510300051265048 ], [ 127.069814875857247, 37.502738696626089 ], [ 127.076987055370893, 37.502067422631725 ], [ 127.080289136281891, 37.499584331785975 ], [ 127.068144701565458, 37.490929453223011 ], [ 127.056426326577522, 37.487586822655125 ], [ 127.048986067564769, 37.504515858577648 ] ] ] ] } },
{ "type": "Feature", "properties": { "emd_cd": "11680107", "emd_nm": "신사동" }, "geometry": { "type": "MultiPolygon", "coordinates": [ [ [ [ 127.017822177074763, 37.521811965021783 ], [ 127.032397900089876, 37.52895574465731 ], [ 127.040693639472536, 37.527810913596156 ], [ 127.039058278101678, 37.523180601731461 ], [ 127.019524758295091, 37.516112378441626 ], [ 127.017822177074763, 37.521811965021783 ] ] ], [ [ [ 127.016381432465209, 37.526005881775816 ], [ 127.013187353957491, 37.52258312619638 ], [ 127.008594592928006, 37.525589552576065 ], [ 127.0124111247505, 37.529717916396059 ], [ 127.016381432465209, 37.526005881775816 ] ] ] ] } },
{ "type": "Feature", "properties": { "emd_cd": "11680108", "emd_nm": "논현동" }, "geometry": { "type": "MultiPolygon", "coordinates": [ [ [ [ 127.043851730209227, 37.510275454871227 ], [ 127.024484592151197, 37.504477662583071 ], [ 127.019525323860123, 37.516112378355395 ], [ 127.039058278101678, 37.523180601731461 ], [ 127.043851730209227, 37.510275454871227 ] ] ] ] } },
{ "type": "Feature", "properties": { "emd_cd": "11680110", "emd_nm": "압구정동" }, "geometry": { "type": "MultiPolygon", "coordinates": [ [ [ [ 127.017822177074763, 37.521811965021783 ], [ 127.012656322378987, 37.529739976893346 ], [ 127.014895688066318, 37.532207621084048 ], [ 127.021172273207043, 37.535823835893929 ], [ 127.039663722891376, 37.535857657166432 ], [ 127.046514065913584, 37.533933165800555 ], [ 127.043760521483847, 37.527028712311861 ], [ 127.032566595975112, 37.528993091692676 ], [ 127.017822177074763, 37.521811965021783 ] ] ] ] } },
{ "type": "Feature", "properties": { "emd_cd": "11680111", "emd_nm": "세곡동" }, "geometry": { "type": "MultiPolygon", "coordinates": [ [ [ [ 127.089038005791068, 37.468240504286292 ], [ 127.099595187244219, 37.470581453450833 ], [ 127.104706166138371, 37.466203225685298 ], [ 127.110950952242959, 37.468153406912904 ], [ 127.115081016063229, 37.466075075981294 ], [ 127.122239023293446, 37.468062198236993 ], [ 127.119703270173488, 37.472761806374514 ], [ 127.124205692403038, 37.466520547406304 ], [ 127.117474491705678, 37.462200714797362 ], [ 127.116895804146509, 37.458640565882831 ], [ 127.111820055260594, 37.46164462180532 ], [ 127.104341019896609, 37.462174786067621 ], [ 127.103941359368832, 37.460050979242936 ], [ 127.09889299457258, 37.456116089343361 ], [ 127.095213617902374, 37.456391851916173 ], [ 127.095656551876544, 37.461015078206948 ], [ 127.091909773698191, 37.462306430647104 ], [ 127.091942752718168, 37.465213080553148 ], [ 127.089038005791068, 37.468240504286292 ] ] ] ] } },
{ "type": "Feature", "properties": { "emd_cd": "11680112", "emd_nm": "자곡동" }, "geometry": { "type": "MultiPolygon", "coordinates": [ [ [ [ 127.103384525489361, 37.471615806511231 ], [ 127.088975511674079, 37.468148747317926 ], [ 127.084135904809131, 37.473000284140191 ], [ 127.085833326483495, 37.476135609801538 ], [ 127.098482943813252, 37.478220871317824 ], [ 127.097731538530468, 37.481640579145996 ], [ 127.102763919775029, 37.485019425675141 ], [ 127.105598414113715, 37.48275845095187 ], [ 127.111654609455201, 37.483794004551854 ], [ 127.116038046320142, 37.477603679618447 ], [ 127.111657100993298, 37.473173616353399 ], [ 127.107013164162609, 37.473579493410746 ], [ 127.106570148909142, 37.475445737728734 ], [ 127.10612910198428, 37.475625248238465 ], [ 127.103384525489361, 37.471615806511231 ] ] ] ] } },
{ "type": "Feature", "properties": { "emd_cd": "11680113", "emd_nm": "율현동" }, "geometry": { "type": "MultiPolygon", "coordinates": [ [ [ [ 127.100669677909721, 37.470319383039765 ], [ 127.105644741556944, 37.47352223210806 ], [ 127.10612910198428, 37.475625248238465 ], [ 127.107013164162609, 37.473579493410746 ], [ 127.111657100993298, 37.473173616353399 ], [ 127.116038046320142, 37.477603679618447 ], [ 127.122239023293446, 37.468062198236993 ], [ 127.115081016063229, 37.466075075981294 ], [ 127.110322181278292, 37.468118848382431 ], [ 127.106075759773077, 37.465874615147349 ], [ 127.100669677909721, 37.470319383039765 ] ] ] ] } },
{ "type": "Feature", "properties": { "emd_cd": "11680114", "emd_nm": "일원동" }, "geometry": { "type": "MultiPolygon", "coordinates": [ [ [ [ 127.097401520527015, 37.495190647580927 ], [ 127.091661443789349, 37.493622517375606 ], [ 127.094249817618334, 37.49225505829731 ], [ 127.091211978069254, 37.491684701145566 ], [ 127.089822172757778, 37.491292695913486 ], [ 127.089709686693638, 37.491168928492925 ], [ 127.091694475096418, 37.488910794623102 ], [ 127.090675236671714, 37.487600729834853 ], [ 127.085648775766472, 37.486781532136 ], [ 127.086953843762728, 37.482209178353258 ], [ 127.085285264265949, 37.479959563360701 ], [ 127.085327398674139, 37.475826835860403 ], [ 127.077963134638068, 37.474854449273138 ], [ 127.074352040538429, 37.476155813467948 ], [ 127.072591750908529, 37.47937708459758 ], [ 127.078026259797241, 37.486118739050688 ], [ 127.075621590081255, 37.486025900878992 ], [ 127.072658905181626, 37.491549952854335 ], [ 127.080349466881913, 37.49406345592557 ], [ 127.081422307136066, 37.495482367811071 ], [ 127.078789043618585, 37.497419997117625 ], [ 127.079926552111232, 37.501086501464236 ], [ 127.097401520527015, 37.495190647580927 ] ] ] ] } },
{ "type": "Feature", "properties": { "emd_cd": "11680115", "emd_nm": "수서동" }, "geometry": { "type": "MultiPolygon", "coordinates": [ [ [ [ 127.097401520527015, 37.495190647580927 ], [ 127.107004884907013, 37.490289243152382 ], [ 127.111654609455201, 37.483794004551854 ], [ 127.105598414113715, 37.48275845095187 ], [ 127.102763919775029, 37.485019425675141 ], [ 127.097731538530468, 37.481640579145996 ], [ 127.098318215252235, 37.478128410426038 ], [ 127.085327398674139, 37.475826835860403 ], [ 127.085285264265949, 37.479959563360701 ], [ 127.086953843762728, 37.482209178353258 ], [ 127.086128910657649, 37.485889009448584 ], [ 127.085735659008094, 37.485886136903972 ], [ 127.085648775766472, 37.486781532136 ], [ 127.090675236671714, 37.487600729834853 ], [ 127.091694475096418, 37.488910794623102 ], [ 127.089709686693638, 37.491168928492925 ], [ 127.094249817618334, 37.49225505829731 ], [ 127.091661443789349, 37.493622517375606 ], [ 127.097401520527015, 37.495190647580927 ] ] ] ] } },
{ "type": "Feature", "properties": { "emd_cd": "11680118", "emd_nm": "도곡동" }, "geometry": { "type": "MultiPolygon", "coordinates": [ [ [ [ 127.031611307599192, 37.489554884663498 ], [ 127.052862676502286, 37.496307761665513 ], [ 127.056426326577522, 37.487586822655125 ], [ 127.044004765168623, 37.479941991731913 ], [ 127.041750046975835, 37.485437096362972 ], [ 127.034087163035835, 37.484369058948957 ], [ 127.031611307599192, 37.489554884663498 ] ] ] ] } }
]
}
