{
"type": "FeatureCollection",
"name": "47150",
"crs": { "type": "name", "properties": { "name": "urn:ogc:def:crs:OGC:1.3:CRS84" } },
"features": [
{ "type": "Feature", "properties": { "emd_cd": "47150101", "emd_nm": "감호동" }, "geometry": { "type": "MultiPolygon", "coordinates": [ [ [ [ 128.127868143062415, 36.116974671849839 ], [ 128.130147998898991, 36.124422775050938 ], [ 128.129940857993205, 36.119798848778743 ], [ 128.129097713772921, 36.117988508458659 ], [ 128.128416956767637, 36.117295779170831 ], [ 128.127868143062415, 36.116974671849839 ] ] ] ] } },
{ "type": "Feature", "properties": { "emd_cd": "47150102", "emd_nm": "용두동" }, "geometry": { "type": "MultiPolygon", "coordinates": [ [ [ [ 128.126721674548691, 36.116944930318084 ], [ 128.127292007216852, 36.121005646487454 ], [ 128.129900958172243, 36.124961377864004 ], [ 128.128480918264813, 36.117922212654292 ], [ 128.126721674548691, 36.116944930318084 ] ] ] ] } },
{ "type": "Feature", "properties": { "emd_cd": "47150103", "emd_nm": "모암동" }, "geometry": { "type": "MultiPolygon", "coordinates": [ [ [ [ 128.125743302321496, 36.120826797386691 ], [ 128.120285516282536, 36.124998597089487 ], [ 128.121492358353976, 36.127187134920369 ], [ 128.120350079775477, 36.129603072803349 ], [ 128.122162096567934, 36.130748039585946 ], [ 128.13037113468377, 36.126740269915786 ], [ 128.126721674548691, 36.116944930318084 ], [ 128.122608259042693, 36.118971231536392 ], [ 128.125743302321496, 36.120826797386691 ] ] ] ] } },
{ "type": "Feature", "properties": { "emd_cd": "47150104", "emd_nm": "성내동" }, "geometry": { "type": "MultiPolygon", "coordinates": [ [ [ [ 128.120350079775477, 36.129603072803349 ], [ 128.121492358353976, 36.127187134920369 ], [ 128.120285516282536, 36.124998597089487 ], [ 128.125743302321496, 36.120826797386691 ], [ 128.122608259042693, 36.118971231536392 ], [ 128.117572651412104, 36.121402417553924 ], [ 128.118056918375117, 36.128551182412913 ], [ 128.120350079775477, 36.129603072803349 ] ] ] ] } },
{ "type": "Feature", "properties": { "emd_cd": "47150105", "emd_nm": "평화동" }, "geometry": { "type": "MultiPolygon", "coordinates": [ [ [ [ 128.103141430788412, 36.130526832971469 ], [ 128.109730212997277, 36.132302878004189 ], [ 128.118350542005288, 36.128679809498976 ], [ 128.11800195922973, 36.122348990291286 ], [ 128.116376532715094, 36.119578120345992 ], [ 128.110026111449741, 36.117526898055139 ], [ 128.109467652687442, 36.122729368950651 ], [ 128.107793251053721, 36.122835736500136 ], [ 128.103141430788412, 36.130526832971469 ] ] ] ] } },
{ "type": "Feature", "properties": { "emd_cd": "47150106", "emd_nm": "남산동" }, "geometry": { "type": "MultiPolygon", "coordinates": [ [ [ [ 128.110026111449741, 36.117526898055139 ], [ 128.11355424054068, 36.118064327784573 ], [ 128.117570894792607, 36.121514538022886 ], [ 128.122608259042693, 36.118971231536392 ], [ 128.118530292696533, 36.11628371844477 ], [ 128.116982131899533, 36.112670263897378 ], [ 128.113162209433597, 36.111624401121531 ], [ 128.109611989925639, 36.108187184594911 ], [ 128.108131605457714, 36.114852142357286 ], [ 128.110026111449741, 36.117526898055139 ] ], [ [ 128.110977735875622, 36.117414560402608 ], [ 128.11085770223292, 36.116992692330705 ], [ 128.110923826221438, 36.116970636434118 ], [ 128.110977735875622, 36.117414560402608 ] ] ] ] } },
{ "type": "Feature", "properties": { "emd_cd": "47150107", "emd_nm": "황금동" }, "geometry": { "type": "MultiPolygon", "coordinates": [ [ [ [ 128.127504269491851, 36.116630921952513 ], [ 128.122447582429544, 36.108426086113965 ], [ 128.116173046923933, 36.10765708866704 ], [ 128.111367472594935, 36.108842553866694 ], [ 128.122608259042693, 36.118971231536392 ], [ 128.127504269491851, 36.116630921952513 ] ] ] ] } },
{ "type": "Feature", "properties": { "emd_cd": "47150108", "emd_nm": "신음동" }, "geometry": { "type": "MultiPolygon", "coordinates": [ [ [ [ 128.139627500614665, 36.131030149973576 ], [ 128.131519135653235, 36.125901244770127 ], [ 128.124335326772865, 36.130661401281934 ], [ 128.117198499745314, 36.128625152352939 ], [ 128.109730212997277, 36.132302878004189 ], [ 128.100887866657104, 36.130163409443881 ], [ 128.100796524243378, 36.131871231644283 ], [ 128.102962081944412, 36.132282804575787 ], [ 128.103161046251756, 36.135583124950927 ], [ 128.107211924841636, 36.137545292724141 ], [ 128.10579834709759, 36.140832817320486 ], [ 128.108741034999355, 36.142262005336356 ], [ 128.110024540338742, 36.148904619848459 ], [ 128.113685659832356, 36.147723830226958 ], [ 128.117915708231607, 36.149372763026882 ], [ 128.123955904165399, 36.142780408634472 ], [ 128.122333669093933, 36.13927585778606 ], [ 128.130998178615187, 36.140446614503418 ], [ 128.137012726265709, 36.138686356016279 ], [ 128.136739887152231, 36.135589117627788 ], [ 128.139627500614665, 36.131030149973576 ] ] ] ] } },
{ "type": "Feature", "properties": { "emd_cd": "47150109", "emd_nm": "교동" }, "geometry": { "type": "MultiPolygon", "coordinates": [ [ [ [ 128.110488441618713, 36.153035313225558 ], [ 128.108801369744356, 36.142378264795006 ], [ 128.10579834709759, 36.140832817320486 ], [ 128.107211924841636, 36.137545292724141 ], [ 128.103161046251756, 36.135583124950927 ], [ 128.102962081944412, 36.132282804575787 ], [ 128.100927708576478, 36.132136820691755 ], [ 128.100887866657104, 36.130163409443881 ], [ 128.091157608294139, 36.127775860583704 ], [ 128.087156464127617, 36.129490644848296 ], [ 128.090599839675349, 36.137119444361872 ], [ 128.094314225830828, 36.138634650127145 ], [ 128.096840823390579, 36.142950757038768 ], [ 128.100015566913328, 36.14473585535417 ], [ 128.097409856045147, 36.145152074864896 ], [ 128.096086466233146, 36.147316775782031 ], [ 128.100219670170361, 36.149293111831689 ], [ 128.102985189930479, 36.158397208134808 ], [ 128.106537075561135, 36.159692365608606 ], [ 128.107247817096919, 36.156346041586893 ], [ 128.110488441618713, 36.153035313225558 ] ] ] ] } },
{ "type": "Feature", "properties": { "emd_cd": "47150110", "emd_nm": "삼락동" }, "geometry": { "type": "MultiPolygon", "coordinates": [ [ [ [ 128.070503074593915, 36.134858140049396 ], [ 128.067025677633836, 36.138111277757098 ], [ 128.069525186731852, 36.14259698851405 ], [ 128.068132804455075, 36.145649717112377 ], [ 128.077093709200966, 36.15451951452841 ], [ 128.07786045475595, 36.152945897731598 ], [ 128.076313682455122, 36.150446785239502 ], [ 128.079374738976298, 36.146015000628459 ], [ 128.089850572310638, 36.141538714994375 ], [ 128.091881908651544, 36.140940848721236 ], [ 128.091792537666834, 36.144986547890007 ], [ 128.094228400043704, 36.146990116263119 ], [ 128.096976682489185, 36.147214965347708 ], [ 128.097409856045147, 36.145152074864896 ], [ 128.100113034118095, 36.145112377668625 ], [ 128.094314225830828, 36.138634650127145 ], [ 128.090599839675349, 36.137119444361872 ], [ 128.087156464127617, 36.129490644848296 ], [ 128.084099255222498, 36.131948063967208 ], [ 128.079318761437264, 36.131619060841672 ], [ 128.076531151435972, 36.134222906908398 ], [ 128.070503074593915, 36.134858140049396 ] ] ] ] } },
{ "type": "Feature", "properties": { "emd_cd": "47150111", "emd_nm": "문당동" }, "geometry": { "type": "MultiPolygon", "coordinates": [ [ [ [ 128.082225286645894, 36.172162258712355 ], [ 128.092495513738697, 36.169862534643052 ], [ 128.094950138928567, 36.164014439345735 ], [ 128.102985189930479, 36.158397208134808 ], [ 128.100219670170361, 36.149293111831689 ], [ 128.091792537666834, 36.144986547890007 ], [ 128.091881908651544, 36.140940848721236 ], [ 128.079374738976298, 36.146015000628459 ], [ 128.076313682455122, 36.150446785239502 ], [ 128.079501366010163, 36.162357703047341 ], [ 128.078907587077111, 36.166665170997589 ], [ 128.081871700085514, 36.169559154607178 ], [ 128.082225286645894, 36.172162258712355 ] ] ] ] } },
{ "type": "Feature", "properties": { "emd_cd": "47150112", "emd_nm": "다수동" }, "geometry": { "type": "MultiPolygon", "coordinates": [ [ [ [ 128.059694128170122, 36.108095559457333 ], [ 128.055229135343609, 36.11106437003864 ], [ 128.054860836828112, 36.113036679397062 ], [ 128.059242488400002, 36.123018968642889 ], [ 128.064484345080388, 36.125986199065657 ], [ 128.068196438794359, 36.130381680283747 ], [ 128.074323148966869, 36.131767355395652 ], [ 128.076098023281901, 36.133721366669711 ], [ 128.080843058587647, 36.131506036801902 ], [ 128.080063622889014, 36.126431955796967 ], [ 128.07539853650556, 36.120933790092728 ], [ 128.071976427902825, 36.121867162590249 ], [ 128.071953260022752, 36.123111683174415 ], [ 128.067604564287649, 36.122789521829027 ], [ 128.059694128170122, 36.108095559457333 ] ] ] ] } },
{ "type": "Feature", "properties": { "emd_cd": "47150113", "emd_nm": "백옥동" }, "geometry": { "type": "MultiPolygon", "coordinates": [ [ [ [ 128.084099255222498, 36.131948063967208 ], [ 128.089409509970295, 36.127927036486895 ], [ 128.088760577012664, 36.126892872220346 ], [ 128.081705654661988, 36.123717479684082 ], [ 128.082048978965332, 36.117671587197655 ], [ 128.085748980712168, 36.115634297707039 ], [ 128.086594785535425, 36.112509976749287 ], [ 128.094432840807286, 36.106030859665722 ], [ 128.078099670703011, 36.09713290130091 ], [ 128.069465852546045, 36.097501922572285 ], [ 128.064576288363384, 36.095921654055033 ], [ 128.064535760418778, 36.101220252571942 ], [ 128.059048200868801, 36.105758646593237 ], [ 128.0666351084067, 36.1213955240543 ], [ 128.068754692944651, 36.123531604408207 ], [ 128.07539853650556, 36.120933790092728 ], [ 128.080063622889014, 36.126431955796967 ], [ 128.080843058587647, 36.131506036801902 ], [ 128.084099255222498, 36.131948063967208 ] ] ] ] } },
{ "type": "Feature", "properties": { "emd_cd": "47150114", "emd_nm": "부곡동" }, "geometry": { "type": "MultiPolygon", "coordinates": [ [ [ [ 128.089409509970295, 36.127927036486895 ], [ 128.103141430788412, 36.130526832971469 ], [ 128.107793251053721, 36.122835736500136 ], [ 128.109467652687442, 36.122729368950651 ], [ 128.108757358809072, 36.120141234973566 ], [ 128.110249264947697, 36.118452444764131 ], [ 128.108131605457714, 36.114852142357286 ], [ 128.109611989925639, 36.108187184594911 ], [ 128.105759806945144, 36.106004019746372 ], [ 128.101973242951146, 36.105426474837948 ], [ 128.097665555950442, 36.107174938481421 ], [ 128.094872387155334, 36.105909301177405 ], [ 128.082048978965332, 36.117671587197655 ], [ 128.081703306010581, 36.123711234540615 ], [ 128.089409509970295, 36.127927036486895 ] ] ] ] } },
{ "type": "Feature", "properties": { "emd_cd": "47150115", "emd_nm": "지좌동" }, "geometry": { "type": "MultiPolygon", "coordinates": [ [ [ [ 128.144126263009554, 36.132460601544871 ], [ 128.14298735508072, 36.128067540508297 ], [ 128.148308148402606, 36.127454832194928 ], [ 128.146171221041413, 36.125944025229437 ], [ 128.147542386799671, 36.119239637534257 ], [ 128.144082142895201, 36.113194872448425 ], [ 128.143108310484592, 36.104898696637733 ], [ 128.139795674137815, 36.101860775118666 ], [ 128.134926978399307, 36.100587026772082 ], [ 128.13236729782858, 36.101894170508416 ], [ 128.125069008535462, 36.100815017959427 ], [ 128.124676171006143, 36.109880147864395 ], [ 128.123095386365605, 36.110073073603488 ], [ 128.129638147693839, 36.118890881174416 ], [ 128.13037113468377, 36.126740269915786 ], [ 128.131519135653235, 36.125901244770127 ], [ 128.144126263009554, 36.132460601544871 ] ] ] ] } },
{ "type": "Feature", "properties": { "emd_cd": "47150116", "emd_nm": "덕곡동" }, "geometry": { "type": "MultiPolygon", "coordinates": [ [ [ [ 128.145251288985008, 36.103047880952083 ], [ 128.142627110321115, 36.106156667544731 ], [ 128.14456135013296, 36.110001931652022 ], [ 128.144082142895201, 36.113194872448425 ], [ 128.147542386799671, 36.119239637534257 ], [ 128.146171221041413, 36.125944025229437 ], [ 128.148308148402606, 36.127454832194928 ], [ 128.14298735508072, 36.128067540508297 ], [ 128.144126263009554, 36.132460601544871 ], [ 128.154750626243839, 36.137345002238462 ], [ 128.164920806188007, 36.139624143845964 ], [ 128.160184330687684, 36.135223654673275 ], [ 128.158908217657455, 36.132983926968329 ], [ 128.160070147149128, 36.13042705244618 ], [ 128.156431964853994, 36.12713037970925 ], [ 128.158198891278374, 36.124270340727122 ], [ 128.157541355280557, 36.119495207521162 ], [ 128.163288897666746, 36.121420043466301 ], [ 128.162573516073991, 36.119001783379943 ], [ 128.160373039696111, 36.118176283364477 ], [ 128.16442450285362, 36.11191948832451 ], [ 128.159819164286517, 36.113397658521642 ], [ 128.158074543338302, 36.111812693630213 ], [ 128.15901585051671, 36.109476830246976 ], [ 128.156615073483437, 36.106030523388995 ], [ 128.157675097701002, 36.10492731321964 ], [ 128.155544921229222, 36.098968183452257 ], [ 128.145652475339347, 36.099236945328549 ], [ 128.145251288985008, 36.103047880952083 ] ] ] ] } },
{ "type": "Feature", "properties": { "emd_cd": "47150117", "emd_nm": "대광동" }, "geometry": { "type": "MultiPolygon", "coordinates": [ [ [ [ 128.131006109083444, 36.150594750200725 ], [ 128.135794398975094, 36.155988088024351 ], [ 128.140594017252539, 36.156934333232876 ], [ 128.143992699325679, 36.157561098474062 ], [ 128.149196882441544, 36.154905578951926 ], [ 128.150348723223146, 36.153809544100731 ], [ 128.148599644467708, 36.149410984135976 ], [ 128.156116144763217, 36.141524735872565 ], [ 128.154750626243839, 36.137345002238462 ], [ 128.139627500614665, 36.131030149973576 ], [ 128.136739887152231, 36.135589117627788 ], [ 128.137097223412354, 36.138608842917883 ], [ 128.133882175673222, 36.139449860899909 ], [ 128.135850116177835, 36.14259202505788 ], [ 128.129838561902062, 36.147352387492823 ], [ 128.132547855185834, 36.148989565317727 ], [ 128.131006109083444, 36.150594750200725 ] ] ] ] } },
{ "type": "Feature", "properties": { "emd_cd": "47150118", "emd_nm": "응명동" }, "geometry": { "type": "MultiPolygon", "coordinates": [ [ [ [ 128.112740529585409, 36.155470350802339 ], [ 128.122590723149528, 36.155430339307991 ], [ 128.123557556170596, 36.159760983642215 ], [ 128.12622385199893, 36.157414024388139 ], [ 128.135425661114169, 36.157032485672786 ], [ 128.131006109083444, 36.150594750200725 ], [ 128.132547855185834, 36.148989565317727 ], [ 128.129838561902062, 36.147352387492823 ], [ 128.135850116177835, 36.14259202505788 ], [ 128.134146885111477, 36.139098499289616 ], [ 128.130998178615187, 36.140446614503418 ], [ 128.122333669093933, 36.13927585778606 ], [ 128.123955904165399, 36.142780408634472 ], [ 128.12150954701201, 36.144460307191039 ], [ 128.121489414026769, 36.146740326537888 ], [ 128.119024960575331, 36.1470233020409 ], [ 128.117942200421709, 36.149384430406037 ], [ 128.113685659832356, 36.147723830226958 ], [ 128.110024540338742, 36.148904619848459 ], [ 128.110488441618713, 36.153035313225558 ], [ 128.112740529585409, 36.155470350802339 ] ] ] ] } },
{ "type": "Feature", "properties": { "emd_cd": "47150119", "emd_nm": "양천동" }, "geometry": { "type": "MultiPolygon", "coordinates": [ [ [ [ 128.084979112128167, 36.101402514833886 ], [ 128.097665555950442, 36.107174938481421 ], [ 128.101973242951146, 36.105426474837948 ], [ 128.111367472594935, 36.108842553866694 ], [ 128.116173046923933, 36.10765708866704 ], [ 128.124676171006143, 36.109880147864395 ], [ 128.125191936191072, 36.095786526065602 ], [ 128.120617355384269, 36.085135192379809 ], [ 128.120199904309032, 36.077919632117514 ], [ 128.118200820771307, 36.077731006105559 ], [ 128.114614571331032, 36.083892692069952 ], [ 128.106686831138006, 36.080349300338526 ], [ 128.103515764208055, 36.082120764714581 ], [ 128.101350168191857, 36.081544273075259 ], [ 128.099462707183761, 36.082580986020687 ], [ 128.10037599035752, 36.084628265373389 ], [ 128.099125239919886, 36.08858577036677 ], [ 128.091091833913111, 36.088879473559928 ], [ 128.087236600255579, 36.091637237181764 ], [ 128.084834462971259, 36.097457882388639 ], [ 128.084979112128167, 36.101402514833886 ] ] ] ] } },
{ "type": "Feature", "properties": { "emd_cd": "47150120", "emd_nm": "율곡동" }, "geometry": { "type": "MultiPolygon", "coordinates": [ [ [ [ 128.187111394897101, 36.112950421695153 ], [ 128.17312628328591, 36.116306496390841 ], [ 128.170909464306249, 36.123774599647277 ], [ 128.174272223302438, 36.12478057759099 ], [ 128.178119957878437, 36.133357833220799 ], [ 128.179936645669727, 36.131274820827663 ], [ 128.186661618849058, 36.132541232351514 ], [ 128.190455270358484, 36.135076287464159 ], [ 128.194237595594501, 36.134990127237494 ], [ 128.199089009283, 36.130284729235612 ], [ 128.205311717203216, 36.129118540395069 ], [ 128.203901345241036, 36.126561516596944 ], [ 128.200222183753681, 36.125304390456357 ], [ 128.200286881740652, 36.12400966208385 ], [ 128.193144010912988, 36.118975598522283 ], [ 128.184981599713581, 36.117244426203904 ], [ 128.187111394897101, 36.112950421695153 ] ] ] ] } },
{ "type": "Feature", "properties": { "emd_cd": "47150250", "emd_nm": "아포읍" }, "geometry": { "type": "MultiPolygon", "coordinates": [ [ [ [ 128.182287860477828, 36.148247466971476 ], [ 128.186783712208097, 36.152168247694604 ], [ 128.187449362869927, 36.156853514166642 ], [ 128.185538676239844, 36.156764667724794 ], [ 128.19371629522476, 36.163473313557965 ], [ 128.205986022459285, 36.164002212521773 ], [ 128.212720241988762, 36.167092838401004 ], [ 128.219580819988948, 36.180062225297995 ], [ 128.226757161822604, 36.187672712461598 ], [ 128.231916274392063, 36.189901367802804 ], [ 128.236842184241482, 36.194592501606422 ], [ 128.246680582588624, 36.198919922822377 ], [ 128.259286796332418, 36.201614998214197 ], [ 128.259542386243936, 36.201106130417976 ], [ 128.258240060099013, 36.200710212207262 ], [ 128.258656794575586, 36.200655989115873 ], [ 128.258026701028854, 36.200225713338305 ], [ 128.258072681014283, 36.200115929433991 ], [ 128.257931464386729, 36.199891083313474 ], [ 128.257967900052677, 36.199737082587482 ], [ 128.259684328672563, 36.200968373454721 ], [ 128.262355120093417, 36.197413204929369 ], [ 128.271315873484895, 36.195503970133252 ], [ 128.269686472938844, 36.190578453325024 ], [ 128.271693814760653, 36.187777466540531 ], [ 128.270115278038929, 36.187340936373623 ], [ 128.271707390451041, 36.187728137738901 ], [ 128.272928701233639, 36.18577304596937 ], [ 128.271361405581899, 36.185192511358693 ], [ 128.273231919756853, 36.181634617056623 ], [ 128.272765978347451, 36.175899022592318 ], [ 128.270705657881621, 36.174066821675439 ], [ 128.278456782276464, 36.170977205023718 ], [ 128.281011640355757, 36.172717077174667 ], [ 128.292386155023536, 36.170956493482656 ], [ 128.295153541991027, 36.168207205272992 ], [ 128.295667484586858, 36.166447253580266 ], [ 128.292386250872596, 36.162630411837902 ], [ 128.290914676264435, 36.155997751153905 ], [ 128.287538029320558, 36.154994116813512 ], [ 128.285245697076391, 36.149289733693088 ], [ 128.287028700023853, 36.147572705098924 ], [ 128.28702016876835, 36.142884474854583 ], [ 128.284222464722887, 36.140350572166909 ], [ 128.296129911432672, 36.132433330284698 ], [ 128.276647820740322, 36.112265154053169 ], [ 128.274855875310209, 36.104117279360295 ], [ 128.279444254935726, 36.102044971569619 ], [ 128.269551317094596, 36.097588169406002 ], [ 128.263165196159633, 36.10451663276595 ], [ 128.262315854052986, 36.111330421582778 ], [ 128.259082108888578, 36.112245410631942 ], [ 128.258061206715894, 36.114867051862369 ], [ 128.254770180308185, 36.116349648765421 ], [ 128.256374502364736, 36.122249559238462 ], [ 128.24968709320774, 36.132282091700738 ], [ 128.238120126767967, 36.135013690257686 ], [ 128.226889892395008, 36.141291512069479 ], [ 128.222879045128195, 36.141484952834332 ], [ 128.221086586991078, 36.146793299635561 ], [ 128.217816862279193, 36.146804869583264 ], [ 128.21625574992953, 36.149150617074305 ], [ 128.200700074232543, 36.139886929672713 ], [ 128.190898381557332, 36.145426059703468 ], [ 128.183434171593206, 36.145931065826531 ], [ 128.182287860477828, 36.148247466971476 ] ] ] ] } },
{ "type": "Feature", "properties": { "emd_cd": "47150310", "emd_nm": "농소면" }, "geometry": { "type": "MultiPolygon", "coordinates": [ [ [ [ 128.1598223319113, 36.113327704061881 ], [ 128.16442450285362, 36.11191948832451 ], [ 128.160373039696111, 36.118176283364477 ], [ 128.162573516073991, 36.119001783379943 ], [ 128.163288897666746, 36.121420043466301 ], [ 128.161712485942701, 36.120465098372485 ], [ 128.157992595479556, 36.119367867533335 ], [ 128.157429219533327, 36.119594520601623 ], [ 128.158198891278374, 36.124270340727122 ], [ 128.156899633898348, 36.128448668932208 ], [ 128.160070147149128, 36.13042705244618 ], [ 128.158908217657455, 36.132983926968329 ], [ 128.161149019245244, 36.136391116508086 ], [ 128.167324553129163, 36.141714428126377 ], [ 128.171449790439596, 36.142889034043563 ], [ 128.172058005907274, 36.138889620636689 ], [ 128.175279997056094, 36.136055360080938 ], [ 128.176307537643794, 36.132767948687842 ], [ 128.177580687254192, 36.132919396226782 ], [ 128.174272223302438, 36.12478057759099 ], [ 128.170909464306249, 36.123774599647277 ], [ 128.17312628328591, 36.116306496390841 ], [ 128.178432773843781, 36.114763711163576 ], [ 128.181150871679421, 36.107166446778571 ], [ 128.186290329586058, 36.106757879914866 ], [ 128.205173023766463, 36.098016759642739 ], [ 128.212151240410464, 36.097852771875218 ], [ 128.211267451974095, 36.095005539930796 ], [ 128.208692993371756, 36.093361775470534 ], [ 128.20814557296228, 36.087769778756417 ], [ 128.211188713726386, 36.086479475582152 ], [ 128.211259466559198, 36.083434581545966 ], [ 128.219303471470084, 36.079703090313878 ], [ 128.219150367615498, 36.076149021489925 ], [ 128.220698653522788, 36.074414168185847 ], [ 128.228276561691388, 36.072604862472524 ], [ 128.227745049027391, 36.068792868683779 ], [ 128.233106149327853, 36.063273867899227 ], [ 128.229226666819386, 36.059554712115983 ], [ 128.225164305345089, 36.058479521133464 ], [ 128.222656230146356, 36.054236329825173 ], [ 128.217077675209282, 36.050048582751344 ], [ 128.209017879580529, 36.045606467838766 ], [ 128.196573719097273, 36.046358386329352 ], [ 128.193593836473781, 36.044954787452021 ], [ 128.194114556961523, 36.039826292211359 ], [ 128.196178528963372, 36.037363679395817 ], [ 128.193824527990529, 36.03153748133191 ], [ 128.188548533819528, 36.031217107847709 ], [ 128.185283194157364, 36.033576722831008 ], [ 128.177624060209808, 36.031332966936795 ], [ 128.169877469623714, 36.034845430399564 ], [ 128.172567419035602, 36.04562427960208 ], [ 128.171145017230714, 36.049706586653357 ], [ 128.168422786670192, 36.055281880381401 ], [ 128.16515984889736, 36.057149607010309 ], [ 128.16512209458898, 36.060091421262051 ], [ 128.162644587951746, 36.060802839648595 ], [ 128.158777955466462, 36.065746694709603 ], [ 128.153171444537861, 36.067994282730631 ], [ 128.153517317603615, 36.073693132673874 ], [ 128.148809291222108, 36.076264944826811 ], [ 128.149332398928948, 36.083758659326449 ], [ 128.146146372877098, 36.092499129508468 ], [ 128.147637156750932, 36.098477438747629 ], [ 128.150216868154843, 36.099942253817247 ], [ 128.155544921229222, 36.098968183452257 ], [ 128.157675097701002, 36.10492731321964 ], [ 128.156615073483437, 36.106030523388995 ], [ 128.15901585051671, 36.109476830246976 ], [ 128.158074543338302, 36.111812693630213 ], [ 128.1598223319113, 36.113327704061881 ] ] ] ] } },
{ "type": "Feature", "properties": { "emd_cd": "47150320", "emd_nm": "남면" }, "geometry": { "type": "MultiPolygon", "coordinates": [ [ [ [ 128.171449790439596, 36.142889034043563 ], [ 128.182512225678238, 36.154581500454178 ], [ 128.186764340648949, 36.156988736282599 ], [ 128.186739916094922, 36.152082698381477 ], [ 128.182287860477828, 36.148247466971476 ], [ 128.183434171593206, 36.145931065826531 ], [ 128.190898381557332, 36.145426059703468 ], [ 128.200700074232543, 36.139886929672713 ], [ 128.21625574992953, 36.149150617074305 ], [ 128.217816862279193, 36.146804869583264 ], [ 128.221086586991078, 36.146793299635561 ], [ 128.222879045128195, 36.141484952834332 ], [ 128.226889892395008, 36.141291512069479 ], [ 128.238120126767967, 36.135013690257686 ], [ 128.24968709320774, 36.132282091700738 ], [ 128.256374502364736, 36.122249559238462 ], [ 128.254770180308185, 36.116349648765421 ], [ 128.258061206715894, 36.114867051862369 ], [ 128.259082108888578, 36.112245410631942 ], [ 128.262315854052986, 36.111330421582778 ], [ 128.263042673165984, 36.104803663549738 ], [ 128.267296736802024, 36.101204948938729 ], [ 128.267397503909592, 36.098474391890747 ], [ 128.269551317094596, 36.097588169406002 ], [ 128.27872721114025, 36.101376759553993 ], [ 128.27949701344329, 36.102948129311834 ], [ 128.291550249973966, 36.094825338781469 ], [ 128.289195215882671, 36.091124233304249 ], [ 128.292083819391621, 36.088007827660903 ], [ 128.28698084049006, 36.08449306631136 ], [ 128.284956731209775, 36.081076496842392 ], [ 128.290059907895738, 36.072132145951478 ], [ 128.2942130355693, 36.070178975959116 ], [ 128.300626892781253, 36.062806273782606 ], [ 128.299118684306848, 36.060371764358131 ], [ 128.30118933914278, 36.057377876256858 ], [ 128.299432535151254, 36.051174020642598 ], [ 128.293580165308157, 36.050017246548251 ], [ 128.288793036297761, 36.043101666951507 ], [ 128.283352261039909, 36.046792258371106 ], [ 128.261036494874787, 36.048493228398442 ], [ 128.256610940766194, 36.051821783846393 ], [ 128.249172145292647, 36.048175859248538 ], [ 128.241042368047431, 36.048628071184886 ], [ 128.22992864021279, 36.054030909509727 ], [ 128.22337971010964, 36.055044550282901 ], [ 128.225164305345089, 36.058479521133464 ], [ 128.229226666819386, 36.059554712115983 ], [ 128.233266144422828, 36.064455952434031 ], [ 128.228500567396168, 36.067408113120742 ], [ 128.228276561691388, 36.072604862472524 ], [ 128.220698653522788, 36.074414168185847 ], [ 128.219150367615498, 36.076149021489925 ], [ 128.219303471470084, 36.079703090313878 ], [ 128.211259466559198, 36.083434581545966 ], [ 128.211188713726386, 36.086479475582152 ], [ 128.20814557296228, 36.087769778756417 ], [ 128.208692993371756, 36.093361775470534 ], [ 128.211267451974095, 36.095005539930796 ], [ 128.212151240410464, 36.097852771875218 ], [ 128.205173023766463, 36.098016759642739 ], [ 128.186290329586058, 36.106757879914866 ], [ 128.181150871679421, 36.107166446778571 ], [ 128.178432773843781, 36.114763711163576 ], [ 128.187111394897101, 36.112950421695153 ], [ 128.184981599713581, 36.117244426203904 ], [ 128.193144010912988, 36.118975598522283 ], [ 128.200286881740652, 36.12400966208385 ], [ 128.200222183753681, 36.125304390456357 ], [ 128.203901345241036, 36.126561516596944 ], [ 128.205311717203216, 36.129118540395069 ], [ 128.199089009283, 36.130284729235612 ], [ 128.195439799693872, 36.134197001749584 ], [ 128.192281388117294, 36.135192778408403 ], [ 128.179748634498822, 36.131307091151513 ], [ 128.178543777887654, 36.133555553676189 ], [ 128.176244481369338, 36.132839103974291 ], [ 128.175279997056094, 36.136055360080938 ], [ 128.172058005907274, 36.138889620636689 ], [ 128.171449790439596, 36.142889034043563 ] ] ] ] } },
{ "type": "Feature", "properties": { "emd_cd": "47150340", "emd_nm": "개령면" }, "geometry": { "type": "MultiPolygon", "coordinates": [ [ [ [ 128.146455149388487, 36.156367591579446 ], [ 128.145890312856267, 36.159999729104037 ], [ 128.15196207455628, 36.166269027995511 ], [ 128.151470106619968, 36.17120558281691 ], [ 128.157348678895659, 36.172854701108825 ], [ 128.160025737005896, 36.176268683822961 ], [ 128.156797554654077, 36.184991725480828 ], [ 128.168120844895242, 36.190017584122153 ], [ 128.164716236662429, 36.193796076682929 ], [ 128.164728495699364, 36.197194525710174 ], [ 128.16193323837129, 36.19896649409614 ], [ 128.163548821622641, 36.201858778339549 ], [ 128.170014727534891, 36.204466108111149 ], [ 128.170542804282775, 36.205948403254347 ], [ 128.173504561603522, 36.205466888057643 ], [ 128.179923522504936, 36.197133849982798 ], [ 128.18895470528841, 36.198963456774891 ], [ 128.200220350923217, 36.192290039132196 ], [ 128.204159625682365, 36.193749665902374 ], [ 128.209553669447786, 36.192000970840283 ], [ 128.212984271692392, 36.192804826078934 ], [ 128.218788945617945, 36.197089950951032 ], [ 128.22721643892578, 36.18781029228203 ], [ 128.220514960747408, 36.181404395922335 ], [ 128.212720241988762, 36.167092838401004 ], [ 128.205986022459285, 36.164002212521773 ], [ 128.19371629522476, 36.163473313557965 ], [ 128.182512225678238, 36.154581500454178 ], [ 128.171449790439596, 36.142889034043563 ], [ 128.165121337176998, 36.139675027942538 ], [ 128.154750626243839, 36.137345002238462 ], [ 128.156116144763217, 36.141524735872565 ], [ 128.149583954691906, 36.147814357749596 ], [ 128.148406226827888, 36.15054373509566 ], [ 128.150348723223146, 36.153809544100731 ], [ 128.146455149388487, 36.156367591579446 ] ] ] ] } },
{ "type": "Feature", "properties": { "emd_cd": "47150350", "emd_nm": "감문면" }, "geometry": { "type": "MultiPolygon", "coordinates": [ [ [ [ 128.22721643892578, 36.18781029228203 ], [ 128.218788945617945, 36.197089950951032 ], [ 128.212984271692392, 36.192804826078934 ], [ 128.209553669447786, 36.192000970840283 ], [ 128.204159625682365, 36.193749665902374 ], [ 128.200220350923217, 36.192290039132196 ], [ 128.18895470528841, 36.198963456774891 ], [ 128.179923522504936, 36.197133849982798 ], [ 128.174058149786418, 36.204940081377693 ], [ 128.170813578044772, 36.20596286313301 ], [ 128.164028039974738, 36.202240433677474 ], [ 128.16193323837129, 36.19896649409614 ], [ 128.164728495699364, 36.197194525710174 ], [ 128.164716236662429, 36.193796076682929 ], [ 128.167737901068506, 36.189529808602039 ], [ 128.158923209994782, 36.18687889513987 ], [ 128.159511487688007, 36.185708367717559 ], [ 128.158032535529628, 36.184993620097998 ], [ 128.156726176177727, 36.185022717724109 ], [ 128.155913868784552, 36.189156614948111 ], [ 128.149035373470724, 36.187011224397814 ], [ 128.146563948288332, 36.187927193446235 ], [ 128.145332737007777, 36.191432636993127 ], [ 128.141605572000969, 36.192319859462629 ], [ 128.135096531972778, 36.199669362569168 ], [ 128.134831118192409, 36.202875295611143 ], [ 128.13136817357406, 36.205768712840275 ], [ 128.121764587954488, 36.208527778627563 ], [ 128.117696524138836, 36.211504630242196 ], [ 128.119322770898805, 36.216936440232601 ], [ 128.108550719839712, 36.2343836560499 ], [ 128.108752529265615, 36.237118720332283 ], [ 128.119193812085911, 36.243069694822942 ], [ 128.12136562861474, 36.246215578484403 ], [ 128.119550807145799, 36.250164939359543 ], [ 128.120615251314405, 36.253102761263932 ], [ 128.131170609626508, 36.25117321364089 ], [ 128.131547434723643, 36.253007685308056 ], [ 128.135060589465013, 36.253878252609823 ], [ 128.136794748902872, 36.256962993476492 ], [ 128.141069208463477, 36.258358656109614 ], [ 128.151279588002751, 36.256517340719526 ], [ 128.159558947692517, 36.257794979808629 ], [ 128.167555911678534, 36.253570936485247 ], [ 128.169341461070019, 36.247910983337334 ], [ 128.173178008426277, 36.245383308965692 ], [ 128.186714394075494, 36.243025278913372 ], [ 128.196815500891176, 36.244791355901157 ], [ 128.201700668408762, 36.24008340082311 ], [ 128.214101430575028, 36.236451317229943 ], [ 128.218275278345942, 36.230030202057215 ], [ 128.225974939002299, 36.231403501459873 ], [ 128.230018418760523, 36.226784944431266 ], [ 128.232955826377861, 36.226933812753181 ], [ 128.236416571695315, 36.224739346720497 ], [ 128.233443817878509, 36.218313354199296 ], [ 128.233385590326208, 36.214427501556031 ], [ 128.235375237350098, 36.213218230424154 ], [ 128.236722846972611, 36.209222051079564 ], [ 128.23498095876306, 36.207963577782351 ], [ 128.236254736188613, 36.206826987498182 ], [ 128.234778437264737, 36.20195342409702 ], [ 128.233399614825231, 36.201957002179924 ], [ 128.237625844014445, 36.199889756811793 ], [ 128.240126928384456, 36.200799178263566 ], [ 128.242814126289488, 36.197115002113449 ], [ 128.22721643892578, 36.18781029228203 ] ] ] ] } },
{ "type": "Feature", "properties": { "emd_cd": "47150360", "emd_nm": "어모면" }, "geometry": { "type": "MultiPolygon", "coordinates": [ [ [ [ 128.102985189930479, 36.158397208134808 ], [ 128.094950138928567, 36.164014439345735 ], [ 128.092495513738697, 36.169862534643052 ], [ 128.082225286645894, 36.172162258712355 ], [ 128.07722698528255, 36.182420504103682 ], [ 128.063178177563287, 36.187283601602054 ], [ 128.059795687461389, 36.191008670102711 ], [ 128.063223174061562, 36.199240247345642 ], [ 128.050825875509787, 36.206000709012052 ], [ 128.049306798037463, 36.210734675511468 ], [ 128.050125148726067, 36.216382099086914 ], [ 128.042259051446223, 36.217450006057859 ], [ 128.039002057436875, 36.222182418883385 ], [ 128.04045295047942, 36.22470681762433 ], [ 128.03933830444069, 36.228703648173763 ], [ 128.033125034017388, 36.233714884058358 ], [ 128.029901783183476, 36.240012954404079 ], [ 128.035654841243741, 36.243466839511839 ], [ 128.035492365185348, 36.246127378057686 ], [ 128.040261967632318, 36.252024968997631 ], [ 128.046453813027313, 36.251727799299452 ], [ 128.04729573926798, 36.247407724674289 ], [ 128.050432757433327, 36.244254013093624 ], [ 128.05730163271167, 36.243601682098195 ], [ 128.060938442557557, 36.246676554670294 ], [ 128.066584559033345, 36.242976198488748 ], [ 128.077181510113917, 36.241380496937687 ], [ 128.079661086099975, 36.242521531228775 ], [ 128.083531125883525, 36.248020826598875 ], [ 128.087749004080337, 36.249152130645633 ], [ 128.091383446163832, 36.25373090567215 ], [ 128.092629508679664, 36.25213656594326 ], [ 128.096618905974196, 36.252271460280362 ], [ 128.102519782381535, 36.243102223803994 ], [ 128.108291640498237, 36.23975747807863 ], [ 128.108550719839712, 36.2343836560499 ], [ 128.119322770898805, 36.216936440232601 ], [ 128.117696524138836, 36.211504630242196 ], [ 128.121764587954488, 36.208527778627563 ], [ 128.13136817357406, 36.205768712840275 ], [ 128.134831118192409, 36.202875295611143 ], [ 128.135096531972778, 36.199669362569168 ], [ 128.141605572000969, 36.192319859462629 ], [ 128.145332737007777, 36.191432636993127 ], [ 128.146563948288332, 36.187927193446235 ], [ 128.149035373470724, 36.187011224397814 ], [ 128.155913868784552, 36.189156614948111 ], [ 128.160025737005896, 36.176268683822961 ], [ 128.157348678895659, 36.172854701108825 ], [ 128.151470106619968, 36.17120558281691 ], [ 128.15196207455628, 36.166269027995511 ], [ 128.145890312856267, 36.159999729104037 ], [ 128.146455149388487, 36.156367591579446 ], [ 128.143992699325679, 36.157561098474062 ], [ 128.136557067341784, 36.155829080763986 ], [ 128.135186864297566, 36.157244552657787 ], [ 128.12622385199893, 36.157414024388139 ], [ 128.123557556170596, 36.159760983642215 ], [ 128.122103431145291, 36.15496410018612 ], [ 128.113184581957626, 36.155678833237531 ], [ 128.110488441618713, 36.153035313225558 ], [ 128.107247817096919, 36.156346041586893 ], [ 128.106537075561135, 36.159692365608606 ], [ 128.102985189930479, 36.158397208134808 ] ] ] ] } },
{ "type": "Feature", "properties": { "emd_cd": "47150370", "emd_nm": "봉산면" }, "geometry": { "type": "MultiPolygon", "coordinates": [ [ [ [ 128.071201331658159, 36.134781892065199 ], [ 128.07697478956581, 36.134046737377069 ], [ 128.067120339851385, 36.129064555553427 ], [ 128.059587460582463, 36.131602627078458 ], [ 128.04412094717614, 36.132897558224315 ], [ 128.034753959573095, 36.130686230651015 ], [ 128.033777519909279, 36.131424910464531 ], [ 128.035208565547094, 36.134447628069644 ], [ 128.03197127738548, 36.135448466707373 ], [ 128.030402274661668, 36.133624273537485 ], [ 128.019599134049571, 36.137075842439408 ], [ 128.019212742282974, 36.14191546121593 ], [ 128.01620071501813, 36.144683135066153 ], [ 128.008258703392812, 36.144161355425055 ], [ 128.0016068688019, 36.147766516114693 ], [ 127.996149685167936, 36.154265001395089 ], [ 127.996693388504966, 36.15620182754283 ], [ 127.990440283155891, 36.158867999148271 ], [ 127.990153327253196, 36.165577960608609 ], [ 127.982924103526813, 36.169790699590202 ], [ 127.984099310135889, 36.178223538938916 ], [ 127.981304069838359, 36.179180022108199 ], [ 127.980158045482682, 36.182698036959295 ], [ 127.97530857988427, 36.187764407693955 ], [ 127.976239609590706, 36.192107068457467 ], [ 127.981538579766521, 36.196015652406622 ], [ 127.980042290585317, 36.197764010396767 ], [ 127.985163947866297, 36.200225054829659 ], [ 127.993059801309954, 36.20007798688507 ], [ 127.994752783201122, 36.204207588743813 ], [ 127.998454555328053, 36.207301613222391 ], [ 128.006366556542815, 36.207365714372898 ], [ 128.009747316492536, 36.209407165199963 ], [ 128.024069358352676, 36.206649597275174 ], [ 128.03622865266135, 36.197784042699787 ], [ 128.038571552752273, 36.194158290655643 ], [ 128.052173159640972, 36.20066060540006 ], [ 128.060850730951387, 36.201046963824908 ], [ 128.063223174061562, 36.199240247345642 ], [ 128.059795687461389, 36.191008670102711 ], [ 128.063178177563287, 36.187283601602054 ], [ 128.07722698528255, 36.182420504103682 ], [ 128.08020077126244, 36.174783474227596 ], [ 128.082649826601738, 36.172501715716265 ], [ 128.078907587077111, 36.166665170997589 ], [ 128.079501366010163, 36.162357703047341 ], [ 128.077510487912548, 36.155230292672293 ], [ 128.068132804455075, 36.145649717112377 ], [ 128.069525186731852, 36.14259698851405 ], [ 128.067295165070561, 36.137101248271811 ], [ 128.071201331658159, 36.134781892065199 ] ] ] ] } },
{ "type": "Feature", "properties": { "emd_cd": "47150380", "emd_nm": "대항면" }, "geometry": { "type": "MultiPolygon", "coordinates": [ [ [ [ 127.961288207543973, 36.067374711226691 ], [ 127.961694028354728, 36.082979374560537 ], [ 127.957553047484794, 36.091595370302954 ], [ 127.958004132253038, 36.094250643325779 ], [ 127.962634702037491, 36.096329562184366 ], [ 127.962968079318131, 36.099718760579727 ], [ 127.968030474204923, 36.106980195059641 ], [ 127.965149342202224, 36.112827577732354 ], [ 127.966744254996343, 36.11805920122039 ], [ 127.970108371344793, 36.121881250691651 ], [ 127.976012526477305, 36.122599746131279 ], [ 127.978549282143817, 36.125208184521071 ], [ 127.987759061566962, 36.128779006989419 ], [ 127.988817208615103, 36.132836864943549 ], [ 127.987241880378335, 36.140882727327465 ], [ 127.98915997867681, 36.1439404626501 ], [ 127.987471136375603, 36.14735662297813 ], [ 127.990770666974981, 36.151423759421995 ], [ 127.996149685167936, 36.154265001395089 ], [ 128.0016068688019, 36.147766516114693 ], [ 128.008258703392812, 36.144161355425055 ], [ 128.01620071501813, 36.144683135066153 ], [ 128.019212742282974, 36.14191546121593 ], [ 128.019599134049571, 36.137075842439408 ], [ 128.030402274661668, 36.133624273537485 ], [ 128.03197127738548, 36.135448466707373 ], [ 128.035208565547094, 36.134447628069644 ], [ 128.033777519909279, 36.131424910464531 ], [ 128.034753959573095, 36.130686230651015 ], [ 128.04412094717614, 36.132897558224315 ], [ 128.059587460582463, 36.131602627078458 ], [ 128.067155833759386, 36.129132798785804 ], [ 128.059242488400002, 36.123018968642889 ], [ 128.054860836828112, 36.113036679397062 ], [ 128.055229135343609, 36.11106437003864 ], [ 128.059694128170122, 36.108095559457333 ], [ 128.059022842915283, 36.10512125358634 ], [ 128.065074961691522, 36.100231570105016 ], [ 128.062428130691075, 36.091955126334064 ], [ 128.05842006700459, 36.087585764258584 ], [ 128.047374291407522, 36.08990257197901 ], [ 128.036577596664358, 36.085988807093543 ], [ 128.025418738976526, 36.071848400215607 ], [ 128.022943531505263, 36.061909472801325 ], [ 128.014217953968284, 36.054154070614736 ], [ 128.001354887101229, 36.053764896721653 ], [ 127.998792568020207, 36.056803971806822 ], [ 127.995476430386759, 36.056518579309355 ], [ 127.990273085369921, 36.059018857281238 ], [ 127.985304224070845, 36.054805550654422 ], [ 127.979767733211901, 36.054659039630742 ], [ 127.973836751229697, 36.060462528693513 ], [ 127.961288207543973, 36.067374711226691 ] ] ] ] } },
{ "type": "Feature", "properties": { "emd_cd": "47150390", "emd_nm": "감천면" }, "geometry": { "type": "MultiPolygon", "coordinates": [ [ [ [ 128.145251288985008, 36.103047880952083 ], [ 128.145171327707175, 36.099642617567881 ], [ 128.147678013888026, 36.098741857422958 ], [ 128.146137873145761, 36.092633885847441 ], [ 128.149332398928948, 36.083758659326449 ], [ 128.148809291222108, 36.076264944826811 ], [ 128.153517317603615, 36.073693132673874 ], [ 128.153171444537861, 36.067994282730631 ], [ 128.158777955466462, 36.065746694709603 ], [ 128.162644587951746, 36.060802839648595 ], [ 128.16512209458898, 36.060091421262051 ], [ 128.16515984889736, 36.057149607010309 ], [ 128.168422786670192, 36.055281880381401 ], [ 128.172567419035602, 36.04562427960208 ], [ 128.17050774354658, 36.036699138590542 ], [ 128.164316765009602, 36.032434482084831 ], [ 128.156888089859564, 36.035225834348999 ], [ 128.150198926165359, 36.033743700699979 ], [ 128.145090487169369, 36.027110842473171 ], [ 128.131530685018561, 36.027483008296414 ], [ 128.123537725561278, 36.036851364858848 ], [ 128.123064986784811, 36.044358278186394 ], [ 128.118399361103826, 36.045984265043018 ], [ 128.11354445211461, 36.05676265160286 ], [ 128.113272928605795, 36.063970133399813 ], [ 128.119781081209567, 36.074836765745999 ], [ 128.120617355384269, 36.085135192379809 ], [ 128.125105177341624, 36.095450859463504 ], [ 128.125069008535462, 36.100815017959427 ], [ 128.13236729782858, 36.101894170508416 ], [ 128.134926978399307, 36.100587026772082 ], [ 128.139795674137815, 36.101860775118666 ], [ 128.143108310484592, 36.104898696637733 ], [ 128.145251288985008, 36.103047880952083 ] ] ] ] } },
{ "type": "Feature", "properties": { "emd_cd": "47150400", "emd_nm": "조마면" }, "geometry": { "type": "MultiPolygon", "coordinates": [ [ [ [ 128.164539154819664, 36.032589642837607 ], [ 128.167184002952411, 36.02996824195889 ], [ 128.16807792382869, 36.019579238421798 ], [ 128.17097980185892, 36.018148181083731 ], [ 128.17336833092233, 36.014116963583717 ], [ 128.168968937167506, 36.011112892738261 ], [ 128.165573675376891, 36.001518698123569 ], [ 128.166213225552809, 35.999473773973278 ], [ 128.170753046100401, 35.996636763371789 ], [ 128.170563904212372, 35.993112664864739 ], [ 128.165999143096855, 35.98782318283768 ], [ 128.15770041195313, 35.987393974500328 ], [ 128.156567673867755, 35.977700875790887 ], [ 128.153734119990645, 35.977840681920433 ], [ 128.15088577057378, 35.975814163184737 ], [ 128.150078737114598, 35.972882321158892 ], [ 128.152892375863331, 35.968864750504984 ], [ 128.150952648348436, 35.966307231272864 ], [ 128.132490623628001, 35.958602970656159 ], [ 128.123454834659896, 35.962273594880116 ], [ 128.118218749346937, 35.959365551497662 ], [ 128.111924132896604, 35.964699756193042 ], [ 128.108874824347197, 35.963416742073363 ], [ 128.10077503010649, 35.968698393757286 ], [ 128.093988715749248, 35.96987580503869 ], [ 128.089056368441192, 35.968360187659783 ], [ 128.077674943800332, 35.977558174662306 ], [ 128.082747366583732, 35.983872591031641 ], [ 128.082817607878013, 35.989838726885765 ], [ 128.078091957559593, 35.990716555640283 ], [ 128.076907299538817, 35.997094372420456 ], [ 128.075253179125923, 35.998033415258867 ], [ 128.073747106424463, 36.018351230456666 ], [ 128.075434125619353, 36.020401396156593 ], [ 128.076138051112707, 36.029115647936806 ], [ 128.078367530605789, 36.03121383425264 ], [ 128.077277896336255, 36.032347182175421 ], [ 128.078437597257249, 36.034440118008682 ], [ 128.082063423148838, 36.036820224041328 ], [ 128.083117849836583, 36.040978087270673 ], [ 128.08804136553934, 36.039436150336471 ], [ 128.087750914563316, 36.047547856067496 ], [ 128.088232971344524, 36.045143966312729 ], [ 128.08971555497078, 36.045528872401064 ], [ 128.092342200008147, 36.056869732556081 ], [ 128.09632928368444, 36.057665359725107 ], [ 128.097163869185124, 36.06302761275473 ], [ 128.09258776746131, 36.06512863744431 ], [ 128.091693385694725, 36.069009744901507 ], [ 128.093852344995099, 36.071385903571453 ], [ 128.093882892808722, 36.074091303628755 ], [ 128.101528200845109, 36.076160264218224 ], [ 128.103360374769125, 36.07915462223152 ], [ 128.112670792820296, 36.083851274980184 ], [ 128.115643622057149, 36.083161675573677 ], [ 128.118200820771307, 36.077731006105559 ], [ 128.120199904309032, 36.077919632117514 ], [ 128.118133574136323, 36.071215528381558 ], [ 128.113272928605795, 36.063970133399813 ], [ 128.11354445211461, 36.05676265160286 ], [ 128.118399361103826, 36.045984265043018 ], [ 128.123064986784811, 36.044358278186394 ], [ 128.123537725561278, 36.036851364858848 ], [ 128.131056658405413, 36.027647352545088 ], [ 128.145090487169369, 36.027110842473171 ], [ 128.150198926165359, 36.033743700699979 ], [ 128.156888089859564, 36.035225834348999 ], [ 128.164539154819664, 36.032589642837607 ] ] ] ] } },
{ "type": "Feature", "properties": { "emd_cd": "47150410", "emd_nm": "구성면" }, "geometry": { "type": "MultiPolygon", "coordinates": [ [ [ [ 128.003700213687523, 35.99547201033279 ], [ 127.995598320750901, 36.00116583413957 ], [ 127.993651094516679, 36.00573011913194 ], [ 127.991354650212898, 36.0069423596318 ], [ 127.984108461899325, 36.008174846801509 ], [ 127.975117083036551, 36.014700192471921 ], [ 127.966300590742549, 36.015054653404434 ], [ 127.966440253470722, 36.020537509632113 ], [ 127.963643694433415, 36.029328912019217 ], [ 127.958115949484153, 36.034781042770923 ], [ 127.957902461397751, 36.037659407335525 ], [ 127.955300447700495, 36.037149467118688 ], [ 127.947258497979277, 36.042899872306826 ], [ 127.937754128147219, 36.043063542437686 ], [ 127.933886013586218, 36.045564350925574 ], [ 127.932710037932878, 36.050485601920386 ], [ 127.947165017645275, 36.057250829218539 ], [ 127.953458908992928, 36.066350568431318 ], [ 127.960896728357028, 36.070321154823723 ], [ 127.961288207543973, 36.067374711226691 ], [ 127.973836751229697, 36.060462528693513 ], [ 127.979767733211901, 36.054659039630742 ], [ 127.985304224070845, 36.054805550654422 ], [ 127.990273085369921, 36.059018857281238 ], [ 127.995476430386759, 36.056518579309355 ], [ 127.998792568020207, 36.056803971806822 ], [ 128.001354887101229, 36.053764896721653 ], [ 128.013647052250235, 36.053844192745693 ], [ 128.022943531505263, 36.061909472801325 ], [ 128.025418738976526, 36.071848400215607 ], [ 128.036443266767833, 36.085881729189737 ], [ 128.047374291407522, 36.08990257197901 ], [ 128.058613291471346, 36.087636542983283 ], [ 128.064576288363384, 36.095921654055033 ], [ 128.06726906941168, 36.097204820473891 ], [ 128.075312776582081, 36.096362452201852 ], [ 128.085053253929999, 36.10054512502149 ], [ 128.084834462971259, 36.097457882388639 ], [ 128.089252056785568, 36.089548514128836 ], [ 128.099125239919886, 36.08858577036677 ], [ 128.10037599035752, 36.084628265373389 ], [ 128.099462707183761, 36.082580986020687 ], [ 128.103515764208055, 36.082120764714581 ], [ 128.105489569978175, 36.080175718875338 ], [ 128.101528200845109, 36.076160264218224 ], [ 128.093628320743932, 36.073666018412268 ], [ 128.093852344995099, 36.071385903571453 ], [ 128.091693385694725, 36.069009744901507 ], [ 128.09258776746131, 36.06512863744431 ], [ 128.097163869185124, 36.06302761275473 ], [ 128.09632928368444, 36.057665359725107 ], [ 128.092342200008147, 36.056869732556081 ], [ 128.08971555497078, 36.045528872401064 ], [ 128.088232971344524, 36.045143966312729 ], [ 128.087750914563316, 36.047547856067496 ], [ 128.08804136553934, 36.039436150336471 ], [ 128.083117849836583, 36.040978087270673 ], [ 128.082063423148838, 36.036820224041328 ], [ 128.078437597257249, 36.034440118008682 ], [ 128.077277896336255, 36.032347182175421 ], [ 128.078367530605789, 36.03121383425264 ], [ 128.076138051112707, 36.029115647936806 ], [ 128.075434125619353, 36.020401396156593 ], [ 128.073747106424463, 36.018351230456666 ], [ 128.074088301744723, 36.002309373239598 ], [ 128.078091957559593, 35.990716555640283 ], [ 128.082729487809218, 35.990217085091189 ], [ 128.08250315299847, 35.9858364598268 ], [ 128.069236598407912, 35.985431526380424 ], [ 128.065574477626939, 35.989131519637027 ], [ 128.066213547758309, 35.991380084326003 ], [ 128.064782510720676, 35.992654623057682 ], [ 128.060439466297396, 35.992442703428843 ], [ 128.055850805601182, 35.994478450931659 ], [ 128.05384617832749, 35.997231891659773 ], [ 128.055579083336909, 36.003412121862951 ], [ 128.053622745303556, 36.006504068991759 ], [ 128.045156916630873, 36.002109347485792 ], [ 128.039642301193993, 36.003982020614252 ], [ 128.03616816996626, 36.001727593268896 ], [ 128.031978583849252, 36.00456558372251 ], [ 128.029088332434583, 36.00284205402987 ], [ 128.019101673103137, 36.001808516192732 ], [ 128.016476959074254, 35.997179783269054 ], [ 128.010943431980905, 35.998253061001847 ], [ 128.003700213687523, 35.99547201033279 ] ] ] ] } },
{ "type": "Feature", "properties": { "emd_cd": "47150420", "emd_nm": "지례면" }, "geometry": { "type": "MultiPolygon", "coordinates": [ [ [ [ 128.003700213687523, 35.99547201033279 ], [ 128.010943431980905, 35.998253061001847 ], [ 128.016476959074254, 35.997179783269054 ], [ 128.019101673103137, 36.001808516192732 ], [ 128.029088332434583, 36.00284205402987 ], [ 128.031978583849252, 36.00456558372251 ], [ 128.03616816996626, 36.001727593268896 ], [ 128.039642301193993, 36.003982020614252 ], [ 128.045156916630873, 36.002109347485792 ], [ 128.054202256329233, 36.00642979292855 ], [ 128.055579083336909, 36.003412121862951 ], [ 128.05384617832749, 35.997231891659773 ], [ 128.055850805601182, 35.994478450931659 ], [ 128.060439466297396, 35.992442703428843 ], [ 128.064782510720676, 35.992654623057682 ], [ 128.066213547758309, 35.991380084326003 ], [ 128.065574477626939, 35.989131519637027 ], [ 128.069236598407912, 35.985431526380424 ], [ 128.08250315299847, 35.9858364598268 ], [ 128.082747366583732, 35.983872591031641 ], [ 128.077408985007224, 35.978173319092498 ], [ 128.087687597710641, 35.969210028262971 ], [ 128.091260702857426, 35.968468011818736 ], [ 128.095656409108244, 35.969891955926606 ], [ 128.107265284633939, 35.96514374101141 ], [ 128.108874824347197, 35.963416742073363 ], [ 128.106790851921915, 35.959572774575975 ], [ 128.100109169341948, 35.955566357887982 ], [ 128.095757856720411, 35.95503043308986 ], [ 128.088663098106224, 35.946639936587928 ], [ 128.090684877452361, 35.937328934130946 ], [ 128.089325647283829, 35.935083182193601 ], [ 128.09127434366394, 35.931089216555755 ], [ 128.090641292594341, 35.92759620947038 ], [ 128.088688011176203, 35.926059422499989 ], [ 128.088470149232194, 35.921400182591341 ], [ 128.084800863332646, 35.920850607699414 ], [ 128.0789095569761, 35.927597743124174 ], [ 128.07523390905726, 35.926830284685501 ], [ 128.073951291345139, 35.927933448188796 ], [ 128.071133875000641, 35.933430146125495 ], [ 128.07172924400129, 35.935996304759612 ], [ 128.065989670309875, 35.936956210482634 ], [ 128.056145814575473, 35.941783491486838 ], [ 128.051356391028492, 35.938567295306342 ], [ 128.031129627814408, 35.940496139127411 ], [ 128.027705524728901, 35.936274638356387 ], [ 128.020784281041784, 35.936849556249733 ], [ 128.011602550260932, 35.931701173981594 ], [ 128.003332533235664, 35.930838573964039 ], [ 128.002054852714451, 35.935460592306036 ], [ 128.009596865512918, 35.944057750000411 ], [ 128.00723472064027, 35.951188304212138 ], [ 128.008163464274219, 35.954409260390761 ], [ 128.00685654653347, 35.955463691373119 ], [ 128.005512875341878, 35.95351931050422 ], [ 128.002762898355058, 35.95484961697921 ], [ 128.00062614238783, 35.953981443481645 ], [ 127.993448007396822, 35.957349735408066 ], [ 127.994956799309151, 35.960252860135114 ], [ 127.994383389934683, 35.965736739509069 ], [ 128.000526959611108, 35.967673024727823 ], [ 128.004067506349401, 35.966455662856546 ], [ 128.001504367316585, 35.971534598176106 ], [ 128.002555054514886, 35.97417275887107 ], [ 128.006205448271459, 35.972728007219651 ], [ 128.009558623837364, 35.975214714412537 ], [ 128.008492643227044, 35.977522215850762 ], [ 128.004870792543244, 35.977822464488419 ], [ 128.003803082751659, 35.979303103163268 ], [ 128.00295393861623, 35.982426785769356 ], [ 128.007243239299015, 35.984128622274255 ], [ 128.003700213687523, 35.99547201033279 ] ] ] ] } },
{ "type": "Feature", "properties": { "emd_cd": "47150430", "emd_nm": "부항면" }, "geometry": { "type": "MultiPolygon", "coordinates": [ [ [ [ 127.932710037932878, 36.050485601920386 ], [ 127.933886013586218, 36.045564350925574 ], [ 127.937754128147219, 36.043063542437686 ], [ 127.947258497979277, 36.042899872306826 ], [ 127.955300447700495, 36.037149467118688 ], [ 127.957902461397751, 36.037659407335525 ], [ 127.958115949484153, 36.034781042770923 ], [ 127.963643694433415, 36.029328912019217 ], [ 127.966440253470722, 36.020537509632113 ], [ 127.966300590742549, 36.015054653404434 ], [ 127.975117083036551, 36.014700192471921 ], [ 127.984108461899325, 36.008174846801509 ], [ 127.991354650212898, 36.0069423596318 ], [ 127.993651094516679, 36.00573011913194 ], [ 127.995598320750901, 36.00116583413957 ], [ 128.003700213687523, 35.99547201033279 ], [ 128.007243239299015, 35.984128622274255 ], [ 128.00295393861623, 35.982426785769356 ], [ 128.003803082751659, 35.979303103163268 ], [ 128.004870792543244, 35.977822464488419 ], [ 128.008492643227044, 35.977522215850762 ], [ 128.009558623837364, 35.975214714412537 ], [ 128.006205448271459, 35.972728007219651 ], [ 128.002555054514886, 35.97417275887107 ], [ 128.001504367316585, 35.971534598176106 ], [ 128.00446571688326, 35.96731869867169 ], [ 128.00424491784409, 35.966589044551412 ], [ 128.000526959611108, 35.967673024727823 ], [ 127.994231873362139, 35.965219095098846 ], [ 127.989891528212382, 35.967886902052769 ], [ 127.987121770767089, 35.96567206404638 ], [ 127.980679479754116, 35.964173118972596 ], [ 127.9713489663323, 35.969145346949041 ], [ 127.967111757485924, 35.964317681548934 ], [ 127.960656611403493, 35.965369589482791 ], [ 127.957515921367531, 35.962168805882825 ], [ 127.954507500079316, 35.96154959848095 ], [ 127.948896698263496, 35.967485563879769 ], [ 127.942411989010878, 35.966766614537072 ], [ 127.940196955506053, 35.968681149827418 ], [ 127.935113856748472, 35.964283392846134 ], [ 127.929992203493015, 35.96406865584563 ], [ 127.92757973847381, 35.959973945312228 ], [ 127.922044083195601, 35.95717735508704 ], [ 127.920546770512175, 35.953468931197555 ], [ 127.917617642993449, 35.953687510608901 ], [ 127.912898598013399, 35.949614775943907 ], [ 127.903906878171, 35.953966619784488 ], [ 127.899721558531837, 35.96286136681384 ], [ 127.900244101753231, 35.966273061410341 ], [ 127.896006281451392, 35.971836770673164 ], [ 127.896377800174662, 35.977971638165073 ], [ 127.889852103088785, 35.97984422181689 ], [ 127.893958081959852, 35.984536508629866 ], [ 127.893562229325397, 35.98592194719285 ], [ 127.886537611139929, 35.992301382998491 ], [ 127.875564321226022, 35.99716915376225 ], [ 127.87868561875483, 36.003098135337403 ], [ 127.875633451217169, 36.009828089419457 ], [ 127.876493043720984, 36.022895573276266 ], [ 127.883458475154839, 36.028062349754471 ], [ 127.884836228439298, 36.035889386376574 ], [ 127.888544373283509, 36.034845927305255 ], [ 127.893811851633274, 36.037623905778474 ], [ 127.902683928746654, 36.039141355058625 ], [ 127.905301515106103, 36.045958148407209 ], [ 127.916339150020036, 36.054465080304531 ], [ 127.925200110342132, 36.052844541023347 ], [ 127.93017748300916, 36.049439483213099 ], [ 127.932710037932878, 36.050485601920386 ] ], [ [ 128.003117713044588, 35.969064523925283 ], [ 128.000621828956781, 35.968851148605971 ], [ 128.00114724807014, 35.968896056232325 ], [ 128.003117713044588, 35.969064523925283 ] ] ] ] } },
{ "type": "Feature", "properties": { "emd_cd": "47150440", "emd_nm": "대덕면" }, "geometry": { "type": "MultiPolygon", "coordinates": [ [ [ [ 127.911617639858662, 35.949281166863031 ], [ 127.917617642993449, 35.953687510608901 ], [ 127.920038058714439, 35.953050226948491 ], [ 127.922044083195601, 35.95717735508704 ], [ 127.92757973847381, 35.959973945312228 ], [ 127.929992203493015, 35.96406865584563 ], [ 127.935113856748472, 35.964283392846134 ], [ 127.940196955506053, 35.968681149827418 ], [ 127.942411989010878, 35.966766614537072 ], [ 127.948896698263496, 35.967485563879769 ], [ 127.954507500079316, 35.96154959848095 ], [ 127.957515921367531, 35.962168805882825 ], [ 127.960656611403493, 35.965369589482791 ], [ 127.967111757485924, 35.964317681548934 ], [ 127.9713489663323, 35.969145346949041 ], [ 127.980679479754116, 35.964173118972596 ], [ 127.987121770767089, 35.96567206404638 ], [ 127.989891528212382, 35.967886902052769 ], [ 127.994448440430162, 35.965103748947477 ], [ 127.994956799309151, 35.960252860135114 ], [ 127.993586559069087, 35.957236546932243 ], [ 128.00062614238783, 35.953981443481645 ], [ 128.002762898355058, 35.95484961697921 ], [ 128.005512875341878, 35.95351931050422 ], [ 128.007675293514666, 35.955304708434021 ], [ 128.00723472064027, 35.951188304212138 ], [ 128.009596865512918, 35.944057750000411 ], [ 128.001961280259138, 35.935179938147314 ], [ 128.004316771481371, 35.926514739653825 ], [ 128.001730384694696, 35.923703107908025 ], [ 128.000689323442799, 35.918765446326127 ], [ 128.002905361622453, 35.91104547210842 ], [ 127.998534093336772, 35.905144968631092 ], [ 127.999371648771074, 35.902817890763586 ], [ 127.99701387273754, 35.902068284385457 ], [ 127.996115688942353, 35.899000141664914 ], [ 127.993933195637069, 35.898804396038649 ], [ 127.99029607844507, 35.886998629123944 ], [ 127.984212740387349, 35.880729181984982 ], [ 127.983638710226955, 35.874089455325333 ], [ 127.985895360486992, 35.870549299396657 ], [ 127.984702237362939, 35.865506716762276 ], [ 127.981748618855434, 35.858771499470322 ], [ 127.975390951948484, 35.852831220201089 ], [ 127.971109363217622, 35.852351125557526 ], [ 127.966742413653378, 35.85500036687116 ], [ 127.962547847254044, 35.855407319785385 ], [ 127.959651824507759, 35.860286750152703 ], [ 127.951181846716779, 35.861680774469129 ], [ 127.947046226783272, 35.859753199525031 ], [ 127.942237906614793, 35.854578087196593 ], [ 127.930362956708677, 35.856399102836477 ], [ 127.925782037506721, 35.855658774840613 ], [ 127.927200965860919, 35.858466225055594 ], [ 127.931333666086374, 35.859027865128169 ], [ 127.933220654636642, 35.864397683530477 ], [ 127.928792772331889, 35.870347278649831 ], [ 127.92989910916917, 35.873706687844845 ], [ 127.928405425197525, 35.87678881317575 ], [ 127.930242973782001, 35.87858446520881 ], [ 127.928092160171985, 35.881239610345894 ], [ 127.922873613096542, 35.882581515458469 ], [ 127.918570843750416, 35.890381210340159 ], [ 127.920221653098679, 35.893161982642646 ], [ 127.912068740283885, 35.889781918026706 ], [ 127.906732570762941, 35.889224259836439 ], [ 127.902841282483067, 35.89062348981664 ], [ 127.901155719940817, 35.887518375015432 ], [ 127.893587746718566, 35.886745001364119 ], [ 127.888242198709733, 35.89234892722213 ], [ 127.884783081067269, 35.893106581393248 ], [ 127.884443290370257, 35.89787548367584 ], [ 127.882732222401003, 35.899038879560443 ], [ 127.883962472670987, 35.901362929750668 ], [ 127.882135631200214, 35.903239421338249 ], [ 127.885711716607645, 35.91086408725122 ], [ 127.887816919529982, 35.912181197272247 ], [ 127.888071718195008, 35.914960479918669 ], [ 127.882360993811943, 35.919464779284134 ], [ 127.883671623201792, 35.924804304569946 ], [ 127.882435517841643, 35.928930202529969 ], [ 127.886093712325561, 35.931411396426284 ], [ 127.891899062773291, 35.932045837564395 ], [ 127.897985160161767, 35.937134985786898 ], [ 127.90876323402199, 35.941485845449442 ], [ 127.907917535421078, 35.943761756418695 ], [ 127.911617639858662, 35.949281166863031 ] ] ] ] } },
{ "type": "Feature", "properties": { "emd_cd": "47150450", "emd_nm": "증산면" }, "geometry": { "type": "MultiPolygon", "coordinates": [ [ [ [ 128.003977479227046, 35.930547855672451 ], [ 128.01590705074662, 35.933202340722353 ], [ 128.020784281041784, 35.936849556249733 ], [ 128.027705524728901, 35.936274638356387 ], [ 128.031853141833921, 35.940636768544486 ], [ 128.051356391028492, 35.938567295306342 ], [ 128.046649085964503, 35.932485695724942 ], [ 128.046738189691183, 35.92815380699961 ], [ 128.047829971357203, 35.925357625404999 ], [ 128.050738209122954, 35.924054024241372 ], [ 128.048679862150635, 35.919908512998511 ], [ 128.054608102168544, 35.915679522723273 ], [ 128.056175195213399, 35.910422600840981 ], [ 128.060669292773099, 35.9073720206327 ], [ 128.056651048473981, 35.905127710548818 ], [ 128.057300409727986, 35.901994554319138 ], [ 128.066540171793406, 35.895909968083515 ], [ 128.065533273405322, 35.888918324467618 ], [ 128.068770821877138, 35.885723233099547 ], [ 128.070956700870653, 35.879465018452628 ], [ 128.080026208229953, 35.873194684721639 ], [ 128.086848205572579, 35.872462160440804 ], [ 128.075824988881266, 35.861326862332874 ], [ 128.076526302590651, 35.85544250654506 ], [ 128.073247950165864, 35.849788428967827 ], [ 128.077556814280655, 35.843470761374846 ], [ 128.077359409045158, 35.839657311338783 ], [ 128.074206008488119, 35.838958435137947 ], [ 128.069785543211339, 35.841201958377553 ], [ 128.060894229592549, 35.83434651821505 ], [ 128.054866477003856, 35.834361836480511 ], [ 128.051653303212618, 35.82988263956787 ], [ 128.029781499303368, 35.835648605498982 ], [ 128.024276425241879, 35.832916043046318 ], [ 128.0175069006782, 35.832520117240932 ], [ 128.011780191866904, 35.82893394086377 ], [ 128.004039440529738, 35.835124413682834 ], [ 127.996475753548836, 35.837637552702077 ], [ 127.981573314794957, 35.860384221482512 ], [ 127.985895360486992, 35.870549299396657 ], [ 127.983638710226955, 35.874089455325333 ], [ 127.984212740387349, 35.880729181984982 ], [ 127.99029607844507, 35.886998629123944 ], [ 127.993933195637069, 35.898804396038649 ], [ 127.996115688942353, 35.899000141664914 ], [ 127.99701387273754, 35.902068284385457 ], [ 127.999371648771074, 35.902817890763586 ], [ 127.998534093336772, 35.905144968631092 ], [ 128.002905361622453, 35.91104547210842 ], [ 128.000689323442799, 35.918765446326127 ], [ 128.001730384694696, 35.923703107908025 ], [ 128.004316771481371, 35.926514739653825 ], [ 128.003977479227046, 35.930547855672451 ] ] ] ] } }
]
}
