{
"type": "FeatureCollection",
"name": "47230",
"crs": { "type": "name", "properties": { "name": "urn:ogc:def:crs:OGC:1.3:CRS84" } },
"features": [
{ "type": "Feature", "properties": { "emd_cd": "47230101", "emd_nm": "조교동" }, "geometry": { "type": "MultiPolygon", "coordinates": [ [ [ [ 128.948982167084267, 35.970290383474378 ], [ 128.953661660028985, 35.975089004664873 ], [ 128.95521467602714, 35.979830398920633 ], [ 128.958765873071599, 35.980871222567636 ], [ 128.96109365728941, 35.984016189233863 ], [ 128.962445262404259, 35.984015987553299 ], [ 128.962489845419725, 35.978252438921494 ], [ 128.967526359156778, 35.979159409694837 ], [ 128.969243216896757, 35.969670420726509 ], [ 128.963836851248828, 35.965121782487699 ], [ 128.956782253721258, 35.965500485743355 ], [ 128.948982167084267, 35.970290383474378 ] ] ] ] } },
{ "type": "Feature", "properties": { "emd_cd": "47230102", "emd_nm": "망정동" }, "geometry": { "type": "MultiPolygon", "coordinates": [ [ [ [ 128.943712165587925, 35.996718890570975 ], [ 128.947267715075213, 35.997956386581443 ], [ 128.949612255239686, 35.994311825754025 ], [ 128.956484458007282, 35.991863760052823 ], [ 128.956864249843079, 35.98951641456037 ], [ 128.961403904275585, 35.986805881325772 ], [ 128.960988411784712, 35.983523207534908 ], [ 128.95429836808006, 35.978753854634469 ], [ 128.953661660028985, 35.975089004664873 ], [ 128.950252828364512, 35.970717026355068 ], [ 128.947921058417478, 35.975772363833251 ], [ 128.951436342646247, 35.979834317395735 ], [ 128.951441794069666, 35.983073200259867 ], [ 128.943712165587925, 35.996718890570975 ] ] ] ] } },
{ "type": "Feature", "properties": { "emd_cd": "47230103", "emd_nm": "야사동" }, "geometry": { "type": "MultiPolygon", "coordinates": [ [ [ [ 128.937873819126253, 35.978614036239755 ], [ 128.941494689127097, 35.986746238234154 ], [ 128.938456812632438, 35.988805055587363 ], [ 128.938060906238775, 35.991266907664922 ], [ 128.939189969333967, 35.994013499997813 ], [ 128.944106138212845, 35.996738654285146 ], [ 128.951441794069666, 35.983073200259867 ], [ 128.951436342646247, 35.979834317395735 ], [ 128.947921058417478, 35.975772363833251 ], [ 128.949853578872933, 35.971114307952476 ], [ 128.939897407731479, 35.969996689386249 ], [ 128.941120876798607, 35.972183142581052 ], [ 128.939591955452102, 35.974206441704219 ], [ 128.940809765524051, 35.974805661873468 ], [ 128.938598482014896, 35.97537996037903 ], [ 128.939495817032707, 35.977810256333186 ], [ 128.937873819126253, 35.978614036239755 ] ] ] ] } },
{ "type": "Feature", "properties": { "emd_cd": "47230104", "emd_nm": "문내동" }, "geometry": { "type": "MultiPolygon", "coordinates": [ [ [ [ 128.934640768582113, 35.967474525473001 ], [ 128.931005074146555, 35.968462234110653 ], [ 128.928582638914747, 35.973877537653244 ], [ 128.929635829855528, 35.97821615313017 ], [ 128.930911805905737, 35.979012994987151 ], [ 128.934640768582113, 35.967474525473001 ] ] ] ] } },
{ "type": "Feature", "properties": { "emd_cd": "47230105", "emd_nm": "문외동" }, "geometry": { "type": "MultiPolygon", "coordinates": [ [ [ [ 128.930911805905737, 35.979012994987151 ], [ 128.933741382434533, 35.976934033161541 ], [ 128.939495817032707, 35.977810256333186 ], [ 128.938598482014896, 35.97537996037903 ], [ 128.939965088428806, 35.976004501367576 ], [ 128.941120876798607, 35.972183142581052 ], [ 128.939897407731479, 35.969996689386249 ], [ 128.934109888308967, 35.967893004685649 ], [ 128.930911805905737, 35.979012994987151 ] ] ] ] } },
{ "type": "Feature", "properties": { "emd_cd": "47230106", "emd_nm": "창구동" }, "geometry": { "type": "MultiPolygon", "coordinates": [ [ [ [ 128.928582638911308, 35.973877537653358 ], [ 128.930985309144148, 35.968484753329335 ], [ 128.934363357555952, 35.967301820567322 ], [ 128.932496095803629, 35.965729966336752 ], [ 128.929846848322541, 35.967334186976856 ], [ 128.928781221491874, 35.972330052988831 ], [ 128.925103694232689, 35.97418618211897 ], [ 128.929536081496451, 35.97700890263274 ], [ 128.928582638911308, 35.973877537653358 ] ] ] ] } },
{ "type": "Feature", "properties": { "emd_cd": "47230107", "emd_nm": "교촌동" }, "geometry": { "type": "MultiPolygon", "coordinates": [ [ [ [ 128.923253302351441, 35.963074888066174 ], [ 128.921096978415989, 35.970108192605984 ], [ 128.925103694232689, 35.974186182118999 ], [ 128.928829816285742, 35.972269023916894 ], [ 128.929864031669666, 35.967371490259474 ], [ 128.923253302351441, 35.963074888066174 ] ] ] ] } },
{ "type": "Feature", "properties": { "emd_cd": "47230108", "emd_nm": "과전동" }, "geometry": { "type": "MultiPolygon", "coordinates": [ [ [ [ 128.932496095803629, 35.965729966336752 ], [ 128.930215917203441, 35.964797903365799 ], [ 128.928966854125889, 35.967015397081816 ], [ 128.929824386011688, 35.967433985142954 ], [ 128.932496095803629, 35.965729966336752 ] ] ] ] } },
{ "type": "Feature", "properties": { "emd_cd": "47230109", "emd_nm": "성내동" }, "geometry": { "type": "MultiPolygon", "coordinates": [ [ [ [ 128.91876325345504, 35.961931853142019 ], [ 128.92367628703073, 35.963008615879005 ], [ 128.92896042803045, 35.967011094317016 ], [ 128.930215917203356, 35.964797903365749 ], [ 128.925457093798741, 35.962348765004833 ], [ 128.922150177747881, 35.957040680314137 ], [ 128.91876325345504, 35.961931853142019 ] ] ] ] } },
{ "type": "Feature", "properties": { "emd_cd": "47230110", "emd_nm": "화룡동" }, "geometry": { "type": "MultiPolygon", "coordinates": [ [ [ [ 128.909717209510944, 35.974873651688313 ], [ 128.919705378514294, 35.982803985379924 ], [ 128.922121684066525, 35.981966038944968 ], [ 128.92269099842585, 35.978981626653272 ], [ 128.926878255117686, 35.975906154966736 ], [ 128.921096978419428, 35.970108192605942 ], [ 128.923253302354993, 35.963074888066032 ], [ 128.918763253458479, 35.961931853141884 ], [ 128.910648233738527, 35.970549454630486 ], [ 128.909717209510944, 35.974873651688313 ] ] ] ] } },
{ "type": "Feature", "properties": { "emd_cd": "47230111", "emd_nm": "도동" }, "geometry": { "type": "MultiPolygon", "coordinates": [ [ [ [ 128.922181513713639, 35.953858052966545 ], [ 128.924428251942771, 35.954082003977057 ], [ 128.930035480749439, 35.949742526198804 ], [ 128.933100007164114, 35.950091394728688 ], [ 128.933302494597342, 35.945669982280194 ], [ 128.935356209178764, 35.947166606524689 ], [ 128.938961460780632, 35.944064517210833 ], [ 128.946508655355018, 35.945278210228842 ], [ 128.945966738493638, 35.941541297555553 ], [ 128.936456082126796, 35.939963432120479 ], [ 128.929554698564658, 35.934705199306897 ], [ 128.927160358468143, 35.928839021532212 ], [ 128.922597280398037, 35.935463800291068 ], [ 128.922181513713639, 35.953858052966545 ] ] ] ] } },
{ "type": "Feature", "properties": { "emd_cd": "47230112", "emd_nm": "금노동" }, "geometry": { "type": "MultiPolygon", "coordinates": [ [ [ [ 128.946508655355018, 35.945278210228842 ], [ 128.938961460780632, 35.944064517210833 ], [ 128.935356209178764, 35.947166606524689 ], [ 128.933302494597342, 35.945669982280194 ], [ 128.933100007164114, 35.950091394728688 ], [ 128.930035480749439, 35.949742526198804 ], [ 128.924428251942771, 35.954082003977057 ], [ 128.922181513713639, 35.953858052966545 ], [ 128.922150177751291, 35.957040680313987 ], [ 128.92545709380218, 35.962348765004698 ], [ 128.930215917206908, 35.964797903365692 ], [ 128.931476135606886, 35.963527743250772 ], [ 128.933555325650417, 35.964422943628513 ], [ 128.932652799342407, 35.959492102693012 ], [ 128.937914950836216, 35.953993254219746 ], [ 128.943890213537031, 35.95638075713201 ], [ 128.946821284748808, 35.955314966040447 ], [ 128.950789561908181, 35.957477787467226 ], [ 128.951821312217334, 35.953139771955207 ], [ 128.949058871523363, 35.949524534216351 ], [ 128.946101217988627, 35.948465948376139 ], [ 128.946508655355018, 35.945278210228842 ] ] ] ] } },
{ "type": "Feature", "properties": { "emd_cd": "47230113", "emd_nm": "완산동" }, "geometry": { "type": "MultiPolygon", "coordinates": [ [ [ [ 128.930215917206908, 35.964797903365692 ], [ 128.937817674509432, 35.969935203698931 ], [ 128.948247137851695, 35.970376118468074 ], [ 128.955133261126235, 35.966105146885589 ], [ 128.961096978361638, 35.964625898473848 ], [ 128.965781682664954, 35.966073178032225 ], [ 128.969243216896757, 35.969670420726509 ], [ 128.973331535141114, 35.969885825244724 ], [ 128.977741895806105, 35.964963457540399 ], [ 128.97295802106197, 35.95959759485941 ], [ 128.964102130023974, 35.957680987046842 ], [ 128.955153020911354, 35.952237002334797 ], [ 128.951821312217334, 35.953139771955207 ], [ 128.950789561908181, 35.957477787467226 ], [ 128.946821284748808, 35.955314966040447 ], [ 128.943890213537031, 35.95638075713201 ], [ 128.937914950836216, 35.953993254219746 ], [ 128.936118957534688, 35.954751742690647 ], [ 128.932652799342407, 35.959492102693012 ], [ 128.933555325650417, 35.964422943628513 ], [ 128.931476135606886, 35.963527743250772 ], [ 128.930215917206908, 35.964797903365692 ] ] ] ] } },
{ "type": "Feature", "properties": { "emd_cd": "47230114", "emd_nm": "범어동" }, "geometry": { "type": "MultiPolygon", "coordinates": [ [ [ [ 128.960491527489722, 35.941903357216084 ], [ 128.955092348611743, 35.943526323197197 ], [ 128.952222107023204, 35.948554494397015 ], [ 128.952696992656939, 35.951269075750425 ], [ 128.964102130020109, 35.957680987046963 ], [ 128.972958021057991, 35.959597594859524 ], [ 128.977741895802183, 35.964963457540527 ], [ 128.980043943448578, 35.964467319788909 ], [ 128.982135009221793, 35.959153123645017 ], [ 128.986220352031268, 35.959465854837802 ], [ 128.987413626285161, 35.955419861356511 ], [ 128.982758485237895, 35.948426132354541 ], [ 128.984268899034987, 35.946283930044842 ], [ 128.983406259291428, 35.944917537532405 ], [ 128.977027736959997, 35.947189146765815 ], [ 128.970177571910455, 35.943879657474191 ], [ 128.969534995066937, 35.942018884353232 ], [ 128.960491527489722, 35.941903357216084 ] ] ] ] } },
{ "type": "Feature", "properties": { "emd_cd": "47230115", "emd_nm": "작산동" }, "geometry": { "type": "MultiPolygon", "coordinates": [ [ [ [ 128.945621838032821, 35.940968121966108 ], [ 128.94610121798496, 35.948465948376196 ], [ 128.953348393167488, 35.953569733422356 ], [ 128.954524769012295, 35.952442735663006 ], [ 128.952222107023204, 35.948554494397015 ], [ 128.955092348611743, 35.943526323197197 ], [ 128.958077899204739, 35.943432404040138 ], [ 128.961475555011759, 35.940339195187846 ], [ 128.948181514026601, 35.939084572710485 ], [ 128.946428130530677, 35.936174324749679 ], [ 128.939539855878451, 35.938248962116646 ], [ 128.936576477431828, 35.936552366943722 ], [ 128.933749792293554, 35.937590320467962 ], [ 128.939700723046826, 35.941072711969973 ], [ 128.945621838032821, 35.940968121966108 ] ] ] ] } },
{ "type": "Feature", "properties": { "emd_cd": "47230116", "emd_nm": "봉동" }, "geometry": { "type": "MultiPolygon", "coordinates": [ [ [ [ 128.969723853269926, 35.931022848132102 ], [ 128.964490970082608, 35.930031159299176 ], [ 128.948365916983846, 35.93163903062095 ], [ 128.951261482684572, 35.929175225835657 ], [ 128.948234746874988, 35.930664499114052 ], [ 128.946480746805975, 35.929966248850562 ], [ 128.949515758993442, 35.927251445952521 ], [ 128.947675226072562, 35.923840020346546 ], [ 128.942966674987503, 35.928213120056924 ], [ 128.942425115843747, 35.929457376004635 ], [ 128.944628931860763, 35.930677815778417 ], [ 128.941473268236649, 35.93208257320746 ], [ 128.9394277102422, 35.936694593531818 ], [ 128.93652854578923, 35.936446391500098 ], [ 128.938788934349589, 35.93831920239689 ], [ 128.946428130530677, 35.936174324749679 ], [ 128.948181514026601, 35.939084572710485 ], [ 128.961475555011702, 35.940339195187896 ], [ 128.962366741037272, 35.936163513564146 ], [ 128.969201978814965, 35.934168527484367 ], [ 128.969723853269926, 35.931022848132102 ] ] ] ] } },
{ "type": "Feature", "properties": { "emd_cd": "47230117", "emd_nm": "본촌동" }, "geometry": { "type": "MultiPolygon", "coordinates": [ [ [ [ 128.949515758997194, 35.927251445952479 ], [ 128.946480746809726, 35.929966248850434 ], [ 128.948234746878711, 35.930664499113988 ], [ 128.950975261837925, 35.928442055926375 ], [ 128.94833064254675, 35.931477314766937 ], [ 128.949762563492953, 35.931738821548585 ], [ 128.955449220641327, 35.930352236799713 ], [ 128.971303898819173, 35.930307455505208 ], [ 128.972489548286546, 35.925292359524654 ], [ 128.97049037772436, 35.919538361183363 ], [ 128.97107855611327, 35.91376030368972 ], [ 128.969059094819954, 35.909554193928976 ], [ 128.960547889141935, 35.913093223384678 ], [ 128.955770774086602, 35.918100643881793 ], [ 128.949387975157464, 35.917315308561761 ], [ 128.947675226076313, 35.923840020346482 ], [ 128.949515758997194, 35.927251445952479 ] ] ] ] } },
{ "type": "Feature", "properties": { "emd_cd": "47230118", "emd_nm": "채신동" }, "geometry": { "type": "MultiPolygon", "coordinates": [ [ [ [ 128.944130603789262, 35.894726171064505 ], [ 128.950956204567433, 35.906061542316642 ], [ 128.947660336020505, 35.907230734703866 ], [ 128.948030293265987, 35.917348057956872 ], [ 128.955770774086602, 35.918100643881793 ], [ 128.960547889141935, 35.913093223384678 ], [ 128.964439045128927, 35.912342877808769 ], [ 128.968383688112141, 35.908888163041553 ], [ 128.967717158488256, 35.904718225841712 ], [ 128.963325532786683, 35.907194048862458 ], [ 128.957922438225637, 35.906120904314349 ], [ 128.954875677322207, 35.903966818221114 ], [ 128.954668714565884, 35.899661904425223 ], [ 128.949964104355871, 35.894551917875354 ], [ 128.944130603789262, 35.894726171064505 ] ] ] ] } },
{ "type": "Feature", "properties": { "emd_cd": "47230119", "emd_nm": "괴연동" }, "geometry": { "type": "MultiPolygon", "coordinates": [ [ [ [ 128.944002769103093, 35.890532474821221 ], [ 128.94437612242848, 35.894010591890073 ], [ 128.949964104352091, 35.894551917875518 ], [ 128.954668714562132, 35.899661904425344 ], [ 128.954981036031739, 35.9040977195164 ], [ 128.963325532782818, 35.907194048862621 ], [ 128.96771715848439, 35.904718225841812 ], [ 128.970448346778227, 35.899343253622462 ], [ 128.973557274686414, 35.898781180611358 ], [ 128.976460552171062, 35.890545356807387 ], [ 128.970454457786815, 35.883673112870774 ], [ 128.961383503252307, 35.88439640021241 ], [ 128.953109086752505, 35.881929320518672 ], [ 128.94806929215423, 35.882498891535263 ], [ 128.944002769103093, 35.890532474821221 ] ] ] ] } },
{ "type": "Feature", "properties": { "emd_cd": "47230120", "emd_nm": "대전동" }, "geometry": { "type": "MultiPolygon", "coordinates": [ [ [ [ 128.903705228296872, 35.986873363474437 ], [ 128.905698042433556, 35.988530791393508 ], [ 128.905782377037809, 35.993737179794863 ], [ 128.908672692022662, 35.994772123364513 ], [ 128.912883724236139, 35.992524225629879 ], [ 128.916918322113418, 35.993367947576409 ], [ 128.919341661595752, 35.98992411366531 ], [ 128.923330010470153, 35.991451342499907 ], [ 128.923841738110411, 35.990381455562556 ], [ 128.922121684066525, 35.981966038944968 ], [ 128.919705378514294, 35.982803985379924 ], [ 128.910831526773421, 35.975829542893841 ], [ 128.908934228194028, 35.97768852524932 ], [ 128.908297935952504, 35.981933543492381 ], [ 128.90616340828376, 35.982726473204394 ], [ 128.903705228296872, 35.986873363474437 ] ] ] ] } },
{ "type": "Feature", "properties": { "emd_cd": "47230121", "emd_nm": "녹전동" }, "geometry": { "type": "MultiPolygon", "coordinates": [ [ [ [ 128.906411130535361, 36.000765648528031 ], [ 128.909260581097698, 36.004937546468575 ], [ 128.910493992370562, 36.015927476549585 ], [ 128.911740243564225, 36.016263094498704 ], [ 128.917198061020429, 36.012741042817368 ], [ 128.922912565816659, 36.00552791528618 ], [ 128.920579356854148, 35.998711288662456 ], [ 128.923330010470153, 35.991451342499907 ], [ 128.919341661595752, 35.98992411366531 ], [ 128.916918322113418, 35.993367947576409 ], [ 128.911011676357504, 35.993191793177814 ], [ 128.908672692022662, 35.994772123364513 ], [ 128.909342944755707, 35.996881524124781 ], [ 128.906411130535361, 36.000765648528031 ] ] ] ] } },
{ "type": "Feature", "properties": { "emd_cd": "47230122", "emd_nm": "도림동" }, "geometry": { "type": "MultiPolygon", "coordinates": [ [ [ [ 128.922036375216408, 36.005998445859369 ], [ 128.929672808631977, 36.021312433383898 ], [ 128.934787375809918, 36.023854560009582 ], [ 128.935443700099938, 36.027509369962551 ], [ 128.939394545935727, 36.033191199034803 ], [ 128.944344359812874, 36.034035005078103 ], [ 128.945312232020029, 36.037568373169549 ], [ 128.956060878020253, 36.038254177492369 ], [ 128.957018734709806, 36.034153296319808 ], [ 128.955061046872487, 36.029978132407756 ], [ 128.956580629827442, 36.024049141724397 ], [ 128.954433571770352, 36.018206703522978 ], [ 128.944426216916952, 36.012356234563711 ], [ 128.940602288585893, 36.01242502924692 ], [ 128.94030145946013, 36.010052568438738 ], [ 128.935351989777701, 36.008531492286004 ], [ 128.93281212607198, 36.005988136232695 ], [ 128.922036375216408, 36.005998445859369 ] ] ] ] } },
{ "type": "Feature", "properties": { "emd_cd": "47230123", "emd_nm": "오미동" }, "geometry": { "type": "MultiPolygon", "coordinates": [ [ [ [ 128.920579356854148, 35.998711288662456 ], [ 128.922997505815573, 36.00568445098358 ], [ 128.93281212607198, 36.005988136232695 ], [ 128.935351989777701, 36.008531492286004 ], [ 128.94030145946013, 36.010052568438738 ], [ 128.940602288585893, 36.01242502924692 ], [ 128.944426216916952, 36.012356234563711 ], [ 128.949296822734738, 36.016044277853297 ], [ 128.950079553838719, 36.015479529073758 ], [ 128.947941047325315, 36.012183422227395 ], [ 128.94955867701492, 36.006483151900625 ], [ 128.947155676134457, 36.004623017838938 ], [ 128.947964465770838, 35.998685297605533 ], [ 128.942074899036783, 35.996304589352285 ], [ 128.938060906238775, 35.991266907664922 ], [ 128.938456812632438, 35.988805055587363 ], [ 128.941494689127097, 35.986746238234154 ], [ 128.937927809351436, 35.977987357421767 ], [ 128.933741382434533, 35.976934033161541 ], [ 128.93121294955813, 35.979180899859998 ], [ 128.926878255117686, 35.975906154966736 ], [ 128.92269099842585, 35.978981626653272 ], [ 128.921919976822267, 35.981589497276772 ], [ 128.923841738110411, 35.990381455562556 ], [ 128.920579356854148, 35.998711288662456 ] ] ] ] } },
{ "type": "Feature", "properties": { "emd_cd": "47230124", "emd_nm": "오수동" }, "geometry": { "type": "MultiPolygon", "coordinates": [ [ [ [ 128.906128943941582, 35.953973513043593 ], [ 128.90740984392437, 35.95578323898215 ], [ 128.906627381645677, 35.957837113698034 ], [ 128.909816620709648, 35.959148436065242 ], [ 128.910623562096532, 35.963322718104152 ], [ 128.918763253458479, 35.961931853141884 ], [ 128.922150177751291, 35.957040680313987 ], [ 128.922111107672521, 35.950519695264504 ], [ 128.916633298272501, 35.948527624358626 ], [ 128.914670587662329, 35.950911629954227 ], [ 128.907512041896325, 35.951938226712656 ], [ 128.906128943941582, 35.953973513043593 ] ] ] ] } },
{ "type": "Feature", "properties": { "emd_cd": "47230125", "emd_nm": "쌍계동" }, "geometry": { "type": "MultiPolygon", "coordinates": [ [ [ [ 128.896372363969817, 35.966363048173598 ], [ 128.905506702796686, 35.972900211258853 ], [ 128.910245743363362, 35.971288953081249 ], [ 128.918763253458479, 35.961931853141884 ], [ 128.910623562096532, 35.963322718104152 ], [ 128.909816620709648, 35.959148436065242 ], [ 128.906627381645677, 35.957837113698034 ], [ 128.907273798476524, 35.955496404447899 ], [ 128.903283302644127, 35.954727129822501 ], [ 128.900929416001048, 35.962211896760493 ], [ 128.896372363969817, 35.966363048173598 ] ] ] ] } },
{ "type": "Feature", "properties": { "emd_cd": "47230126", "emd_nm": "도남동" }, "geometry": { "type": "MultiPolygon", "coordinates": [ [ [ [ 128.924614730073444, 35.922822781463715 ], [ 128.929554698564658, 35.934705199306897 ], [ 128.933452960170968, 35.937651274605344 ], [ 128.939427710245837, 35.936694593531641 ], [ 128.941473268240344, 35.932082573207296 ], [ 128.944628931864315, 35.930677815778367 ], [ 128.942678575817865, 35.928673602658996 ], [ 128.946190431514339, 35.92549517569293 ], [ 128.940415651355636, 35.924109579131844 ], [ 128.931014293493035, 35.926440497748942 ], [ 128.929049358899022, 35.92311283524031 ], [ 128.924614730073444, 35.922822781463715 ] ] ] ] } },
{ "type": "Feature", "properties": { "emd_cd": "47230127", "emd_nm": "매산동" }, "geometry": { "type": "MultiPolygon", "coordinates": [ [ [ [ 128.904630440891566, 36.033865233761908 ], [ 128.908739626020292, 36.033598682549837 ], [ 128.911440314680334, 36.036842997547637 ], [ 128.916862189120536, 36.037405631452657 ], [ 128.924275061461685, 36.032615225591051 ], [ 128.925965556696184, 36.025773255583587 ], [ 128.929803591501241, 36.021486853577443 ], [ 128.922036375216408, 36.005998445859369 ], [ 128.915231444119001, 36.014360391976886 ], [ 128.907760673371996, 36.017099885444999 ], [ 128.909879619149422, 36.019104585678157 ], [ 128.906560328215591, 36.022918178698966 ], [ 128.904630440891566, 36.033865233761908 ] ] ] ] } },
{ "type": "Feature", "properties": { "emd_cd": "47230128", "emd_nm": "언하동" }, "geometry": { "type": "MultiPolygon", "coordinates": [ [ [ [ 128.955494298204798, 36.00937020359757 ], [ 128.956503721056322, 36.012923888749611 ], [ 128.961870534794969, 36.001353264891392 ], [ 128.959853514228882, 35.998861911347227 ], [ 128.962492798881328, 35.989586192648005 ], [ 128.964781947599306, 35.987970756551263 ], [ 128.96749502206012, 35.992254317174968 ], [ 128.970103923830834, 35.990556849448552 ], [ 128.973391991753516, 35.993673431108256 ], [ 128.977339358525484, 35.99361296133727 ], [ 128.977587066673436, 35.990956149964951 ], [ 128.973742328531216, 35.984597702132902 ], [ 128.97060450501013, 35.9833563736969 ], [ 128.967429407048115, 35.978821411370063 ], [ 128.962489845419725, 35.978252438921494 ], [ 128.962445262404259, 35.984015987553299 ], [ 128.960887860080163, 35.984239012206096 ], [ 128.961403904275585, 35.986805881325772 ], [ 128.958898583876987, 35.988104033878962 ], [ 128.959624456410609, 35.991977279641588 ], [ 128.955494298204798, 36.00937020359757 ] ] ] ] } },
{ "type": "Feature", "properties": { "emd_cd": "47230129", "emd_nm": "신기동" }, "geometry": { "type": "MultiPolygon", "coordinates": [ [ [ [ 128.947155676134457, 36.004623017838938 ], [ 128.94955867701492, 36.006483151900625 ], [ 128.948258385146545, 36.013815468083727 ], [ 128.954939401055242, 36.01793832657652 ], [ 128.95675920951436, 36.015415343056532 ], [ 128.955529430293211, 36.007204297932816 ], [ 128.959624456410609, 35.991977279641588 ], [ 128.958898583876987, 35.988104033878962 ], [ 128.956484458007282, 35.991863760052823 ], [ 128.955027513319635, 35.991348719960342 ], [ 128.948583333637316, 35.995451251182025 ], [ 128.947155676134457, 36.004623017838938 ] ] ] ] } },
{ "type": "Feature", "properties": { "emd_cd": "47230130", "emd_nm": "서산동" }, "geometry": { "type": "MultiPolygon", "coordinates": [ [ [ [ 128.869405631841715, 35.968346909218603 ], [ 128.86968763146885, 35.975955761439018 ], [ 128.874998499217639, 35.976978056122647 ], [ 128.875701115025691, 35.98483854424007 ], [ 128.885009184572851, 35.986415782559966 ], [ 128.886497363075506, 35.984707007574109 ], [ 128.893692280810967, 35.983559426233569 ], [ 128.899769108732642, 35.990762710074129 ], [ 128.906478813898531, 35.991723594195321 ], [ 128.903705228296872, 35.986873363474437 ], [ 128.90616340828376, 35.982726473204394 ], [ 128.908297935952504, 35.981933543492381 ], [ 128.908934228194028, 35.97768852524932 ], [ 128.910831526773421, 35.975829542893841 ], [ 128.910245743363362, 35.971288953081249 ], [ 128.905316445923376, 35.972874941626692 ], [ 128.896089067679412, 35.966271631016241 ], [ 128.890734282144905, 35.967508744697206 ], [ 128.888215831564708, 35.965788022656106 ], [ 128.881724567917104, 35.967790821877962 ], [ 128.876063376259907, 35.966779435255269 ], [ 128.869405631841715, 35.968346909218603 ] ] ] ] } },
{ "type": "Feature", "properties": { "emd_cd": "47230250", "emd_nm": "금호읍" }, "geometry": { "type": "MultiPolygon", "coordinates": [ [ [ [ 128.852802798315651, 35.919762453588156 ], [ 128.857439176867217, 35.924236620205932 ], [ 128.857342403364385, 35.926623480171386 ], [ 128.862695535787452, 35.929381258729329 ], [ 128.859839917729403, 35.934185235253508 ], [ 128.861105528770366, 35.937052196673442 ], [ 128.864856571420347, 35.938419626712992 ], [ 128.863858423051624, 35.943318726254255 ], [ 128.866001508123873, 35.943682856920965 ], [ 128.866411815720141, 35.94612956211617 ], [ 128.863731890312152, 35.9497814595736 ], [ 128.865340677476865, 35.951977946422758 ], [ 128.864686941924901, 35.953619748687515 ], [ 128.86967587003187, 35.957213946586997 ], [ 128.872484607635926, 35.956460168342147 ], [ 128.874454575962233, 35.957939383044803 ], [ 128.876227283943024, 35.960209020910547 ], [ 128.876807467725087, 35.967875487612801 ], [ 128.888215067887302, 35.965787138727066 ], [ 128.890733573929793, 35.967507806761503 ], [ 128.894406175188777, 35.967235344019066 ], [ 128.900928519577604, 35.962210706380993 ], [ 128.9032821292233, 35.954725885158524 ], [ 128.90614663426129, 35.955016508270525 ], [ 128.907375881886537, 35.951986930960807 ], [ 128.9121061994515, 35.952027190055084 ], [ 128.916631903407023, 35.948526055222267 ], [ 128.922109779293606, 35.950518000063212 ], [ 128.923381746611312, 35.944462148899916 ], [ 128.922595409267615, 35.935462086709634 ], [ 128.927158243715837, 35.928837199720611 ], [ 128.924612393876941, 35.922821022550607 ], [ 128.929047033774339, 35.923110968271352 ], [ 128.931014293493035, 35.926440497748942 ], [ 128.940413370463091, 35.924107442033794 ], [ 128.946188194848929, 35.925492894527061 ], [ 128.949390920264477, 35.920073637952996 ], [ 128.947657435175955, 35.907228417211215 ], [ 128.950953259409772, 35.90605914377258 ], [ 128.944127249315528, 35.894723943389906 ], [ 128.943999270830744, 35.890530247072633 ], [ 128.940216842298696, 35.889659145175756 ], [ 128.931226679461929, 35.881177054510829 ], [ 128.926022589509301, 35.879596168150911 ], [ 128.921970771298533, 35.884512691231095 ], [ 128.917160526541466, 35.886796168717915 ], [ 128.914658976038453, 35.886038143029467 ], [ 128.910891913338872, 35.889124811858444 ], [ 128.913959128073628, 35.890678235932327 ], [ 128.912498577853029, 35.891162555329878 ], [ 128.91209544447716, 35.893785192624428 ], [ 128.909676835991405, 35.894486185856145 ], [ 128.907336030444213, 35.89247203110363 ], [ 128.905337172680532, 35.893396097951154 ], [ 128.901474397424636, 35.90014644957715 ], [ 128.895613826036367, 35.898835075365817 ], [ 128.889385145218938, 35.8938041891656 ], [ 128.886337335814801, 35.899147465080759 ], [ 128.881824375258645, 35.899620415676864 ], [ 128.881455079439235, 35.892923086923183 ], [ 128.87512185250489, 35.889114594120699 ], [ 128.870966348480238, 35.891347814787771 ], [ 128.870016049725621, 35.894446210405853 ], [ 128.858047407444786, 35.899502639007963 ], [ 128.856078282864246, 35.898640810306119 ], [ 128.853350773391753, 35.908434673056426 ], [ 128.855825502879213, 35.911609050176111 ], [ 128.855958938489664, 35.916052859625474 ], [ 128.852802798315651, 35.919762453588156 ] ] ] ] } },
{ "type": "Feature", "properties": { "emd_cd": "47230310", "emd_nm": "청통면" }, "geometry": { "type": "MultiPolygon", "coordinates": [ [ [ [ 128.818410573458834, 36.021436507590757 ], [ 128.816621813130496, 36.025078816377274 ], [ 128.832932113990609, 36.02231768624624 ], [ 128.834739281274636, 36.017471643790103 ], [ 128.841620719523121, 36.016815628885723 ], [ 128.835437823419284, 36.011670598060512 ], [ 128.8467026907297, 36.011043294881489 ], [ 128.854347263787474, 36.003081026067228 ], [ 128.859175374710048, 36.001492209646862 ], [ 128.860377368568606, 35.998908746509578 ], [ 128.864698749717917, 35.998743806428678 ], [ 128.869390195322751, 35.994954757437029 ], [ 128.871278052712313, 35.996040214615441 ], [ 128.870463737896443, 35.999278062428814 ], [ 128.872187981633544, 36.001910445148205 ], [ 128.875160723537903, 35.999672943747662 ], [ 128.877021056872593, 36.001774405989885 ], [ 128.876121243269097, 36.003359935769254 ], [ 128.880629990776896, 36.000257517191159 ], [ 128.884637523011975, 35.999595209191583 ], [ 128.885286258338084, 36.001553296935718 ], [ 128.88322228705897, 36.004419688778412 ], [ 128.887845646359239, 36.006595357181169 ], [ 128.889952008782103, 36.004493608497967 ], [ 128.893101736395494, 36.004787240114204 ], [ 128.893940672107277, 35.998933854443692 ], [ 128.897546842323209, 35.995771377682345 ], [ 128.904463371862704, 36.001377086527533 ], [ 128.909342944755707, 35.996881524124781 ], [ 128.909362911016842, 35.995075603326356 ], [ 128.905782377037809, 35.993737179794863 ], [ 128.905922092735011, 35.992198081930304 ], [ 128.899769108732642, 35.990762710074129 ], [ 128.893692280810967, 35.983559426233569 ], [ 128.886497363075506, 35.984707007574109 ], [ 128.885009184572851, 35.986415782559966 ], [ 128.875701115025691, 35.98483854424007 ], [ 128.874998499217639, 35.976978056122647 ], [ 128.86968763146885, 35.975955761439018 ], [ 128.869405631841715, 35.968346909218603 ], [ 128.876063376259907, 35.966779435255269 ], [ 128.877211517840607, 35.965075749136105 ], [ 128.876228258508917, 35.960209616741786 ], [ 128.872725738894445, 35.956539600661173 ], [ 128.869951375936466, 35.957332941326754 ], [ 128.864688160660421, 35.953620065508403 ], [ 128.865341951579438, 35.951978281324557 ], [ 128.863733242037682, 35.949781749519872 ], [ 128.866406912127843, 35.945995578882751 ], [ 128.866003381407012, 35.94368270582482 ], [ 128.863860007393328, 35.943319025478345 ], [ 128.864990460013672, 35.941305511988539 ], [ 128.863877237987651, 35.93703516349882 ], [ 128.860376188349164, 35.938702840474036 ], [ 128.86075764442316, 35.94636629298936 ], [ 128.858401193355434, 35.950126336611852 ], [ 128.860028496051257, 35.953770885147932 ], [ 128.857848703647477, 35.955216769745512 ], [ 128.854776023236496, 35.95448318014838 ], [ 128.85279703768046, 35.959335936151739 ], [ 128.845787952885331, 35.963598372110681 ], [ 128.841766119625532, 35.962262849910267 ], [ 128.836886036773649, 35.967834778383803 ], [ 128.828426798658342, 35.964070643663135 ], [ 128.813241263324329, 35.965461911588811 ], [ 128.81168048808911, 35.967684072484467 ], [ 128.812204904109876, 35.973351627070322 ], [ 128.808790031586369, 35.97372300631848 ], [ 128.793796890086639, 35.983969258030264 ], [ 128.791106226172445, 35.98288799881589 ], [ 128.787495695245184, 35.988119537504609 ], [ 128.784486774165543, 35.987731958939854 ], [ 128.783131915392005, 35.985115524123906 ], [ 128.777413419708694, 35.985432344318006 ], [ 128.770262103382947, 35.982862703962681 ], [ 128.765635108619676, 35.984016869688837 ], [ 128.757300467491604, 35.990009910277116 ], [ 128.749031697624332, 35.990432488531368 ], [ 128.739984626539069, 35.993968352434933 ], [ 128.733982526454298, 35.992719025764956 ], [ 128.731733307561029, 35.996684693069994 ], [ 128.727424232647223, 35.998085769042696 ], [ 128.72708298526706, 36.00182924621992 ], [ 128.721479818370824, 36.007098132303391 ], [ 128.721843942573969, 36.008313317742996 ], [ 128.72768941988744, 36.009476276527728 ], [ 128.729062228388074, 36.012459234561739 ], [ 128.731467718080808, 36.012290917453065 ], [ 128.733843382598877, 36.015029660609834 ], [ 128.744595904233421, 36.017840157166418 ], [ 128.757423006552727, 36.027109897795498 ], [ 128.77164978285964, 36.021675361353488 ], [ 128.773037701414324, 36.022130273469742 ], [ 128.774330631849182, 36.028165223361512 ], [ 128.779357235043534, 36.026854320685366 ], [ 128.780155806299433, 36.025321781331265 ], [ 128.783957014418178, 36.026911534473399 ], [ 128.787513890080277, 36.026194890930121 ], [ 128.7890961371711, 36.023940915405149 ], [ 128.790456315197446, 36.02532828835735 ], [ 128.798120069518006, 36.020799497832286 ], [ 128.808419223367963, 36.020949555926677 ], [ 128.812031767627218, 36.023454237796564 ], [ 128.817238133126608, 36.020491455509223 ], [ 128.818410573458834, 36.021436507590757 ] ] ] ] } },
{ "type": "Feature", "properties": { "emd_cd": "47230320", "emd_nm": "신녕면" }, "geometry": { "type": "MultiPolygon", "coordinates": [ [ [ [ 128.694159149375849, 36.018213251034673 ], [ 128.699801421885041, 36.027081071388857 ], [ 128.696442575388716, 36.035132489880624 ], [ 128.704106047933919, 36.044405134989255 ], [ 128.704787063497719, 36.048614039137625 ], [ 128.702873419295457, 36.055510806304582 ], [ 128.704471885628124, 36.05937750537273 ], [ 128.707326751662919, 36.06076806299027 ], [ 128.709819154373321, 36.065899363059188 ], [ 128.711892262261387, 36.066749665185149 ], [ 128.714038734034858, 36.07548390981453 ], [ 128.721438882428487, 36.073129630194906 ], [ 128.724825385883861, 36.074507239874087 ], [ 128.729303745192169, 36.082738738645858 ], [ 128.727494878256351, 36.086809647424758 ], [ 128.722931087893926, 36.090273830526478 ], [ 128.726540578973243, 36.093226828053652 ], [ 128.729107304211226, 36.092551202064776 ], [ 128.73360983129345, 36.094261395135398 ], [ 128.736111197498218, 36.097010209992064 ], [ 128.735786973689272, 36.099140106553129 ], [ 128.740236902548531, 36.09963352451711 ], [ 128.743745655210546, 36.102001788541521 ], [ 128.745012377618195, 36.109310098887647 ], [ 128.751644434649592, 36.103049735467955 ], [ 128.752748591269182, 36.095825935618848 ], [ 128.750264227084728, 36.092068361257027 ], [ 128.753673105566776, 36.090780182358344 ], [ 128.758583288564353, 36.096838914902165 ], [ 128.764519750516001, 36.100656857712274 ], [ 128.766846368397211, 36.100184893441927 ], [ 128.769433148467698, 36.096912828993517 ], [ 128.776484036997545, 36.095671084538175 ], [ 128.78735378018834, 36.089591196436125 ], [ 128.788978406953163, 36.085933071565243 ], [ 128.795217263664966, 36.087059726899717 ], [ 128.798531299584994, 36.085317417450554 ], [ 128.802087048976233, 36.085971177942966 ], [ 128.816390161693249, 36.092307993615712 ], [ 128.819375943411359, 36.090088517591333 ], [ 128.821279647295569, 36.086133967382246 ], [ 128.820090990526467, 36.077997360845146 ], [ 128.824013125297455, 36.067326407784797 ], [ 128.821771222250192, 36.06458220560129 ], [ 128.82056368200054, 36.057668544775673 ], [ 128.817210350917321, 36.05565774027329 ], [ 128.816236195374813, 36.047601863442239 ], [ 128.810789524587108, 36.046890184689765 ], [ 128.814010714630456, 36.043858675166291 ], [ 128.809552859008306, 36.041394265390871 ], [ 128.807863006305354, 36.031759376930573 ], [ 128.808232284995455, 36.029331413019477 ], [ 128.814331719410916, 36.022739699624672 ], [ 128.811350089196736, 36.023342957556878 ], [ 128.80789248010646, 36.020858449386836 ], [ 128.798120069518006, 36.020799497832286 ], [ 128.790456315197446, 36.02532828835735 ], [ 128.7890961371711, 36.023940915405149 ], [ 128.787513890080277, 36.026194890930121 ], [ 128.783957014418178, 36.026911534473399 ], [ 128.780155806299433, 36.025321781331265 ], [ 128.779357235043534, 36.026854320685366 ], [ 128.774330631849182, 36.028165223361512 ], [ 128.773037701414324, 36.022130273469742 ], [ 128.77164978285964, 36.021675361353488 ], [ 128.757423006552727, 36.027109897795498 ], [ 128.744595904233421, 36.017840157166418 ], [ 128.733843382598877, 36.015029660609834 ], [ 128.731467718080808, 36.012290917453065 ], [ 128.729062228388074, 36.012459234561739 ], [ 128.72768941988744, 36.009476276527728 ], [ 128.721843942573969, 36.008313317742996 ], [ 128.721713105835249, 36.005894370871943 ], [ 128.700396866107013, 36.01073691228472 ], [ 128.695929647989658, 36.01302047186104 ], [ 128.694159149375849, 36.018213251034673 ] ] ] ] } },
{ "type": "Feature", "properties": { "emd_cd": "47230330", "emd_nm": "화산면" }, "geometry": { "type": "MultiPolygon", "coordinates": [ [ [ [ 128.808232284995455, 36.029331413019477 ], [ 128.809552859008306, 36.041394265390871 ], [ 128.814010714630456, 36.043858675166291 ], [ 128.810789524587108, 36.046890184689765 ], [ 128.816236195374813, 36.047601863442239 ], [ 128.817210350917321, 36.05565774027329 ], [ 128.82056368200054, 36.057668544775673 ], [ 128.821771222250192, 36.06458220560129 ], [ 128.824013125297455, 36.067326407784797 ], [ 128.820090990526467, 36.077997360845146 ], [ 128.821204038486059, 36.086677691243992 ], [ 128.816390161693249, 36.092307993615712 ], [ 128.81883217110348, 36.094130054256766 ], [ 128.818260819773087, 36.096910837694438 ], [ 128.82198164697482, 36.100279701994801 ], [ 128.831677063920779, 36.102489012868624 ], [ 128.841250688848277, 36.098762228930305 ], [ 128.842638704814874, 36.094130635557704 ], [ 128.841886209132923, 36.090953291453523 ], [ 128.84633301693114, 36.079025833294175 ], [ 128.844766601523389, 36.07722818670419 ], [ 128.845013772354235, 36.073516310881544 ], [ 128.846594221885454, 36.07356278429593 ], [ 128.854370354872657, 36.065984530965487 ], [ 128.858197058688177, 36.065534762669969 ], [ 128.860610801099881, 36.060962481811814 ], [ 128.863192328605777, 36.061727818796427 ], [ 128.865219043661, 36.060447624482876 ], [ 128.865591891811221, 36.057820391347001 ], [ 128.867862913887336, 36.05733751118315 ], [ 128.866589425168087, 36.054827000926124 ], [ 128.871960002906178, 36.048926165421136 ], [ 128.874517548352657, 36.049826434960281 ], [ 128.877971402904564, 36.04060054848884 ], [ 128.889690064933177, 36.043608732886135 ], [ 128.891824024673184, 36.039919155335674 ], [ 128.898961514097351, 36.039927497099228 ], [ 128.904196669191577, 36.035624709426919 ], [ 128.906560328215591, 36.022918178698966 ], [ 128.909879619149422, 36.019104585678157 ], [ 128.907760673371996, 36.017099885444999 ], [ 128.910716689075173, 36.014618722951873 ], [ 128.909260581097698, 36.004937546468575 ], [ 128.906832127073926, 36.001086169636046 ], [ 128.904112478307582, 36.001246304482081 ], [ 128.897546842323209, 35.995771377682345 ], [ 128.893940672107277, 35.998933854443692 ], [ 128.893101736395494, 36.004787240114204 ], [ 128.889952008782103, 36.004493608497967 ], [ 128.886940913759275, 36.006532194991564 ], [ 128.88322228705897, 36.004419688778412 ], [ 128.885286258338084, 36.001553296935718 ], [ 128.884637523011975, 35.999595209191583 ], [ 128.880629990776896, 36.000257517191159 ], [ 128.876121243269097, 36.003359935769254 ], [ 128.876564159684307, 36.000423162198864 ], [ 128.875160723537903, 35.999672943747662 ], [ 128.872187981633544, 36.001910445148205 ], [ 128.870463737896443, 35.999278062428814 ], [ 128.871278052712313, 35.996040214615441 ], [ 128.869390195322751, 35.994954757437029 ], [ 128.864698749717917, 35.998743806428678 ], [ 128.860377368568606, 35.998908746509578 ], [ 128.859175374710048, 36.001492209646862 ], [ 128.854347263787474, 36.003081026067228 ], [ 128.8467026907297, 36.011043294881489 ], [ 128.835437823419284, 36.011670598060512 ], [ 128.841620719523121, 36.016815628885723 ], [ 128.834739281274636, 36.017471643790103 ], [ 128.832932113990609, 36.02231768624624 ], [ 128.816621813130496, 36.025078816377274 ], [ 128.81679674166682, 36.022766555775107 ], [ 128.818587623861873, 36.021756685074109 ], [ 128.817004262846865, 36.020630975001161 ], [ 128.808232284995455, 36.029331413019477 ] ] ] ] } },
{ "type": "Feature", "properties": { "emd_cd": "47230340", "emd_nm": "화북면" }, "geometry": { "type": "MultiPolygon", "coordinates": [ [ [ [ 128.970631703194584, 36.087847882893783 ], [ 128.958896081416668, 36.085016518009247 ], [ 128.955534617483039, 36.082557706626069 ], [ 128.954136618685709, 36.077574410176766 ], [ 128.947607170075514, 36.074653955285555 ], [ 128.945651764170975, 36.076701859987274 ], [ 128.944268412750972, 36.075397759891509 ], [ 128.941700431703651, 36.076255303384208 ], [ 128.938584524695244, 36.07308516537752 ], [ 128.93465212761464, 36.072365335389719 ], [ 128.92786213871625, 36.074550360294609 ], [ 128.923109624119519, 36.071049994102829 ], [ 128.915863138088099, 36.074619174780771 ], [ 128.914313719496931, 36.078889599063672 ], [ 128.910940666974653, 36.081645910077164 ], [ 128.910542306379341, 36.08525047034032 ], [ 128.907430006918503, 36.088288136980061 ], [ 128.909201762761057, 36.100687007320104 ], [ 128.907597543679259, 36.10546801818289 ], [ 128.904475247501267, 36.10888475601638 ], [ 128.902595930919006, 36.108157753602903 ], [ 128.900918994777101, 36.109691346563196 ], [ 128.898303434895098, 36.11543245019346 ], [ 128.894619633331416, 36.118282110646646 ], [ 128.896166556372577, 36.121887237986861 ], [ 128.890587434247152, 36.125602224269372 ], [ 128.890574723374755, 36.130066322029286 ], [ 128.897298922495708, 36.138594844546233 ], [ 128.896028009071074, 36.142349240981368 ], [ 128.891584863862903, 36.143478874373884 ], [ 128.890039206229289, 36.147251696573846 ], [ 128.892167168221789, 36.152066003511727 ], [ 128.891605517937791, 36.155040726652757 ], [ 128.895479178718489, 36.159822311838965 ], [ 128.900196392312381, 36.162377431250057 ], [ 128.894447180496769, 36.169406760417424 ], [ 128.897275205437808, 36.176716802455893 ], [ 128.906023112416904, 36.177512268651107 ], [ 128.909600837120166, 36.180726136560807 ], [ 128.914600066519341, 36.179778200446833 ], [ 128.919558849677685, 36.184593503089076 ], [ 128.92816689937203, 36.179455679227303 ], [ 128.929951072866714, 36.181077144667618 ], [ 128.933489523616061, 36.178351838563636 ], [ 128.937275070507269, 36.179362886100307 ], [ 128.9498792922451, 36.168966578558184 ], [ 128.962738963479495, 36.166549040794379 ], [ 128.968978649982859, 36.16126511249535 ], [ 128.973776595296414, 36.161752211554024 ], [ 128.973671769066016, 36.160626610497573 ], [ 128.978372514144951, 36.166160342392551 ], [ 128.985699295278351, 36.168101614967043 ], [ 128.997724387732603, 36.167753451558866 ], [ 129.006708707471148, 36.163433730046201 ], [ 129.00642335069486, 36.156572387775377 ], [ 129.008197323500582, 36.150596725132196 ], [ 129.004194470244983, 36.147785814497276 ], [ 129.00568415638827, 36.14452923534342 ], [ 129.00243376034831, 36.142007728911494 ], [ 129.002765727348134, 36.139151854352512 ], [ 128.998081559645982, 36.137383427753541 ], [ 129.000587436398177, 36.131562326148057 ], [ 129.002944597393906, 36.130982978503582 ], [ 129.007644055683301, 36.125760764029557 ], [ 129.00725492510054, 36.123507588236833 ], [ 129.00306459226357, 36.120138137917614 ], [ 128.997155132706126, 36.121865537182785 ], [ 128.983464377455817, 36.114732540708346 ], [ 128.976146750330031, 36.114876888997323 ], [ 128.97269227774953, 36.111117444952733 ], [ 128.976893849190247, 36.100126824202512 ], [ 128.974659537151979, 36.097971255367831 ], [ 128.974443578355476, 36.09471709491342 ], [ 128.970631703194584, 36.087847882893783 ] ] ] ] } },
{ "type": "Feature", "properties": { "emd_cd": "47230350", "emd_nm": "화남면" }, "geometry": { "type": "MultiPolygon", "coordinates": [ [ [ [ 128.891584863862903, 36.143478874373884 ], [ 128.896028009071074, 36.142349240981368 ], [ 128.897298922495708, 36.138594844546233 ], [ 128.890574723374755, 36.130066322029286 ], [ 128.890587434247152, 36.125602224269372 ], [ 128.896166556372577, 36.121887237986861 ], [ 128.894619633331416, 36.118282110646646 ], [ 128.898303434895098, 36.11543245019346 ], [ 128.900918994777101, 36.109691346563196 ], [ 128.902595930919006, 36.108157753602903 ], [ 128.904475247501267, 36.10888475601638 ], [ 128.907597543679259, 36.10546801818289 ], [ 128.909201762761057, 36.100687007320104 ], [ 128.907430006918503, 36.088288136980061 ], [ 128.910542306379341, 36.08525047034032 ], [ 128.910940666974653, 36.081645910077164 ], [ 128.914313719496931, 36.078889599063672 ], [ 128.915863138088099, 36.074619174780771 ], [ 128.923109624119519, 36.071049994102829 ], [ 128.92786213871625, 36.074550360294609 ], [ 128.93465212761464, 36.072365335389719 ], [ 128.938584524695244, 36.07308516537752 ], [ 128.941700431703651, 36.076255303384208 ], [ 128.944268412750972, 36.075397759891509 ], [ 128.945651764170975, 36.076701859987274 ], [ 128.947607170075514, 36.074653955285555 ], [ 128.954136618685709, 36.077574410176766 ], [ 128.955534617483039, 36.082557706626069 ], [ 128.963620896819975, 36.086391744913996 ], [ 128.966433656226144, 36.083254468553648 ], [ 128.9673873042195, 36.07534486634696 ], [ 128.972690143144661, 36.069794865752293 ], [ 128.971223919359716, 36.067427185199385 ], [ 128.971869883433897, 36.057641523526598 ], [ 128.967863940486041, 36.055649970245902 ], [ 128.966181126408827, 36.051969281674502 ], [ 128.958969624303421, 36.049422219279563 ], [ 128.959935757726697, 36.042993307562554 ], [ 128.958690362960056, 36.041230575122867 ], [ 128.955486840495638, 36.037770146387729 ], [ 128.953053913131043, 36.039063939112118 ], [ 128.948687665708064, 36.036870431466873 ], [ 128.945312232016363, 36.037568373169648 ], [ 128.944344359809207, 36.034035005078245 ], [ 128.939394545932061, 36.033191199034874 ], [ 128.935443700096329, 36.027509369962615 ], [ 128.93478737580628, 36.023854560009731 ], [ 128.931491948664615, 36.021811417349568 ], [ 128.929803591497688, 36.021486853577578 ], [ 128.925965556692688, 36.025773255583758 ], [ 128.923386432225584, 36.034015763874841 ], [ 128.916862189117154, 36.037405631452799 ], [ 128.911440314676895, 36.036842997547772 ], [ 128.906937362108692, 36.0331235114501 ], [ 128.89896151409414, 36.039927497099328 ], [ 128.891824024670029, 36.039919155335809 ], [ 128.889690064929965, 36.043608732886184 ], [ 128.877971402901409, 36.040600548488896 ], [ 128.874517548349615, 36.04982643496033 ], [ 128.871960002903108, 36.048926165421229 ], [ 128.866589425165131, 36.054827000926231 ], [ 128.867862913884323, 36.057337511183235 ], [ 128.865591891808236, 36.057820391347164 ], [ 128.865219043658072, 36.060447624483004 ], [ 128.863192328602764, 36.061727818796477 ], [ 128.860610801096897, 36.060962481811913 ], [ 128.858197058685278, 36.065534762670048 ], [ 128.854370354869729, 36.065984530965622 ], [ 128.84659422188264, 36.073562784296058 ], [ 128.845013772351422, 36.073516310881672 ], [ 128.844766601520575, 36.077228186704346 ], [ 128.846333016928327, 36.079025833294281 ], [ 128.841886209130138, 36.090953291453665 ], [ 128.842638704812003, 36.094130635557754 ], [ 128.84125068884552, 36.098762228930347 ], [ 128.832781481099317, 36.101153579955167 ], [ 128.837346683628198, 36.107842790061767 ], [ 128.837838492541181, 36.113051937041789 ], [ 128.843141306428663, 36.112922672706333 ], [ 128.845047957788097, 36.116325036990752 ], [ 128.850952740848953, 36.118176917419554 ], [ 128.852455754070121, 36.121294367134972 ], [ 128.850901042020354, 36.124264664156115 ], [ 128.85344295730772, 36.128418437251824 ], [ 128.850630977596012, 36.137426128601703 ], [ 128.858573880718637, 36.144969365596296 ], [ 128.867983145402633, 36.145235470625657 ], [ 128.876528672732491, 36.142627173408123 ], [ 128.891584863862903, 36.143478874373884 ] ] ] ] } },
{ "type": "Feature", "properties": { "emd_cd": "47230360", "emd_nm": "자양면" }, "geometry": { "type": "MultiPolygon", "coordinates": [ [ [ [ 129.019547414853548, 36.06438578287672 ], [ 129.010565420629916, 36.062678792572484 ], [ 129.005886485893967, 36.064981814353118 ], [ 129.003778969332359, 36.068188264231949 ], [ 128.996276468956978, 36.071441245898534 ], [ 128.992899268592964, 36.077144332933393 ], [ 128.985778270742884, 36.077888593786604 ], [ 128.98207190357175, 36.080816959486839 ], [ 128.980227122632016, 36.085866573477361 ], [ 128.986935971608432, 36.093842136816697 ], [ 128.985845452515861, 36.097666156765136 ], [ 128.983528897480966, 36.099841577910595 ], [ 128.976893849190247, 36.100126824202512 ], [ 128.97269227774953, 36.111117444952733 ], [ 128.976146750330031, 36.114876888997323 ], [ 128.983464377455817, 36.114732540708346 ], [ 128.997155132706126, 36.121865537182785 ], [ 129.00306459226357, 36.120138137917614 ], [ 129.00725492510054, 36.123507588236833 ], [ 129.007644055683301, 36.125760764029557 ], [ 129.002944597393906, 36.130982978503582 ], [ 129.000587436398177, 36.131562326148057 ], [ 128.998081559645982, 36.137383427753541 ], [ 129.002765727348134, 36.139151854352512 ], [ 129.00243376034831, 36.142007728911494 ], [ 129.00568415638827, 36.14452923534342 ], [ 129.004194470244983, 36.147785814497276 ], [ 129.008197323500582, 36.150596725132196 ], [ 129.00642335069486, 36.156572387775377 ], [ 129.006708707471148, 36.163433730046201 ], [ 129.012798467963819, 36.163772864673248 ], [ 129.019510487109642, 36.160485991264871 ], [ 129.030671623082696, 36.15902677749601 ], [ 129.036352612344587, 36.155655671896106 ], [ 129.044440735238453, 36.156116262674466 ], [ 129.044050983565654, 36.154507174401139 ], [ 129.047268269346802, 36.150363029581115 ], [ 129.05381591874243, 36.14944436176846 ], [ 129.055310412331693, 36.146406382969076 ], [ 129.062878992283771, 36.143535806317274 ], [ 129.064518290264573, 36.135115462434875 ], [ 129.059268482863956, 36.129779424543706 ], [ 129.066795040282358, 36.123727750062272 ], [ 129.068770530458693, 36.120082065018565 ], [ 129.068032678280332, 36.11791191225165 ], [ 129.070989204303658, 36.114175508064783 ], [ 129.076374803693568, 36.113772881785039 ], [ 129.078924408195263, 36.111007074838831 ], [ 129.081412318616657, 36.117449306199269 ], [ 129.089138227321996, 36.118342769616987 ], [ 129.097958856779769, 36.122016054610093 ], [ 129.104293657296466, 36.116976158111513 ], [ 129.105152264027595, 36.114070546272977 ], [ 129.10373577414282, 36.11198348663433 ], [ 129.099475272721151, 36.106367100846533 ], [ 129.093520948059592, 36.104259246139812 ], [ 129.0930104474117, 36.100781407126775 ], [ 129.095050920272001, 36.095155413096634 ], [ 129.09778756775242, 36.093990697226808 ], [ 129.105083261740816, 36.085609094367122 ], [ 129.112138870092849, 36.08203175786997 ], [ 129.111349217695647, 36.07754969226243 ], [ 129.094747704090963, 36.066601732959633 ], [ 129.088697921003416, 36.066318717764183 ], [ 129.086232263730892, 36.060358925414398 ], [ 129.081941053393564, 36.057821976183817 ], [ 129.081095896854038, 36.055020576377778 ], [ 129.033478534711151, 36.060322638230843 ], [ 129.02622908162428, 36.059041756917651 ], [ 129.019547414853548, 36.06438578287672 ] ] ] ] } },
{ "type": "Feature", "properties": { "emd_cd": "47230370", "emd_nm": "임고면" }, "geometry": { "type": "MultiPolygon", "coordinates": [ [ [ [ 128.954433571770352, 36.018206703522978 ], [ 128.956580629827442, 36.024049141724397 ], [ 128.955061046872487, 36.029978132407756 ], [ 128.957018734709806, 36.034153296319808 ], [ 128.956060878020253, 36.038254177492369 ], [ 128.959935757730619, 36.042993307562455 ], [ 128.958969624307258, 36.049422219279407 ], [ 128.966181126412721, 36.051969281674353 ], [ 128.96786394049002, 36.05564997024576 ], [ 128.972021209105662, 36.058290159564017 ], [ 128.971223919363638, 36.067427185199307 ], [ 128.97269014314864, 36.069794865752179 ], [ 128.967387304223422, 36.075344866346811 ], [ 128.966266038140049, 36.078553802144398 ], [ 128.967317155925457, 36.079962085689402 ], [ 128.964505349922092, 36.086274051903239 ], [ 128.970631703198507, 36.087847882893634 ], [ 128.97444357835937, 36.094717094913278 ], [ 128.974659537155958, 36.097971255367739 ], [ 128.976893849194312, 36.100126824202405 ], [ 128.983528897485087, 36.099841577910468 ], [ 128.985845452519982, 36.097666156765008 ], [ 128.98693597161261, 36.093842136816555 ], [ 128.980227122636052, 36.08586657347719 ], [ 128.983983498745658, 36.078637887176718 ], [ 128.992899268597142, 36.07714433293328 ], [ 128.996276468961156, 36.071441245898434 ], [ 129.003778969336707, 36.068188264231807 ], [ 129.005886485898287, 36.064981814352961 ], [ 129.010565420634236, 36.06267879257237 ], [ 129.019547414857868, 36.064385782876556 ], [ 129.026229081628799, 36.059041756917459 ], [ 129.033478534715726, 36.060322638230737 ], [ 129.08109589685921, 36.055020576377565 ], [ 129.081941053398822, 36.057821976183654 ], [ 129.086232263736122, 36.06035892541427 ], [ 129.088697921008702, 36.066318717763977 ], [ 129.094747704096363, 36.066601732959413 ], [ 129.10230824070851, 36.072538420562665 ], [ 129.108824342968376, 36.07495696337967 ], [ 129.111797438904574, 36.079258067406201 ], [ 129.117007744769467, 36.08009984179342 ], [ 129.118845163734989, 36.078993057827361 ], [ 129.127697642847465, 36.081053839503248 ], [ 129.134694955154856, 36.074448139828718 ], [ 129.133447653652098, 36.068438826132081 ], [ 129.137240128819286, 36.064627955752407 ], [ 129.136008467533713, 36.062325046705865 ], [ 129.137010330857976, 36.061193465948129 ], [ 129.14405104460505, 36.057262925313609 ], [ 129.148581046806498, 36.058235121784072 ], [ 129.151450158358443, 36.055041846621627 ], [ 129.151115951485963, 36.050828450035596 ], [ 129.147614065189941, 36.049432931471472 ], [ 129.145491539172241, 36.043823473075271 ], [ 129.141945973857389, 36.04054050152132 ], [ 129.138800422495024, 36.040174959700863 ], [ 129.137277791826051, 36.036185488219658 ], [ 129.134850561940567, 36.036399774340062 ], [ 129.134986949491463, 36.034536750856098 ], [ 129.124870577166064, 36.036431863132592 ], [ 129.117001561247804, 36.040560098701029 ], [ 129.111270216005579, 36.034909664858333 ], [ 129.102669987432677, 36.036077545868167 ], [ 129.098414648902747, 36.033835493496916 ], [ 129.096297342470223, 36.03102323408347 ], [ 129.097852920116992, 36.0259725633126 ], [ 129.088862552403413, 36.020316957472183 ], [ 129.076198939342817, 36.02545037562961 ], [ 129.062422973764484, 36.027939977240635 ], [ 129.057246498786697, 36.033729442826491 ], [ 129.054975146196597, 36.031768541366013 ], [ 129.049007867762498, 36.03412923229547 ], [ 129.048541299401336, 36.030181949161467 ], [ 129.042715455442021, 36.027064002345831 ], [ 129.035232948639816, 36.030371563379937 ], [ 129.032425010206765, 36.025337776049824 ], [ 129.026164416040245, 36.024699205673336 ], [ 129.024138125587257, 36.021913595039571 ], [ 129.021111944136976, 36.0219236186526 ], [ 129.020279016763112, 36.012236763604953 ], [ 129.012476920104177, 36.010302718192172 ], [ 129.010838054534474, 36.007413901692999 ], [ 129.006371490888768, 36.005530538750591 ], [ 128.996787296531579, 36.004408446772452 ], [ 128.9954102964372, 36.0015416869226 ], [ 128.991254182961882, 36.001835304486811 ], [ 128.984586729260059, 35.999015247598408 ], [ 128.981729740100008, 36.004150343290789 ], [ 128.97885881081848, 36.001917494766559 ], [ 128.977339358525484, 35.99361296133727 ], [ 128.973391991753516, 35.993673431108256 ], [ 128.970103923830834, 35.990556849448552 ], [ 128.96749502206012, 35.992254317174968 ], [ 128.964781947599306, 35.987970756551263 ], [ 128.961851500886212, 35.990644981795668 ], [ 128.962383857849375, 35.993360308868915 ], [ 128.959853514228882, 35.998861911347227 ], [ 128.961870534794969, 36.001353264891392 ], [ 128.958056277959514, 36.007861116191023 ], [ 128.95675920951436, 36.015415343056532 ], [ 128.954433571770352, 36.018206703522978 ] ] ] ] } },
{ "type": "Feature", "properties": { "emd_cd": "47230380", "emd_nm": "고경면" }, "geometry": { "type": "MultiPolygon", "coordinates": [ [ [ [ 128.967254672342364, 35.978745099453526 ], [ 128.97060450501013, 35.9833563736969 ], [ 128.973526556784435, 35.984335799472142 ], [ 128.977587066673436, 35.990956149964951 ], [ 128.977030611068187, 35.994951008064781 ], [ 128.978954414409287, 35.997983884874166 ], [ 128.97885881081848, 36.001917494766559 ], [ 128.980851608634879, 36.003719489764791 ], [ 128.98350129795017, 36.002304573417817 ], [ 128.984586729260059, 35.999015247598408 ], [ 128.991254182961882, 36.001835304486811 ], [ 128.9954102964372, 36.0015416869226 ], [ 128.996787296531579, 36.004408446772452 ], [ 129.004760265066579, 36.005058656862239 ], [ 129.010838054534474, 36.007413901692999 ], [ 129.012092209720436, 36.010087900371516 ], [ 129.021263222830981, 36.013366481956403 ], [ 129.020201037307487, 36.016041086427506 ], [ 129.021111944136976, 36.0219236186526 ], [ 129.024138125587257, 36.021913595039571 ], [ 129.026164416040245, 36.024699205673336 ], [ 129.032425010206765, 36.025337776049824 ], [ 129.035232948639816, 36.030371563379937 ], [ 129.042715455442021, 36.027064002345831 ], [ 129.044856419060181, 36.027779233601919 ], [ 129.04919625543323, 36.030993062064773 ], [ 129.049007867762498, 36.03412923229547 ], [ 129.052496984449988, 36.031959725445219 ], [ 129.058367302466763, 36.033364533731664 ], [ 129.062422973764484, 36.027939977240635 ], [ 129.076198939342817, 36.02545037562961 ], [ 129.088623665276828, 36.020291248105657 ], [ 129.097852920116992, 36.0259725633126 ], [ 129.096297342470223, 36.03102323408347 ], [ 129.098414648902747, 36.033835493496916 ], [ 129.102669987432677, 36.036077545868167 ], [ 129.111270216005579, 36.034909664858333 ], [ 129.117529539436674, 36.040532723446226 ], [ 129.124870577166064, 36.036431863132592 ], [ 129.134214092087319, 36.034386356644248 ], [ 129.141047137036566, 36.025121774792048 ], [ 129.144991427545534, 36.011797269003026 ], [ 129.135072791505735, 36.005994590371323 ], [ 129.126712142110421, 36.005118515356997 ], [ 129.122606024466307, 36.006538397288658 ], [ 129.116795085729223, 36.013265137695299 ], [ 129.114918254799903, 36.013220676527439 ], [ 129.111073798135493, 36.005857823424058 ], [ 129.113755593091895, 36.000429557204257 ], [ 129.111577653210844, 35.995902921901688 ], [ 129.11420924142962, 35.992835903392006 ], [ 129.114256400401189, 35.98878002057922 ], [ 129.117538170543867, 35.985216041368318 ], [ 129.118326725633835, 35.974457858678917 ], [ 129.11686405793904, 35.971129501035776 ], [ 129.119083440444086, 35.968983404592755 ], [ 129.116498010597979, 35.961441371973791 ], [ 129.123431615409942, 35.954674630007169 ], [ 129.124909720316992, 35.950645004036538 ], [ 129.128390945620112, 35.948805764301362 ], [ 129.128613524446223, 35.944963199823185 ], [ 129.130909041471455, 35.94363345092146 ], [ 129.129904200047719, 35.940035558994126 ], [ 129.13269101519117, 35.939031559349324 ], [ 129.136522961951272, 35.932760374980326 ], [ 129.130882059946657, 35.923890595002831 ], [ 129.127790672744595, 35.921519652721557 ], [ 129.121983187026757, 35.921789676161495 ], [ 129.118975331239795, 35.916788224177942 ], [ 129.114331979692281, 35.917819812967103 ], [ 129.114165556680291, 35.923092394475447 ], [ 129.109784224743436, 35.930106778213911 ], [ 129.095311112962321, 35.940357692566621 ], [ 129.087880174926227, 35.938107158744259 ], [ 129.083618053868577, 35.939724979125771 ], [ 129.081964675497829, 35.937353528275366 ], [ 129.078740940462268, 35.941357978783834 ], [ 129.072645860179023, 35.942262759078055 ], [ 129.065322401686927, 35.941078389378511 ], [ 129.062428949827108, 35.937733184115508 ], [ 129.06128526788271, 35.939466019236754 ], [ 129.058040726574859, 35.939777861045009 ], [ 129.052982250189842, 35.945958748840283 ], [ 129.0475021669765, 35.945666135846075 ], [ 129.042012923260302, 35.942505954501193 ], [ 129.037141440963921, 35.944134341872676 ], [ 129.037494958317922, 35.945259601678757 ], [ 129.032952989834371, 35.947890371582787 ], [ 129.025180934610546, 35.948633758723801 ], [ 129.01760573394364, 35.951596775020867 ], [ 129.004270267773279, 35.942143279107874 ], [ 128.992243314114575, 35.955901346020582 ], [ 128.989878255483632, 35.954103311733071 ], [ 128.98708580873236, 35.954443829770341 ], [ 128.986220352035332, 35.95946585483766 ], [ 128.982135009225829, 35.959153123644896 ], [ 128.980043943452614, 35.964467319788767 ], [ 128.97538226483104, 35.967064689602019 ], [ 128.974846962879184, 35.969447189403638 ], [ 128.969243216896757, 35.969670420726509 ], [ 128.967254672342364, 35.978745099453526 ] ] ] ] } },
{ "type": "Feature", "properties": { "emd_cd": "47230390", "emd_nm": "북안면" }, "geometry": { "type": "MultiPolygon", "coordinates": [ [ [ [ 128.968982881658917, 35.841124513068088 ], [ 128.972611101964816, 35.848413727952185 ], [ 128.971301224170105, 35.852146586544457 ], [ 128.974993628414438, 35.854876785962247 ], [ 128.971588068534089, 35.862701683613068 ], [ 128.972743208079265, 35.865050106551642 ], [ 128.969216592261915, 35.871209586840124 ], [ 128.970583314544058, 35.874220500733365 ], [ 128.96556712980933, 35.879974902514725 ], [ 128.967289305491761, 35.884007787921604 ], [ 128.970824104033397, 35.883824355701321 ], [ 128.976460552171062, 35.890545356807387 ], [ 128.974083248753203, 35.895096448306909 ], [ 128.974755769828761, 35.89712311933971 ], [ 128.970448346778227, 35.899343253622462 ], [ 128.967734634446543, 35.903710578090113 ], [ 128.968383688108247, 35.908888163041681 ], [ 128.971078556109347, 35.913760303689777 ], [ 128.970490377720438, 35.919538361183541 ], [ 128.97219471053711, 35.928415037807476 ], [ 128.969201978814965, 35.934168527484431 ], [ 128.962366741037243, 35.936163513564118 ], [ 128.960491527489722, 35.941903357216084 ], [ 128.969534995066937, 35.942018884353232 ], [ 128.970177571910455, 35.943879657474191 ], [ 128.977027736959997, 35.947189146765815 ], [ 128.983406259291428, 35.944917537532405 ], [ 128.984268899034987, 35.946283930044842 ], [ 128.982758485237895, 35.948426132354541 ], [ 128.985709959646641, 35.952973552707164 ], [ 128.992243314110453, 35.95590134602066 ], [ 129.004270267768931, 35.942143279108002 ], [ 129.017605733939206, 35.951596775020924 ], [ 129.025180934606027, 35.948633758723929 ], [ 129.032952989829795, 35.947890371582886 ], [ 129.037494958313346, 35.945259601678906 ], [ 129.03714144095926, 35.944134341872847 ], [ 129.042012923255584, 35.942505954501328 ], [ 129.047502166971697, 35.945666135846253 ], [ 129.052982250185011, 35.945958748840447 ], [ 129.058040726570056, 35.939777861045179 ], [ 129.061285267877793, 35.939466019236875 ], [ 129.062428949822106, 35.9377331841157 ], [ 129.058542403761038, 35.932835477483586 ], [ 129.061964884573342, 35.929515458681522 ], [ 129.060571755476303, 35.92644674799925 ], [ 129.056402611178981, 35.923828715941475 ], [ 129.055106621611543, 35.919723584971237 ], [ 129.04714154916914, 35.918149797741108 ], [ 129.045694565170265, 35.912419724985362 ], [ 129.037783057813527, 35.912329469069242 ], [ 129.035282808952985, 35.908366059148314 ], [ 129.026524236701533, 35.906668084155619 ], [ 129.027812060472854, 35.902900162783986 ], [ 129.026244977040506, 35.899280363701507 ], [ 129.028175548206178, 35.897845602380087 ], [ 129.026298492313117, 35.896169366748538 ], [ 129.026996559226745, 35.893825056832213 ], [ 129.025252330869847, 35.890325205448541 ], [ 129.030020523755837, 35.88359367386672 ], [ 129.028984862802957, 35.882518305337868 ], [ 129.03113411171185, 35.879201936774685 ], [ 129.030598082505435, 35.874596659366603 ], [ 129.032861078502776, 35.870436155114028 ], [ 129.019058820300614, 35.856504098329374 ], [ 129.014671299450271, 35.845971524126334 ], [ 129.013146398796266, 35.844513276214521 ], [ 129.009935596869013, 35.844970534214021 ], [ 129.004321609087128, 35.842323271484993 ], [ 128.993756833087815, 35.840399614193188 ], [ 128.991109323381522, 35.838070650121047 ], [ 128.988272416221577, 35.837960933051754 ], [ 128.987309715138309, 35.83462081511091 ], [ 128.981548552456644, 35.833071509682107 ], [ 128.977510921742549, 35.832645074640304 ], [ 128.970615753271517, 35.835483271465755 ], [ 128.968982881658917, 35.841124513068088 ] ] ] ] } },
{ "type": "Feature", "properties": { "emd_cd": "47230400", "emd_nm": "대창면" }, "geometry": { "type": "MultiPolygon", "coordinates": [ [ [ [ 128.859260675039735, 35.877417960184921 ], [ 128.866411672213303, 35.88358362207925 ], [ 128.870984655246389, 35.884077259420941 ], [ 128.875114755945873, 35.889231378933196 ], [ 128.881153483903574, 35.892497388999907 ], [ 128.881827553210599, 35.899621148849384 ], [ 128.886340524709993, 35.89914830629364 ], [ 128.889388533199252, 35.893805102583485 ], [ 128.89561702579465, 35.898836141652907 ], [ 128.901477552836838, 35.900147650857527 ], [ 128.905340571435261, 35.893397398462866 ], [ 128.907339462366622, 35.892473376647146 ], [ 128.90968020152124, 35.894487585356273 ], [ 128.912098832101236, 35.89378665516054 ], [ 128.912502053968268, 35.891164026933247 ], [ 128.913962626306187, 35.890679743559382 ], [ 128.910895466903838, 35.889126247517225 ], [ 128.914662640185099, 35.886039668782004 ], [ 128.917164168563716, 35.886797748453255 ], [ 128.92197449071827, 35.884514388034241 ], [ 128.926026485877003, 35.879597964078201 ], [ 128.931230520542016, 35.8811789764111 ], [ 128.940220373726078, 35.889661282927136 ], [ 128.94400276910676, 35.890532474821129 ], [ 128.948069292157896, 35.882498891535107 ], [ 128.967289305495683, 35.88400778792149 ], [ 128.965567129813195, 35.879974902514626 ], [ 128.970583314548065, 35.874220500733259 ], [ 128.969216592265781, 35.871209586839981 ], [ 128.972743208083244, 35.865050106551507 ], [ 128.971588068538011, 35.862701683612912 ], [ 128.974993628418446, 35.854876785962155 ], [ 128.971301224174056, 35.852146586544393 ], [ 128.972611101968766, 35.848413727952014 ], [ 128.968982881662868, 35.841124513067946 ], [ 128.959182706337145, 35.841541574582628 ], [ 128.950099702887229, 35.832424123791306 ], [ 128.948242525996903, 35.832663418780008 ], [ 128.94459460417545, 35.829800834957652 ], [ 128.941792411721678, 35.831563978449402 ], [ 128.940709166173491, 35.835095853859173 ], [ 128.93505825234655, 35.835452671867081 ], [ 128.933244576142812, 35.83698791400861 ], [ 128.927537938117581, 35.836169617500609 ], [ 128.92463884366552, 35.834082164416451 ], [ 128.922946841163593, 35.835902323366405 ], [ 128.917796643444518, 35.835509444147682 ], [ 128.915115689603368, 35.836992001628033 ], [ 128.914351799863311, 35.833306226636424 ], [ 128.909691952515004, 35.831306897206488 ], [ 128.903687744984666, 35.83632673950342 ], [ 128.896461836064873, 35.836967193568249 ], [ 128.892762032113694, 35.8444098683551 ], [ 128.883051292162349, 35.842900352250354 ], [ 128.882209388585466, 35.846582131779876 ], [ 128.875468664259216, 35.851512421554069 ], [ 128.875816850545192, 35.860074792232673 ], [ 128.873891260258603, 35.864715572179136 ], [ 128.861583886999398, 35.871713742147357 ], [ 128.859260675039735, 35.877417960184921 ] ] ] ] } }
]
}
