{
"type": "FeatureCollection",
"name": "47280",
"crs": { "type": "name", "properties": { "name": "urn:ogc:def:crs:OGC:1.3:CRS84" } },
"features": [
{ "type": "Feature", "properties": { "emd_cd": "47280101", "emd_nm": "점촌동" }, "geometry": { "type": "MultiPolygon", "coordinates": [ [ [ [ 128.197022616253633, 36.587423025620005 ], [ 128.197242603058299, 36.590392992092092 ], [ 128.193542565340067, 36.595146656557588 ], [ 128.192266555715548, 36.599935795611266 ], [ 128.192217573875809, 36.601808151359073 ], [ 128.196484882914376, 36.602706956579155 ], [ 128.207082609857451, 36.596475241159382 ], [ 128.2093312683524, 36.592933470539748 ], [ 128.20524778395199, 36.59268967903045 ], [ 128.201344521723513, 36.588989261564542 ], [ 128.197022616253633, 36.587423025620005 ] ] ] ] } },
{ "type": "Feature", "properties": { "emd_cd": "47280102", "emd_nm": "영신동" }, "geometry": { "type": "MultiPolygon", "coordinates": [ [ [ [ 128.221291880717871, 36.580182010504124 ], [ 128.217622024925362, 36.572639446856044 ], [ 128.206091542269121, 36.572222660635745 ], [ 128.207844558895232, 36.577174710095974 ], [ 128.205002534584935, 36.582467646608073 ], [ 128.207574327252871, 36.588072520845138 ], [ 128.209792803425273, 36.588400458370572 ], [ 128.208463462356406, 36.590268965479439 ], [ 128.209475688517443, 36.592553214396595 ], [ 128.211869893124458, 36.593381065474169 ], [ 128.214171302319102, 36.591875084077223 ], [ 128.220026330225437, 36.584539705631414 ], [ 128.221291880717871, 36.580182010504124 ] ] ] ] } },
{ "type": "Feature", "properties": { "emd_cd": "47280103", "emd_nm": "흥덕동" }, "geometry": { "type": "MultiPolygon", "coordinates": [ [ [ [ 128.195978195878496, 36.602437390006912 ], [ 128.195552623945133, 36.603914154541847 ], [ 128.198278827292, 36.605267644615076 ], [ 128.199984345485262, 36.611996596309773 ], [ 128.204163264773371, 36.614201521505599 ], [ 128.210698262932823, 36.614349307834139 ], [ 128.212599412462879, 36.610742148775074 ], [ 128.219252801523822, 36.605399830588659 ], [ 128.218050928296691, 36.602458474057421 ], [ 128.216368894475806, 36.602977484386194 ], [ 128.211914192573801, 36.600061550120223 ], [ 128.210570489901357, 36.596067137941823 ], [ 128.211869893124458, 36.593381065474169 ], [ 128.209406070574516, 36.592476598709688 ], [ 128.207157756193965, 36.596402941131728 ], [ 128.202025597343749, 36.598702795231141 ], [ 128.200236344951406, 36.6016056859347 ], [ 128.195978195878496, 36.602437390006912 ] ] ] ] } },
{ "type": "Feature", "properties": { "emd_cd": "47280104", "emd_nm": "우지동" }, "geometry": { "type": "MultiPolygon", "coordinates": [ [ [ [ 128.177498341630496, 36.626868746382819 ], [ 128.181809372345839, 36.631872730040065 ], [ 128.186382824390705, 36.630246855893823 ], [ 128.188678540388338, 36.631276193621702 ], [ 128.190423978520585, 36.628276095512568 ], [ 128.194953400537656, 36.6270411384506 ], [ 128.197824738526748, 36.630139487592039 ], [ 128.199032876470852, 36.628963197724083 ], [ 128.202075905733636, 36.630312930817311 ], [ 128.203307490671676, 36.627472733721994 ], [ 128.205880977688821, 36.626477416107349 ], [ 128.206257293268692, 36.620815138403572 ], [ 128.210698262932823, 36.614349307834139 ], [ 128.202726376073144, 36.613912843164861 ], [ 128.199984345485262, 36.611996596309773 ], [ 128.197840478127404, 36.60683235111533 ], [ 128.193196709110822, 36.607828381973462 ], [ 128.19061162802214, 36.612829260056351 ], [ 128.190907000845385, 36.615751915882797 ], [ 128.187758081470321, 36.616301657894404 ], [ 128.181294017775542, 36.624949843425249 ], [ 128.177498341630496, 36.626868746382819 ] ] ] ] } },
{ "type": "Feature", "properties": { "emd_cd": "47280105", "emd_nm": "창동" }, "geometry": { "type": "MultiPolygon", "coordinates": [ [ [ [ 128.202075905733636, 36.630312930817311 ], [ 128.199032876470852, 36.628963197724083 ], [ 128.197824738526748, 36.630139487592039 ], [ 128.19438069912411, 36.627093489462972 ], [ 128.190423978520585, 36.628276095512568 ], [ 128.188678540388338, 36.631276193621702 ], [ 128.185817169588631, 36.630351306684616 ], [ 128.181487295468571, 36.632995760038717 ], [ 128.187492155599671, 36.637736417913707 ], [ 128.187158649353023, 36.643047465421013 ], [ 128.195323004908204, 36.644674241572908 ], [ 128.202017440549781, 36.636875233940742 ], [ 128.202075905733636, 36.630312930817311 ] ] ] ] } },
{ "type": "Feature", "properties": { "emd_cd": "47280106", "emd_nm": "신기동" }, "geometry": { "type": "MultiPolygon", "coordinates": [ [ [ [ 128.176509087406032, 36.646313338185131 ], [ 128.184860426666575, 36.643932341594365 ], [ 128.188533855751331, 36.644480070777469 ], [ 128.186912092253522, 36.642012465606228 ], [ 128.187492155599671, 36.637736417913707 ], [ 128.182112679999648, 36.634071864212864 ], [ 128.178877433079634, 36.628142725480586 ], [ 128.173370335527466, 36.625575001731974 ], [ 128.170101587324126, 36.621650549132269 ], [ 128.16732153145702, 36.625316497531522 ], [ 128.163056238500957, 36.627806040632066 ], [ 128.161100551419651, 36.627389414701611 ], [ 128.158607267617953, 36.630147086950629 ], [ 128.153698965605116, 36.629210050117479 ], [ 128.151472418504994, 36.63035893478505 ], [ 128.153204313660638, 36.631689214300508 ], [ 128.15053919296497, 36.636327172532326 ], [ 128.154099272745668, 36.639208637699177 ], [ 128.163877279457267, 36.641899167431447 ], [ 128.158640571998404, 36.641865963267151 ], [ 128.161951219296071, 36.643027441675137 ], [ 128.176509087406032, 36.646313338185131 ] ] ] ] } },
{ "type": "Feature", "properties": { "emd_cd": "47280107", "emd_nm": "불정동" }, "geometry": { "type": "MultiPolygon", "coordinates": [ [ [ [ 128.139406889515243, 36.658705800500506 ], [ 128.144651223979423, 36.650212914760694 ], [ 128.152624611488108, 36.64201810257569 ], [ 128.16395979910132, 36.642129718030645 ], [ 128.15435048626577, 36.63934037229415 ], [ 128.15053919296497, 36.636327172532326 ], [ 128.153204313660638, 36.631689214300508 ], [ 128.149556683022496, 36.630379601922911 ], [ 128.14871282672371, 36.627654025220565 ], [ 128.147275163242369, 36.627543722247076 ], [ 128.14637815813299, 36.623609700027643 ], [ 128.142444810084299, 36.618391595341883 ], [ 128.144459704256576, 36.616108556479951 ], [ 128.143792323832884, 36.613461587476024 ], [ 128.138993737165691, 36.610727051518325 ], [ 128.127043254484391, 36.615698029987747 ], [ 128.125368080359465, 36.619188703001512 ], [ 128.121063744607682, 36.620087302981361 ], [ 128.119698190829041, 36.621926980159529 ], [ 128.115699208683338, 36.620980645371709 ], [ 128.110823363535445, 36.624923772173453 ], [ 128.107807568165384, 36.625412880873398 ], [ 128.106596055084253, 36.630014883142152 ], [ 128.115576565081113, 36.634358090558301 ], [ 128.113081863584341, 36.639108117051329 ], [ 128.115114904360212, 36.644399269734812 ], [ 128.120933269373495, 36.647269997175904 ], [ 128.129515406896161, 36.645872534768259 ], [ 128.134735679448227, 36.646644046362084 ], [ 128.137802355149091, 36.648988698459974 ], [ 128.137881572840854, 36.653499501454334 ], [ 128.134564009696987, 36.657023055121059 ], [ 128.139406889515243, 36.658705800500506 ] ] ] ] } },
{ "type": "Feature", "properties": { "emd_cd": "47280108", "emd_nm": "유곡동" }, "geometry": { "type": "MultiPolygon", "coordinates": [ [ [ [ 128.170101587324126, 36.621650549132269 ], [ 128.169624096365567, 36.617086473340223 ], [ 128.162195909859008, 36.616388319313096 ], [ 128.160337809157653, 36.613386535648132 ], [ 128.150228895889597, 36.61191115224652 ], [ 128.148985766441854, 36.60864036837593 ], [ 128.145300946657926, 36.60770417652752 ], [ 128.138993737165691, 36.610727051518325 ], [ 128.143792323832884, 36.613461587476024 ], [ 128.144459704256576, 36.616108556479951 ], [ 128.142444810084299, 36.618391595341883 ], [ 128.149556683022496, 36.630379601922911 ], [ 128.153698965605116, 36.629210050117479 ], [ 128.158607267617953, 36.630147086950629 ], [ 128.161100551419651, 36.627389414701611 ], [ 128.163056238500957, 36.627806040632066 ], [ 128.16732153145702, 36.625316497531522 ], [ 128.170101587324126, 36.621650549132269 ] ] ] ] } },
{ "type": "Feature", "properties": { "emd_cd": "47280109", "emd_nm": "공평동" }, "geometry": { "type": "MultiPolygon", "coordinates": [ [ [ [ 128.197840478127404, 36.60683235111533 ], [ 128.198278827292, 36.605267644615076 ], [ 128.195552623945133, 36.603914154541847 ], [ 128.195753153615982, 36.602115965453493 ], [ 128.189297372582331, 36.601858798443139 ], [ 128.185743650066087, 36.598257930102413 ], [ 128.177450883503951, 36.59539244620148 ], [ 128.175508049847849, 36.596935044451179 ], [ 128.172753512502908, 36.595774288780746 ], [ 128.171047716414478, 36.596962514159948 ], [ 128.162107596618966, 36.596552401927944 ], [ 128.161562049172971, 36.598501361379192 ], [ 128.157977807335328, 36.600289916935374 ], [ 128.151715046466421, 36.599332830266903 ], [ 128.147067334019823, 36.603226880932624 ], [ 128.145300946657926, 36.60770417652752 ], [ 128.148985766441854, 36.60864036837593 ], [ 128.150228895889597, 36.61191115224652 ], [ 128.160337809157653, 36.613386535648132 ], [ 128.162195909859008, 36.616388319313096 ], [ 128.169624096365567, 36.617086473340223 ], [ 128.170839134493292, 36.623402442071558 ], [ 128.177498341630496, 36.626868746382819 ], [ 128.181294017775542, 36.624949843425249 ], [ 128.187758081470321, 36.616301657894404 ], [ 128.190907000845385, 36.615751915882797 ], [ 128.19061162802214, 36.612829260056351 ], [ 128.193196709110822, 36.607828381973462 ], [ 128.197840478127404, 36.60683235111533 ] ] ] ] } },
{ "type": "Feature", "properties": { "emd_cd": "47280110", "emd_nm": "모전동" }, "geometry": { "type": "MultiPolygon", "coordinates": [ [ [ [ 128.194465636118139, 36.582807441500449 ], [ 128.188992119864253, 36.583608412071897 ], [ 128.182636152015846, 36.581172978906224 ], [ 128.178076906319632, 36.583885307801978 ], [ 128.181009708841628, 36.584958065919814 ], [ 128.177286765453061, 36.595229580089729 ], [ 128.185743650066087, 36.598257930102413 ], [ 128.189297372582331, 36.601858798443139 ], [ 128.192217573875809, 36.601808151359073 ], [ 128.193542565340067, 36.595146656557588 ], [ 128.197242603058299, 36.590392992092092 ], [ 128.194465636118139, 36.582807441500449 ] ] ] ] } },
{ "type": "Feature", "properties": { "emd_cd": "47280111", "emd_nm": "윤직동" }, "geometry": { "type": "MultiPolygon", "coordinates": [ [ [ [ 128.207248666723501, 36.578304254256224 ], [ 128.201596546972979, 36.578740710567473 ], [ 128.192734810369984, 36.583261433561084 ], [ 128.194465636118139, 36.582807441500449 ], [ 128.196296682623057, 36.587238325034811 ], [ 128.201344521723513, 36.588989261564542 ], [ 128.20524778395199, 36.59268967903045 ], [ 128.209296508285519, 36.592525206515198 ], [ 128.208590927633594, 36.589030313859197 ], [ 128.209792803425273, 36.588400458370572 ], [ 128.207574327252871, 36.588072520845138 ], [ 128.205002534584935, 36.582467646608073 ], [ 128.207248666723501, 36.578304254256224 ] ] ] ] } },
{ "type": "Feature", "properties": { "emd_cd": "47280250", "emd_nm": "문경읍" }, "geometry": { "type": "MultiPolygon", "coordinates": [ [ [ [ 128.193650414735316, 36.819523066913781 ], [ 128.215960633314126, 36.815453214722417 ], [ 128.224176600138577, 36.806836935245244 ], [ 128.231353377915838, 36.803843328004945 ], [ 128.233252463509075, 36.795454339588574 ], [ 128.232202955836584, 36.790719088476472 ], [ 128.222830882721041, 36.790772381952173 ], [ 128.212139112427849, 36.787936746165762 ], [ 128.209109896874224, 36.785188024456374 ], [ 128.206232589897922, 36.767392904511581 ], [ 128.209149838512076, 36.765350725909904 ], [ 128.206618152591659, 36.763372325585046 ], [ 128.205826066104635, 36.760204619525076 ], [ 128.198787124869028, 36.756133138067447 ], [ 128.201631192002679, 36.74529986323919 ], [ 128.200921842537298, 36.743471134355595 ], [ 128.182899596684791, 36.73824616789959 ], [ 128.174554816305488, 36.731015822835438 ], [ 128.176119636657347, 36.722998668128433 ], [ 128.167906128519945, 36.723944012043482 ], [ 128.161731406127245, 36.722528807016147 ], [ 128.158726752061625, 36.719433699026958 ], [ 128.151089530259213, 36.715967484189328 ], [ 128.144155826044909, 36.720200476304882 ], [ 128.137959684309749, 36.718713484845857 ], [ 128.124888737205339, 36.719113660798961 ], [ 128.122407823881929, 36.716959361426731 ], [ 128.119449360643159, 36.721522744747269 ], [ 128.113778606377792, 36.712102369535842 ], [ 128.108721684342811, 36.709381290333106 ], [ 128.085679388725396, 36.709133783057069 ], [ 128.077743782634315, 36.706146551135646 ], [ 128.071457983843544, 36.708238169379015 ], [ 128.073085251360652, 36.712371492993832 ], [ 128.068457541075901, 36.72212915702849 ], [ 128.060745940168346, 36.727050520037345 ], [ 128.057336997557911, 36.731225183531421 ], [ 128.055613962549927, 36.730566652271193 ], [ 128.050861078524008, 36.736875341817239 ], [ 128.032342473478934, 36.747600679268118 ], [ 128.032265244183691, 36.755191804172178 ], [ 128.04117609986173, 36.768331054999855 ], [ 128.044722264140148, 36.771060634924574 ], [ 128.044576261075576, 36.774580284101717 ], [ 128.046845598629545, 36.778589293538161 ], [ 128.045572340651063, 36.782429870396648 ], [ 128.048767171646034, 36.783629212367195 ], [ 128.054926785422424, 36.792609608195932 ], [ 128.056087574556983, 36.798332872773926 ], [ 128.053833073115896, 36.805185111703246 ], [ 128.057955695388301, 36.806999451879214 ], [ 128.056901192363483, 36.809530000031643 ], [ 128.059659698491856, 36.816773683381676 ], [ 128.067319069630287, 36.816737163937063 ], [ 128.074305229629516, 36.812778120551229 ], [ 128.085447920054918, 36.804001481707182 ], [ 128.084019046661552, 36.799248127209275 ], [ 128.090093370693268, 36.796537559979022 ], [ 128.093443902668042, 36.79670650293567 ], [ 128.092906335693641, 36.802743046561062 ], [ 128.094084038187276, 36.803531385658331 ], [ 128.10176664400862, 36.806240010902556 ], [ 128.10560398967371, 36.805936420239547 ], [ 128.110751991865101, 36.817353235804553 ], [ 128.119978860424652, 36.821539834278049 ], [ 128.119775957862203, 36.822962826953734 ], [ 128.131960503769847, 36.826201425307161 ], [ 128.135468727213919, 36.834760385232848 ], [ 128.140487862352614, 36.834498313394334 ], [ 128.14023012493729, 36.832630658810089 ], [ 128.142003236396192, 36.831897176051214 ], [ 128.145773533615454, 36.832107694414056 ], [ 128.147052055075051, 36.828948300474053 ], [ 128.150496813779256, 36.828226690570808 ], [ 128.156781947548296, 36.822599493906758 ], [ 128.163501197618672, 36.819661771912223 ], [ 128.175853548925488, 36.824492175804608 ], [ 128.186581488560165, 36.822754872869261 ], [ 128.193650414735316, 36.819523066913781 ] ] ] ] } },
{ "type": "Feature", "properties": { "emd_cd": "47280253", "emd_nm": "가은읍" }, "geometry": { "type": "MultiPolygon", "coordinates": [ [ [ [ 128.056473724082764, 36.582836330756351 ], [ 128.052194563136425, 36.584507919724267 ], [ 128.044669274351264, 36.582003969320418 ], [ 128.036100623077004, 36.585798915952665 ], [ 128.033229398044483, 36.582841747674351 ], [ 128.031126296315335, 36.584122268407882 ], [ 128.025297156181551, 36.582582755259963 ], [ 128.018477754687126, 36.587120379623364 ], [ 128.01499420485149, 36.593070908696156 ], [ 128.00877749136248, 36.596274149368547 ], [ 128.012960083008409, 36.601114470046667 ], [ 128.00786742840171, 36.605926761761772 ], [ 128.009162315273414, 36.607754585411399 ], [ 128.007138178135477, 36.612710320956595 ], [ 128.01017453594676, 36.61837583636985 ], [ 128.008797578188108, 36.620497399193226 ], [ 128.011793063018757, 36.622593654748052 ], [ 128.01060173024328, 36.624800391002154 ], [ 128.012337925603163, 36.628025586266283 ], [ 128.009441803434328, 36.630925761971561 ], [ 128.007127444132522, 36.637012054502264 ], [ 128.001211713999339, 36.637105777518336 ], [ 127.996658446504881, 36.63299675217106 ], [ 127.980604065985219, 36.636860302713366 ], [ 127.971797607299607, 36.636875882148807 ], [ 127.962373399298841, 36.645550634560088 ], [ 127.950271925278727, 36.649276422874522 ], [ 127.946816613654519, 36.6520875588796 ], [ 127.943979877588973, 36.651603917603296 ], [ 127.931768865558496, 36.655188862129449 ], [ 127.932209868872263, 36.664950490023699 ], [ 127.929498484973166, 36.669197699738909 ], [ 127.920198892039082, 36.66894313355786 ], [ 127.917771108461778, 36.667587863856902 ], [ 127.912516914115855, 36.678196742757841 ], [ 127.901125371500854, 36.680754885446667 ], [ 127.900096640869279, 36.68235554422121 ], [ 127.895348211599512, 36.681170315496139 ], [ 127.89119309061364, 36.682538953276563 ], [ 127.887493929387759, 36.678655828664404 ], [ 127.881579135425056, 36.680036121109097 ], [ 127.879858233480789, 36.678651767425748 ], [ 127.874082399467511, 36.681863158028904 ], [ 127.881982517749989, 36.683448229751292 ], [ 127.880888675049505, 36.687289951611461 ], [ 127.885820289144192, 36.688243690073257 ], [ 127.888595593900291, 36.69186578673078 ], [ 127.894182413288888, 36.692160671093397 ], [ 127.894188329839523, 36.694915084604034 ], [ 127.898229530456092, 36.693113246837036 ], [ 127.907385344776216, 36.692594501832644 ], [ 127.915842748259053, 36.693986418592537 ], [ 127.918542646213595, 36.69226780261922 ], [ 127.928882312767854, 36.690763752931346 ], [ 127.931567574368941, 36.69446882393212 ], [ 127.933633245149309, 36.706131828535376 ], [ 127.93567077333995, 36.704581792227764 ], [ 127.939144101252225, 36.705379212274622 ], [ 127.942725141106806, 36.704091920449862 ], [ 127.949745007659814, 36.706695236787787 ], [ 127.948815313904973, 36.717539868693095 ], [ 127.954312672614705, 36.720626803050777 ], [ 127.956171185990542, 36.725931206482493 ], [ 127.953531969943754, 36.728146717277546 ], [ 127.958498302294231, 36.736815376466737 ], [ 127.965776687232463, 36.731117103050352 ], [ 127.970810233065862, 36.730802929056594 ], [ 127.972940256674832, 36.726336657209963 ], [ 127.977019518614398, 36.72280531469027 ], [ 127.986858899850034, 36.717442525457521 ], [ 128.001857210467762, 36.717755128554394 ], [ 128.00940555584279, 36.728308988720919 ], [ 128.014888882814915, 36.730088271110617 ], [ 128.020941965402955, 36.721826859372214 ], [ 128.025803743675226, 36.718499786214934 ], [ 128.030760597529934, 36.718772485974448 ], [ 128.036110277040052, 36.71534323074254 ], [ 128.041695191680276, 36.714381171201829 ], [ 128.049168518186974, 36.707435830745624 ], [ 128.040871877493174, 36.701217413357774 ], [ 128.040710635859057, 36.690695691497091 ], [ 128.048236998608303, 36.687701102520364 ], [ 128.054023185812753, 36.681734194667037 ], [ 128.053443921576957, 36.672632462850864 ], [ 128.059597457114137, 36.671553088903174 ], [ 128.063763040758573, 36.668703243950866 ], [ 128.06481874628912, 36.657567595880849 ], [ 128.068976343448412, 36.6584657551101 ], [ 128.079066523489274, 36.646769291226818 ], [ 128.083770599511837, 36.644809605363925 ], [ 128.085582310284707, 36.646151125478319 ], [ 128.096306876815561, 36.644934177966832 ], [ 128.103702212592538, 36.647567724072516 ], [ 128.106538040442018, 36.64608636501135 ], [ 128.110626249592713, 36.647158011551163 ], [ 128.115114904360212, 36.644399269734812 ], [ 128.113081863584341, 36.639108117051329 ], [ 128.115576565081113, 36.634358090558301 ], [ 128.106596055084253, 36.630014883142152 ], [ 128.106891575954677, 36.625968789701972 ], [ 128.110823363535445, 36.624923772173453 ], [ 128.115699208683338, 36.620980645371709 ], [ 128.112387230074631, 36.618909935142398 ], [ 128.112305997363649, 36.610925140230087 ], [ 128.105267330784926, 36.606632945351095 ], [ 128.101631444947799, 36.608658810198001 ], [ 128.092084477709136, 36.608386005196564 ], [ 128.086744722153355, 36.609801687802189 ], [ 128.083688529202931, 36.609397608702167 ], [ 128.081489039655395, 36.606916864686966 ], [ 128.071505373315972, 36.605321458660953 ], [ 128.072107335114026, 36.598849401740331 ], [ 128.06858217266236, 36.596194182144771 ], [ 128.068306018163412, 36.59272280972732 ], [ 128.064689298569306, 36.588981090594103 ], [ 128.061443886435569, 36.588583356525589 ], [ 128.062350296433038, 36.587244730536227 ], [ 128.05736597251294, 36.585557669581817 ], [ 128.056473724082764, 36.582836330756351 ] ] ] ] } },
{ "type": "Feature", "properties": { "emd_cd": "47280310", "emd_nm": "영순면" }, "geometry": { "type": "MultiPolygon", "coordinates": [ [ [ [ 128.210570489901357, 36.596067137941823 ], [ 128.211914192573801, 36.600061550120223 ], [ 128.21688055116482, 36.603035236040363 ], [ 128.218050928296691, 36.602458474057421 ], [ 128.217894425943854, 36.597983052263402 ], [ 128.227381157114905, 36.596048646718486 ], [ 128.228449250307193, 36.586745219353901 ], [ 128.235571625637846, 36.58574772285111 ], [ 128.234685209350943, 36.586385943192518 ], [ 128.236727451476384, 36.586769638015809 ], [ 128.235653491016876, 36.591226994076933 ], [ 128.246516585066132, 36.593320552020209 ], [ 128.250776919945991, 36.59308900319229 ], [ 128.254392684432275, 36.588672634296898 ], [ 128.25878278885591, 36.58685129283554 ], [ 128.26230825029748, 36.590119931292215 ], [ 128.259210762755771, 36.594839760506765 ], [ 128.267459436876123, 36.596884068885743 ], [ 128.27027745873292, 36.600778720996523 ], [ 128.282076214281091, 36.588138472875457 ], [ 128.285557582359445, 36.577728456551242 ], [ 128.290641011504988, 36.579260881776392 ], [ 128.295865596180221, 36.578328551518162 ], [ 128.295599450892297, 36.564758511014986 ], [ 128.293601923443447, 36.559068287910101 ], [ 128.296944451875248, 36.553520671984856 ], [ 128.291383000690786, 36.551646424820888 ], [ 128.264978326646911, 36.551956773437951 ], [ 128.262100403802208, 36.546187429518667 ], [ 128.263508716705303, 36.545352953865439 ], [ 128.263388600414999, 36.542357704301978 ], [ 128.261745719556018, 36.54234346983128 ], [ 128.26750591836921, 36.537215355939125 ], [ 128.266968448359108, 36.533134581481782 ], [ 128.265164281500887, 36.531881687771047 ], [ 128.259592658402539, 36.53446139654551 ], [ 128.252449466112154, 36.535274087145325 ], [ 128.235751196164898, 36.530047617156036 ], [ 128.222301979937413, 36.534714441121977 ], [ 128.217048602543514, 36.539464654652903 ], [ 128.216365917710732, 36.545566248341324 ], [ 128.216838337455897, 36.557073421549703 ], [ 128.218571951250425, 36.557307492656761 ], [ 128.216529134240744, 36.562473627503934 ], [ 128.220364207949473, 36.569596648402154 ], [ 128.219287940083831, 36.575085701185685 ], [ 128.221291880717871, 36.580182010504124 ], [ 128.219515843499295, 36.585339359397224 ], [ 128.210570489901357, 36.596067137941823 ] ] ] ] } },
{ "type": "Feature", "properties": { "emd_cd": "47280320", "emd_nm": "산양면" }, "geometry": { "type": "MultiPolygon", "coordinates": [ [ [ [ 128.309510612069516, 36.656221009443009 ], [ 128.307870276718319, 36.652016253413933 ], [ 128.309779171860498, 36.641550668097487 ], [ 128.306988379028837, 36.638085462040507 ], [ 128.304547330925544, 36.635918360204379 ], [ 128.298340453405871, 36.635887927183255 ], [ 128.297470457233885, 36.632168504172995 ], [ 128.294868625179362, 36.631687109470199 ], [ 128.294394306109155, 36.629923530688863 ], [ 128.288617496764232, 36.629726510754828 ], [ 128.286431999848958, 36.626148631818573 ], [ 128.287335809343887, 36.621143367630836 ], [ 128.283017408976264, 36.616912370237628 ], [ 128.273265459757539, 36.61558535221036 ], [ 128.272580346563217, 36.614105049262314 ], [ 128.270004033508542, 36.614935327331935 ], [ 128.27230786338842, 36.612939143223834 ], [ 128.272235464241106, 36.609508383955351 ], [ 128.260644243516339, 36.611446805700091 ], [ 128.263592159771406, 36.604940452934997 ], [ 128.27027745873292, 36.600778720996523 ], [ 128.267459436876123, 36.596884068885743 ], [ 128.259210762755771, 36.594839760506765 ], [ 128.262305384317443, 36.591614487492706 ], [ 128.259537644353827, 36.587130519045104 ], [ 128.254392684432275, 36.588672634296898 ], [ 128.250776919945991, 36.59308900319229 ], [ 128.246516585066132, 36.593320552020209 ], [ 128.235653491016876, 36.591226994076933 ], [ 128.236727451476384, 36.586769638015809 ], [ 128.234685209350943, 36.586385943192518 ], [ 128.235612202083558, 36.585814008314749 ], [ 128.235571625637846, 36.58574772285111 ], [ 128.228449250307193, 36.586745219353901 ], [ 128.227381157114905, 36.596048646718486 ], [ 128.217549691956464, 36.598320180403235 ], [ 128.219252801523822, 36.605399830588659 ], [ 128.212599412462879, 36.610742148775074 ], [ 128.209929238890538, 36.61620253359628 ], [ 128.216242649624576, 36.62139714622478 ], [ 128.218134119912293, 36.618997569219658 ], [ 128.222320483924392, 36.621844796417079 ], [ 128.225196276447377, 36.619335286610301 ], [ 128.225737293872555, 36.615046649775302 ], [ 128.228264230750199, 36.615882696506709 ], [ 128.230671777147791, 36.619377320276087 ], [ 128.229090861658307, 36.619860197755678 ], [ 128.22761802188802, 36.62420860692729 ], [ 128.233243722123433, 36.62794279581594 ], [ 128.228467596000939, 36.632200452072851 ], [ 128.23322609442647, 36.635063081326123 ], [ 128.233887021327092, 36.638765632760908 ], [ 128.236562395758426, 36.638825399769352 ], [ 128.23736719414228, 36.637184555391556 ], [ 128.243497142688284, 36.637558727981464 ], [ 128.246487247481895, 36.633654655657189 ], [ 128.251067759641359, 36.633619219016005 ], [ 128.251524074201484, 36.629964388361358 ], [ 128.253606399938349, 36.629488291577808 ], [ 128.255594975202712, 36.634468405627786 ], [ 128.251626793114696, 36.644407055105958 ], [ 128.260673205055639, 36.64983449313533 ], [ 128.26082925929208, 36.645637796135517 ], [ 128.264168229484568, 36.64497723487947 ], [ 128.268778045853054, 36.647894550485532 ], [ 128.279450611786473, 36.651078589882943 ], [ 128.284120958633338, 36.650602898035352 ], [ 128.289013504040327, 36.655876128712961 ], [ 128.297146388127771, 36.654941918934959 ], [ 128.307483545852023, 36.657152668745645 ], [ 128.309510612069516, 36.656221009443009 ] ] ] ] } },
{ "type": "Feature", "properties": { "emd_cd": "47280330", "emd_nm": "호계면" }, "geometry": { "type": "MultiPolygon", "coordinates": [ [ [ [ 128.203307490671676, 36.627472733721994 ], [ 128.202017440549781, 36.636875233940742 ], [ 128.195323004908204, 36.644674241572908 ], [ 128.185636183812477, 36.643859612314493 ], [ 128.176509087406032, 36.646313338185131 ], [ 128.153576163870099, 36.641652895163681 ], [ 128.144651223979423, 36.650212914760694 ], [ 128.139989464946865, 36.658247166303205 ], [ 128.134564009696987, 36.657023055121059 ], [ 128.133024962804683, 36.659739828144907 ], [ 128.141167157616763, 36.664405368061054 ], [ 128.15923164694567, 36.666712080872124 ], [ 128.163924430897481, 36.675358864892665 ], [ 128.167341487049725, 36.676337570646339 ], [ 128.168782773932179, 36.684493784387428 ], [ 128.171319022708389, 36.684586951149399 ], [ 128.17966933904475, 36.692754979525127 ], [ 128.185344430756601, 36.695457736409054 ], [ 128.185200140716518, 36.697371350999404 ], [ 128.188644603141171, 36.700951811914514 ], [ 128.194049618285334, 36.703446554793445 ], [ 128.195032006107596, 36.706228749346437 ], [ 128.197634132458205, 36.706891928499793 ], [ 128.201910570013894, 36.712591769027895 ], [ 128.219480338633417, 36.712894739506481 ], [ 128.223298973597622, 36.709033326153396 ], [ 128.22134178562294, 36.705798158723653 ], [ 128.222749976985085, 36.695643275059176 ], [ 128.226805351731855, 36.693384326897551 ], [ 128.228549216951478, 36.690053455260816 ], [ 128.233129717981456, 36.689118410230989 ], [ 128.235383503096529, 36.685709011593318 ], [ 128.233687995536769, 36.683865080919695 ], [ 128.233913045300653, 36.6793325865589 ], [ 128.23626948442876, 36.677931994716374 ], [ 128.241487676059705, 36.678950207644405 ], [ 128.249386054875771, 36.674760816766991 ], [ 128.245888167439517, 36.670567557621055 ], [ 128.247107210020971, 36.659969510377778 ], [ 128.244154672728143, 36.659754089583565 ], [ 128.24211489394952, 36.656590270746818 ], [ 128.243295418990954, 36.651941416069533 ], [ 128.242334546920745, 36.650527371627938 ], [ 128.236816039729007, 36.649861606542764 ], [ 128.234578195514047, 36.645528784872525 ], [ 128.23014099262906, 36.644344215120078 ], [ 128.229274670915061, 36.641656701538253 ], [ 128.233118140589681, 36.640686496248343 ], [ 128.233984554262236, 36.638335306357149 ], [ 128.23322609442647, 36.635063081326123 ], [ 128.228467596000939, 36.632200452072851 ], [ 128.233243722123433, 36.62794279581594 ], [ 128.22761802188802, 36.62420860692729 ], [ 128.229090861658307, 36.619860197755678 ], [ 128.230671777147791, 36.619377320276087 ], [ 128.228264230750199, 36.615882696506709 ], [ 128.225737293872555, 36.615046649775302 ], [ 128.225196276447377, 36.619335286610301 ], [ 128.222320483924392, 36.621844796417079 ], [ 128.218134119912293, 36.618997569219658 ], [ 128.216242649624576, 36.62139714622478 ], [ 128.209929238890538, 36.61620253359628 ], [ 128.206257293268692, 36.620815138403572 ], [ 128.205880977688821, 36.626477416107349 ], [ 128.203307490671676, 36.627472733721994 ] ] ] ] } },
{ "type": "Feature", "properties": { "emd_cd": "47280340", "emd_nm": "산북면" }, "geometry": { "type": "MultiPolygon", "coordinates": [ [ [ [ 128.176119636657347, 36.722998668128433 ], [ 128.174554816305488, 36.731015822835438 ], [ 128.182899596684791, 36.73824616789959 ], [ 128.200921842537298, 36.743471134355595 ], [ 128.201631192002679, 36.74529986323919 ], [ 128.198787124869028, 36.756133138067447 ], [ 128.205826066104635, 36.760204619525076 ], [ 128.206618152591659, 36.763372325585046 ], [ 128.209149838512076, 36.765350725909904 ], [ 128.206232589897922, 36.767392904511581 ], [ 128.207970590045647, 36.773619049260205 ], [ 128.206600074793045, 36.775486996718797 ], [ 128.208522261522518, 36.777234963796701 ], [ 128.209109896874224, 36.785188024456374 ], [ 128.212139112427849, 36.787936746165762 ], [ 128.229361430663261, 36.791273622947685 ], [ 128.238662444490558, 36.787421951143365 ], [ 128.256240918881758, 36.784918552306479 ], [ 128.266042920867818, 36.778899717002858 ], [ 128.270132723205933, 36.779040594089359 ], [ 128.269041472540124, 36.771246594084438 ], [ 128.266754427354073, 36.76955517624728 ], [ 128.270511863820929, 36.764085353398443 ], [ 128.271045829833014, 36.759860837770972 ], [ 128.272370260117469, 36.758059964685778 ], [ 128.274538826569028, 36.758550847967086 ], [ 128.283003145388079, 36.755296590687507 ], [ 128.278483931605223, 36.7487017606717 ], [ 128.276961965794271, 36.742575065331515 ], [ 128.280692549904757, 36.739244536494311 ], [ 128.284856304611736, 36.738066105849988 ], [ 128.288360515464916, 36.728723002499137 ], [ 128.285231938219169, 36.720439374118136 ], [ 128.282664604715563, 36.719345328552428 ], [ 128.282238034430208, 36.715057765695001 ], [ 128.285153357205871, 36.715382682300188 ], [ 128.293018067191383, 36.711591576309843 ], [ 128.289926450090405, 36.702947170193518 ], [ 128.299391946567113, 36.702288765047633 ], [ 128.301700928671664, 36.700364538488287 ], [ 128.299943200608851, 36.699467473485115 ], [ 128.300072610433432, 36.696301301412227 ], [ 128.296352765344665, 36.690646578698008 ], [ 128.295459017191519, 36.68417585216288 ], [ 128.308838216653044, 36.677038208776061 ], [ 128.320421262957382, 36.678292205462192 ], [ 128.326687203268477, 36.669045726317172 ], [ 128.334226501733582, 36.665388213997616 ], [ 128.333735036321627, 36.661700695809074 ], [ 128.335448044311136, 36.658539811475492 ], [ 128.349028340622539, 36.654636224178752 ], [ 128.350017787442624, 36.651056636954308 ], [ 128.347549616407321, 36.646316677918996 ], [ 128.342403287454403, 36.64573410511629 ], [ 128.339597264529118, 36.647365456988823 ], [ 128.336945644148472, 36.646300466017735 ], [ 128.333847876469918, 36.642083825040928 ], [ 128.330902885602256, 36.641769142215516 ], [ 128.326972747864062, 36.644610933707952 ], [ 128.319302874433902, 36.644722467190796 ], [ 128.321808155084028, 36.647436454752274 ], [ 128.318612148952042, 36.653176320564249 ], [ 128.31996884815706, 36.656124674719017 ], [ 128.315897801651573, 36.656991131480275 ], [ 128.309918297599268, 36.656069071128172 ], [ 128.307483545852023, 36.657152668745645 ], [ 128.297146388127771, 36.654941918934959 ], [ 128.289013504040327, 36.655876128712961 ], [ 128.284120958633338, 36.650602898035352 ], [ 128.279450611786473, 36.651078589882943 ], [ 128.268778045853054, 36.647894550485532 ], [ 128.264168229484568, 36.64497723487947 ], [ 128.26082925929208, 36.645637796135517 ], [ 128.260673205055639, 36.64983449313533 ], [ 128.251626793114696, 36.644407055105958 ], [ 128.255594975202712, 36.634468405627786 ], [ 128.253606399938349, 36.629488291577808 ], [ 128.251524074201484, 36.629964388361358 ], [ 128.251067759641359, 36.633619219016005 ], [ 128.246487247481895, 36.633654655657189 ], [ 128.243497142688284, 36.637558727981464 ], [ 128.23736719414228, 36.637184555391556 ], [ 128.236562395758426, 36.638825399769352 ], [ 128.233887021327092, 36.638765632760908 ], [ 128.233118140589681, 36.640686496248343 ], [ 128.229274670915061, 36.641656701538253 ], [ 128.231385460931079, 36.645535266280405 ], [ 128.234578195514047, 36.645528784872525 ], [ 128.23544531763028, 36.648958803151288 ], [ 128.243295418990954, 36.651941416069533 ], [ 128.242045075920458, 36.656362134269955 ], [ 128.244154672728143, 36.659754089583565 ], [ 128.247107210020971, 36.659969510377778 ], [ 128.245888167439517, 36.670567557621055 ], [ 128.249386054875771, 36.674760816766991 ], [ 128.241487676059705, 36.678950207644405 ], [ 128.23626948442876, 36.677931994716374 ], [ 128.233913045300653, 36.6793325865589 ], [ 128.233687995536769, 36.683865080919695 ], [ 128.235383503096529, 36.685709011593318 ], [ 128.233129717981456, 36.689118410230989 ], [ 128.228549216951478, 36.690053455260816 ], [ 128.226805351731855, 36.693384326897551 ], [ 128.222749976985085, 36.695643275059176 ], [ 128.22134178562294, 36.705798158723653 ], [ 128.223298973597622, 36.709033326153396 ], [ 128.222592232649532, 36.710598170843483 ], [ 128.219480338633417, 36.712894739506481 ], [ 128.209913552655877, 36.712827725300613 ], [ 128.201910570013894, 36.712591769027895 ], [ 128.199242407478721, 36.70995399323823 ], [ 128.182961243883511, 36.715849220233416 ], [ 128.179950627248388, 36.720843708720444 ], [ 128.176119636657347, 36.722998668128433 ] ] ] ] } },
{ "type": "Feature", "properties": { "emd_cd": "47280350", "emd_nm": "동로면" }, "geometry": { "type": "MultiPolygon", "coordinates": [ [ [ [ 128.214199287117367, 36.815768100273907 ], [ 128.216326398534051, 36.826409411991776 ], [ 128.21556756903675, 36.834397274899587 ], [ 128.212719265105846, 36.838948286779996 ], [ 128.214122507379983, 36.849367995368269 ], [ 128.221383645420588, 36.84768465737335 ], [ 128.236513996904335, 36.848481956256315 ], [ 128.237338867096355, 36.851155438337081 ], [ 128.233989338753588, 36.856146173444721 ], [ 128.235218895736836, 36.859042681997941 ], [ 128.234434851481808, 36.863001054983947 ], [ 128.239186198999192, 36.865233442143925 ], [ 128.239051765692267, 36.867627994698445 ], [ 128.240918520632164, 36.869509592699728 ], [ 128.24023514854639, 36.871973428682175 ], [ 128.241840842208063, 36.872328741475961 ], [ 128.251963126521048, 36.867016929779247 ], [ 128.265024815033314, 36.864142395308527 ], [ 128.268570054390494, 36.860328769779649 ], [ 128.276176259398937, 36.857141937651143 ], [ 128.282433854596718, 36.856398937230637 ], [ 128.286555340155502, 36.845033735134002 ], [ 128.289449612746665, 36.84355568171933 ], [ 128.295623995160128, 36.835341202010063 ], [ 128.305840685762263, 36.828916459954939 ], [ 128.310707440572628, 36.828473080146217 ], [ 128.311596809197596, 36.825038616926861 ], [ 128.315748985238429, 36.822755741124347 ], [ 128.316450058212126, 36.816661642247134 ], [ 128.320848677256919, 36.815640053752134 ], [ 128.334459495380656, 36.816960676473585 ], [ 128.353180720361536, 36.812449957620657 ], [ 128.356762158977176, 36.810616230832991 ], [ 128.358073168015835, 36.805638343181791 ], [ 128.370040447312391, 36.800887614089049 ], [ 128.372048365849764, 36.796251761695203 ], [ 128.369048242881178, 36.791968213260503 ], [ 128.369961868930517, 36.789754938333964 ], [ 128.366667731530612, 36.783653080533149 ], [ 128.364499485337689, 36.774376379177497 ], [ 128.367772065747175, 36.767604914075143 ], [ 128.365759941106603, 36.762762989310779 ], [ 128.363334108903217, 36.761324198602729 ], [ 128.364472687630524, 36.757255602555681 ], [ 128.368113296830217, 36.755019066927417 ], [ 128.369222360948356, 36.752030625366437 ], [ 128.367306094712006, 36.747953401585605 ], [ 128.361802542710279, 36.743218866560746 ], [ 128.361726296860866, 36.740711913639892 ], [ 128.339072372488573, 36.740863191712599 ], [ 128.337044901026019, 36.736377502441592 ], [ 128.332377553335675, 36.734990920200879 ], [ 128.334699791991255, 36.723286392291548 ], [ 128.331535096725304, 36.720396435606162 ], [ 128.336268101715092, 36.71058915394552 ], [ 128.334361162839372, 36.707187182133943 ], [ 128.334916850100626, 36.703616995869069 ], [ 128.330610231663741, 36.697378135208787 ], [ 128.336897626893546, 36.693635981602597 ], [ 128.333603859713264, 36.687787326171787 ], [ 128.328173401805628, 36.683906128046125 ], [ 128.326326431227329, 36.684617033013168 ], [ 128.320421262957382, 36.678292205462192 ], [ 128.310613756498896, 36.676762844717217 ], [ 128.295459017191519, 36.68417585216288 ], [ 128.296352765344665, 36.690646578698008 ], [ 128.300072610433432, 36.696301301412227 ], [ 128.299943200608851, 36.699467473485115 ], [ 128.301700928671664, 36.700364538488287 ], [ 128.299391946567113, 36.702288765047633 ], [ 128.289926450090405, 36.702947170193518 ], [ 128.293018067191383, 36.711591576309843 ], [ 128.285153357205871, 36.715382682300188 ], [ 128.282238034430208, 36.715057765695001 ], [ 128.283016089287031, 36.720021066708391 ], [ 128.285231938219169, 36.720439374118136 ], [ 128.287367259913708, 36.724421379471444 ], [ 128.288067074032739, 36.730902349902074 ], [ 128.284856304611736, 36.738066105849988 ], [ 128.280692549904757, 36.739244536494311 ], [ 128.276961965794271, 36.742575065331515 ], [ 128.278483931605223, 36.7487017606717 ], [ 128.283003145388079, 36.755296590687507 ], [ 128.274538826569028, 36.758550847967086 ], [ 128.272370260117469, 36.758059964685778 ], [ 128.266754427354073, 36.76955517624728 ], [ 128.269041472540124, 36.771246594084438 ], [ 128.270132723205933, 36.779040594089359 ], [ 128.266042920867818, 36.778899717002858 ], [ 128.255349830649408, 36.785210397204878 ], [ 128.233691364385351, 36.789317552050989 ], [ 128.232202955836584, 36.790719088476472 ], [ 128.233252463509075, 36.795454339588574 ], [ 128.231353377915838, 36.803843328004945 ], [ 128.22565191283033, 36.805810810828525 ], [ 128.218906212858911, 36.813160994713556 ], [ 128.214199287117367, 36.815768100273907 ] ] ] ] } },
{ "type": "Feature", "properties": { "emd_cd": "47280360", "emd_nm": "마성면" }, "geometry": { "type": "MultiPolygon", "coordinates": [ [ [ [ 128.115114904360212, 36.644399269734812 ], [ 128.110626249592713, 36.647158011551163 ], [ 128.106538040442018, 36.64608636501135 ], [ 128.103702212592538, 36.647567724072516 ], [ 128.096306876815561, 36.644934177966832 ], [ 128.085582310284707, 36.646151125478319 ], [ 128.083770599511837, 36.644809605363925 ], [ 128.079066523489274, 36.646769291226818 ], [ 128.068976343448412, 36.6584657551101 ], [ 128.06481874628912, 36.657567595880849 ], [ 128.063763040758573, 36.668703243950866 ], [ 128.059597457114137, 36.671553088903174 ], [ 128.053443921576957, 36.672632462850864 ], [ 128.054023185812753, 36.681734194667037 ], [ 128.048236998608303, 36.687701102520364 ], [ 128.040710635859057, 36.690695691497091 ], [ 128.040871877493174, 36.701217413357774 ], [ 128.049168518186974, 36.707435830745624 ], [ 128.055398497135144, 36.708652743427677 ], [ 128.071457983843544, 36.708238169379015 ], [ 128.077743782634315, 36.706146551135646 ], [ 128.086670497439513, 36.709231971753979 ], [ 128.098375282269132, 36.710254077366578 ], [ 128.106200735231624, 36.708674575095948 ], [ 128.113778606377792, 36.712102369535842 ], [ 128.119449360643159, 36.721522744747269 ], [ 128.122407823881929, 36.716959361426731 ], [ 128.124888737205339, 36.719113660798961 ], [ 128.137959684309749, 36.718713484845857 ], [ 128.144155826044909, 36.720200476304882 ], [ 128.151089530259213, 36.715967484189328 ], [ 128.158726752061625, 36.719433699026958 ], [ 128.161731406127245, 36.722528807016147 ], [ 128.173856319670023, 36.72340917769521 ], [ 128.179013329209567, 36.721642127336942 ], [ 128.182961243883511, 36.715849220233416 ], [ 128.199242407478721, 36.70995399323823 ], [ 128.194049618285334, 36.703446554793445 ], [ 128.188644603141171, 36.700951811914514 ], [ 128.185200140716518, 36.697371350999404 ], [ 128.185344430756601, 36.695457736409054 ], [ 128.17966933904475, 36.692754979525127 ], [ 128.171319022708389, 36.684586951149399 ], [ 128.168782773932179, 36.684493784387428 ], [ 128.167341487049725, 36.676337570646339 ], [ 128.163924430897481, 36.675358864892665 ], [ 128.15923164694567, 36.666712080872124 ], [ 128.144414488988986, 36.665205193679775 ], [ 128.134448390729887, 36.661578715410108 ], [ 128.133024962804683, 36.659739828144907 ], [ 128.138318377045323, 36.650935543331983 ], [ 128.135336412235233, 36.646935857735251 ], [ 128.129515406896161, 36.645872534768259 ], [ 128.120933269373495, 36.647269997175904 ], [ 128.115114904360212, 36.644399269734812 ] ] ] ] } },
{ "type": "Feature", "properties": { "emd_cd": "47280370", "emd_nm": "농암면" }, "geometry": { "type": "MultiPolygon", "coordinates": [ [ [ [ 128.052194563136425, 36.584507919724267 ], [ 128.057983254625867, 36.581882764632006 ], [ 128.056659487428789, 36.578759099555853 ], [ 128.05874906365716, 36.574574493800739 ], [ 128.060610822454038, 36.57422397521659 ], [ 128.061333277936711, 36.569081377841634 ], [ 128.066221722220973, 36.561421209533364 ], [ 128.062979173441278, 36.561452805977531 ], [ 128.058115507689422, 36.556813583768289 ], [ 128.058513120152242, 36.554225755023744 ], [ 128.055139596987232, 36.549655414751719 ], [ 128.055959597504057, 36.547419744550794 ], [ 128.054060550541976, 36.546205241288952 ], [ 128.037739439122447, 36.548258583705163 ], [ 128.027497047089071, 36.547435221276423 ], [ 128.023323953319135, 36.544635430840096 ], [ 128.018920675981633, 36.545280034604431 ], [ 128.016506117211321, 36.543950618047312 ], [ 128.011585569349194, 36.548171536090997 ], [ 128.004727144448964, 36.550658348406536 ], [ 127.997530850883209, 36.549794623348497 ], [ 127.995366796417883, 36.546607957006621 ], [ 127.991239408064416, 36.544585801962924 ], [ 127.982016909249865, 36.545423862159311 ], [ 127.978505618313037, 36.54330185304179 ], [ 127.980897971809767, 36.536234860983079 ], [ 127.977636312640655, 36.533055109756106 ], [ 127.98116917476257, 36.527500541269468 ], [ 127.97820576904472, 36.51979132012152 ], [ 127.979586772949659, 36.513859436685749 ], [ 127.976939879464581, 36.513023175768645 ], [ 127.960087027937661, 36.520759417452666 ], [ 127.958124897817299, 36.524406234413959 ], [ 127.952811226903492, 36.523110594863972 ], [ 127.93665117979846, 36.52810340524718 ], [ 127.931821257186328, 36.532255371104661 ], [ 127.930276691481012, 36.536021526319033 ], [ 127.937771451460293, 36.53761991554218 ], [ 127.935700064967975, 36.54441703707662 ], [ 127.939914278768512, 36.548801136584011 ], [ 127.94003282395883, 36.551144698556996 ], [ 127.932831143179143, 36.557975159093729 ], [ 127.936502676342755, 36.564441421836733 ], [ 127.937153659461117, 36.570791746941019 ], [ 127.9305451129933, 36.57758474972573 ], [ 127.933188795544226, 36.583019785427624 ], [ 127.932834707143172, 36.591137083002465 ], [ 127.924900441001896, 36.598243683211024 ], [ 127.923863200320895, 36.602542755781002 ], [ 127.927479569934263, 36.603127526995053 ], [ 127.925584175304465, 36.60446890469705 ], [ 127.924911981686918, 36.616616380813376 ], [ 127.93367000289409, 36.619596936598263 ], [ 127.931722718353839, 36.624770177556151 ], [ 127.936631563693666, 36.633770075690215 ], [ 127.933916786168098, 36.636823457329733 ], [ 127.93445196567329, 36.641080187067026 ], [ 127.935947631893001, 36.645068937360477 ], [ 127.939427297309408, 36.64666663877972 ], [ 127.939097820402523, 36.653237102903873 ], [ 127.946816613654519, 36.6520875588796 ], [ 127.950271925278727, 36.649276422874522 ], [ 127.962373399298841, 36.645550634560088 ], [ 127.971797607299607, 36.636875882148807 ], [ 127.980604065985219, 36.636860302713366 ], [ 127.996658446504881, 36.63299675217106 ], [ 128.001211713999339, 36.637105777518336 ], [ 128.008373755138393, 36.636297747180386 ], [ 128.009441803434328, 36.630925761971561 ], [ 128.012337925603163, 36.628025586266283 ], [ 128.01060173024328, 36.624800391002154 ], [ 128.011793063018757, 36.622593654748052 ], [ 128.008797578188108, 36.620497399193226 ], [ 128.01017453594676, 36.61837583636985 ], [ 128.007138178135477, 36.612710320956595 ], [ 128.009162315273414, 36.607754585411399 ], [ 128.00786742840171, 36.605926761761772 ], [ 128.012960083008409, 36.601114470046667 ], [ 128.00877749136248, 36.596274149368547 ], [ 128.01499420485149, 36.593070908696156 ], [ 128.018477754687126, 36.587120379623364 ], [ 128.025297156181551, 36.582582755259963 ], [ 128.031126296315335, 36.584122268407882 ], [ 128.033229398044483, 36.582841747674351 ], [ 128.036100623077004, 36.585798915952665 ], [ 128.044669274351264, 36.582003969320418 ], [ 128.052194563136425, 36.584507919724267 ] ] ] ] } }
]
}
