{
"type": "FeatureCollection",
"name": "47750",
"crs": { "type": "name", "properties": { "name": "urn:ogc:def:crs:OGC:1.3:CRS84" } },
"features": [
{ "type": "Feature", "properties": { "emd_cd": "47750250", "emd_nm": "청송읍" }, "geometry": { "type": "MultiPolygon", "coordinates": [ [ [ [ 129.075781401000569, 36.467587816193131 ], [ 129.088127603994081, 36.460046570740722 ], [ 129.09243041927013, 36.463863009502575 ], [ 129.097964013499279, 36.464478661620177 ], [ 129.104891855471379, 36.462676574359406 ], [ 129.109988038785787, 36.457861830763633 ], [ 129.123651915057195, 36.457030052712 ], [ 129.127656287733373, 36.454693571699558 ], [ 129.134440306765498, 36.455052277437183 ], [ 129.137638700238341, 36.451057403181359 ], [ 129.153617718142272, 36.449631958808219 ], [ 129.16096150396271, 36.453743977943851 ], [ 129.169102442196532, 36.446544954964061 ], [ 129.168288832176017, 36.442152786633272 ], [ 129.171869496853787, 36.434461189113705 ], [ 129.18733671298051, 36.427800870560603 ], [ 129.17730036713499, 36.426820366361945 ], [ 129.1745118364897, 36.424421435153668 ], [ 129.170033527155624, 36.423594588802025 ], [ 129.167573500909981, 36.42022526063235 ], [ 129.162030309774451, 36.419075530970417 ], [ 129.159641989324655, 36.414586297067672 ], [ 129.152074963664944, 36.409324172748939 ], [ 129.146455389934971, 36.409715392160855 ], [ 129.139957781190759, 36.407747972544996 ], [ 129.136725672482385, 36.405725791825823 ], [ 129.134209792583704, 36.401464915871479 ], [ 129.126441022471198, 36.400933316691386 ], [ 129.11983790895664, 36.396816101817471 ], [ 129.115112456481143, 36.39610080159521 ], [ 129.1130025685936, 36.391303744691591 ], [ 129.109552736452684, 36.387987333705389 ], [ 129.106585763635877, 36.387536016930895 ], [ 129.106020851975956, 36.382669007145722 ], [ 129.10390178413158, 36.382771692535989 ], [ 129.100908565949624, 36.379548058628878 ], [ 129.098705462611804, 36.381132705470741 ], [ 129.093251765895587, 36.37988352712312 ], [ 129.088782130878087, 36.376754461196548 ], [ 129.081617232260498, 36.375525327759362 ], [ 129.076300059796637, 36.371710908280434 ], [ 129.067563611026713, 36.374882668554058 ], [ 129.061011113452423, 36.371763093376558 ], [ 129.052463603358945, 36.373274634564048 ], [ 129.055745121284758, 36.387393695388546 ], [ 129.049382334157627, 36.397895852664774 ], [ 129.049342853664484, 36.402154832026554 ], [ 129.046766148692484, 36.404318466735781 ], [ 129.047241624628811, 36.408369156151096 ], [ 129.040868407144984, 36.413710277801385 ], [ 129.039147435185811, 36.420739398037931 ], [ 129.040700305014468, 36.424107198056078 ], [ 129.031878155844993, 36.434874795169115 ], [ 129.030650062972512, 36.441374858130423 ], [ 129.034416135550458, 36.439999102797714 ], [ 129.035736286270463, 36.442047107507335 ], [ 129.045788625491781, 36.442547324457585 ], [ 129.051239746466621, 36.44564979397434 ], [ 129.057964690148481, 36.44598445790529 ], [ 129.058547478362783, 36.444784285245234 ], [ 129.062672766558535, 36.445959347458228 ], [ 129.064648152098329, 36.448945566331133 ], [ 129.060117564649119, 36.456398007358054 ], [ 129.062440123576522, 36.457147185051625 ], [ 129.063591309360589, 36.462498418990073 ], [ 129.068858800587691, 36.466532938281851 ], [ 129.075781401000569, 36.467587816193131 ] ] ] ] } },
{ "type": "Feature", "properties": { "emd_cd": "47750315", "emd_nm": "주왕산면" }, "geometry": { "type": "MultiPolygon", "coordinates": [ [ [ [ 129.198352997906881, 36.430267052533381 ], [ 129.202170227234404, 36.428750143649552 ], [ 129.210771738517252, 36.418600751517815 ], [ 129.211968780303266, 36.409877958958859 ], [ 129.210286642895454, 36.40771041145436 ], [ 129.214949034608907, 36.406994700873263 ], [ 129.216743657103336, 36.403654528522623 ], [ 129.226230209751577, 36.398968088792614 ], [ 129.227882047865705, 36.396255505296764 ], [ 129.222170042499499, 36.392304107514477 ], [ 129.220055548027318, 36.387089659068437 ], [ 129.221862592394871, 36.384775807514565 ], [ 129.226683380251444, 36.383644664514797 ], [ 129.227739689568836, 36.380220778722823 ], [ 129.218599900168527, 36.373263173787194 ], [ 129.2163291185677, 36.364343985843149 ], [ 129.216424398279344, 36.360637043253114 ], [ 129.220272121799297, 36.358667929367314 ], [ 129.220745213510099, 36.352852047942775 ], [ 129.224381661431238, 36.35002812708246 ], [ 129.22410215553279, 36.346616867746633 ], [ 129.228617626217982, 36.344287794182513 ], [ 129.243542709383291, 36.34603914472607 ], [ 129.254208206614777, 36.337551897505442 ], [ 129.252739804474402, 36.332691666781656 ], [ 129.253755090886216, 36.329439699505457 ], [ 129.250205668080355, 36.324370090227639 ], [ 129.251818452254639, 36.321500773672597 ], [ 129.246727787424248, 36.317850129587349 ], [ 129.238818670763777, 36.317935546761049 ], [ 129.236411384069413, 36.316483898655505 ], [ 129.23642227662927, 36.314361764318484 ], [ 129.232019377316135, 36.313134396009914 ], [ 129.231211742780118, 36.308598567468913 ], [ 129.225235961163321, 36.305184173030504 ], [ 129.223860748132552, 36.299901918310916 ], [ 129.220399737506398, 36.300701713752886 ], [ 129.21986073353969, 36.303002954285482 ], [ 129.215124015891803, 36.303636930972914 ], [ 129.208139909734768, 36.301041089538636 ], [ 129.203549084869906, 36.302719707543091 ], [ 129.197474816769756, 36.300169986347719 ], [ 129.183190172539753, 36.300215356350058 ], [ 129.180759089825131, 36.304772731249884 ], [ 129.175516093346374, 36.306572674139801 ], [ 129.175548309481542, 36.310122034756368 ], [ 129.181413820791533, 36.316672587279889 ], [ 129.176431896070142, 36.320403328545964 ], [ 129.172435448386381, 36.320311900217597 ], [ 129.173327719468915, 36.324164627567484 ], [ 129.171808542685454, 36.328367200654448 ], [ 129.175202478192233, 36.332377979877165 ], [ 129.174953328235631, 36.335262800856761 ], [ 129.172764423416339, 36.336837744293433 ], [ 129.169395311893879, 36.337052030283942 ], [ 129.158093490647019, 36.33176256011037 ], [ 129.157163140634168, 36.329435538674105 ], [ 129.154944200268659, 36.33067443599878 ], [ 129.150461002989942, 36.32855516695448 ], [ 129.141494674663335, 36.330103802263061 ], [ 129.140375244304067, 36.328061975972197 ], [ 129.135064455718776, 36.326629577284358 ], [ 129.132838312176233, 36.330506586748385 ], [ 129.128024351363479, 36.333116273032395 ], [ 129.124312084970654, 36.331707099182701 ], [ 129.120976945764511, 36.32810271335314 ], [ 129.112813816715146, 36.329418853206917 ], [ 129.109845368779361, 36.326358503160996 ], [ 129.099961940264194, 36.330942399038413 ], [ 129.096388090432015, 36.334699478880658 ], [ 129.087732170638787, 36.333966333796887 ], [ 129.080254109871788, 36.338462882103464 ], [ 129.079414817527692, 36.342739839540286 ], [ 129.075914319616714, 36.34607066352536 ], [ 129.07454514464473, 36.350387003264458 ], [ 129.071169181497766, 36.350536650007854 ], [ 129.067924580995623, 36.353894986806303 ], [ 129.062154239562233, 36.353477369313431 ], [ 129.059448099974645, 36.355933647157592 ], [ 129.062470437278591, 36.358747230646443 ], [ 129.067828628788646, 36.359374602801154 ], [ 129.067843619160897, 36.360469736804554 ], [ 129.074118558464306, 36.359525919897315 ], [ 129.073259685570463, 36.364117304454673 ], [ 129.072677516873711, 36.361616158071755 ], [ 129.070554998894949, 36.365553205358928 ], [ 129.057376694822239, 36.364522440853271 ], [ 129.048291685136832, 36.367223970083998 ], [ 129.049344519766692, 36.370990174215699 ], [ 129.052463603359001, 36.373274634564112 ], [ 129.061011113452508, 36.371763093376593 ], [ 129.067563611026657, 36.374882668554093 ], [ 129.076300059796665, 36.371710908280434 ], [ 129.081617232260442, 36.37552532775932 ], [ 129.088782130878059, 36.376754461196555 ], [ 129.093251765895587, 36.37988352712312 ], [ 129.098705462611804, 36.381132705470741 ], [ 129.100908565949624, 36.379548058628828 ], [ 129.10390178413158, 36.382771692535947 ], [ 129.106020851975956, 36.382669007145722 ], [ 129.106585763635792, 36.387536016930916 ], [ 129.109552736452684, 36.387987333705347 ], [ 129.113002568593657, 36.391303744691548 ], [ 129.115112456481199, 36.39610080159521 ], [ 129.119837908956697, 36.396816101817436 ], [ 129.126441022471141, 36.400933316691379 ], [ 129.134209792583704, 36.401464915871507 ], [ 129.136725672482385, 36.405725791825866 ], [ 129.139957781190844, 36.407747972544996 ], [ 129.146455389934914, 36.409715392160805 ], [ 129.152074963664944, 36.409324172748939 ], [ 129.159641989324712, 36.414586297067643 ], [ 129.162030309774451, 36.419075530970481 ], [ 129.167573500909981, 36.42022526063235 ], [ 129.170033527155596, 36.423594588801969 ], [ 129.174511836489756, 36.424421435153654 ], [ 129.17730036713499, 36.426820366361966 ], [ 129.183572243158721, 36.427918135133069 ], [ 129.188084619483448, 36.426507383390195 ], [ 129.198352997906881, 36.430267052533381 ] ] ] ] } },
{ "type": "Feature", "properties": { "emd_cd": "47750320", "emd_nm": "부남면" }, "geometry": { "type": "MultiPolygon", "coordinates": [ [ [ [ 129.048291685136832, 36.367223970084062 ], [ 129.057376694822182, 36.364522440853321 ], [ 129.067759477518081, 36.366121734464826 ], [ 129.071549379830458, 36.365292466822538 ], [ 129.074626292617637, 36.359856764493891 ], [ 129.071942130788585, 36.358964394922353 ], [ 129.06784361916084, 36.360469736804539 ], [ 129.067828628788646, 36.359374602801111 ], [ 129.061771297919023, 36.358362342569329 ], [ 129.059744416571647, 36.355374360399033 ], [ 129.063321060321869, 36.353083390440204 ], [ 129.067924580995623, 36.353894986806303 ], [ 129.071169181497766, 36.350536650007854 ], [ 129.074545144644674, 36.350387003264437 ], [ 129.081719609819629, 36.337439756331811 ], [ 129.087732170638787, 36.333966333796909 ], [ 129.096388090431958, 36.334699478880616 ], [ 129.099961940264251, 36.330942399038413 ], [ 129.109247223274167, 36.326469501339943 ], [ 129.112813816715089, 36.329418853206853 ], [ 129.120976945764511, 36.32810271335314 ], [ 129.124312084970569, 36.331707099182651 ], [ 129.128024351363479, 36.333116273032395 ], [ 129.13283831217629, 36.330506586748349 ], [ 129.134405983996658, 36.326663285415719 ], [ 129.14037524430401, 36.328061975972162 ], [ 129.141494674663278, 36.330103802263054 ], [ 129.150461002989914, 36.328555166954523 ], [ 129.154944200268574, 36.330674435998802 ], [ 129.157163140634168, 36.329435538674062 ], [ 129.158093490647019, 36.331762560110406 ], [ 129.169395311893823, 36.337052030283978 ], [ 129.172764423416396, 36.336837744293419 ], [ 129.174953328235546, 36.335262800856761 ], [ 129.175202478192233, 36.332377979877208 ], [ 129.171808542685511, 36.328367200654426 ], [ 129.173327719468858, 36.324164627567519 ], [ 129.172435448386437, 36.320311900217597 ], [ 129.176431896070113, 36.320403328545908 ], [ 129.181413820791619, 36.316672587279847 ], [ 129.175548309481599, 36.310122034756318 ], [ 129.175516093346374, 36.306572674139851 ], [ 129.180759089825187, 36.304772731249884 ], [ 129.184961321559314, 36.299279198706607 ], [ 129.189590568432777, 36.30072776537186 ], [ 129.197474816769699, 36.300169986347669 ], [ 129.203549084869962, 36.302719707543055 ], [ 129.208139909734768, 36.301041089538636 ], [ 129.215124015891917, 36.303636930972907 ], [ 129.21986073353969, 36.303002954285482 ], [ 129.220399737506398, 36.300701713752844 ], [ 129.223860748132552, 36.299901918310916 ], [ 129.228617310480075, 36.29582388293413 ], [ 129.225523658066237, 36.294297692377178 ], [ 129.225368387244544, 36.291049113711793 ], [ 129.220936128845921, 36.287795156767316 ], [ 129.226269295343542, 36.283283706051719 ], [ 129.226835528941649, 36.276998594706512 ], [ 129.222759290520798, 36.273333832767108 ], [ 129.214153869837986, 36.271985670999797 ], [ 129.213709243047276, 36.267447512546717 ], [ 129.210598628238188, 36.268141623546995 ], [ 129.207201962568263, 36.266693684021554 ], [ 129.205475328587283, 36.261737816107271 ], [ 129.206096478646089, 36.257385452857733 ], [ 129.201192624912636, 36.250836639782904 ], [ 129.198483974899972, 36.249648470271424 ], [ 129.199226432628052, 36.247107414752051 ], [ 129.197327525319423, 36.244177147845868 ], [ 129.194350028644692, 36.243628627019426 ], [ 129.190450599916318, 36.236778393001323 ], [ 129.186578312756836, 36.233424272485763 ], [ 129.178183163684452, 36.227563560944233 ], [ 129.171011321742867, 36.224761772443642 ], [ 129.166099830420762, 36.229265988028558 ], [ 129.165956030603894, 36.232044210515724 ], [ 129.152700641916539, 36.235330166886953 ], [ 129.147210952619872, 36.239146342970109 ], [ 129.145451089217772, 36.243336029006173 ], [ 129.13701016472433, 36.250339242325659 ], [ 129.137498663008557, 36.255093083927996 ], [ 129.133796623946381, 36.258059344514926 ], [ 129.132933686483739, 36.26190571168582 ], [ 129.126286394206971, 36.263924220271662 ], [ 129.121787328416076, 36.261543015539011 ], [ 129.117129224648835, 36.265812229310278 ], [ 129.111931663032294, 36.26409141193421 ], [ 129.106456416888392, 36.267214596075021 ], [ 129.10249919906866, 36.264698868378019 ], [ 129.098933666404236, 36.267834895610783 ], [ 129.098925734089249, 36.270757019802836 ], [ 129.093188661380481, 36.274421176637865 ], [ 129.089340579212234, 36.271754110238135 ], [ 129.083380694897642, 36.276529356894031 ], [ 129.080217357850557, 36.277129220021763 ], [ 129.076339065923946, 36.28132852408141 ], [ 129.073246164009277, 36.290260315573235 ], [ 129.070266281777236, 36.292672121349973 ], [ 129.070667823343939, 36.29992753315539 ], [ 129.064271653159608, 36.303757339874863 ], [ 129.06331170442175, 36.307566838917353 ], [ 129.060858001362448, 36.306493819886541 ], [ 129.055795861415049, 36.308735005282138 ], [ 129.051030399086869, 36.307602694735785 ], [ 129.050295383739041, 36.31094724548381 ], [ 129.045437020345673, 36.313772521479351 ], [ 129.040906532348316, 36.32786442522417 ], [ 129.033872801906369, 36.333689294095841 ], [ 129.031083673117735, 36.348290801348099 ], [ 129.032615144744256, 36.353754868189867 ], [ 129.035281867440176, 36.355007821885309 ], [ 129.037305860490989, 36.359977739655747 ], [ 129.048291685136832, 36.367223970084062 ] ] ] ] } },
{ "type": "Feature", "properties": { "emd_cd": "47750330", "emd_nm": "현동면" }, "geometry": { "type": "MultiPolygon", "coordinates": [ [ [ [ 129.032601813635409, 36.20357401560311 ], [ 129.031828328187942, 36.198156959889047 ], [ 129.027967130894126, 36.195619776886488 ], [ 129.026631149272731, 36.183431068436157 ], [ 129.021743066620161, 36.183158580336617 ], [ 129.017461847480121, 36.180517799596721 ], [ 129.009619507453124, 36.178847474264181 ], [ 129.001161442253135, 36.179628425323166 ], [ 129.003623769527366, 36.187481450942691 ], [ 129.000289269306961, 36.189990729123799 ], [ 129.001564482197381, 36.201793537115947 ], [ 128.995758293966105, 36.205239219683598 ], [ 128.994853081875306, 36.211011330242975 ], [ 128.990631068713867, 36.217608605688362 ], [ 128.991692294964565, 36.223940745537512 ], [ 128.986901183421367, 36.226175093596467 ], [ 128.98940160495485, 36.233041638595544 ], [ 128.994429137386931, 36.234381708939416 ], [ 128.99762990306084, 36.239327302089769 ], [ 128.988378730829766, 36.246147180658738 ], [ 128.98805860181929, 36.250521399179554 ], [ 128.993679928709696, 36.255251010063809 ], [ 128.993407546731703, 36.257709211856785 ], [ 128.997363003954348, 36.258807467503132 ], [ 129.002241088961512, 36.257906680088389 ], [ 129.004549004781921, 36.2598420100759 ], [ 129.006680130696395, 36.269582178159446 ], [ 129.01203422433781, 36.273172912857952 ], [ 129.010933501670536, 36.278120384542696 ], [ 129.013400581202887, 36.278462686992192 ], [ 129.004902317875064, 36.294627427139325 ], [ 128.995630418880353, 36.301494556631539 ], [ 128.995292395759577, 36.30349101050524 ], [ 128.991266537812749, 36.305072480507931 ], [ 128.987476602624469, 36.314328609287081 ], [ 128.990058225633959, 36.320597467040777 ], [ 128.996075829314577, 36.315742250598888 ], [ 129.004616630925057, 36.316163273202505 ], [ 129.008694335231894, 36.313984168040456 ], [ 129.029859313756845, 36.319789440793549 ], [ 129.042833676351421, 36.31218702936583 ], [ 129.046457115927012, 36.313451105425905 ], [ 129.050295383739041, 36.31094724548381 ], [ 129.051030399086869, 36.307602694735785 ], [ 129.055795861415049, 36.308735005282138 ], [ 129.060858001362448, 36.306493819886541 ], [ 129.06331170442175, 36.307566838917353 ], [ 129.064271653159608, 36.303757339874863 ], [ 129.070667823343939, 36.29992753315539 ], [ 129.070266281777236, 36.292672121349973 ], [ 129.073246164009277, 36.290260315573235 ], [ 129.076339065923946, 36.28132852408141 ], [ 129.080217357850557, 36.277129220021763 ], [ 129.070473074432158, 36.27119779630376 ], [ 129.067806023731379, 36.272663769989776 ], [ 129.060188184782731, 36.270960470681175 ], [ 129.052295184904693, 36.265344295769225 ], [ 129.053584245539241, 36.259657142231589 ], [ 129.05948779287047, 36.253342890802131 ], [ 129.06295892612485, 36.252207208005188 ], [ 129.065572996355456, 36.254004548136642 ], [ 129.070224097061214, 36.251134883997892 ], [ 129.073600692540424, 36.252345925031321 ], [ 129.075618023197734, 36.250200724447957 ], [ 129.07567605935813, 36.245471410992614 ], [ 129.078539565039478, 36.243764051614974 ], [ 129.078069717283853, 36.240106506867036 ], [ 129.081875257289937, 36.234918838753558 ], [ 129.073320377504473, 36.229395145900931 ], [ 129.069592623241903, 36.229458318594517 ], [ 129.065891972264012, 36.227109595009736 ], [ 129.064223896474118, 36.225168534266373 ], [ 129.064923432174055, 36.219567096766447 ], [ 129.056623935242158, 36.223940218925307 ], [ 129.042072694132884, 36.222018474357412 ], [ 129.035785555411593, 36.213308964073128 ], [ 129.035404810352105, 36.203494570399343 ], [ 129.032601813635409, 36.20357401560311 ] ] ] ] } },
{ "type": "Feature", "properties": { "emd_cd": "47750340", "emd_nm": "현서면" }, "geometry": { "type": "MultiPolygon", "coordinates": [ [ [ [ 128.933858460638902, 36.249174028773943 ], [ 128.935560845632637, 36.247465492368896 ], [ 128.940685143101121, 36.249524524739854 ], [ 128.948803910424687, 36.248669215844068 ], [ 128.951608329505291, 36.247143530228747 ], [ 128.951949172849709, 36.243886532770944 ], [ 128.958267214467895, 36.23755404414392 ], [ 128.961517303350263, 36.239424670017286 ], [ 128.972348669139166, 36.236385444049937 ], [ 128.977620776386715, 36.23737911279197 ], [ 128.98940160495485, 36.233041638595544 ], [ 128.986901183421367, 36.226175093596467 ], [ 128.991692294964565, 36.223940745537512 ], [ 128.990631068713867, 36.217608605688362 ], [ 128.994853081875306, 36.211011330242975 ], [ 128.995758293966105, 36.205239219683598 ], [ 129.001564482197381, 36.201793537115947 ], [ 129.000289269306961, 36.189990729123799 ], [ 129.003623769527366, 36.187481450942691 ], [ 129.001161442253135, 36.179628425323166 ], [ 128.990695539357688, 36.175282175073747 ], [ 128.991404601006963, 36.172049156112706 ], [ 128.989549925590921, 36.16819012598031 ], [ 128.97851279692739, 36.166164055298552 ], [ 128.973818181129644, 36.160775045678093 ], [ 128.97080492370543, 36.160789551178659 ], [ 128.964007519779244, 36.16443723114849 ], [ 128.962831295438548, 36.166582991915028 ], [ 128.949896289634381, 36.168927888235594 ], [ 128.93820758538277, 36.179007588305538 ], [ 128.933559239109456, 36.178356203896456 ], [ 128.930108092122708, 36.181076066808821 ], [ 128.928265466514745, 36.179478927442055 ], [ 128.919674142003572, 36.184572466800631 ], [ 128.914637076102878, 36.179734365848844 ], [ 128.909658329293251, 36.180631951119494 ], [ 128.906139403360271, 36.177459604989679 ], [ 128.897353911350393, 36.176619378979922 ], [ 128.895170674447485, 36.173065077484004 ], [ 128.890937885839918, 36.176220838966735 ], [ 128.890277851049376, 36.181986200476899 ], [ 128.883708006763925, 36.183897563974689 ], [ 128.883464483957255, 36.188440433761528 ], [ 128.880757351826702, 36.190234473282686 ], [ 128.883215495749141, 36.198365952693322 ], [ 128.886768423799623, 36.201528711419812 ], [ 128.895679290808147, 36.204695263768699 ], [ 128.895959133832406, 36.213182626106743 ], [ 128.883150103653236, 36.218631655808935 ], [ 128.880631522479717, 36.225903587157738 ], [ 128.868908058474659, 36.232086028554917 ], [ 128.879080092214934, 36.235972317225276 ], [ 128.881522265420131, 36.238717901329984 ], [ 128.881054163941883, 36.241484881853737 ], [ 128.884194199181564, 36.242889407393243 ], [ 128.882168279037757, 36.252733628954374 ], [ 128.87172619172938, 36.256456944519137 ], [ 128.869036150737458, 36.254643688168827 ], [ 128.856591331977114, 36.254578688406241 ], [ 128.850484797623665, 36.261312467303675 ], [ 128.846912138457355, 36.261653545846343 ], [ 128.85025424894971, 36.265858396691506 ], [ 128.862676567221598, 36.26796177773447 ], [ 128.864122777910552, 36.271558254107816 ], [ 128.863424723082687, 36.274397818248403 ], [ 128.873416551656817, 36.273204615878342 ], [ 128.87728070341214, 36.27416821093334 ], [ 128.879035682509908, 36.285728461671908 ], [ 128.877741916196811, 36.287042066156232 ], [ 128.878262739081265, 36.292268443066916 ], [ 128.881186704190242, 36.29727895242258 ], [ 128.883614772145194, 36.297690047812736 ], [ 128.885943068093809, 36.295731904960114 ], [ 128.889513605729746, 36.297385484712997 ], [ 128.898408982390578, 36.295699078981748 ], [ 128.907389244150067, 36.296882751816227 ], [ 128.909697664173422, 36.299067571458785 ], [ 128.91274299282054, 36.298306964939407 ], [ 128.918305540760485, 36.304699103464628 ], [ 128.928259340513534, 36.306676777638053 ], [ 128.932131291974855, 36.305570524412154 ], [ 128.937851808276179, 36.294837419816716 ], [ 128.935814116015479, 36.29131282458426 ], [ 128.937456794878244, 36.288093008664703 ], [ 128.935132333386662, 36.285928591820763 ], [ 128.934769278947613, 36.281729461485398 ], [ 128.937677593657327, 36.277787945739711 ], [ 128.937523903879566, 36.269921611747243 ], [ 128.942960206823727, 36.267394464128976 ], [ 128.938185707774267, 36.254941687714776 ], [ 128.933858460638902, 36.249174028773943 ] ] ] ] } },
{ "type": "Feature", "properties": { "emd_cd": "47750350", "emd_nm": "안덕면" }, "geometry": { "type": "MultiPolygon", "coordinates": [ [ [ [ 129.033349448629906, 36.335435241237697 ], [ 129.036790761600173, 36.33030265166056 ], [ 129.040906532348316, 36.32786442522417 ], [ 129.041418947323649, 36.324055881812185 ], [ 129.043340296285237, 36.322316209615316 ], [ 129.045437020345673, 36.313772521479351 ], [ 129.042833676351421, 36.31218702936583 ], [ 129.029859313756845, 36.319789440793549 ], [ 129.008694335231894, 36.313984168040456 ], [ 129.004616630925057, 36.316163273202505 ], [ 128.996075829314577, 36.315742250598888 ], [ 128.990058225633959, 36.320597467040777 ], [ 128.987543881293163, 36.314643507730104 ], [ 128.991266537812749, 36.305072480507931 ], [ 128.995292395759577, 36.30349101050524 ], [ 128.995630418880353, 36.301494556631539 ], [ 129.004902317875064, 36.294627427139325 ], [ 129.013400581202887, 36.278462686992192 ], [ 129.010933501670536, 36.278120384542696 ], [ 129.01203422433781, 36.273172912857952 ], [ 129.006680130696395, 36.269582178159446 ], [ 129.004549004781921, 36.2598420100759 ], [ 129.002241088961512, 36.257906680088389 ], [ 128.997363003954348, 36.258807467503132 ], [ 128.993407546731703, 36.257709211856785 ], [ 128.993679928709696, 36.255251010063809 ], [ 128.98805860181929, 36.250521399179554 ], [ 128.988378730829766, 36.246147180658738 ], [ 128.997401212835399, 36.240226251670876 ], [ 128.994429137386931, 36.234381708939416 ], [ 128.98940160495485, 36.233041638595544 ], [ 128.977620776386715, 36.23737911279197 ], [ 128.972348669139166, 36.236385444049937 ], [ 128.961517303350263, 36.239424670017286 ], [ 128.958267214467895, 36.23755404414392 ], [ 128.951949172849709, 36.243886532770944 ], [ 128.951608329505291, 36.247143530228747 ], [ 128.948803910424687, 36.248669215844068 ], [ 128.940685143101121, 36.249524524739854 ], [ 128.939042092808734, 36.248032244180962 ], [ 128.934578325831353, 36.248060363683152 ], [ 128.93370933002231, 36.250073792027486 ], [ 128.938185707774267, 36.254941687714776 ], [ 128.939421672107784, 36.260076797907601 ], [ 128.943124800563055, 36.265641112260035 ], [ 128.942960206823727, 36.267394464128976 ], [ 128.937523903879566, 36.269921611747243 ], [ 128.937677593657327, 36.277787945739711 ], [ 128.934769278947613, 36.281729461485398 ], [ 128.935132333386662, 36.285928591820763 ], [ 128.937456794878244, 36.288093008664703 ], [ 128.935814116015479, 36.29131282458426 ], [ 128.937851808276179, 36.294837419816716 ], [ 128.935823961312536, 36.300115923120494 ], [ 128.930905792601607, 36.305995642777106 ], [ 128.933329933939604, 36.310635168938916 ], [ 128.932331575641257, 36.31379894820487 ], [ 128.933566355392713, 36.318019216707825 ], [ 128.938944538480143, 36.321636936393183 ], [ 128.941245637764382, 36.325397450282168 ], [ 128.946109267312778, 36.327082501331859 ], [ 128.950844457841697, 36.336068021495677 ], [ 128.958571808870062, 36.336662344021121 ], [ 128.96225917756945, 36.33881759560817 ], [ 128.966065517771142, 36.34625307527476 ], [ 128.962791138177181, 36.351387057054225 ], [ 128.962854009167017, 36.354330846197641 ], [ 128.966185028084368, 36.356563013342914 ], [ 128.966362843598887, 36.359387345363309 ], [ 128.961622278664692, 36.367094052713874 ], [ 128.96491821547059, 36.369372964593786 ], [ 128.96723434050628, 36.377266717106757 ], [ 128.970354968841093, 36.379731525658421 ], [ 128.969649501075082, 36.382592817699276 ], [ 128.976101510336036, 36.390113534470231 ], [ 128.975319497480541, 36.392997358926962 ], [ 128.98041113900581, 36.399708942504169 ], [ 128.980808112732149, 36.402135135315717 ], [ 128.979345501193109, 36.402744485848679 ], [ 128.98056998335889, 36.403766819456315 ], [ 128.984013357626537, 36.404467642747463 ], [ 128.993603227323376, 36.397450033775641 ], [ 129.004719067722874, 36.397774580475726 ], [ 129.016520511960607, 36.393149305018134 ], [ 129.022493760905206, 36.394210827672218 ], [ 129.024994284214529, 36.392855697837064 ], [ 129.02705379526509, 36.384478255659829 ], [ 129.032950491271123, 36.37981555289592 ], [ 129.03179184261279, 36.375120218973855 ], [ 129.045682199140373, 36.366520318846305 ], [ 129.043792227783115, 36.363250691071364 ], [ 129.037305860490989, 36.359977739655747 ], [ 129.035281867440176, 36.355007821885309 ], [ 129.032615144744256, 36.353754868189867 ], [ 129.031150754824239, 36.343493897131687 ], [ 129.033349448629906, 36.335435241237697 ] ] ] ] } },
{ "type": "Feature", "properties": { "emd_cd": "47750360", "emd_nm": "파천면" }, "geometry": { "type": "MultiPolygon", "coordinates": [ [ [ [ 129.060117564649119, 36.456398007358054 ], [ 129.064648152098329, 36.448945566331133 ], [ 129.062672766558535, 36.445959347458228 ], [ 129.058547478362783, 36.444784285245234 ], [ 129.057964690148481, 36.44598445790529 ], [ 129.051239746466621, 36.44564979397434 ], [ 129.045788625491781, 36.442547324457585 ], [ 129.035736286270463, 36.442047107507335 ], [ 129.034416135550458, 36.439999102797714 ], [ 129.030650062972512, 36.441374858130423 ], [ 129.031878155844993, 36.434874795169115 ], [ 129.040700305014468, 36.424107198056078 ], [ 129.039147435185811, 36.420739398037931 ], [ 129.040868407144984, 36.413710277801385 ], [ 129.047241624628811, 36.408369156151096 ], [ 129.046766148692484, 36.404318466735781 ], [ 129.049342853664484, 36.402154832026554 ], [ 129.049382334157627, 36.397895852664774 ], [ 129.055745121284758, 36.387393695388546 ], [ 129.052463603358945, 36.373274634564048 ], [ 129.049344519766692, 36.370990174215756 ], [ 129.048291685136832, 36.367223970084062 ], [ 129.045682199140373, 36.366520318846305 ], [ 129.03179184261279, 36.375120218973855 ], [ 129.032950491271123, 36.37981555289592 ], [ 129.02705379526509, 36.384478255659829 ], [ 129.024994284214529, 36.392855697837064 ], [ 129.022493760905206, 36.394210827672218 ], [ 129.016520511960607, 36.393149305018134 ], [ 129.004719067722874, 36.397774580475726 ], [ 128.993603227323376, 36.397450033775641 ], [ 128.983972998521608, 36.404481352599419 ], [ 128.983226129223397, 36.41540864739224 ], [ 128.97820150429618, 36.421447516022681 ], [ 128.976619775400479, 36.427593216772628 ], [ 128.972890304298176, 36.431891290828183 ], [ 128.974013678038489, 36.434898022436514 ], [ 128.973125078518564, 36.439272442946177 ], [ 128.977587531286417, 36.445618027593909 ], [ 128.97378300560743, 36.448190370309746 ], [ 128.973868650620943, 36.451834861925711 ], [ 128.969300416234546, 36.45218772024257 ], [ 128.969809259541165, 36.456600879218797 ], [ 128.967820760009744, 36.46200437637674 ], [ 128.974388941009039, 36.467561830720832 ], [ 128.978707329594982, 36.464741703988032 ], [ 128.985140988300373, 36.463550355228101 ], [ 128.985180186480761, 36.465389759133032 ], [ 128.979495907226578, 36.46873164601714 ], [ 128.978657952622314, 36.470783513579441 ], [ 128.981112264289351, 36.475837454743228 ], [ 128.974086448661893, 36.479452486275278 ], [ 128.975957249639777, 36.481546141175244 ], [ 128.975591010371943, 36.484388882226177 ], [ 128.982875763850188, 36.486292533411081 ], [ 128.985885008055561, 36.490259530757783 ], [ 128.990520657660397, 36.490767432620402 ], [ 128.989459382938861, 36.495217713512282 ], [ 128.995502265403559, 36.499829495395474 ], [ 128.995951167212155, 36.50532376969521 ], [ 129.000112369043165, 36.506279741853881 ], [ 129.004237281412344, 36.501520076802066 ], [ 129.013581735938999, 36.500865853781796 ], [ 129.015402025143914, 36.503294540032897 ], [ 129.01401544525379, 36.509756472999122 ], [ 129.023523287182599, 36.509698746900831 ], [ 129.035186078065834, 36.50507730658159 ], [ 129.0492753632046, 36.506806419178091 ], [ 129.050310706103119, 36.514716617407146 ], [ 129.05942070275151, 36.510947615813159 ], [ 129.062657970382503, 36.514854965313013 ], [ 129.066784991867166, 36.514272256899176 ], [ 129.065650467949979, 36.507952138285646 ], [ 129.069718310457858, 36.502972767221522 ], [ 129.066705155462245, 36.493956888208352 ], [ 129.068424816295988, 36.490756579488995 ], [ 129.075272870364586, 36.4909755411311 ], [ 129.078369799821274, 36.485004430953815 ], [ 129.082564341934244, 36.485952949674513 ], [ 129.08759089731339, 36.484419187260904 ], [ 129.088966254606419, 36.486466826540287 ], [ 129.093016254759988, 36.487695531575149 ], [ 129.097380705772451, 36.482619091205393 ], [ 129.102034635764568, 36.483540440401548 ], [ 129.100097234278849, 36.476081969370142 ], [ 129.10122295919308, 36.474711340021116 ], [ 129.110088997314961, 36.47579662265909 ], [ 129.110961466993928, 36.473792150399731 ], [ 129.114302432048305, 36.472503332614579 ], [ 129.11705635124062, 36.464840053824808 ], [ 129.124089230567705, 36.461874176483583 ], [ 129.125641503684164, 36.456652856694205 ], [ 129.109988038785787, 36.457861830763633 ], [ 129.104891855471379, 36.462676574359406 ], [ 129.097964013499279, 36.464478661620177 ], [ 129.09243041927013, 36.463863009502575 ], [ 129.088127603994081, 36.460046570740722 ], [ 129.075781401000569, 36.467587816193131 ], [ 129.066089411692701, 36.465135196846113 ], [ 129.06321425275479, 36.461732449886966 ], [ 129.062440123576522, 36.457147185051625 ], [ 129.060117564649119, 36.456398007358054 ] ] ] ] } },
{ "type": "Feature", "properties": { "emd_cd": "47750370", "emd_nm": "진보면" }, "geometry": { "type": "MultiPolygon", "coordinates": [ [ [ [ 129.05152980984235, 36.514870515352136 ], [ 129.049725372503048, 36.51433715584961 ], [ 129.0492753632046, 36.506806419178091 ], [ 129.035186078065834, 36.50507730658159 ], [ 129.023523287182599, 36.509698746900831 ], [ 129.01401544525379, 36.509756472999122 ], [ 129.015402025143914, 36.503294540032897 ], [ 129.013930280827907, 36.500961421206569 ], [ 129.004237281412344, 36.501520076802066 ], [ 129.000112369043165, 36.506279741853881 ], [ 128.996264999826394, 36.505180536766943 ], [ 128.997171582319453, 36.510643388532401 ], [ 128.993878921339643, 36.514247826549486 ], [ 128.993340263175526, 36.517595779960729 ], [ 128.984719607687111, 36.51553230039309 ], [ 128.980640200949438, 36.526595797372067 ], [ 128.976737199134959, 36.526239377006021 ], [ 128.973205811425487, 36.530231129098254 ], [ 128.969532580052885, 36.530393147078065 ], [ 128.972960736198075, 36.532121183115393 ], [ 128.9721646016107, 36.534060295441037 ], [ 128.974350531422374, 36.535744561349254 ], [ 128.974775262837142, 36.544155931026516 ], [ 128.976659704691826, 36.546691747471783 ], [ 128.980203212301461, 36.54567090310114 ], [ 128.985660502471717, 36.54827501718232 ], [ 128.991987870806639, 36.548785449017586 ], [ 128.988102304083014, 36.557392375421117 ], [ 128.983880016662539, 36.561056110436454 ], [ 128.979074350592612, 36.560955321985887 ], [ 128.979747705363309, 36.56519448606528 ], [ 128.983857424593168, 36.567764240597306 ], [ 128.984292626382484, 36.573435423720696 ], [ 128.990658854293002, 36.576798717076379 ], [ 128.992522301054606, 36.581503897565192 ], [ 128.996537905967529, 36.583191561785981 ], [ 129.000015432859016, 36.587394705666348 ], [ 128.999791221631796, 36.593945611875789 ], [ 129.004362958526002, 36.594915502479203 ], [ 129.005724380207624, 36.59205306814799 ], [ 129.013303572804688, 36.588526230754645 ], [ 129.022600362382917, 36.587861681631566 ], [ 129.02466549848134, 36.589609282481646 ], [ 129.028153045039659, 36.589405400727451 ], [ 129.034773112456406, 36.585458224438852 ], [ 129.035823347134624, 36.582298386492333 ], [ 129.046210704530608, 36.58014748060895 ], [ 129.045820950982659, 36.577984645796363 ], [ 129.047422513043699, 36.576505898409359 ], [ 129.044856335884049, 36.575092383551464 ], [ 129.050055716041243, 36.565670230605598 ], [ 129.051346887576841, 36.557367592509088 ], [ 129.055061253785567, 36.554805183011297 ], [ 129.059157086258153, 36.554936714088605 ], [ 129.062501418999148, 36.551065770387382 ], [ 129.063277147600701, 36.547166837767037 ], [ 129.068065343846683, 36.542793470718763 ], [ 129.079760611841209, 36.54575101155897 ], [ 129.084227615165162, 36.543380452627936 ], [ 129.095983496216718, 36.544119596385052 ], [ 129.099943890512918, 36.542834251818405 ], [ 129.107842555331274, 36.54587487306955 ], [ 129.110953192976524, 36.540534222145567 ], [ 129.118061935275762, 36.53911557932652 ], [ 129.122784178825611, 36.535218801289581 ], [ 129.128347947921299, 36.533857130117021 ], [ 129.13113770680954, 36.526419953318772 ], [ 129.126760790973094, 36.521840669189402 ], [ 129.1319463000182, 36.517498953608552 ], [ 129.127505951819273, 36.512782288442359 ], [ 129.130997056584278, 36.508035723466001 ], [ 129.12938756916148, 36.50376804045694 ], [ 129.132637559230091, 36.500883098280802 ], [ 129.137238010109087, 36.501347939523136 ], [ 129.143079680794273, 36.499020450156891 ], [ 129.146618432816553, 36.50121541405975 ], [ 129.152091658399968, 36.500127150110195 ], [ 129.151436634961755, 36.494733534599874 ], [ 129.15381862081108, 36.492275525368044 ], [ 129.149885323858911, 36.484148121160331 ], [ 129.150938594705508, 36.478636931745058 ], [ 129.147573320829935, 36.477628749965447 ], [ 129.151905636740111, 36.468177471246769 ], [ 129.162078574325278, 36.457909535373609 ], [ 129.16096150396271, 36.453743977943851 ], [ 129.153617718142272, 36.449631958808219 ], [ 129.137638700238341, 36.451057403181359 ], [ 129.134440306765498, 36.455052277437183 ], [ 129.127656287733373, 36.454693571699558 ], [ 129.124089230567705, 36.461874176483583 ], [ 129.11705635124062, 36.464840053824808 ], [ 129.114302432048305, 36.472503332614579 ], [ 129.110961466993928, 36.473792150399731 ], [ 129.110088997314961, 36.47579662265909 ], [ 129.10122295919308, 36.474711340021116 ], [ 129.100097234278849, 36.476081969370142 ], [ 129.102034635764568, 36.483540440401548 ], [ 129.097380705772451, 36.482619091205393 ], [ 129.093016254759988, 36.487695531575149 ], [ 129.088966254606419, 36.486466826540287 ], [ 129.08759089731339, 36.484419187260904 ], [ 129.082564341934244, 36.485952949674513 ], [ 129.078369799821274, 36.485004430953815 ], [ 129.075272870364586, 36.4909755411311 ], [ 129.068424816295988, 36.490756579488995 ], [ 129.066705155462245, 36.493956888208352 ], [ 129.069718310457858, 36.502972767221522 ], [ 129.065650467949979, 36.507952138285646 ], [ 129.066784991867166, 36.514272256899176 ], [ 129.062657970382503, 36.514854965313013 ], [ 129.05942070275151, 36.510947615813159 ], [ 129.05152980984235, 36.514870515352136 ] ] ] ] } }
]
}
