{
"type": "FeatureCollection",
"name": "47830",
"crs": { "type": "name", "properties": { "name": "urn:ogc:def:crs:OGC:1.3:CRS84" } },
"features": [
{ "type": "Feature", "properties": { "emd_cd": "47830253", "emd_nm": "대가야읍" }, "geometry": { "type": "MultiPolygon", "coordinates": [ [ [ [ 128.291114082589132, 35.732198205709658 ], [ 128.289405638831283, 35.723752363455425 ], [ 128.290035490414596, 35.718671409021717 ], [ 128.298049762111617, 35.710762376419417 ], [ 128.296380336422573, 35.709296602631476 ], [ 128.300521050892343, 35.705548061708953 ], [ 128.306612762784738, 35.702422962356287 ], [ 128.311236062989423, 35.704432514473794 ], [ 128.312418410442376, 35.703294364933342 ], [ 128.313391028243757, 35.695206290728414 ], [ 128.305013431857816, 35.693736019059564 ], [ 128.30575434213975, 35.692062394783242 ], [ 128.303262472959176, 35.687541538358253 ], [ 128.302041982514993, 35.679490938304745 ], [ 128.295596954104667, 35.676924901626094 ], [ 128.290051156597997, 35.677584994169067 ], [ 128.281475813341018, 35.687099204172213 ], [ 128.276457441667247, 35.688440794091498 ], [ 128.266252047827493, 35.70086290000016 ], [ 128.257825108858242, 35.702340581917674 ], [ 128.255175909748488, 35.706180718277068 ], [ 128.25894887578707, 35.710050686928021 ], [ 128.257946906197986, 35.711322416545691 ], [ 128.249686076630923, 35.712434106768555 ], [ 128.249100409975426, 35.715540171233393 ], [ 128.246135603317981, 35.718116134511682 ], [ 128.238041033767672, 35.718433137112036 ], [ 128.23486594717744, 35.720908699184335 ], [ 128.230914601755671, 35.725503646175902 ], [ 128.231060563218591, 35.729332566629253 ], [ 128.225122959372385, 35.737199713744396 ], [ 128.217860115790103, 35.735051281390213 ], [ 128.203174023224193, 35.736575948128923 ], [ 128.19766836286658, 35.735770572924949 ], [ 128.193397227880325, 35.737646247290975 ], [ 128.190616913785362, 35.747070645305755 ], [ 128.188445498319055, 35.749374901309096 ], [ 128.18916716034758, 35.751362281228012 ], [ 128.197315508199978, 35.753650299288928 ], [ 128.198518014002502, 35.758721038258649 ], [ 128.205241187139308, 35.7623957284707 ], [ 128.220338864795309, 35.766599619004815 ], [ 128.228473920542058, 35.766780447531929 ], [ 128.233085986137553, 35.760628271678236 ], [ 128.237835533132881, 35.760616861561729 ], [ 128.24421375136086, 35.757197477688159 ], [ 128.249948031358599, 35.757182842556361 ], [ 128.254603909496666, 35.751438904480636 ], [ 128.257892423153606, 35.75279632097817 ], [ 128.258882370296021, 35.758492042164981 ], [ 128.267614576702215, 35.759372185365926 ], [ 128.27627008225997, 35.754578258186804 ], [ 128.277875903639853, 35.757553807594121 ], [ 128.285447315713384, 35.757234001082089 ], [ 128.287629299448582, 35.749159320514543 ], [ 128.285843341425476, 35.740879478399819 ], [ 128.290353795866963, 35.738559693382143 ], [ 128.291114082589132, 35.732198205709658 ] ] ] ] } },
{ "type": "Feature", "properties": { "emd_cd": "47830310", "emd_nm": "덕곡면" }, "geometry": { "type": "MultiPolygon", "coordinates": [ [ [ [ 128.16082930561663, 35.770049882880009 ], [ 128.163149130110583, 35.776995852007275 ], [ 128.168545631981317, 35.779408083206683 ], [ 128.174493876341955, 35.785748801766545 ], [ 128.178090940317844, 35.787378711946388 ], [ 128.175026182067228, 35.79431090270581 ], [ 128.164438735212769, 35.799940639847257 ], [ 128.160946346112411, 35.806494359997288 ], [ 128.167976421954222, 35.814729063049235 ], [ 128.17522423382826, 35.817661407547988 ], [ 128.182751034501536, 35.817372341850891 ], [ 128.186583202684261, 35.818930988813733 ], [ 128.201049391631074, 35.814286381852483 ], [ 128.208761688273228, 35.815402520975958 ], [ 128.21275979647217, 35.808840641778914 ], [ 128.211252064563041, 35.807027821322805 ], [ 128.212671765677271, 35.804856761587409 ], [ 128.212136198547853, 35.799187099456887 ], [ 128.215666418657207, 35.796150243526711 ], [ 128.216442879331538, 35.791912736661729 ], [ 128.22461288571867, 35.787370307410619 ], [ 128.232883413316557, 35.786792425803739 ], [ 128.238196657231555, 35.7821976037824 ], [ 128.248006421546279, 35.781648804969265 ], [ 128.250109579621267, 35.780147534261097 ], [ 128.251374497700226, 35.781553149406605 ], [ 128.255990615370337, 35.778672109169889 ], [ 128.259706791453112, 35.772507429567952 ], [ 128.257559418265629, 35.765382021951297 ], [ 128.261716903249152, 35.764602557992163 ], [ 128.267614576702215, 35.759372185365898 ], [ 128.258882370296021, 35.758492042164981 ], [ 128.257892423153606, 35.75279632097817 ], [ 128.254603909496666, 35.751438904480636 ], [ 128.249948031358599, 35.757182842556361 ], [ 128.244213751360775, 35.757197477688166 ], [ 128.237835533132937, 35.76061686156168 ], [ 128.233085986137553, 35.760628271678193 ], [ 128.228473920542029, 35.766780447531957 ], [ 128.220338864795224, 35.766599619004815 ], [ 128.205241187139308, 35.762395728470743 ], [ 128.198518014002502, 35.758721038258592 ], [ 128.197315508199921, 35.753650299288985 ], [ 128.189167160347637, 35.751362281227962 ], [ 128.176814409833582, 35.757312281100774 ], [ 128.171601557063667, 35.757974979176353 ], [ 128.164598912207879, 35.762833971867082 ], [ 128.162777744390127, 35.762334666660983 ], [ 128.163411842140619, 35.764996741646975 ], [ 128.16082930561663, 35.770049882880009 ] ] ] ] } },
{ "type": "Feature", "properties": { "emd_cd": "47830320", "emd_nm": "운수면" }, "geometry": { "type": "MultiPolygon", "coordinates": [ [ [ [ 128.249093799299914, 35.789578665851216 ], [ 128.257208444045347, 35.791908397381761 ], [ 128.258162659475488, 35.794538399606552 ], [ 128.260641583333268, 35.795845086945597 ], [ 128.269623562027022, 35.791238222051895 ], [ 128.271028907051715, 35.792055067872532 ], [ 128.271670468266905, 35.795701570527996 ], [ 128.273494348077122, 35.795921019369494 ], [ 128.271533343600396, 35.804688306113746 ], [ 128.273848006028089, 35.810018888785159 ], [ 128.27181859160973, 35.815329913085634 ], [ 128.273194676953409, 35.825117403146578 ], [ 128.274808190314275, 35.826967113591813 ], [ 128.279051282660618, 35.827609637429291 ], [ 128.289091545293758, 35.826454025356007 ], [ 128.298415524174857, 35.816956702565292 ], [ 128.298553530624531, 35.815178779064347 ], [ 128.302365200036064, 35.815117542597022 ], [ 128.304860197994429, 35.81216865642272 ], [ 128.310820961163842, 35.812781127743207 ], [ 128.312500321257659, 35.814710422925245 ], [ 128.317680046412335, 35.813980489129214 ], [ 128.318409948546361, 35.812386503494423 ], [ 128.320760033970515, 35.812168503767374 ], [ 128.322079519143983, 35.80858248422841 ], [ 128.327474473021397, 35.806756453870989 ], [ 128.336610846109551, 35.799176833896638 ], [ 128.337676638073873, 35.797539104932667 ], [ 128.329889667568921, 35.790657456023162 ], [ 128.330173979257154, 35.785419564072079 ], [ 128.328214797422874, 35.782881747983978 ], [ 128.328970200557023, 35.779674634639903 ], [ 128.334893689810229, 35.772318710458777 ], [ 128.331819620882413, 35.768554363859529 ], [ 128.332536789424381, 35.764061381291718 ], [ 128.335194942728293, 35.761346210028009 ], [ 128.334471857284626, 35.758170225676722 ], [ 128.332080433390416, 35.753322291715527 ], [ 128.324622574181745, 35.750321287093655 ], [ 128.316748032358134, 35.751589156485203 ], [ 128.31346536612844, 35.754319251952545 ], [ 128.305553543199409, 35.753535741864127 ], [ 128.30426742869895, 35.749898794428908 ], [ 128.298274164953312, 35.748769991412573 ], [ 128.299467291464708, 35.743422176078141 ], [ 128.297838854398549, 35.740651130282558 ], [ 128.290353795867361, 35.738559693382101 ], [ 128.286892526828609, 35.739449480926922 ], [ 128.285843341425988, 35.740879478399791 ], [ 128.287629299449009, 35.749159320514501 ], [ 128.286077135471373, 35.756644577422314 ], [ 128.277875903640307, 35.757553807594114 ], [ 128.276270082260368, 35.754578258186768 ], [ 128.261716903249607, 35.764602557992234 ], [ 128.25755941826597, 35.765382021951289 ], [ 128.259706791453539, 35.77250742956786 ], [ 128.258889969410632, 35.77552297037824 ], [ 128.250368409356184, 35.782671550080636 ], [ 128.249093799299914, 35.789578665851216 ] ] ] ] } },
{ "type": "Feature", "properties": { "emd_cd": "47830330", "emd_nm": "성산면" }, "geometry": { "type": "MultiPolygon", "coordinates": [ [ [ [ 128.400680207576244, 35.786495324576457 ], [ 128.397585013740326, 35.778646071997855 ], [ 128.389631072799972, 35.769987129143104 ], [ 128.383293884091245, 35.758585213801204 ], [ 128.391246671347886, 35.748352668097205 ], [ 128.416090202058797, 35.736145142527505 ], [ 128.412225130217905, 35.732306892466802 ], [ 128.408155543248625, 35.731639840971795 ], [ 128.409101984258342, 35.724217413868949 ], [ 128.404820741073848, 35.720692402806201 ], [ 128.401443266602314, 35.719909427435574 ], [ 128.397064212972651, 35.723303611520798 ], [ 128.392614714053281, 35.723294223913079 ], [ 128.386434760394252, 35.729518928263829 ], [ 128.377825723288566, 35.730637117813714 ], [ 128.372055701108621, 35.735735240305843 ], [ 128.367788010045075, 35.731534020058632 ], [ 128.364822761722053, 35.730729512319598 ], [ 128.35969008675076, 35.730677093804644 ], [ 128.354640236264373, 35.733910382698113 ], [ 128.34597863638021, 35.733046546005937 ], [ 128.343297779611419, 35.731422875307125 ], [ 128.342877756620368, 35.726764682954773 ], [ 128.337804155939409, 35.725898259061935 ], [ 128.329858875077349, 35.729461980714461 ], [ 128.317701139328108, 35.728446894931245 ], [ 128.301304557963704, 35.73473658653834 ], [ 128.299907386016514, 35.731443835975675 ], [ 128.291114082589132, 35.732198205709658 ], [ 128.290570664978532, 35.739296355187562 ], [ 128.297838854398094, 35.740651130282558 ], [ 128.299467291464225, 35.743422176078141 ], [ 128.298274164952829, 35.74876999141258 ], [ 128.304267428698495, 35.749898794428923 ], [ 128.305553543198982, 35.753535741864141 ], [ 128.313465366127929, 35.754319251952538 ], [ 128.31674803235768, 35.751589156485252 ], [ 128.322246376024935, 35.750148419630477 ], [ 128.332080433389933, 35.753322291715541 ], [ 128.335315129018028, 35.760664020394032 ], [ 128.332536789423841, 35.764061381291746 ], [ 128.331867406164548, 35.768982936888889 ], [ 128.334893689809746, 35.772318710458791 ], [ 128.328970200556512, 35.779674634639903 ], [ 128.328214797422419, 35.782881747983957 ], [ 128.330173979256642, 35.78541956407215 ], [ 128.329889667568352, 35.790657456023169 ], [ 128.337676638073305, 35.797539104932703 ], [ 128.342083883710245, 35.797101919655496 ], [ 128.349355239117273, 35.799889293823909 ], [ 128.36440460566277, 35.79393093545692 ], [ 128.366475487462651, 35.794470891046743 ], [ 128.379556932124501, 35.782250320095407 ], [ 128.385756175298297, 35.785857887279008 ], [ 128.389761420609062, 35.784927856867483 ], [ 128.393553882738416, 35.786379651963209 ], [ 128.396266582111792, 35.78893643875832 ], [ 128.400680207576244, 35.786495324576457 ] ] ] ] } },
{ "type": "Feature", "properties": { "emd_cd": "47830340", "emd_nm": "다산면" }, "geometry": { "type": "MultiPolygon", "coordinates": [ [ [ [ 128.366475487462651, 35.794470891046743 ], [ 128.367678293291391, 35.795638441713159 ], [ 128.368021884433233, 35.804730502147983 ], [ 128.369766993550968, 35.807310660643765 ], [ 128.368041187498847, 35.811105658888039 ], [ 128.369002521427376, 35.814544035685607 ], [ 128.367868897343158, 35.81750236625448 ], [ 128.373486533931185, 35.817907038113184 ], [ 128.377819532998132, 35.82329883152704 ], [ 128.374666868244674, 35.83377108509378 ], [ 128.372252987994074, 35.835836821789435 ], [ 128.379201697254899, 35.840065179316404 ], [ 128.391614234681555, 35.83892171760737 ], [ 128.391238182161629, 35.841447866647911 ], [ 128.388581080340941, 35.842742137878098 ], [ 128.38623816121904, 35.850001583532951 ], [ 128.387591623830446, 35.852406176356787 ], [ 128.41973047245375, 35.851769370267682 ], [ 128.444970116253927, 35.846804529695071 ], [ 128.46522166883301, 35.838848624278121 ], [ 128.477772977337736, 35.830694599135427 ], [ 128.479643469499365, 35.826658427165398 ], [ 128.479296228128504, 35.820099978741858 ], [ 128.476655392745187, 35.816795441942297 ], [ 128.465669609518102, 35.810126252877595 ], [ 128.450594708361251, 35.809254395219739 ], [ 128.437972442474603, 35.814004957019556 ], [ 128.42039541872748, 35.810640475283861 ], [ 128.414807830433091, 35.806934225159516 ], [ 128.408118889706827, 35.799208365391287 ], [ 128.400680207576244, 35.786495324576457 ], [ 128.396266582111792, 35.78893643875832 ], [ 128.393553882738416, 35.786379651963209 ], [ 128.389761420609062, 35.784927856867483 ], [ 128.385756175298297, 35.785857887279008 ], [ 128.379556932124501, 35.782250320095407 ], [ 128.366475487462651, 35.794470891046743 ] ] ] ] } },
{ "type": "Feature", "properties": { "emd_cd": "47830350", "emd_nm": "개진면" }, "geometry": { "type": "MultiPolygon", "coordinates": [ [ [ [ 128.35344029789789, 35.690566766799179 ], [ 128.343493703586631, 35.691273016534559 ], [ 128.342783516616578, 35.696348833683572 ], [ 128.33102997671034, 35.706783066208196 ], [ 128.326600214194372, 35.706821344800446 ], [ 128.322442029841795, 35.703813335369482 ], [ 128.315619900630935, 35.70594440421651 ], [ 128.306612762784738, 35.702422962356238 ], [ 128.300521050892314, 35.705548061708996 ], [ 128.296380336422544, 35.709296602631468 ], [ 128.29804976211156, 35.710762376419417 ], [ 128.290035490414596, 35.718671409021717 ], [ 128.289405638831283, 35.723752363455368 ], [ 128.291114082589132, 35.732198205709658 ], [ 128.299907386016429, 35.731443835975689 ], [ 128.301304557963704, 35.734736586538361 ], [ 128.317701139328108, 35.728446894931245 ], [ 128.329858875077349, 35.729461980714426 ], [ 128.337804155939352, 35.7258982590619 ], [ 128.342877756620425, 35.72676468295473 ], [ 128.343297779611476, 35.731422875307125 ], [ 128.34597863638021, 35.733046546005966 ], [ 128.354640236264373, 35.733910382698113 ], [ 128.359690086750788, 35.730677093804644 ], [ 128.36482276172211, 35.730729512319598 ], [ 128.367788010045018, 35.731534020058646 ], [ 128.372055701108621, 35.735735240305779 ], [ 128.377825723288623, 35.730637117813735 ], [ 128.386434760394252, 35.729518928263829 ], [ 128.392614714053366, 35.723294223913022 ], [ 128.397064212972623, 35.723303611520798 ], [ 128.401443266602257, 35.719909427435603 ], [ 128.409101984258371, 35.724217413868992 ], [ 128.408155543248569, 35.731639840971795 ], [ 128.412225130217962, 35.732306892466774 ], [ 128.416090202058797, 35.736145142527505 ], [ 128.431815633611137, 35.725598095652991 ], [ 128.43364103598077, 35.722275978342523 ], [ 128.434889087518542, 35.71475771880516 ], [ 128.433980503057768, 35.70707028757807 ], [ 128.422223212482976, 35.697269136582989 ], [ 128.412201478252939, 35.695841896168176 ], [ 128.397062498546603, 35.700223254106625 ], [ 128.381972690495132, 35.701547700270993 ], [ 128.358878020305866, 35.70870122540861 ], [ 128.351796467134335, 35.704015633123234 ], [ 128.351548088203373, 35.69745778932834 ], [ 128.35344029789789, 35.690566766799179 ] ] ] ] } },
{ "type": "Feature", "properties": { "emd_cd": "47830360", "emd_nm": "우곡면" }, "geometry": { "type": "MultiPolygon", "coordinates": [ [ [ [ 128.29120530502297, 35.673072744011527 ], [ 128.29205727165251, 35.676938887374696 ], [ 128.302041982515021, 35.679490938304717 ], [ 128.303262472959176, 35.687541538358204 ], [ 128.30575434213975, 35.692062394783242 ], [ 128.305013431857873, 35.69373601905955 ], [ 128.3133910282437, 35.695206290728429 ], [ 128.311598010172872, 35.70478550988004 ], [ 128.318158225457466, 35.706058428976476 ], [ 128.322442029841795, 35.703813335369482 ], [ 128.326600214194372, 35.706821344800446 ], [ 128.33102997671034, 35.706783066208196 ], [ 128.342783516616578, 35.696348833683572 ], [ 128.343493703586631, 35.691273016534559 ], [ 128.35344029789789, 35.690566766799179 ], [ 128.357186145694953, 35.682195228305531 ], [ 128.362319139356288, 35.675574261548611 ], [ 128.373979134189256, 35.665504346423504 ], [ 128.397911320402727, 35.648809218478696 ], [ 128.401460133111897, 35.639015225000385 ], [ 128.401251135823827, 35.632728691580702 ], [ 128.388375537459751, 35.617928282663691 ], [ 128.372346696515336, 35.611529044268458 ], [ 128.365467318287187, 35.613885214831456 ], [ 128.363445867089098, 35.629929857349936 ], [ 128.359344990856698, 35.638338550151055 ], [ 128.353480708886735, 35.645517087173801 ], [ 128.350078686243592, 35.647379303932865 ], [ 128.343272528212481, 35.647029422397203 ], [ 128.34311656459974, 35.645141073992463 ], [ 128.339081072329179, 35.644799786104663 ], [ 128.330190995830037, 35.648806527913401 ], [ 128.325299131410588, 35.646927695767076 ], [ 128.319314765153734, 35.651586582924651 ], [ 128.310933366878203, 35.654478199230176 ], [ 128.297999771046392, 35.656299265489395 ], [ 128.300134800522045, 35.663275349109199 ], [ 128.29120530502297, 35.673072744011527 ] ] ] ] } },
{ "type": "Feature", "properties": { "emd_cd": "47830370", "emd_nm": "쌍림면" }, "geometry": { "type": "MultiPolygon", "coordinates": [ [ [ [ 128.230751404087272, 35.639083398554341 ], [ 128.226585741588138, 35.641498501089082 ], [ 128.220404865592258, 35.639647770504759 ], [ 128.217591501784426, 35.640934792825398 ], [ 128.213333237422489, 35.639974154072085 ], [ 128.211538757359051, 35.64350134750859 ], [ 128.20220522228442, 35.643088189196661 ], [ 128.200041591266427, 35.648432340565883 ], [ 128.192110289966081, 35.654654362301606 ], [ 128.185288921537875, 35.657788634917047 ], [ 128.166014270116591, 35.652233884519326 ], [ 128.160487545865436, 35.654966140264911 ], [ 128.162288332022626, 35.659196536633594 ], [ 128.161114120090758, 35.660601830626085 ], [ 128.161585301928454, 35.665920497133399 ], [ 128.163976459908923, 35.670521426025552 ], [ 128.168230000122492, 35.672452214386325 ], [ 128.179915275345252, 35.671910268383044 ], [ 128.184839415250423, 35.675704734933788 ], [ 128.186073897507384, 35.678930086244563 ], [ 128.192150117280761, 35.677848704105585 ], [ 128.193493678429661, 35.681313760354328 ], [ 128.195443832806461, 35.680309286780016 ], [ 128.19882504089523, 35.68130270794812 ], [ 128.199517331539653, 35.683571291539643 ], [ 128.205421408624034, 35.683150178610418 ], [ 128.202787581094839, 35.690697616469535 ], [ 128.204906103771805, 35.695976464597344 ], [ 128.204253501580922, 35.699837533791388 ], [ 128.20015291887816, 35.707002302633377 ], [ 128.20281383496561, 35.712252736793353 ], [ 128.20254341962567, 35.717722254230502 ], [ 128.198943419587295, 35.719876082285445 ], [ 128.200570905247588, 35.723033592797982 ], [ 128.196826157696989, 35.730138465732196 ], [ 128.19766836286658, 35.735770572924949 ], [ 128.199444085824524, 35.736428575082996 ], [ 128.217860115790103, 35.735051281390213 ], [ 128.225122959372385, 35.737199713744396 ], [ 128.231060563218591, 35.729332566629253 ], [ 128.232288942598444, 35.723252389285612 ], [ 128.238041033767672, 35.718433137112036 ], [ 128.246135603317981, 35.718116134511682 ], [ 128.249100409975426, 35.715540171233393 ], [ 128.249686076630923, 35.712434106768555 ], [ 128.256502138236243, 35.712151327415839 ], [ 128.258958670805612, 35.710483914050258 ], [ 128.255175909748488, 35.706180718277068 ], [ 128.255771174228698, 35.704414635348407 ], [ 128.258543645774523, 35.701959843040001 ], [ 128.266252047827493, 35.70086290000016 ], [ 128.276457441667247, 35.688440794091498 ], [ 128.281475813341018, 35.687099204172213 ], [ 128.292057271652425, 35.676938887374739 ], [ 128.29120530502297, 35.673072744011485 ], [ 128.300134800522045, 35.663275349109171 ], [ 128.297032137645232, 35.650902650336818 ], [ 128.281616731210136, 35.65272622785492 ], [ 128.278739706801588, 35.651546709435685 ], [ 128.277808035932651, 35.647015907860172 ], [ 128.272494498390415, 35.646847290610239 ], [ 128.263153757781964, 35.642748320021724 ], [ 128.259848263089907, 35.647514322231508 ], [ 128.243057337742897, 35.655235035707562 ], [ 128.2410403496051, 35.651974744638217 ], [ 128.236886815977897, 35.650766561517294 ], [ 128.238767313438615, 35.64388565351404 ], [ 128.237227286289169, 35.640639958505567 ], [ 128.230751404087272, 35.639083398554341 ] ] ] ] } }
]
}
