{
"type": "FeatureCollection",
"name": "47840",
"crs": { "type": "name", "properties": { "name": "urn:ogc:def:crs:OGC:1.3:CRS84" } },
"features": [
{ "type": "Feature", "properties": { "emd_cd": "47840250", "emd_nm": "성주읍" }, "geometry": { "type": "MultiPolygon", "coordinates": [ [ [ [ 128.246143506746279, 35.886242163692039 ], [ 128.242207035161329, 35.892155105973309 ], [ 128.246226867280797, 35.898185374185886 ], [ 128.250115698505255, 35.900321844922637 ], [ 128.248372659294517, 35.906943876209446 ], [ 128.25148500142231, 35.909907091831158 ], [ 128.257823936637578, 35.912265518962471 ], [ 128.252629912444604, 35.914096957838161 ], [ 128.25158372353863, 35.916693097959993 ], [ 128.255385779617825, 35.922307793600282 ], [ 128.262808781072749, 35.928540582717972 ], [ 128.245029963920928, 35.930480081602248 ], [ 128.244631224158553, 35.932301481410015 ], [ 128.246998695453669, 35.933954825839969 ], [ 128.248365744602836, 35.939247160518185 ], [ 128.256246523804407, 35.940467757664528 ], [ 128.259279173643279, 35.943384640803139 ], [ 128.263931486223811, 35.941650614022429 ], [ 128.270400070552256, 35.942828308172317 ], [ 128.275162075030465, 35.946349058986939 ], [ 128.272666699511888, 35.949353791610974 ], [ 128.27492230887816, 35.953139952378564 ], [ 128.27640498479991, 35.952252355715643 ], [ 128.280699191581846, 35.953646107776017 ], [ 128.282424787789608, 35.95567655360437 ], [ 128.288683481714401, 35.954381360971119 ], [ 128.297924437516485, 35.955004847748036 ], [ 128.302326412801762, 35.951909818359198 ], [ 128.305154744514454, 35.941820119791835 ], [ 128.309963793767309, 35.939376818875587 ], [ 128.307785621522555, 35.935839331008033 ], [ 128.310593688885945, 35.932600614262853 ], [ 128.309887393768435, 35.928938827721105 ], [ 128.313304717671969, 35.927927830371061 ], [ 128.314532349372001, 35.925802946025989 ], [ 128.309895455908105, 35.921210876364505 ], [ 128.309639394914029, 35.919129449269988 ], [ 128.310631934629839, 35.909722806894216 ], [ 128.313026314212664, 35.908177786761215 ], [ 128.314045658002442, 35.905103916367089 ], [ 128.311332269408723, 35.902833991560072 ], [ 128.312966473115864, 35.899856944835676 ], [ 128.312206016098457, 35.895054200014769 ], [ 128.301354181516132, 35.890799077673726 ], [ 128.295783920607647, 35.890650159171578 ], [ 128.294405978651014, 35.892389626102009 ], [ 128.283157825744809, 35.888160037154343 ], [ 128.271549609164623, 35.886390928092794 ], [ 128.26903788804907, 35.88740552834043 ], [ 128.260776226147613, 35.884425364320307 ], [ 128.250824102026058, 35.887158649302336 ], [ 128.246143506746279, 35.886242163692039 ] ] ] ] } },
{ "type": "Feature", "properties": { "emd_cd": "47840310", "emd_nm": "선남면" }, "geometry": { "type": "MultiPolygon", "coordinates": [ [ [ [ 128.383509893471626, 35.852834646418842 ], [ 128.379478134601271, 35.852309244277563 ], [ 128.376847014750695, 35.854011319848858 ], [ 128.376653169628952, 35.855991475118635 ], [ 128.375537480766923, 35.856916371826841 ], [ 128.375566401568847, 35.857445429016089 ], [ 128.379855091984325, 35.857634861910071 ], [ 128.380638896053341, 35.859763039103257 ], [ 128.374057541032982, 35.863749817874186 ], [ 128.371951186461217, 35.869370459273725 ], [ 128.366446325586537, 35.870984918589308 ], [ 128.365300607428935, 35.876151357849665 ], [ 128.361065414417681, 35.878447114044576 ], [ 128.353454636879064, 35.878259580196215 ], [ 128.351782123481769, 35.879883409930137 ], [ 128.347689641021191, 35.878477515252477 ], [ 128.347604495685061, 35.877067954443319 ], [ 128.341756768436852, 35.87638788315644 ], [ 128.338014927523204, 35.874211070110697 ], [ 128.334921232878912, 35.867540706475268 ], [ 128.329558993964412, 35.866205092147581 ], [ 128.322015729958025, 35.868218876362768 ], [ 128.322532113753311, 35.860958432622184 ], [ 128.312417838888081, 35.858474620637296 ], [ 128.310920549313039, 35.859745860003571 ], [ 128.304548356936692, 35.859519116894106 ], [ 128.302040509611317, 35.863730582811051 ], [ 128.297587619525075, 35.863483263950187 ], [ 128.294422645389858, 35.866529005481098 ], [ 128.293134727786423, 35.873528885204948 ], [ 128.296262097096928, 35.876988568769839 ], [ 128.290492442383112, 35.881010810228133 ], [ 128.291410860369439, 35.884761955353717 ], [ 128.288308898870582, 35.889551001295779 ], [ 128.294405978651014, 35.892389626102009 ], [ 128.295783920607647, 35.890650159171578 ], [ 128.301354181516132, 35.890799077673726 ], [ 128.312206016098457, 35.895054200014769 ], [ 128.312966473115864, 35.899856944835676 ], [ 128.311332269408723, 35.902833991560072 ], [ 128.314045658002442, 35.905103916367089 ], [ 128.313026314212664, 35.908177786761215 ], [ 128.310631934629839, 35.909722806894216 ], [ 128.309639394914029, 35.919129449269988 ], [ 128.309895455908105, 35.921210876364505 ], [ 128.314532349372001, 35.925802946025989 ], [ 128.312734047406337, 35.927656932121138 ], [ 128.31625680918367, 35.928959072783947 ], [ 128.324722450443858, 35.925555942086916 ], [ 128.326000128087486, 35.923794979410602 ], [ 128.325154488899187, 35.919637413529884 ], [ 128.328102760395041, 35.919267657329385 ], [ 128.332621341321982, 35.921752245447983 ], [ 128.334773909478884, 35.934885673246249 ], [ 128.331978447530872, 35.939364565008667 ], [ 128.334329424529926, 35.945051027064061 ], [ 128.336575057813405, 35.947098417644732 ], [ 128.340934391354494, 35.947643686720205 ], [ 128.347881267379876, 35.954685280495227 ], [ 128.353033151868857, 35.956128765724479 ], [ 128.361786199317237, 35.955139867567915 ], [ 128.365274915913233, 35.949808230181205 ], [ 128.36415030235716, 35.946719537699899 ], [ 128.368668310804736, 35.941950692394592 ], [ 128.375774806000692, 35.941665216845173 ], [ 128.379701744984402, 35.938642009295243 ], [ 128.38261925607452, 35.939764288777511 ], [ 128.387267828465923, 35.938926225773734 ], [ 128.389766311255016, 35.941728821301155 ], [ 128.395754332561808, 35.941647794169903 ], [ 128.396555458224753, 35.940034429638551 ], [ 128.399110498286973, 35.92623040568148 ], [ 128.396893232572467, 35.907110440668731 ], [ 128.398719929844361, 35.903523213881293 ], [ 128.399134511536573, 35.896318824485981 ], [ 128.388449234989793, 35.871760149774602 ], [ 128.384208908083025, 35.865656044044272 ], [ 128.383509893471626, 35.852834646418842 ] ] ] ] } },
{ "type": "Feature", "properties": { "emd_cd": "47840320", "emd_nm": "용암면" }, "geometry": { "type": "MultiPolygon", "coordinates": [ [ [ [ 128.233873236431009, 35.881681284769435 ], [ 128.243306552476156, 35.883465924207229 ], [ 128.247055141576624, 35.887140110396466 ], [ 128.260776226147613, 35.884425364320307 ], [ 128.26903788804907, 35.88740552834043 ], [ 128.271549609164623, 35.886390928092794 ], [ 128.28755154371899, 35.889975565364644 ], [ 128.291410860369439, 35.884761955353717 ], [ 128.290492442383112, 35.881010810228133 ], [ 128.296262097096928, 35.876988568769839 ], [ 128.293134727786423, 35.873528885204948 ], [ 128.294422645389858, 35.866529005481098 ], [ 128.297587619525075, 35.863483263950187 ], [ 128.302040509611317, 35.863730582811051 ], [ 128.304548356936692, 35.859519116894106 ], [ 128.310920549313039, 35.859745860003571 ], [ 128.311757166822076, 35.858391035282374 ], [ 128.322532113753311, 35.860958432622184 ], [ 128.322015729958025, 35.868218876362768 ], [ 128.329558993964412, 35.866205092147581 ], [ 128.335565057724864, 35.867795971889556 ], [ 128.338014927523204, 35.874211070110697 ], [ 128.341756768436852, 35.87638788315644 ], [ 128.347604495685061, 35.877067954443319 ], [ 128.347689641021191, 35.878477515252477 ], [ 128.350702626938954, 35.879779612319375 ], [ 128.355717788337046, 35.877763501085177 ], [ 128.361065414417681, 35.878447114044576 ], [ 128.365592100067374, 35.875798339395395 ], [ 128.366681770404966, 35.870754970231893 ], [ 128.371951186461217, 35.869370459273725 ], [ 128.374334746346079, 35.863473784824016 ], [ 128.380413777100188, 35.860061003881455 ], [ 128.379855091984325, 35.857634861910071 ], [ 128.375566401568847, 35.857445429016089 ], [ 128.376847014750695, 35.854011319848858 ], [ 128.379478134601271, 35.852309244277563 ], [ 128.384629341757574, 35.852627057954095 ], [ 128.388636730121789, 35.849640692394267 ], [ 128.390921762516996, 35.841331216791239 ], [ 128.393606796046498, 35.84009027041094 ], [ 128.394035479811805, 35.837516685568801 ], [ 128.381628106299928, 35.838549483328954 ], [ 128.374552102838464, 35.834382561146462 ], [ 128.377034433651289, 35.832241483100368 ], [ 128.379761703749466, 35.821761285810538 ], [ 128.375403914332963, 35.816535683252845 ], [ 128.369746155840005, 35.816169833030749 ], [ 128.371364343797154, 35.805843793755685 ], [ 128.369485396104949, 35.803365227083731 ], [ 128.368816570199641, 35.794273611224185 ], [ 128.367456346534851, 35.793178521793507 ], [ 128.365299139583868, 35.792665389013791 ], [ 128.350245138795287, 35.798726208908469 ], [ 128.342884125684037, 35.796141978516424 ], [ 128.33843528747343, 35.796709688988123 ], [ 128.328548450718358, 35.806193509361854 ], [ 128.322324722908604, 35.809003016948907 ], [ 128.322128710842179, 35.811810704136967 ], [ 128.319042730840522, 35.813717906494773 ], [ 128.313861178623227, 35.814509127717045 ], [ 128.312166993928116, 35.812563471986785 ], [ 128.306250012880611, 35.812015056002927 ], [ 128.304870329744631, 35.814445578035333 ], [ 128.299947518406157, 35.814974437690609 ], [ 128.299776171352676, 35.816764920885014 ], [ 128.290531751543625, 35.826312343859762 ], [ 128.280513894209861, 35.827566841682966 ], [ 128.275789682060463, 35.826495895176627 ], [ 128.273240082863026, 35.830616999944169 ], [ 128.269757383020846, 35.830684691811307 ], [ 128.264422127354067, 35.83426052805283 ], [ 128.255252008211698, 35.832427521171887 ], [ 128.246581805298007, 35.836454970247949 ], [ 128.243986067291701, 35.84248760555127 ], [ 128.246402082436816, 35.844905679290676 ], [ 128.245002482117229, 35.847079612157124 ], [ 128.245786178689968, 35.850710032050394 ], [ 128.242387265882002, 35.855288878485162 ], [ 128.24402148381651, 35.85754114174204 ], [ 128.243462137782245, 35.859633187088299 ], [ 128.237892016659117, 35.867031354384224 ], [ 128.234848692777661, 35.868462131258561 ], [ 128.233077394216735, 35.866980380646396 ], [ 128.231814851056924, 35.868381189449174 ], [ 128.231862467991277, 35.873145093164567 ], [ 128.23460903173185, 35.877276057677918 ], [ 128.233873236431009, 35.881681284769435 ] ] ] ] } },
{ "type": "Feature", "properties": { "emd_cd": "47840330", "emd_nm": "수륜면" }, "geometry": { "type": "MultiPolygon", "coordinates": [ [ [ [ 128.275789682060463, 35.826495895176627 ], [ 128.273194033931389, 35.815392471723584 ], [ 128.275180384576061, 35.809968545400302 ], [ 128.272812140593913, 35.804296608900259 ], [ 128.274808521517969, 35.795916152958462 ], [ 128.273083676478564, 35.795645881445189 ], [ 128.271387872758822, 35.791564713152418 ], [ 128.26211660811606, 35.795970542262417 ], [ 128.259654804290363, 35.794882603451654 ], [ 128.258748475700969, 35.791363497303138 ], [ 128.250904578733156, 35.789920275580265 ], [ 128.251897011701374, 35.780075693275521 ], [ 128.239182196747009, 35.782104205173368 ], [ 128.233257022478824, 35.787242348188883 ], [ 128.225517613603301, 35.787797178224743 ], [ 128.21751146539151, 35.792420009525848 ], [ 128.216333336108562, 35.797926530391663 ], [ 128.213476253939945, 35.799913846263635 ], [ 128.214105353695714, 35.805739063506991 ], [ 128.212479480002344, 35.807857525167726 ], [ 128.213928635008045, 35.810567165945599 ], [ 128.209699532311845, 35.816364121232965 ], [ 128.207820039385325, 35.814997865675416 ], [ 128.202778956186933, 35.815152051547798 ], [ 128.192588568676911, 35.819260914920548 ], [ 128.179764475799601, 35.819499595262101 ], [ 128.169336633231495, 35.816418596683 ], [ 128.166134565547054, 35.81405586024362 ], [ 128.162684015110329, 35.807557326245679 ], [ 128.163214693113673, 35.805447515532258 ], [ 128.165281429023992, 35.804303704572582 ], [ 128.166134500308431, 35.801163530340986 ], [ 128.170933514493157, 35.797889259326809 ], [ 128.172857498699756, 35.798671354031946 ], [ 128.176396151668087, 35.795564665493252 ], [ 128.179403419206466, 35.787995941140757 ], [ 128.175838625056798, 35.786947369082753 ], [ 128.169912278914865, 35.780677200527805 ], [ 128.163907134714236, 35.77713280321224 ], [ 128.158979562203001, 35.780085676415197 ], [ 128.158079190608419, 35.781468873250127 ], [ 128.159302836220007, 35.783935823822638 ], [ 128.154245928868932, 35.786676504140772 ], [ 128.147950041662767, 35.783996473914044 ], [ 128.135862015087326, 35.784646491625729 ], [ 128.128609458955111, 35.78933990290956 ], [ 128.128692348262973, 35.794293040893038 ], [ 128.1219140654797, 35.803458024087455 ], [ 128.123452696140077, 35.805561993893747 ], [ 128.121668585722432, 35.808742950550759 ], [ 128.121992597645487, 35.811755577816307 ], [ 128.12406890031437, 35.812930200038181 ], [ 128.122575029102393, 35.814426393276186 ], [ 128.124581427709188, 35.819448606479291 ], [ 128.123088037712989, 35.822432462642077 ], [ 128.132724180420638, 35.824330459598968 ], [ 128.139422473864414, 35.823210889992822 ], [ 128.138443839332297, 35.826037905167709 ], [ 128.141999415848971, 35.828552647574782 ], [ 128.149683563823714, 35.839053221068248 ], [ 128.152986927840544, 35.839085754053194 ], [ 128.156380783313125, 35.843558851761628 ], [ 128.16078873637224, 35.844463214145406 ], [ 128.162028455041138, 35.850084673744163 ], [ 128.16522334140916, 35.852757871473138 ], [ 128.177639115128585, 35.853930553615406 ], [ 128.173618817660724, 35.863441541549037 ], [ 128.179973187780007, 35.875048965168837 ], [ 128.186742517137731, 35.874661336199708 ], [ 128.193964131544305, 35.871748040995897 ], [ 128.195270503901753, 35.87394591252157 ], [ 128.194374750629663, 35.877113873375563 ], [ 128.198073977611898, 35.878610810925792 ], [ 128.200648060948197, 35.883888608782996 ], [ 128.209903815723322, 35.885192857006352 ], [ 128.215332815942702, 35.888530053326065 ], [ 128.225474716256912, 35.884384777039166 ], [ 128.23100337995524, 35.884290302203645 ], [ 128.233873236431009, 35.881681284769435 ], [ 128.23460903173185, 35.877276057677918 ], [ 128.231862467991277, 35.873145093164567 ], [ 128.231814851056924, 35.868381189449174 ], [ 128.233077394216735, 35.866980380646396 ], [ 128.234848692777661, 35.868462131258561 ], [ 128.237892016659117, 35.867031354384224 ], [ 128.243462137782245, 35.859633187088299 ], [ 128.24402148381651, 35.85754114174204 ], [ 128.242387265882002, 35.855288878485162 ], [ 128.246090869045986, 35.849580620606439 ], [ 128.245002482117229, 35.847079612157124 ], [ 128.246402082436816, 35.844905679290676 ], [ 128.243986067291701, 35.84248760555127 ], [ 128.245183605972045, 35.837671093006826 ], [ 128.250556632031248, 35.835665069887661 ], [ 128.253212084290539, 35.832765200635073 ], [ 128.264422127354067, 35.83426052805283 ], [ 128.269757383020846, 35.830684691811307 ], [ 128.273240082863026, 35.830616999944169 ], [ 128.275789682060463, 35.826495895176627 ] ] ] ] } },
{ "type": "Feature", "properties": { "emd_cd": "47840340", "emd_nm": "가천면" }, "geometry": { "type": "MultiPolygon", "coordinates": [ [ [ [ 128.086887466993829, 35.872453672540601 ], [ 128.091905023124809, 35.882077848304291 ], [ 128.092766159333905, 35.887962939588782 ], [ 128.096374784905407, 35.891378337466477 ], [ 128.095893275407064, 35.894898155286782 ], [ 128.100630621168278, 35.896391036632672 ], [ 128.104090449335672, 35.902771035339569 ], [ 128.117248985554681, 35.904710685649022 ], [ 128.120292983663745, 35.902899234723108 ], [ 128.125825310745114, 35.902612354701972 ], [ 128.1318135080883, 35.8990623092945 ], [ 128.136805006614537, 35.899207225850695 ], [ 128.138267931280012, 35.901846474096104 ], [ 128.142329794579126, 35.903194109009064 ], [ 128.144063112288279, 35.906414996620811 ], [ 128.14690232506905, 35.907157257753724 ], [ 128.147780486799832, 35.910094150409179 ], [ 128.156140236686014, 35.916079921433699 ], [ 128.163191322678699, 35.912877849084026 ], [ 128.169682893012038, 35.896460367555605 ], [ 128.175491969784133, 35.893321235383674 ], [ 128.176005786253199, 35.886157275544129 ], [ 128.173109176710994, 35.880791951109998 ], [ 128.179973187780007, 35.875048965168837 ], [ 128.173618817660724, 35.863441541549037 ], [ 128.177639115128585, 35.853930553615406 ], [ 128.16522334140916, 35.852757871473138 ], [ 128.162028455041138, 35.850084673744163 ], [ 128.16078873637224, 35.844463214145406 ], [ 128.156380783313125, 35.843558851761628 ], [ 128.152986927840544, 35.839085754053194 ], [ 128.149683563823714, 35.839053221068248 ], [ 128.141999415848971, 35.828552647574782 ], [ 128.138443839332297, 35.826037905167709 ], [ 128.139422473864414, 35.823210889992822 ], [ 128.132724180420638, 35.824330459598968 ], [ 128.123919903671123, 35.822427300433525 ], [ 128.119449591574266, 35.824947911432716 ], [ 128.117030367137971, 35.823471418905939 ], [ 128.111221804517754, 35.823968153575834 ], [ 128.10538668681005, 35.828948552371351 ], [ 128.099918949613965, 35.829853609911396 ], [ 128.097004662630013, 35.832243022799396 ], [ 128.090772959029266, 35.830641761186378 ], [ 128.086306369811012, 35.833082270037224 ], [ 128.084241368089522, 35.837129906211473 ], [ 128.077399640726696, 35.839623969317721 ], [ 128.077540733999001, 35.84344192504286 ], [ 128.073296688106382, 35.849751459157559 ], [ 128.076601388319745, 35.855313201720385 ], [ 128.07586690722124, 35.861249446730426 ], [ 128.086887466993829, 35.872453672540601 ] ] ] ] } },
{ "type": "Feature", "properties": { "emd_cd": "47840355", "emd_nm": "금수강산면" }, "geometry": { "type": "MultiPolygon", "coordinates": [ [ [ [ 128.086887466994057, 35.872453672540537 ], [ 128.080060962516114, 35.873161471321012 ], [ 128.070259314377012, 35.880417247653789 ], [ 128.068741025911237, 35.885702940840027 ], [ 128.065539308166393, 35.888967352096785 ], [ 128.066578352612311, 35.895932380899296 ], [ 128.057329750781832, 35.901967604671626 ], [ 128.056266009094031, 35.904313380637177 ], [ 128.060419034290845, 35.907268809447089 ], [ 128.0563775364474, 35.910014290294804 ], [ 128.054661844807129, 35.915683217877863 ], [ 128.048554612636707, 35.920101484523741 ], [ 128.050655445249163, 35.924064958265603 ], [ 128.047066018829838, 35.926667919767894 ], [ 128.046676384257097, 35.93246953805351 ], [ 128.048637563689937, 35.936414653985992 ], [ 128.056235533224083, 35.941743752224994 ], [ 128.065755642015972, 35.937090332526061 ], [ 128.070872958771702, 35.936504787029556 ], [ 128.07398173324674, 35.927844851888501 ], [ 128.078862096704711, 35.927623783642971 ], [ 128.081716994869822, 35.923108375205892 ], [ 128.08482302437568, 35.920917619184934 ], [ 128.088113781935505, 35.921050121066756 ], [ 128.091218201632245, 35.931038566852969 ], [ 128.08928732615118, 35.93502353783812 ], [ 128.090710831324571, 35.937306664078925 ], [ 128.088595406730064, 35.946666620018959 ], [ 128.095729122532276, 35.955044383107094 ], [ 128.100119071029468, 35.955604102410604 ], [ 128.106232994975954, 35.959099666166445 ], [ 128.110723846702712, 35.964676253666838 ], [ 128.118200250983165, 35.959286713487401 ], [ 128.12348347653699, 35.962287818098112 ], [ 128.13255639686659, 35.958592136788404 ], [ 128.150982571612445, 35.966359695051821 ], [ 128.156813727109892, 35.96291540488803 ], [ 128.157825261461426, 35.960184717991226 ], [ 128.165371994528641, 35.954548127076386 ], [ 128.165744865649401, 35.948861044247934 ], [ 128.168386501178816, 35.944694016211059 ], [ 128.1737686080034, 35.943541817905754 ], [ 128.17886554599184, 35.946539376242093 ], [ 128.182099210569248, 35.945601175837105 ], [ 128.187054679080774, 35.93523984570696 ], [ 128.186331995698509, 35.931210814189015 ], [ 128.192008659705067, 35.928159999397622 ], [ 128.196068231490671, 35.930562307690451 ], [ 128.207130468997974, 35.929831886219446 ], [ 128.207181079567647, 35.923765333267774 ], [ 128.213421623379048, 35.922040086872649 ], [ 128.210886938304697, 35.916044052512937 ], [ 128.21239603435032, 35.913736281336192 ], [ 128.208204475397537, 35.911604635116312 ], [ 128.205425477834837, 35.906055958969112 ], [ 128.200554112341962, 35.903266508979989 ], [ 128.193411297630547, 35.903805909358645 ], [ 128.192416522379176, 35.905932214791434 ], [ 128.186040753877819, 35.90928953172299 ], [ 128.178578678017573, 35.903588382798823 ], [ 128.167594103247751, 35.902992287566668 ], [ 128.163191322678955, 35.912877849084026 ], [ 128.156140236686298, 35.916079921433614 ], [ 128.147780486800031, 35.910094150409158 ], [ 128.146902325069334, 35.907157257753674 ], [ 128.144063112288507, 35.90641499662074 ], [ 128.142329794579382, 35.903194109009064 ], [ 128.138267931280296, 35.90184647409604 ], [ 128.136805006614765, 35.899207225850681 ], [ 128.131813508088612, 35.899062309294486 ], [ 128.125825310745256, 35.902612354701972 ], [ 128.120292983663944, 35.90289923472303 ], [ 128.117248985554767, 35.904710685648972 ], [ 128.104090449335956, 35.902771035339526 ], [ 128.10063062116842, 35.896391036632586 ], [ 128.095893275407235, 35.894898155286732 ], [ 128.096374784905549, 35.891378337466442 ], [ 128.092766159334047, 35.887962939588682 ], [ 128.091905023124951, 35.882077848304291 ], [ 128.086887466994057, 35.872453672540537 ] ] ] ] } },
{ "type": "Feature", "properties": { "emd_cd": "47840360", "emd_nm": "대가면" }, "geometry": { "type": "MultiPolygon", "coordinates": [ [ [ [ 128.233873236431009, 35.881681284769435 ], [ 128.23100337995524, 35.884290302203645 ], [ 128.225474716256912, 35.884384777039166 ], [ 128.215332815942702, 35.888530053326065 ], [ 128.209903815723322, 35.885192857006352 ], [ 128.200648060948197, 35.883888608782996 ], [ 128.198073977611898, 35.878610810925792 ], [ 128.194374750629663, 35.877113873375563 ], [ 128.195270503901753, 35.87394591252157 ], [ 128.193964131544305, 35.871748040995897 ], [ 128.186742517137731, 35.874661336199708 ], [ 128.179973187780007, 35.875048965168837 ], [ 128.173109176710994, 35.880791951109998 ], [ 128.176005786253199, 35.886157275544129 ], [ 128.174949365845009, 35.888773900317176 ], [ 128.176438962878137, 35.89145028797796 ], [ 128.169682893012038, 35.896460367555605 ], [ 128.16720889768493, 35.902196887353846 ], [ 128.169208479800773, 35.903462113624911 ], [ 128.178653880025252, 35.903615141413582 ], [ 128.186040753877535, 35.909289531723061 ], [ 128.192416522378892, 35.905932214791441 ], [ 128.193411297630263, 35.903805909358653 ], [ 128.202204263977734, 35.90360173298648 ], [ 128.205425477834581, 35.906055958969112 ], [ 128.208204475397281, 35.911604635116348 ], [ 128.212396034350036, 35.913736281336185 ], [ 128.210886938304384, 35.91604405251298 ], [ 128.213421623378764, 35.922040086872649 ], [ 128.207181079567334, 35.923765333267767 ], [ 128.206243339782702, 35.926365458969165 ], [ 128.208505581084978, 35.929950176467472 ], [ 128.211090875836106, 35.929976804274794 ], [ 128.21370041508365, 35.934748595471341 ], [ 128.216777276147667, 35.933479968769028 ], [ 128.220419782805038, 35.9343203282437 ], [ 128.226722202736255, 35.927187368098338 ], [ 128.226048023531547, 35.921672958861862 ], [ 128.231019929306512, 35.916572141357371 ], [ 128.234483636578574, 35.919033914811024 ], [ 128.235491638843143, 35.926029097859761 ], [ 128.240162457426436, 35.929491747314671 ], [ 128.243629660915587, 35.930732548488081 ], [ 128.251739375215976, 35.928745486675147 ], [ 128.262808781072749, 35.928540582717972 ], [ 128.255385779617825, 35.922307793600282 ], [ 128.25158372353863, 35.916693097959993 ], [ 128.252629912444604, 35.914096957838161 ], [ 128.257823936637578, 35.912265518962471 ], [ 128.25148500142231, 35.909907091831158 ], [ 128.248372659294517, 35.906943876209446 ], [ 128.250115698505255, 35.900321844922637 ], [ 128.246226867280797, 35.898185374185886 ], [ 128.242207035161329, 35.892155105973309 ], [ 128.245549351893914, 35.888989762100046 ], [ 128.245644668391918, 35.885397303635251 ], [ 128.243306552476156, 35.883465924207229 ], [ 128.233873236431009, 35.881681284769435 ] ] ] ] } },
{ "type": "Feature", "properties": { "emd_cd": "47840370", "emd_nm": "벽진면" }, "geometry": { "type": "MultiPolygon", "coordinates": [ [ [ [ 128.210449889769535, 35.929382523199642 ], [ 128.196068231490358, 35.930562307690451 ], [ 128.192008659704783, 35.928159999397671 ], [ 128.186331995698112, 35.931210814189029 ], [ 128.187054679080489, 35.935239845706967 ], [ 128.182099210568964, 35.94560117583714 ], [ 128.178865545991584, 35.946539376242143 ], [ 128.173768608003172, 35.943541817905746 ], [ 128.168386501178645, 35.944694016211059 ], [ 128.165744865649145, 35.948861044247984 ], [ 128.165371994528357, 35.954548127076386 ], [ 128.157825261461227, 35.960184717991282 ], [ 128.156813727109608, 35.962915404888129 ], [ 128.150982571612246, 35.966359695051821 ], [ 128.152933591806118, 35.968853569649561 ], [ 128.150139457387525, 35.972892791344343 ], [ 128.151603720123234, 35.976586370507398 ], [ 128.156694508703652, 35.977640973805912 ], [ 128.157692942834558, 35.987471641426296 ], [ 128.166021518955148, 35.987899039465674 ], [ 128.170471747215117, 35.993177435624325 ], [ 128.170664984126176, 35.996657529982301 ], [ 128.166141288350218, 35.999411117413523 ], [ 128.165642628150778, 36.00151537552815 ], [ 128.168950666824202, 36.011203777803999 ], [ 128.173350033187859, 36.014233145706228 ], [ 128.170828464605478, 36.018186794693129 ], [ 128.168031922209963, 36.019551648578712 ], [ 128.167036295854956, 36.029891757288745 ], [ 128.164442907453946, 36.032481404611573 ], [ 128.169409239602913, 36.035421820898712 ], [ 128.17779563212855, 36.031237023791476 ], [ 128.185372261959031, 36.033545985474177 ], [ 128.188512871172691, 36.031206664555505 ], [ 128.194654836213914, 36.031967668910966 ], [ 128.194943215731087, 36.027579351509168 ], [ 128.19721904475216, 36.025802011478284 ], [ 128.195844766543388, 36.024084731119082 ], [ 128.198410921267964, 36.021813829285975 ], [ 128.207897323236381, 36.02233447727366 ], [ 128.213566201886152, 36.020162430568064 ], [ 128.218189393362081, 36.016247082850704 ], [ 128.213484701268953, 36.008520623082667 ], [ 128.214060252154553, 36.003767468369098 ], [ 128.211224153806569, 35.997692447361075 ], [ 128.214143478693501, 35.996102185538518 ], [ 128.21705031949989, 35.998202527394163 ], [ 128.218877731126298, 35.996615495212204 ], [ 128.218343404503884, 35.99368692963936 ], [ 128.221352356594764, 35.990727731973678 ], [ 128.220996481061547, 35.988642573412811 ], [ 128.228840171976827, 35.98273031302756 ], [ 128.229693563786526, 35.975687348257289 ], [ 128.227787950274461, 35.972616057426883 ], [ 128.231649968797484, 35.969210549337134 ], [ 128.233673282107844, 35.962466415772894 ], [ 128.238102572658988, 35.960622373328725 ], [ 128.240101081302072, 35.95335896157129 ], [ 128.243745010462277, 35.952744396730218 ], [ 128.245975487050686, 35.950291950617533 ], [ 128.249153535917799, 35.952152167462664 ], [ 128.249248827963299, 35.946833841176158 ], [ 128.254301848527575, 35.941705841238338 ], [ 128.25451060390003, 35.940403688799883 ], [ 128.248365744602836, 35.939247160518185 ], [ 128.246998695453669, 35.933954825839969 ], [ 128.244631224158553, 35.932301481410015 ], [ 128.245029963920928, 35.930480081602248 ], [ 128.239692498640551, 35.929307306867258 ], [ 128.235491638843143, 35.926029097859761 ], [ 128.234483636578574, 35.919033914811024 ], [ 128.231019929306512, 35.916572141357371 ], [ 128.226048023531547, 35.921672958861862 ], [ 128.226722202736255, 35.927187368098338 ], [ 128.220419782805038, 35.9343203282437 ], [ 128.216777276147667, 35.933479968769028 ], [ 128.21370041508365, 35.934748595471341 ], [ 128.210449889769535, 35.929382523199642 ] ] ] ] } },
{ "type": "Feature", "properties": { "emd_cd": "47840380", "emd_nm": "초전면" }, "geometry": { "type": "MultiPolygon", "coordinates": [ [ [ [ 128.194943215731087, 36.027579351509168 ], [ 128.195787652189296, 36.033943550433108 ], [ 128.194707435913472, 36.035874821763173 ], [ 128.196221579221316, 36.037290782463685 ], [ 128.194141496393684, 36.039910185546674 ], [ 128.193617900740776, 36.045014996124181 ], [ 128.196546285160451, 36.046527563472559 ], [ 128.208944250011513, 36.045739475126716 ], [ 128.223174605582329, 36.055395973345917 ], [ 128.22623458522105, 36.053893655146638 ], [ 128.230124816980464, 36.054386287298797 ], [ 128.240958013604256, 36.048697631189505 ], [ 128.24913215001493, 36.048257554118578 ], [ 128.256574518236846, 36.051892391623539 ], [ 128.261075149394685, 36.048540383453165 ], [ 128.275297420575384, 36.048097497995414 ], [ 128.289893269128953, 36.043900797872141 ], [ 128.289553316121726, 36.040608623878235 ], [ 128.2959699692816, 36.031013145554589 ], [ 128.290249806866939, 36.028842408432666 ], [ 128.291027935070758, 36.025413925374714 ], [ 128.286701838118404, 36.021896437298516 ], [ 128.286287524409857, 36.018422964582541 ], [ 128.284722998921808, 36.017544369224716 ], [ 128.285652804870523, 36.013847181304754 ], [ 128.283710274226337, 36.013040178806712 ], [ 128.284346869199709, 36.011816690365741 ], [ 128.28149892862379, 36.007935462452721 ], [ 128.282601804516275, 35.99773030773607 ], [ 128.284637708930262, 35.996482008462799 ], [ 128.285619013347855, 35.993174724272556 ], [ 128.279124808219478, 35.990983842135243 ], [ 128.276709573171644, 35.987346584575747 ], [ 128.277354662133746, 35.984083555772202 ], [ 128.276094456801474, 35.982171825797593 ], [ 128.272564063586316, 35.978911190416689 ], [ 128.265866765850944, 35.978486855317669 ], [ 128.265483659229943, 35.975291875773273 ], [ 128.266094300476027, 35.968055222689145 ], [ 128.276239515134023, 35.964125454698006 ], [ 128.281920757988615, 35.964127226673305 ], [ 128.282225565980241, 35.961205541141972 ], [ 128.284419375542655, 35.959819978265962 ], [ 128.284460620237695, 35.955992450612563 ], [ 128.27640498479991, 35.952252355715643 ], [ 128.27492230887816, 35.953139952378564 ], [ 128.272666699511888, 35.949353791610974 ], [ 128.275162075030465, 35.946349058986939 ], [ 128.270400070552256, 35.942828308172317 ], [ 128.263668415663773, 35.941670446299298 ], [ 128.260534444221946, 35.943576594457397 ], [ 128.254537634394097, 35.940548465668506 ], [ 128.249248827963299, 35.946833841176158 ], [ 128.249153535917799, 35.952152167462664 ], [ 128.245975487050686, 35.950291950617533 ], [ 128.243745010462277, 35.952744396730218 ], [ 128.240101081302072, 35.95335896157129 ], [ 128.238102572658988, 35.960622373328725 ], [ 128.233673282107844, 35.962466415772894 ], [ 128.231649968797484, 35.969210549337134 ], [ 128.227787950274461, 35.972616057426883 ], [ 128.229693563786526, 35.975687348257289 ], [ 128.228840171976827, 35.98273031302756 ], [ 128.220996481061547, 35.988642573412811 ], [ 128.221352356594764, 35.990727731973678 ], [ 128.218343404503884, 35.99368692963936 ], [ 128.218877731126298, 35.996615495212204 ], [ 128.21705031949989, 35.998202527394163 ], [ 128.214143478693501, 35.996102185538518 ], [ 128.211224153806569, 35.997692447361075 ], [ 128.214060252154553, 36.003767468369098 ], [ 128.213484701268953, 36.008520623082667 ], [ 128.218189393362081, 36.016247082850704 ], [ 128.213566201886152, 36.020162430568064 ], [ 128.207897323236381, 36.02233447727366 ], [ 128.198410921267964, 36.021813829285975 ], [ 128.195844766543388, 36.024084731119082 ], [ 128.19721904475216, 36.025802011478284 ], [ 128.194943215731087, 36.027579351509168 ] ] ] ] } },
{ "type": "Feature", "properties": { "emd_cd": "47840390", "emd_nm": "월항면" }, "geometry": { "type": "MultiPolygon", "coordinates": [ [ [ [ 128.284460620237695, 35.955992450612563 ], [ 128.284419375542655, 35.959819978265962 ], [ 128.282225565980241, 35.961205541141972 ], [ 128.281920757988615, 35.964127226673305 ], [ 128.276239515134023, 35.964125454698006 ], [ 128.266094300476027, 35.968055222689145 ], [ 128.265866765850944, 35.978486855317669 ], [ 128.272564063586316, 35.978911190416689 ], [ 128.277354662133746, 35.984083555772202 ], [ 128.276709573171644, 35.987346584575747 ], [ 128.279124808219478, 35.990983842135243 ], [ 128.285619013347855, 35.993174724272556 ], [ 128.284637708930262, 35.996482008462799 ], [ 128.282601804516275, 35.99773030773607 ], [ 128.28149892862379, 36.007935462452721 ], [ 128.284346869199709, 36.011816690365741 ], [ 128.283710274226337, 36.013040178806712 ], [ 128.285652804870523, 36.013847181304754 ], [ 128.284722998921808, 36.017544369224716 ], [ 128.286287524409857, 36.018422964582541 ], [ 128.286701838118404, 36.021896437298516 ], [ 128.291027935070758, 36.025413925374714 ], [ 128.290249806866939, 36.028842408432666 ], [ 128.294366946948202, 36.031030632070511 ], [ 128.306327906364857, 36.030232253515258 ], [ 128.310383775476566, 36.028912406576538 ], [ 128.311737843772221, 36.023116105664009 ], [ 128.317607391319484, 36.018292754022788 ], [ 128.31229839991704, 36.01469474550759 ], [ 128.312831253549859, 36.009993275687478 ], [ 128.310736515571051, 36.007043081565193 ], [ 128.311940431344254, 36.003657161556077 ], [ 128.314037776388915, 36.002825245144066 ], [ 128.313172287476107, 35.993267762810923 ], [ 128.315344595191362, 35.988845029854808 ], [ 128.317589424477575, 35.987510834939755 ], [ 128.320350667374669, 35.98169674523681 ], [ 128.324667249352359, 35.979667318912661 ], [ 128.328288529662615, 35.98042480020429 ], [ 128.329582798705928, 35.979898771375126 ], [ 128.329435844821205, 35.977477364727967 ], [ 128.332950447600581, 35.977831941745336 ], [ 128.339294452244445, 35.975582723839295 ], [ 128.339245015586272, 35.970061643721849 ], [ 128.342601127218813, 35.967559925183735 ], [ 128.340312574036943, 35.963770410902171 ], [ 128.34373767877608, 35.961543826149047 ], [ 128.347881267379876, 35.954685280495227 ], [ 128.340934391354494, 35.947643686720205 ], [ 128.336575057813405, 35.947098417644732 ], [ 128.334329424529926, 35.945051027064061 ], [ 128.331978447530872, 35.939364565008667 ], [ 128.334773909478884, 35.934885673246249 ], [ 128.332621341321982, 35.921752245447983 ], [ 128.327706053854456, 35.919195722509123 ], [ 128.324588896072868, 35.919972977266958 ], [ 128.326000128087486, 35.923794979410602 ], [ 128.324722450443858, 35.925555942086916 ], [ 128.31625680918367, 35.928959072783947 ], [ 128.313304717671969, 35.927927830371061 ], [ 128.309887393768435, 35.928938827721105 ], [ 128.310593688885945, 35.932600614262853 ], [ 128.307785621522555, 35.935839331008033 ], [ 128.309963793767309, 35.939376818875587 ], [ 128.305154744514454, 35.941820119791835 ], [ 128.302326412801762, 35.951909818359198 ], [ 128.297924437516485, 35.955004847748036 ], [ 128.288683481714401, 35.954381360971119 ], [ 128.284460620237695, 35.955992450612563 ] ] ] ] } }
]
}
