{
"type": "FeatureCollection",
"name": "47850",
"crs": { "type": "name", "properties": { "name": "urn:ogc:def:crs:OGC:1.3:CRS84" } },
"features": [
{ "type": "Feature", "properties": { "emd_cd": "47850250", "emd_nm": "왜관읍" }, "geometry": { "type": "MultiPolygon", "coordinates": [ [ [ [ 128.458342542631215, 36.029348284536304 ], [ 128.469909379874593, 36.026164490022794 ], [ 128.473732139497486, 36.019767521161228 ], [ 128.471291653463084, 36.012044656066543 ], [ 128.472130823334197, 36.007185307651284 ], [ 128.4693988296074, 36.000475809789094 ], [ 128.466194996710044, 35.999099278970341 ], [ 128.465579825274489, 35.996269317663533 ], [ 128.467053796873103, 35.98484729202314 ], [ 128.459003962946952, 35.980098372724761 ], [ 128.449294844712455, 35.979273081529421 ], [ 128.445303834424465, 35.98071083774127 ], [ 128.439003450255086, 35.9771276338071 ], [ 128.434991580688973, 35.965311355615711 ], [ 128.432358151399626, 35.964831965480762 ], [ 128.427725171952744, 35.960310692084946 ], [ 128.432694020609944, 35.952041901585936 ], [ 128.430490927462301, 35.948665919042753 ], [ 128.428793242458539, 35.948672043751976 ], [ 128.4222223451643, 35.936295522711681 ], [ 128.426909302928465, 35.931634843979118 ], [ 128.423781736173396, 35.923114777884877 ], [ 128.418092482810721, 35.92129198432707 ], [ 128.418294410509816, 35.916632428770029 ], [ 128.416473339504478, 35.912677334393052 ], [ 128.413828381960599, 35.911248232449616 ], [ 128.407128478934567, 35.900724829758005 ], [ 128.39896189185157, 35.899924465879543 ], [ 128.396892623171311, 35.90711482657413 ], [ 128.398928537058595, 35.927834058331719 ], [ 128.390958339262909, 35.957560725259825 ], [ 128.389934615365746, 35.967275509236231 ], [ 128.394289815248612, 36.006350059030332 ], [ 128.396611909808655, 36.009598887788073 ], [ 128.402059666174353, 36.00724456654811 ], [ 128.406876831433664, 36.008870057911238 ], [ 128.42074279768218, 36.020797600784725 ], [ 128.425945189418201, 36.021484319838422 ], [ 128.429404773252458, 36.020063051843358 ], [ 128.433296255267237, 36.023085863828818 ], [ 128.436560420854988, 36.020430056531112 ], [ 128.451678009716488, 36.021439119313946 ], [ 128.45392538918378, 36.020271218432264 ], [ 128.455123828102415, 36.022000216234936 ], [ 128.45396333716991, 36.027287659890952 ], [ 128.458342542631215, 36.029348284536304 ] ] ] ] } },
{ "type": "Feature", "properties": { "emd_cd": "47850253", "emd_nm": "북삼읍" }, "geometry": { "type": "MultiPolygon", "coordinates": [ [ [ [ 128.284975409745073, 36.081072273762267 ], [ 128.286959557426201, 36.084446401779601 ], [ 128.293100860631881, 36.08841754217309 ], [ 128.301358353008993, 36.088506547688702 ], [ 128.302205124273485, 36.086992339296827 ], [ 128.305116475843732, 36.086756650004368 ], [ 128.321535664801218, 36.091865312537848 ], [ 128.330512450683472, 36.091467275109146 ], [ 128.335784028111078, 36.08247500461033 ], [ 128.342825407002067, 36.08012820302163 ], [ 128.346982256935092, 36.071705761082789 ], [ 128.351463682999935, 36.069538429002215 ], [ 128.351682307450631, 36.067115386332539 ], [ 128.358359335098186, 36.065959628446322 ], [ 128.359996282898663, 36.060922078193428 ], [ 128.365573604068828, 36.061924234008139 ], [ 128.371347641064204, 36.066111209514943 ], [ 128.373068628481207, 36.064691974216238 ], [ 128.378341000764294, 36.065392063486449 ], [ 128.382561764613342, 36.069305562052968 ], [ 128.386659572629895, 36.070281562901606 ], [ 128.390927775329288, 36.066745883404963 ], [ 128.393657196503938, 36.060397603388523 ], [ 128.402247323310689, 36.054526027996637 ], [ 128.404406513904945, 36.051448965288884 ], [ 128.404020031119444, 36.047747717231466 ], [ 128.400012052896273, 36.045654743185104 ], [ 128.392194936451205, 36.046098430172066 ], [ 128.391733421866576, 36.04776298057871 ], [ 128.383150425582386, 36.045452756226155 ], [ 128.378513007035536, 36.047389404026994 ], [ 128.375752826703831, 36.046664575757731 ], [ 128.35875485764862, 36.056886272929816 ], [ 128.354763828759047, 36.054409827910455 ], [ 128.354753028221353, 36.052782090026724 ], [ 128.344311165431463, 36.049402397566844 ], [ 128.341814562227739, 36.045242029156064 ], [ 128.331847924876399, 36.037603024614143 ], [ 128.32752835171442, 36.031366116150927 ], [ 128.316152035112481, 36.030310607130659 ], [ 128.310759373781679, 36.028095241207573 ], [ 128.304735626289926, 36.030586540322531 ], [ 128.301920151141985, 36.029512308622948 ], [ 128.296077553603567, 36.030986156580447 ], [ 128.289571076859829, 36.040548709371528 ], [ 128.289831334292558, 36.043833399037631 ], [ 128.294019964556725, 36.050407871837393 ], [ 128.299479488497866, 36.051230422276831 ], [ 128.301156759148796, 36.057339655357929 ], [ 128.299115418544801, 36.06039329287249 ], [ 128.300687675345955, 36.062632049065975 ], [ 128.29419330765046, 36.070154446146439 ], [ 128.290040158925052, 36.07210757929456 ], [ 128.284975409745073, 36.081072273762267 ] ] ] ] } },
{ "type": "Feature", "properties": { "emd_cd": "47850256", "emd_nm": "석적읍" }, "geometry": { "type": "MultiPolygon", "coordinates": [ [ [ [ 128.384517915698041, 36.072882637019184 ], [ 128.384489759702632, 36.076487610790757 ], [ 128.390006721452323, 36.08012182905825 ], [ 128.395480098343455, 36.090962348305169 ], [ 128.396458268064606, 36.08949310000564 ], [ 128.405363169078697, 36.091829609776092 ], [ 128.409817410948307, 36.082978105360347 ], [ 128.412978790364207, 36.084037170460775 ], [ 128.415563649466264, 36.08270971265069 ], [ 128.422231653915247, 36.088411616313223 ], [ 128.42399127958285, 36.083821531091168 ], [ 128.429249913529219, 36.079988148829898 ], [ 128.446001482445496, 36.078001864463069 ], [ 128.448070039122683, 36.074291299854799 ], [ 128.462884103734666, 36.069711390757462 ], [ 128.467399321126294, 36.072300956611755 ], [ 128.472069263843025, 36.072395805811489 ], [ 128.486263180293804, 36.068170173276862 ], [ 128.483232111365339, 36.060276077846623 ], [ 128.480522510838455, 36.059511762527485 ], [ 128.480690679611456, 36.054099755722696 ], [ 128.481969038282472, 36.051900908967326 ], [ 128.486227993582503, 36.051947711385637 ], [ 128.492783402729657, 36.045591298307137 ], [ 128.486656105487981, 36.043383307743937 ], [ 128.482292394645043, 36.03817158187902 ], [ 128.474536788446414, 36.034862012750509 ], [ 128.474976452502432, 36.031679107638816 ], [ 128.470998417801837, 36.026556517868656 ], [ 128.457343736627053, 36.029278031556039 ], [ 128.453963337170705, 36.027287659890938 ], [ 128.455123828103183, 36.022000216234922 ], [ 128.45392538918469, 36.0202712184322 ], [ 128.451678009717313, 36.021439119313889 ], [ 128.436560420855727, 36.020430056531048 ], [ 128.433296255268004, 36.023085863828783 ], [ 128.429404773253196, 36.020063051843401 ], [ 128.425945189419025, 36.021484319838414 ], [ 128.420742797682919, 36.020797600784668 ], [ 128.406876831434346, 36.008870057911224 ], [ 128.399210285721438, 36.007682242998357 ], [ 128.399224818613988, 36.00913594310277 ], [ 128.396611909809366, 36.009598887788073 ], [ 128.397706116231632, 36.01887744252943 ], [ 128.403402773034571, 36.033325329198114 ], [ 128.402839622648969, 36.046376006916006 ], [ 128.404406513904945, 36.051448965288884 ], [ 128.391980944705523, 36.062106389757098 ], [ 128.390927775329345, 36.06674588340497 ], [ 128.384517915698041, 36.072882637019184 ] ] ] ] } },
{ "type": "Feature", "properties": { "emd_cd": "47850310", "emd_nm": "지천면" }, "geometry": { "type": "MultiPolygon", "coordinates": [ [ [ [ 128.422149506542752, 35.935999083270502 ], [ 128.428793242459278, 35.948672043751991 ], [ 128.432601783614672, 35.951421342837961 ], [ 128.42772517195354, 35.960310692084938 ], [ 128.432358151400308, 35.964831965480712 ], [ 128.434991580689797, 35.965311355615675 ], [ 128.439047776372632, 35.977176327112076 ], [ 128.445303834425374, 35.980710837741256 ], [ 128.449294844713307, 35.979273081529414 ], [ 128.459003962947776, 35.980098372724704 ], [ 128.466835093073996, 35.984385867212616 ], [ 128.467510247204643, 35.989103497059794 ], [ 128.465389940929441, 35.990706094936264 ], [ 128.465579825275285, 35.996269317663483 ], [ 128.466194996710868, 35.999099278970291 ], [ 128.469398829608224, 36.00047580978908 ], [ 128.472130823335078, 36.00718530765122 ], [ 128.471291653463908, 36.012044656066536 ], [ 128.473764114340497, 36.018978270925558 ], [ 128.472909719333956, 36.023034104747396 ], [ 128.46990937987556, 36.026164490022751 ], [ 128.474976452502432, 36.03167910763883 ], [ 128.474536788446414, 36.034862012750509 ], [ 128.482292394645071, 36.03817158187902 ], [ 128.486656105487981, 36.04338330774393 ], [ 128.491121875565256, 36.045331448318834 ], [ 128.497257680839056, 36.046191036010704 ], [ 128.500680892273778, 36.044773700920544 ], [ 128.502557293373741, 36.038318521411519 ], [ 128.497720379081841, 36.032794488759627 ], [ 128.50563577779883, 36.024216562670176 ], [ 128.503595183156392, 36.014411182873722 ], [ 128.505340399740732, 36.011790730283266 ], [ 128.504909469722264, 36.00828346816769 ], [ 128.514425730477825, 36.001073766638257 ], [ 128.517531472291552, 36.000635996778669 ], [ 128.519535200676813, 35.990856536015954 ], [ 128.528073717088944, 35.985085272983284 ], [ 128.529424521037129, 35.977696269935187 ], [ 128.527055718135728, 35.975168354323571 ], [ 128.52774068254692, 35.971495369330128 ], [ 128.530497027839601, 35.961989736424627 ], [ 128.53347788743568, 35.960876181754571 ], [ 128.534810526585147, 35.958383165782379 ], [ 128.53254838444451, 35.950542345537727 ], [ 128.534777367524441, 35.941837698543928 ], [ 128.533869412649295, 35.939591117211158 ], [ 128.535284480932688, 35.938379286716795 ], [ 128.533598618144623, 35.933770334084016 ], [ 128.532189594397607, 35.934876635586178 ], [ 128.53331868519993, 35.93179911102802 ], [ 128.530418059811041, 35.932012811326892 ], [ 128.532615181324843, 35.93128693692281 ], [ 128.529455502760868, 35.923590040796704 ], [ 128.525796820770182, 35.922919641765461 ], [ 128.522330470430489, 35.916565089471511 ], [ 128.516902511781609, 35.91184343265386 ], [ 128.510120459626165, 35.909933814801718 ], [ 128.506826141366332, 35.906109333396145 ], [ 128.505120099653567, 35.902814608564597 ], [ 128.50458835168439, 35.889151685280879 ], [ 128.500335594552723, 35.886448113886367 ], [ 128.499363262060285, 35.889876593666308 ], [ 128.49635716646992, 35.889227664716259 ], [ 128.490616691352074, 35.897579169390774 ], [ 128.484944957503842, 35.89652947116722 ], [ 128.484619227735635, 35.893930492188446 ], [ 128.478476520430689, 35.89682429138626 ], [ 128.475269284098914, 35.894457535256578 ], [ 128.46775437073353, 35.900218484785007 ], [ 128.46733966051508, 35.906423272187133 ], [ 128.465398740661385, 35.908590463295354 ], [ 128.472755095408843, 35.914435917244511 ], [ 128.473970154242522, 35.917417281433146 ], [ 128.473264002960747, 35.923214410730992 ], [ 128.476642919558486, 35.93205069368431 ], [ 128.475309207456149, 35.935946931909221 ], [ 128.469288876639979, 35.938718448400223 ], [ 128.463034220689735, 35.938536935368468 ], [ 128.459865925569716, 35.941448509473062 ], [ 128.454154996140318, 35.943149434229582 ], [ 128.452777063484433, 35.936617170324517 ], [ 128.450337901845359, 35.935041651105244 ], [ 128.441561150520812, 35.935206869203036 ], [ 128.438744785563188, 35.931519245518331 ], [ 128.431950535281061, 35.931503637106566 ], [ 128.426621171986994, 35.92718292855168 ], [ 128.424901341733488, 35.928040831154107 ], [ 128.426909302929175, 35.931634843979054 ], [ 128.426228921267267, 35.933204276364599 ], [ 128.422149506542752, 35.935999083270502 ] ] ] ] } },
{ "type": "Feature", "properties": { "emd_cd": "47850320", "emd_nm": "동명면" }, "geometry": { "type": "MultiPolygon", "coordinates": [ [ [ [ 128.621351936240643, 36.025235828057838 ], [ 128.636900808244405, 36.01688668222657 ], [ 128.640720123193546, 36.010514865759546 ], [ 128.640034770010971, 36.009563519245035 ], [ 128.630835401269906, 36.006978133228351 ], [ 128.624765300705207, 36.007477877494665 ], [ 128.622204268873105, 36.005810821599297 ], [ 128.617689285119496, 36.006614103759986 ], [ 128.615847076890844, 36.00082239023466 ], [ 128.610107891027894, 35.996742492759275 ], [ 128.602601481958658, 35.985807503815742 ], [ 128.593322200869238, 35.982906017890805 ], [ 128.593028934555321, 35.980588513894197 ], [ 128.590200577859662, 35.978872565436966 ], [ 128.583211850076253, 35.977181657789053 ], [ 128.573132863183275, 35.977818876158651 ], [ 128.564295845916405, 35.972498299887071 ], [ 128.557065471952683, 35.972229997352542 ], [ 128.553322139781159, 35.960764582512397 ], [ 128.549185062221966, 35.961973279070705 ], [ 128.546376418823201, 35.965408937026879 ], [ 128.543067696820685, 35.974525787443127 ], [ 128.537057641261612, 35.977116521850697 ], [ 128.535921226846369, 35.979164291727912 ], [ 128.528877805179292, 35.980238042229992 ], [ 128.528073717087921, 35.985085272983333 ], [ 128.519535200675705, 35.990856536016018 ], [ 128.517531472290528, 36.000635996778676 ], [ 128.514425730476745, 36.001073766638271 ], [ 128.504909469721269, 36.008283468167669 ], [ 128.505340399739737, 36.011790730283217 ], [ 128.503595183155454, 36.014411182873772 ], [ 128.504280824128898, 36.019955851300985 ], [ 128.508733883890812, 36.026830262019487 ], [ 128.522609070472129, 36.0330825200734 ], [ 128.527170874902112, 36.042642278074695 ], [ 128.527826086589926, 36.050017203810832 ], [ 128.537611366469292, 36.046718137540338 ], [ 128.541698968745777, 36.047924896267638 ], [ 128.551836254880016, 36.042816837886193 ], [ 128.555614081715447, 36.045177163049615 ], [ 128.565599142440163, 36.046389571789561 ], [ 128.571840333969135, 36.044521702610837 ], [ 128.570883116965035, 36.042795283342507 ], [ 128.57228420465924, 36.039499239668885 ], [ 128.57752044411825, 36.036799487067093 ], [ 128.579749256644277, 36.033033190804787 ], [ 128.583866332159005, 36.03240853717508 ], [ 128.586959837384853, 36.035073413711181 ], [ 128.594654352852785, 36.031786541323413 ], [ 128.601032610721319, 36.026195354600858 ], [ 128.621351936240643, 36.025235828057838 ] ] ] ] } },
{ "type": "Feature", "properties": { "emd_cd": "47850330", "emd_nm": "가산면" }, "geometry": { "type": "MultiPolygon", "coordinates": [ [ [ [ 128.463553773077081, 36.079031764574488 ], [ 128.464995301010703, 36.083243161290589 ], [ 128.477092252972739, 36.092903696823775 ], [ 128.47472557107281, 36.09640190521111 ], [ 128.477357241356628, 36.098355948750758 ], [ 128.476509759601669, 36.100288434712233 ], [ 128.479570851255687, 36.101513137866093 ], [ 128.479405121448565, 36.105660743696035 ], [ 128.485315911321152, 36.108961341804616 ], [ 128.484112238446755, 36.112160665466028 ], [ 128.488064104564188, 36.112914602852783 ], [ 128.491165007408284, 36.12205956981127 ], [ 128.49006846355357, 36.125183044229992 ], [ 128.491899618141758, 36.125894043322781 ], [ 128.496727639850803, 36.120571355652842 ], [ 128.498262548340335, 36.113067068177941 ], [ 128.502965562562707, 36.112614426979214 ], [ 128.507873648451607, 36.109840185595679 ], [ 128.520360696919511, 36.114539734245717 ], [ 128.526397050368615, 36.111567055637451 ], [ 128.534511238714828, 36.112671564777806 ], [ 128.540309279787323, 36.1106527710566 ], [ 128.543282573246614, 36.112472486035934 ], [ 128.54716917101257, 36.10888471854944 ], [ 128.552026469229531, 36.110259239492692 ], [ 128.560062189596806, 36.109448515099224 ], [ 128.562876631086624, 36.111024394074242 ], [ 128.565215491895401, 36.109615465692528 ], [ 128.564623561093157, 36.102601796181894 ], [ 128.562787004067701, 36.099640089977662 ], [ 128.567555727521977, 36.095554633037445 ], [ 128.569004874265232, 36.088499801846638 ], [ 128.566509255423966, 36.0814407597152 ], [ 128.567722401647416, 36.07984419588805 ], [ 128.565291655926728, 36.077210938798771 ], [ 128.563841576751372, 36.069756150729063 ], [ 128.566736664211362, 36.066960686845981 ], [ 128.56939483524053, 36.058226145077796 ], [ 128.583465651261179, 36.067894353292921 ], [ 128.586978226052651, 36.063648255756604 ], [ 128.594456616235334, 36.062834833281919 ], [ 128.597591908436073, 36.066885352344954 ], [ 128.597879176202014, 36.074961338912246 ], [ 128.607725869501962, 36.075346182631819 ], [ 128.615571543459339, 36.07789645725633 ], [ 128.622301582383756, 36.077316792537367 ], [ 128.625354955378043, 36.080543634629478 ], [ 128.631354939294283, 36.076713052591934 ], [ 128.627585852884721, 36.069013706445183 ], [ 128.632694412854391, 36.066842919781813 ], [ 128.630588930570156, 36.059958159917116 ], [ 128.628368864451488, 36.059751778700893 ], [ 128.629342749963769, 36.052650743222237 ], [ 128.627728649967167, 36.045048876464932 ], [ 128.622692736411949, 36.038173946368325 ], [ 128.621351936240643, 36.025235828057838 ], [ 128.601032610721319, 36.026195354600858 ], [ 128.594654352852785, 36.031786541323413 ], [ 128.586959837384853, 36.035073413711181 ], [ 128.583866332159005, 36.03240853717508 ], [ 128.579749256644277, 36.033033190804787 ], [ 128.57752044411825, 36.036799487067093 ], [ 128.57228420465924, 36.039499239668885 ], [ 128.570883116965035, 36.042795283342507 ], [ 128.571840333969135, 36.044521702610837 ], [ 128.565599142440163, 36.046389571789561 ], [ 128.555614081715447, 36.045177163049615 ], [ 128.551836254880016, 36.042816837886193 ], [ 128.541698968745777, 36.047924896267638 ], [ 128.537611366469292, 36.046718137540338 ], [ 128.527826086589926, 36.050017203810832 ], [ 128.527170874902112, 36.042642278074695 ], [ 128.521919770583622, 36.03210483275393 ], [ 128.509897188831843, 36.027689044198894 ], [ 128.505919458240697, 36.023101554245585 ], [ 128.504871854198882, 36.025955088152067 ], [ 128.497720379080874, 36.032794488759642 ], [ 128.502557293372746, 36.03831852141154 ], [ 128.500680892272811, 36.044773700920601 ], [ 128.497257680838089, 36.046191036010775 ], [ 128.492783402728719, 36.045591298307208 ], [ 128.486227993581565, 36.051947711385701 ], [ 128.481969038281449, 36.051900908967383 ], [ 128.480690679610603, 36.05409975572271 ], [ 128.480522510837574, 36.059511762527528 ], [ 128.483232111364458, 36.060276077846638 ], [ 128.484312456116442, 36.065219558226573 ], [ 128.486940026055549, 36.067571038219192 ], [ 128.476380728215304, 36.071615229426328 ], [ 128.470046769665572, 36.071863165822101 ], [ 128.463553773077081, 36.079031764574488 ] ] ] ] } },
{ "type": "Feature", "properties": { "emd_cd": "47850360", "emd_nm": "약목면" }, "geometry": { "type": "MultiPolygon", "coordinates": [ [ [ [ 128.402839622648202, 36.046376006916063 ], [ 128.403402773033861, 36.033325329198185 ], [ 128.398512857242991, 36.022485942941408 ], [ 128.397282724983711, 36.01166562735051 ], [ 128.392850992770661, 36.001444527815075 ], [ 128.393484865401632, 35.994537891353602 ], [ 128.389688441128385, 35.994482354148005 ], [ 128.385249230081513, 36.000159767363741 ], [ 128.381124877401959, 35.99967132253834 ], [ 128.375436043828415, 36.005163337738821 ], [ 128.364432205775103, 36.009318669918407 ], [ 128.360854703933086, 36.012337583956459 ], [ 128.348246301912098, 36.010420825071357 ], [ 128.345071481824675, 36.015189790769007 ], [ 128.335950760765229, 36.016637470974821 ], [ 128.332617492619619, 36.015778517885927 ], [ 128.326299294113511, 36.019073237116153 ], [ 128.317444536682331, 36.018641411969028 ], [ 128.311694174138381, 36.022999481976584 ], [ 128.310304944565019, 36.026813175097161 ], [ 128.316152035111941, 36.030310607130666 ], [ 128.327528351713909, 36.031366116150934 ], [ 128.331847924875802, 36.037603024614192 ], [ 128.341814562227228, 36.045242029156093 ], [ 128.344311165430923, 36.049402397566858 ], [ 128.354753028220841, 36.052782090026817 ], [ 128.354763828758507, 36.05440982791044 ], [ 128.35875485764808, 36.056886272929866 ], [ 128.375752826703149, 36.046664575757731 ], [ 128.37851300703494, 36.047389404026973 ], [ 128.383150425581732, 36.045452756226197 ], [ 128.390996520255698, 36.047783464278154 ], [ 128.392194936450466, 36.046098430172066 ], [ 128.402839622648202, 36.046376006916063 ] ] ] ] } },
{ "type": "Feature", "properties": { "emd_cd": "47850370", "emd_nm": "기산면" }, "geometry": { "type": "MultiPolygon", "coordinates": [ [ [ [ 128.395755520568571, 35.941650413706228 ], [ 128.389886847768395, 35.941685284641586 ], [ 128.387295161797795, 35.938919876824329 ], [ 128.379708371949476, 35.938646270344684 ], [ 128.375740655868015, 35.941660217312453 ], [ 128.368611528223539, 35.941982115990513 ], [ 128.365105963908036, 35.944943141153395 ], [ 128.36382451180566, 35.947489259802062 ], [ 128.365282208867853, 35.949781971280224 ], [ 128.361883411968222, 35.954626646584913 ], [ 128.364683352250808, 35.957434488346557 ], [ 128.361859833233297, 35.955102697241138 ], [ 128.353048733257538, 35.956092566913313 ], [ 128.347913210709493, 35.954758146581355 ], [ 128.343687738164334, 35.961630898250412 ], [ 128.340264937025722, 35.963776006353818 ], [ 128.342549593507897, 35.967613958440197 ], [ 128.339172123191929, 35.970102670258676 ], [ 128.339179899916672, 35.975550765480357 ], [ 128.329412605108274, 35.977446016575115 ], [ 128.329615041776634, 35.979873952296771 ], [ 128.324643545996935, 35.979686525215278 ], [ 128.320274727240445, 35.981770051227763 ], [ 128.317516853717393, 35.987529418775573 ], [ 128.315216721414089, 35.988839296791269 ], [ 128.313125904138644, 35.993250617048446 ], [ 128.314078602359245, 36.002869980725691 ], [ 128.311904328162626, 36.003727401405641 ], [ 128.310612459980263, 36.007127801546794 ], [ 128.312793916133074, 36.010085290794756 ], [ 128.312255673211865, 36.014760738621284 ], [ 128.314872181856629, 36.015299435786382 ], [ 128.317835849862803, 36.01898958880291 ], [ 128.326299294113511, 36.019073237116153 ], [ 128.332617492619619, 36.015778517885927 ], [ 128.335950760765229, 36.016637470974821 ], [ 128.345071481824675, 36.015189790769007 ], [ 128.348246301912098, 36.010420825071357 ], [ 128.359206846930107, 36.012781331703998 ], [ 128.375436043828415, 36.005163337738821 ], [ 128.381124877401959, 35.99967132253834 ], [ 128.385249230081513, 36.000159767363741 ], [ 128.389688441128385, 35.994482354148005 ], [ 128.393484865401632, 35.994537891353602 ], [ 128.389934615365746, 35.967275509236231 ], [ 128.390958339262909, 35.957560725259825 ], [ 128.395755520568571, 35.941650413706228 ] ] ] ] } }
]
}
