{
"type": "FeatureCollection",
"name": "47900",
"crs": { "type": "name", "properties": { "name": "urn:ogc:def:crs:OGC:1.3:CRS84" } },
"features": [
{ "type": "Feature", "properties": { "emd_cd": "47900250", "emd_nm": "예천읍" }, "geometry": { "type": "MultiPolygon", "coordinates": [ [ [ [ 128.496205392786663, 36.650154718460833 ], [ 128.491435171549767, 36.639315957248392 ], [ 128.489302121163036, 36.621283039631628 ], [ 128.485842910042834, 36.623008874470422 ], [ 128.478684839921073, 36.623239649071628 ], [ 128.468283607282274, 36.619632062259292 ], [ 128.466566563955155, 36.623316085338885 ], [ 128.468179063351755, 36.626711144491466 ], [ 128.465601995889926, 36.627200470594005 ], [ 128.46440392904131, 36.629676034528508 ], [ 128.458526750033798, 36.628403904014334 ], [ 128.454044382758866, 36.629384115670433 ], [ 128.453595579283331, 36.627465945422394 ], [ 128.452377176129431, 36.630030197894541 ], [ 128.450440085324885, 36.629954725152125 ], [ 128.445862692785255, 36.627946379757667 ], [ 128.444752505473275, 36.624566932766065 ], [ 128.442745290330464, 36.624053909983282 ], [ 128.439130156570968, 36.627550525687106 ], [ 128.434501689977907, 36.626723007563527 ], [ 128.429445997520901, 36.6294587567034 ], [ 128.427131311864031, 36.627249691321111 ], [ 128.422137255015997, 36.630237712343074 ], [ 128.413459898202092, 36.630436153537005 ], [ 128.40839303271585, 36.63406100977673 ], [ 128.408631321862856, 36.636060208177561 ], [ 128.406814811783391, 36.636152684136945 ], [ 128.405459768740343, 36.651506621109718 ], [ 128.403448597233336, 36.653841458425291 ], [ 128.403795623031641, 36.656869250802288 ], [ 128.414332797645471, 36.661233030797028 ], [ 128.412839416031318, 36.665847958537356 ], [ 128.424081675525684, 36.669569017959986 ], [ 128.42831342170399, 36.672247040030285 ], [ 128.429198739800285, 36.676680050681156 ], [ 128.432965534750309, 36.677280526480196 ], [ 128.426014234832252, 36.679891082796004 ], [ 128.430849957237541, 36.68228951236204 ], [ 128.431334243629891, 36.689138213645009 ], [ 128.433350015839352, 36.691760690649048 ], [ 128.438851046925237, 36.692633647668181 ], [ 128.441249927037717, 36.687438456491364 ], [ 128.453511378886958, 36.686002514446912 ], [ 128.455968719515283, 36.68963423084589 ], [ 128.45766903411311, 36.689532919756111 ], [ 128.457895832494273, 36.68789090387569 ], [ 128.45915247403309, 36.691022744132283 ], [ 128.465426234512904, 36.690409787031392 ], [ 128.469095529821089, 36.694527777016475 ], [ 128.471713999823066, 36.694722012336875 ], [ 128.473281291833644, 36.701001979935114 ], [ 128.478939028385412, 36.701213421504121 ], [ 128.485781431934953, 36.693709663667924 ], [ 128.489673489601415, 36.694471848159701 ], [ 128.492238470501519, 36.692451620888626 ], [ 128.491670394820659, 36.690090887235527 ], [ 128.486168330539272, 36.684862498780269 ], [ 128.48736574468424, 36.681232940944327 ], [ 128.483596740530373, 36.677050063567101 ], [ 128.484631784633336, 36.672527726998496 ], [ 128.488072315765038, 36.669987800916083 ], [ 128.486163515125099, 36.666986490737116 ], [ 128.486777464641477, 36.664409446842868 ], [ 128.482730036096797, 36.65906554665392 ], [ 128.487899858674837, 36.657505577986335 ], [ 128.488785138663218, 36.655365487560871 ], [ 128.491745503636622, 36.655992701295403 ], [ 128.493019754811456, 36.650624028297528 ], [ 128.496205392786663, 36.650154718460833 ] ] ] ] } },
{ "type": "Feature", "properties": { "emd_cd": "47900253", "emd_nm": "호명읍" }, "geometry": { "type": "MultiPolygon", "coordinates": [ [ [ [ 128.404944760513899, 36.59292081003597 ], [ 128.412769284538228, 36.594006927657055 ], [ 128.419231110130198, 36.599926622058241 ], [ 128.419003774261455, 36.608619283931546 ], [ 128.425827738960919, 36.621943426122769 ], [ 128.426644039777045, 36.626431638775408 ], [ 128.429445997520901, 36.6294587567034 ], [ 128.434501689977907, 36.626723007563527 ], [ 128.439249718558898, 36.627513098685171 ], [ 128.442745290330464, 36.624053909983282 ], [ 128.444752505473275, 36.624566932766065 ], [ 128.445862692785255, 36.627946379757667 ], [ 128.450440085324885, 36.629954725152125 ], [ 128.452377176129431, 36.630030197894541 ], [ 128.453595579283331, 36.627465945422394 ], [ 128.454044382758866, 36.629384115670433 ], [ 128.458526750033798, 36.628403904014334 ], [ 128.46440392904131, 36.629676034528508 ], [ 128.465601995889926, 36.627200470594005 ], [ 128.468179063351755, 36.626711144491466 ], [ 128.466566563955155, 36.623316085338885 ], [ 128.468283607282274, 36.619632062259292 ], [ 128.478684839921073, 36.623239649071628 ], [ 128.485842910042834, 36.623008874470422 ], [ 128.489302121163036, 36.621283039631628 ], [ 128.491435171549767, 36.639315957248392 ], [ 128.495857615402656, 36.651723452096057 ], [ 128.502922540603464, 36.655993500395063 ], [ 128.50666555381892, 36.652087653447417 ], [ 128.510943653842531, 36.65266879950704 ], [ 128.512396541054898, 36.653821781693118 ], [ 128.512980229233051, 36.661033128321741 ], [ 128.514914521227325, 36.662345081098387 ], [ 128.514764080369986, 36.661302557365538 ], [ 128.518284686652493, 36.661487121914469 ], [ 128.51699663117887, 36.660362970698998 ], [ 128.51822573456559, 36.660484496431799 ], [ 128.52117615829431, 36.652580646194444 ], [ 128.537766295531071, 36.644552972843385 ], [ 128.540792416113817, 36.638840369721578 ], [ 128.540286785677182, 36.6337481127742 ], [ 128.537940088646394, 36.63384588806872 ], [ 128.5308949343611, 36.628809815945928 ], [ 128.524853155742164, 36.628502225919831 ], [ 128.52433609155662, 36.622517412556249 ], [ 128.521629984686655, 36.61983452155286 ], [ 128.529074597129153, 36.618515490438959 ], [ 128.529557777413061, 36.616411050847809 ], [ 128.534812675835695, 36.61363760563718 ], [ 128.532403253176113, 36.60720812206393 ], [ 128.528630229277724, 36.605985503030034 ], [ 128.530016975203438, 36.604603296717187 ], [ 128.529498124822737, 36.601450521762523 ], [ 128.526336542776619, 36.600388596012102 ], [ 128.514850693181842, 36.602070705730725 ], [ 128.512698313746796, 36.600284757564687 ], [ 128.506651302971619, 36.602043982981407 ], [ 128.505045385759502, 36.606719162234263 ], [ 128.497614909441779, 36.603300455915083 ], [ 128.493226318998069, 36.598592502233203 ], [ 128.490968127054174, 36.588828459248504 ], [ 128.493626672723366, 36.585727524206433 ], [ 128.499052162948914, 36.584468920359981 ], [ 128.495812196319918, 36.582520567610047 ], [ 128.495769372495062, 36.577863427544408 ], [ 128.493069765770343, 36.576162091429559 ], [ 128.494035187220703, 36.573356641426379 ], [ 128.492601948743129, 36.569546407295832 ], [ 128.483231126617881, 36.568200627227412 ], [ 128.472254208333851, 36.563031369081195 ], [ 128.467519495431674, 36.562922921736593 ], [ 128.468655056068116, 36.560263680012326 ], [ 128.463326711030561, 36.55927362893037 ], [ 128.462669075388192, 36.557644746841916 ], [ 128.460856435030905, 36.557709137329105 ], [ 128.461442853657218, 36.555991731943429 ], [ 128.457701563676778, 36.556057696234376 ], [ 128.452966389388564, 36.567348093579128 ], [ 128.441107843883486, 36.566265244859139 ], [ 128.438424755181387, 36.571753510884285 ], [ 128.429157452008184, 36.578714074487841 ], [ 128.428448227841017, 36.584466975283107 ], [ 128.42179015220222, 36.58364431519152 ], [ 128.419651572815923, 36.58509084565133 ], [ 128.418465520729114, 36.588931072346725 ], [ 128.414047838181489, 36.587768504620186 ], [ 128.413477596033005, 36.589203374967767 ], [ 128.399908056542898, 36.592052990391849 ], [ 128.405216076472357, 36.591816893874828 ], [ 128.404944760513899, 36.59292081003597 ] ] ] ] } },
{ "type": "Feature", "properties": { "emd_cd": "47900310", "emd_nm": "용문면" }, "geometry": { "type": "MultiPolygon", "coordinates": [ [ [ [ 128.412485056748494, 36.665340474804744 ], [ 128.385824908478526, 36.66386007312164 ], [ 128.385791949960378, 36.667394217519934 ], [ 128.378717858386807, 36.675295242583545 ], [ 128.375059504515264, 36.675322048373431 ], [ 128.371210095863972, 36.678162256747783 ], [ 128.365905829467209, 36.676754115919827 ], [ 128.36146235694909, 36.678944226002898 ], [ 128.354813381818076, 36.685354436372243 ], [ 128.353642026119559, 36.689484295537724 ], [ 128.348046193870715, 36.691540852552663 ], [ 128.347714914252208, 36.693441683588368 ], [ 128.337183041712365, 36.694608262976985 ], [ 128.336879909036099, 36.69357675217379 ], [ 128.330899501899239, 36.696598921648018 ], [ 128.331187899376573, 36.699292694134691 ], [ 128.334892772735429, 36.703629323327718 ], [ 128.334379414394476, 36.707391951971886 ], [ 128.336271120874187, 36.71062841384186 ], [ 128.331537517814752, 36.720329028851324 ], [ 128.334680100514703, 36.723302123335152 ], [ 128.33292215084569, 36.727541022817391 ], [ 128.332786597217307, 36.735697526998266 ], [ 128.337102304425969, 36.736431690593086 ], [ 128.339101934771435, 36.740891389423012 ], [ 128.361736997550963, 36.740719017760881 ], [ 128.361762680167914, 36.743219156903137 ], [ 128.369068010335241, 36.751093041396402 ], [ 128.376550998378519, 36.746759802098047 ], [ 128.383537889663074, 36.747423146868861 ], [ 128.387817220807847, 36.744376387697834 ], [ 128.39667595584325, 36.746377253194368 ], [ 128.397337950955972, 36.743499202184047 ], [ 128.403330774762708, 36.739817233424183 ], [ 128.408187718596821, 36.734202996164548 ], [ 128.408020266915088, 36.732139221256439 ], [ 128.418180556533173, 36.725473339633922 ], [ 128.417662545276897, 36.716006310936351 ], [ 128.419062093077628, 36.71359440817313 ], [ 128.422409707052736, 36.713791248871317 ], [ 128.427893551176538, 36.710314500907884 ], [ 128.432568836324833, 36.712798003540051 ], [ 128.434872653923833, 36.711900756010728 ], [ 128.438183000829895, 36.715528914797765 ], [ 128.440885764674476, 36.715675659041736 ], [ 128.445127105567423, 36.711197777332202 ], [ 128.44472177110859, 36.709455986812479 ], [ 128.448164225452217, 36.709962131211853 ], [ 128.452794741123057, 36.712599669583263 ], [ 128.461214457505832, 36.721582718745957 ], [ 128.463316315729969, 36.726565241261142 ], [ 128.468929531693902, 36.725897618049032 ], [ 128.471093468964824, 36.721349840239021 ], [ 128.474423948906576, 36.719356784866306 ], [ 128.472509236141292, 36.715055538216134 ], [ 128.474406578680089, 36.712699372372022 ], [ 128.472816671982031, 36.709663234935938 ], [ 128.474984890585461, 36.706712247671277 ], [ 128.471713999823066, 36.694722012336875 ], [ 128.469095529821089, 36.694527777016475 ], [ 128.465426234512904, 36.690409787031392 ], [ 128.45915247403309, 36.691022744132283 ], [ 128.457895832494273, 36.68789090387569 ], [ 128.45766903411311, 36.689532919756111 ], [ 128.455968719515283, 36.68963423084589 ], [ 128.453511378886958, 36.686002514446912 ], [ 128.450881773975937, 36.685663740489574 ], [ 128.441249927037717, 36.687438456491364 ], [ 128.438851046925237, 36.692633647668181 ], [ 128.434667402036752, 36.692457616137503 ], [ 128.431334243629891, 36.689138213645009 ], [ 128.430849957237541, 36.68228951236204 ], [ 128.426014234832252, 36.679891082796004 ], [ 128.432965534750309, 36.677280526480196 ], [ 128.429198739800285, 36.676680050681156 ], [ 128.427673542714359, 36.671637527666107 ], [ 128.412485056748494, 36.665340474804744 ] ] ] ] } },
{ "type": "Feature", "properties": { "emd_cd": "47900340", "emd_nm": "감천면" }, "geometry": { "type": "MultiPolygon", "coordinates": [ [ [ [ 128.490652814816741, 36.689260989334628 ], [ 128.492156541089315, 36.692919984271953 ], [ 128.488246738539317, 36.694702717363889 ], [ 128.485781431934953, 36.693709663667924 ], [ 128.480179697377537, 36.701000160581557 ], [ 128.473281291833644, 36.701001979935114 ], [ 128.474984890585461, 36.706712247671277 ], [ 128.472816671982031, 36.709663234935938 ], [ 128.474406578680089, 36.712699372372022 ], [ 128.472509236141292, 36.715055538216134 ], [ 128.474423948906576, 36.719356784866306 ], [ 128.471093468964824, 36.721349840239021 ], [ 128.468929531693902, 36.725897618049032 ], [ 128.463302696178033, 36.726588743615523 ], [ 128.467773405600553, 36.735284181279518 ], [ 128.472248360578192, 36.739251689691358 ], [ 128.478055862319138, 36.748338383909349 ], [ 128.478010360224914, 36.750413146035527 ], [ 128.472734656285752, 36.753615779290378 ], [ 128.474574215143974, 36.756685885626972 ], [ 128.473306224294362, 36.761085868778018 ], [ 128.475894594786183, 36.768547932269037 ], [ 128.472134848128746, 36.771766403030448 ], [ 128.473302319640482, 36.775318915097984 ], [ 128.475008213245019, 36.77669008320261 ], [ 128.482142221924505, 36.77701539663677 ], [ 128.489852932108164, 36.773501274940173 ], [ 128.490848080192194, 36.771294690900184 ], [ 128.494724067483872, 36.770420056484191 ], [ 128.499357912269062, 36.764707642238278 ], [ 128.502067731899217, 36.766265536799594 ], [ 128.506400355996277, 36.763824301245045 ], [ 128.511284747368165, 36.76512059415041 ], [ 128.520196688089896, 36.771944062228791 ], [ 128.525197499036295, 36.770088173352619 ], [ 128.536682921767493, 36.773492619384427 ], [ 128.539355041773973, 36.769238578476298 ], [ 128.544925551926895, 36.766597946179495 ], [ 128.551361440079916, 36.769124742974491 ], [ 128.553947302239521, 36.762684169977092 ], [ 128.558191284187075, 36.760018972756924 ], [ 128.560970958340818, 36.760487778285452 ], [ 128.562949703057399, 36.75517596043214 ], [ 128.566116594013238, 36.752360305273235 ], [ 128.566104990236681, 36.747718913692502 ], [ 128.571205952953875, 36.743018230020461 ], [ 128.569171461400742, 36.739086755429391 ], [ 128.570198565228253, 36.7357643807592 ], [ 128.573835019289959, 36.735782035174225 ], [ 128.575989417688248, 36.733992854279336 ], [ 128.575189735973169, 36.732820847979959 ], [ 128.577714529274374, 36.732355907341457 ], [ 128.576479346830894, 36.733874045292154 ], [ 128.576905503610902, 36.734337060565736 ], [ 128.578343095747755, 36.732121169737773 ], [ 128.572347277462057, 36.727439764872322 ], [ 128.567915854194723, 36.726284179408303 ], [ 128.567223352669998, 36.729397387873661 ], [ 128.565024947035795, 36.729644559155261 ], [ 128.558902340976545, 36.726654226061484 ], [ 128.556533400906943, 36.722167623330741 ], [ 128.551002855646459, 36.722453271439448 ], [ 128.545147502699251, 36.71805778806759 ], [ 128.551655926014007, 36.709915774589092 ], [ 128.552943111581783, 36.703080850140353 ], [ 128.556119556485214, 36.702817763830168 ], [ 128.553326780269884, 36.699233421539617 ], [ 128.547695290439975, 36.699400189795142 ], [ 128.53854262903792, 36.694895825716181 ], [ 128.534799198913646, 36.692011127174133 ], [ 128.532724363277993, 36.686120769331758 ], [ 128.529173402625787, 36.684725724616314 ], [ 128.526563232043401, 36.684545960651626 ], [ 128.524846811971202, 36.686971627031909 ], [ 128.521242599692329, 36.686297998342674 ], [ 128.520239644242253, 36.689229825750658 ], [ 128.522503631414793, 36.69484249593031 ], [ 128.521267700214906, 36.697928552796462 ], [ 128.515771892308436, 36.696499586574667 ], [ 128.512833325081004, 36.693149136475022 ], [ 128.51044572146975, 36.693022809151756 ], [ 128.508971989686103, 36.696670240554973 ], [ 128.505658732748941, 36.695612568165828 ], [ 128.505171134460056, 36.693918805206366 ], [ 128.500486141002426, 36.693265215742414 ], [ 128.498590412042915, 36.689803572688646 ], [ 128.494169197207725, 36.689814888423115 ], [ 128.492496694102414, 36.687878584434664 ], [ 128.490652814816741, 36.689260989334628 ] ] ] ] } },
{ "type": "Feature", "properties": { "emd_cd": "47900350", "emd_nm": "보문면" }, "geometry": { "type": "MultiPolygon", "coordinates": [ [ [ [ 128.576622491592303, 36.729984906167488 ], [ 128.577016177730485, 36.726114815372945 ], [ 128.580802196175085, 36.723623978228986 ], [ 128.584483168766951, 36.723724851889173 ], [ 128.582671890829801, 36.717491142797002 ], [ 128.583278279849594, 36.710346728284229 ], [ 128.589757965898627, 36.7047591940999 ], [ 128.589267745992061, 36.701058259361993 ], [ 128.587808083466285, 36.701057657253415 ], [ 128.5877591750737, 36.700718253539833 ], [ 128.593893156573017, 36.696845392657337 ], [ 128.597014794049244, 36.698128665727054 ], [ 128.602107865761241, 36.696190463373675 ], [ 128.604886170552959, 36.693100359597636 ], [ 128.608835374060476, 36.692946984664154 ], [ 128.610394868429978, 36.690193400817776 ], [ 128.610181519956058, 36.684576068564184 ], [ 128.601315304573546, 36.679144561568123 ], [ 128.605416807233098, 36.672141039649176 ], [ 128.604229563359326, 36.667690417285286 ], [ 128.604387999178101, 36.662950202175693 ], [ 128.605746932758905, 36.662206406697095 ], [ 128.60479567589698, 36.652825930618562 ], [ 128.599259087838675, 36.650585717989863 ], [ 128.597596912089898, 36.652584470581616 ], [ 128.592700921610742, 36.650286748891787 ], [ 128.588202552500604, 36.650806359188024 ], [ 128.580844867257611, 36.647016336642452 ], [ 128.578105059527161, 36.649846185653502 ], [ 128.57077599680116, 36.648139021522887 ], [ 128.565898029681136, 36.645267376023227 ], [ 128.56576691821823, 36.640243306378132 ], [ 128.562833077770478, 36.63968936115004 ], [ 128.55849367324376, 36.635791759918582 ], [ 128.552813326865873, 36.636621480127182 ], [ 128.544653664765775, 36.631903584091056 ], [ 128.540286785677182, 36.6337481127742 ], [ 128.540792416113817, 36.638840369721578 ], [ 128.537766295531071, 36.644552972843385 ], [ 128.520862921579123, 36.652918122781251 ], [ 128.51822573456559, 36.660484496431799 ], [ 128.51699663117887, 36.660362970698998 ], [ 128.518284686652493, 36.661487121914469 ], [ 128.514764080369986, 36.661302557365538 ], [ 128.514914521227325, 36.662345081098387 ], [ 128.512980229233051, 36.661033128321741 ], [ 128.512396541054898, 36.653821781693118 ], [ 128.510715952743141, 36.652547589183399 ], [ 128.50666555381892, 36.652087653447417 ], [ 128.502922540603464, 36.655993500395063 ], [ 128.495857615402656, 36.651723452096057 ], [ 128.496205392786663, 36.650154718460833 ], [ 128.493019754811456, 36.650624028297528 ], [ 128.491745503636622, 36.655992701295403 ], [ 128.488785138663218, 36.655365487560871 ], [ 128.487899858674837, 36.657505577986335 ], [ 128.482787915966441, 36.658982202047305 ], [ 128.486777464641477, 36.664409446842868 ], [ 128.486163515125099, 36.666986490737116 ], [ 128.488072315765038, 36.669987800916083 ], [ 128.484631784633336, 36.672527726998496 ], [ 128.483596740530373, 36.677050063567101 ], [ 128.48736574468424, 36.681232940944327 ], [ 128.486168330539272, 36.684862498780269 ], [ 128.48951512834762, 36.689154340525469 ], [ 128.492496694102414, 36.687878584434664 ], [ 128.494169197207725, 36.689814888423115 ], [ 128.498590412042915, 36.689803572688646 ], [ 128.500486141002426, 36.693265215742414 ], [ 128.505171134460056, 36.693918805206366 ], [ 128.505658732748941, 36.695612568165828 ], [ 128.508971989686103, 36.696670240554973 ], [ 128.51044572146975, 36.693022809151756 ], [ 128.512833325081004, 36.693149136475022 ], [ 128.515771892308436, 36.696499586574667 ], [ 128.521267700214906, 36.697928552796462 ], [ 128.522503631414793, 36.69484249593031 ], [ 128.520239644242253, 36.689229825750658 ], [ 128.521242599692329, 36.686297998342674 ], [ 128.524846811971202, 36.686971627031909 ], [ 128.526563232043401, 36.684545960651626 ], [ 128.53137174186989, 36.685262531319125 ], [ 128.534799198913646, 36.692011127174133 ], [ 128.53854262903792, 36.694895825716181 ], [ 128.547695290439975, 36.699400189795142 ], [ 128.553326780269884, 36.699233421539617 ], [ 128.556119556485214, 36.702817763830168 ], [ 128.552943111581783, 36.703080850140353 ], [ 128.551655926014007, 36.709915774589092 ], [ 128.545147502699251, 36.71805778806759 ], [ 128.551002855646459, 36.722453271439448 ], [ 128.556533400906943, 36.722167623330741 ], [ 128.558902340976545, 36.726654226061484 ], [ 128.565024947035795, 36.729644559155261 ], [ 128.567223352669998, 36.729397387873661 ], [ 128.567915854194723, 36.726284179408303 ], [ 128.576622491592303, 36.729984906167488 ] ] ] ] } },
{ "type": "Feature", "properties": { "emd_cd": "47900370", "emd_nm": "유천면" }, "geometry": { "type": "MultiPolygon", "coordinates": [ [ [ [ 128.333511804886371, 36.687846255777991 ], [ 128.337183041712365, 36.694608262976985 ], [ 128.347714914252208, 36.693441683588368 ], [ 128.348046193870715, 36.691540852552663 ], [ 128.353642026119559, 36.689484295537724 ], [ 128.354813381818076, 36.685354436372243 ], [ 128.36146235694909, 36.678944226002898 ], [ 128.365905829467209, 36.676754115919827 ], [ 128.371210095863972, 36.678162256747783 ], [ 128.375059504515264, 36.675322048373431 ], [ 128.378717858386807, 36.675295242583545 ], [ 128.385791949960378, 36.667394217519934 ], [ 128.385824908478526, 36.66386007312164 ], [ 128.412485056748494, 36.665340474804744 ], [ 128.414332797645471, 36.661233030797028 ], [ 128.403795623031641, 36.656869250802288 ], [ 128.403472816512362, 36.654210856815119 ], [ 128.405459768740343, 36.651506621109718 ], [ 128.406814811783391, 36.636152684136945 ], [ 128.408631321862856, 36.636060208177561 ], [ 128.409173705031236, 36.632601477627325 ], [ 128.405099511837506, 36.633254685319102 ], [ 128.402854352519938, 36.628693428055549 ], [ 128.397534057314772, 36.627111338955864 ], [ 128.396521979212423, 36.624762088848627 ], [ 128.390400200952143, 36.624599584594073 ], [ 128.389164964843047, 36.626161612670629 ], [ 128.386682217041852, 36.623372780021029 ], [ 128.378452425029877, 36.622863073632871 ], [ 128.376110900213831, 36.620475477919989 ], [ 128.37147822106536, 36.62243583211341 ], [ 128.368454005809468, 36.621865905055763 ], [ 128.366877985251051, 36.620079571360776 ], [ 128.368114071271947, 36.614573519647436 ], [ 128.364168983685545, 36.616014614206541 ], [ 128.36028520861575, 36.612812867490511 ], [ 128.355102759223911, 36.613234086704196 ], [ 128.354299633088488, 36.618283170445572 ], [ 128.349408572566631, 36.625389918075676 ], [ 128.350172602751599, 36.627083392364675 ], [ 128.35213975357982, 36.627127055898093 ], [ 128.352225743678844, 36.629909404653894 ], [ 128.339502152202499, 36.63199388555271 ], [ 128.335471417791069, 36.634226551005995 ], [ 128.334363467433434, 36.63772380207444 ], [ 128.332627640812774, 36.638122021624973 ], [ 128.334024982207723, 36.642879013300181 ], [ 128.338777727365738, 36.647349492562967 ], [ 128.342385754518489, 36.645709020253229 ], [ 128.347652480267413, 36.646550117175835 ], [ 128.3504439884303, 36.652155999318701 ], [ 128.349677365713632, 36.654092856531193 ], [ 128.335428555683961, 36.658488510407906 ], [ 128.333669627722657, 36.661784826176948 ], [ 128.334214744370058, 36.665466139152244 ], [ 128.32663455232634, 36.66905329466929 ], [ 128.320325017464739, 36.67827083942494 ], [ 128.326195721198445, 36.684665546301062 ], [ 128.328175790390617, 36.684162208941167 ], [ 128.333511804886371, 36.687846255777991 ] ] ] ] } },
{ "type": "Feature", "properties": { "emd_cd": "47900380", "emd_nm": "용궁면" }, "geometry": { "type": "MultiPolygon", "coordinates": [ [ [ [ 128.340604149271712, 36.578974729601363 ], [ 128.330279436958989, 36.574134498331183 ], [ 128.321798388066412, 36.573027889594982 ], [ 128.318641396047724, 36.573986305428619 ], [ 128.319070350812297, 36.578520378223118 ], [ 128.315756805772196, 36.579910528734686 ], [ 128.309403727650363, 36.575872665003125 ], [ 128.306401039571909, 36.571069382909272 ], [ 128.30678707122027, 36.566533210650775 ], [ 128.296852017383912, 36.5643261453611 ], [ 128.295170453905001, 36.568006876819339 ], [ 128.295864667500553, 36.578333610318062 ], [ 128.285548018565407, 36.578764362548526 ], [ 128.280190430678942, 36.590872548369127 ], [ 128.274927661599747, 36.596870679269124 ], [ 128.263600750403754, 36.604932675438377 ], [ 128.260645841751426, 36.611449158530704 ], [ 128.272224509693189, 36.609491853560527 ], [ 128.272307078150192, 36.612937065857082 ], [ 128.270003085418466, 36.614932744327625 ], [ 128.272575243539706, 36.614105675861396 ], [ 128.273265171876545, 36.615581493685148 ], [ 128.283331951381086, 36.617118954317654 ], [ 128.287322175744436, 36.621144069888253 ], [ 128.286428936959425, 36.626148595415145 ], [ 128.288612620511003, 36.629716983855893 ], [ 128.294419215125089, 36.629973762350502 ], [ 128.298551120900072, 36.633826849123722 ], [ 128.298344161237964, 36.635924083654885 ], [ 128.304588945652341, 36.635842766023281 ], [ 128.309490217720878, 36.640948381017317 ], [ 128.309446215346185, 36.648153609270402 ], [ 128.307814206417248, 36.651913641909736 ], [ 128.309047574412006, 36.656003340910587 ], [ 128.319438828132434, 36.656361606626099 ], [ 128.318708619677494, 36.653119193484713 ], [ 128.32183146379424, 36.648277261635002 ], [ 128.319245254516574, 36.644880642778631 ], [ 128.325604006061951, 36.644118107298311 ], [ 128.326084609802535, 36.642460650658762 ], [ 128.323648700404163, 36.640340996858988 ], [ 128.326923979273602, 36.637939675151372 ], [ 128.328354525211097, 36.6277819744138 ], [ 128.321372024511589, 36.624034875296239 ], [ 128.316442837302361, 36.62552053797517 ], [ 128.314453242259106, 36.62325906262096 ], [ 128.316971149469936, 36.622611432674802 ], [ 128.319800617870868, 36.618893917844311 ], [ 128.317559160029418, 36.613044798015039 ], [ 128.319836407653725, 36.611439836694871 ], [ 128.319352279246232, 36.607442504617616 ], [ 128.316037216137232, 36.601908887305314 ], [ 128.318167361715467, 36.598539258013965 ], [ 128.325835237301504, 36.598353980385937 ], [ 128.330568725473711, 36.60132680262528 ], [ 128.336483595434345, 36.59732842477078 ], [ 128.337799523014439, 36.593853714197117 ], [ 128.336496036260399, 36.592067772338339 ], [ 128.338787756907323, 36.588051479502262 ], [ 128.336665173718785, 36.586749839960497 ], [ 128.336258771673641, 36.583459514899808 ], [ 128.340604149271712, 36.578974729601363 ] ] ] ] } },
{ "type": "Feature", "properties": { "emd_cd": "47900390", "emd_nm": "개포면" }, "geometry": { "type": "MultiPolygon", "coordinates": [ [ [ [ 128.409296040152128, 36.633018411339002 ], [ 128.41468306256121, 36.629883210881481 ], [ 128.424394887927235, 36.629558591344768 ], [ 128.42491570412929, 36.627705482357811 ], [ 128.427131311864031, 36.627249691321111 ], [ 128.419003774261455, 36.608619283931546 ], [ 128.419231110130198, 36.599926622058241 ], [ 128.412769284538228, 36.594006927657055 ], [ 128.380402011112324, 36.593152945884633 ], [ 128.374839988894138, 36.590004354585488 ], [ 128.340604149271712, 36.578974729601363 ], [ 128.336258771673641, 36.583459514899808 ], [ 128.336665173718785, 36.586749839960497 ], [ 128.338787756907323, 36.588051479502262 ], [ 128.336496036260399, 36.592067772338339 ], [ 128.337799523014439, 36.593853714197117 ], [ 128.336483595434345, 36.59732842477078 ], [ 128.330568725473711, 36.60132680262528 ], [ 128.325835237301504, 36.598353980385937 ], [ 128.318167361715467, 36.598539258013965 ], [ 128.316037216137232, 36.601908887305314 ], [ 128.319352279246232, 36.607442504617616 ], [ 128.319836407653725, 36.611439836694871 ], [ 128.317559160029418, 36.613044798015039 ], [ 128.319800617870868, 36.618893917844311 ], [ 128.316971149469936, 36.622611432674802 ], [ 128.314453242259106, 36.62325906262096 ], [ 128.316442837302361, 36.62552053797517 ], [ 128.321372024511589, 36.624034875296239 ], [ 128.328085630014129, 36.62716976046157 ], [ 128.326923979273602, 36.637939675151372 ], [ 128.323648700404163, 36.640340996858988 ], [ 128.326084609802535, 36.642460650658762 ], [ 128.325938146641732, 36.644375170518508 ], [ 128.330346822244252, 36.641837045629146 ], [ 128.333736413818542, 36.642091661783496 ], [ 128.332627640812774, 36.638122021624973 ], [ 128.334363467433434, 36.63772380207444 ], [ 128.336908310006976, 36.633147740632943 ], [ 128.352225743678844, 36.629909404653894 ], [ 128.35213975357982, 36.627127055898093 ], [ 128.350172602751599, 36.627083392364675 ], [ 128.349408572566631, 36.625389918075676 ], [ 128.354299633088488, 36.618283170445572 ], [ 128.355284202257963, 36.613189356994901 ], [ 128.36028520861575, 36.612812867490511 ], [ 128.364168983685545, 36.616014614206541 ], [ 128.368114071271947, 36.614573519647436 ], [ 128.366877985251051, 36.620079571360776 ], [ 128.368454005809468, 36.621865905055763 ], [ 128.37147822106536, 36.62243583211341 ], [ 128.376110900213831, 36.620475477919989 ], [ 128.378452425029877, 36.622863073632871 ], [ 128.386682217041852, 36.623372780021029 ], [ 128.389164964843047, 36.626161612670629 ], [ 128.390400200952143, 36.624599584594073 ], [ 128.396521979212423, 36.624762088848627 ], [ 128.397534057314772, 36.627111338955864 ], [ 128.402854352519938, 36.628693428055549 ], [ 128.405099511837506, 36.633254685319102 ], [ 128.409296040152128, 36.633018411339002 ] ] ] ] } },
{ "type": "Feature", "properties": { "emd_cd": "47900400", "emd_nm": "지보면" }, "geometry": { "type": "MultiPolygon", "coordinates": [ [ [ [ 128.457701563676778, 36.556057696234376 ], [ 128.455489267568964, 36.554228597818252 ], [ 128.458678649628439, 36.55315769079774 ], [ 128.459130885372417, 36.551772761324948 ], [ 128.459460308676086, 36.551540325092446 ], [ 128.459519060433365, 36.55146794280715 ], [ 128.4595451372887, 36.551324357681494 ], [ 128.456461297062418, 36.550222978008826 ], [ 128.464675494386086, 36.540442546456944 ], [ 128.453420048006535, 36.538220935064132 ], [ 128.453383679976525, 36.535149142182014 ], [ 128.447010854083317, 36.530987810208025 ], [ 128.436756195323795, 36.527319477506524 ], [ 128.43121108794486, 36.52218995550858 ], [ 128.424288887257262, 36.52061131229231 ], [ 128.419378041283494, 36.522966121729105 ], [ 128.412734432499917, 36.520078440074379 ], [ 128.400032764012479, 36.51009058901041 ], [ 128.375541971369302, 36.502984145836102 ], [ 128.369680538626795, 36.508970472860398 ], [ 128.370853200241243, 36.516185752451548 ], [ 128.368215743501452, 36.519011315012371 ], [ 128.36794937460877, 36.526983960437541 ], [ 128.366314860665312, 36.529691684229022 ], [ 128.361266959186537, 36.532185285560921 ], [ 128.355336282493369, 36.531886181270103 ], [ 128.351365921067895, 36.533594109110361 ], [ 128.348037990150146, 36.540715625487074 ], [ 128.342094408876847, 36.545156364432856 ], [ 128.321141444032065, 36.549103992293624 ], [ 128.318537320735317, 36.551942846146268 ], [ 128.317314661090336, 36.558640802849169 ], [ 128.314445927995109, 36.56245225608054 ], [ 128.303569164085616, 36.566276322727965 ], [ 128.30678707122027, 36.566533210650775 ], [ 128.306401039571909, 36.571069382909272 ], [ 128.309403727650363, 36.575872665003125 ], [ 128.315756805772196, 36.579910528734686 ], [ 128.319070350812297, 36.578520378223118 ], [ 128.319112195021603, 36.573573115092543 ], [ 128.324701991472267, 36.57314366693484 ], [ 128.330279436958989, 36.574134498331183 ], [ 128.346972372362217, 36.581877687301713 ], [ 128.374839988894138, 36.590004354585488 ], [ 128.380402011112324, 36.593152945884633 ], [ 128.404944760513899, 36.59292081003597 ], [ 128.405216076472357, 36.591816893874828 ], [ 128.399908056542898, 36.592052990391849 ], [ 128.413477596033005, 36.589203374967767 ], [ 128.414047838181489, 36.587768504620186 ], [ 128.418465520729114, 36.588931072346725 ], [ 128.419651572815923, 36.58509084565133 ], [ 128.42179015220222, 36.58364431519152 ], [ 128.428448227841017, 36.584466975283107 ], [ 128.429157452008184, 36.578714074487841 ], [ 128.438424755181387, 36.571753510884285 ], [ 128.441107843883486, 36.566265244859139 ], [ 128.452966389388564, 36.567348093579128 ], [ 128.457701563676778, 36.556057696234376 ] ] ] ] } },
{ "type": "Feature", "properties": { "emd_cd": "47900410", "emd_nm": "풍양면" }, "geometry": { "type": "MultiPolygon", "coordinates": [ [ [ [ 128.262045273700522, 36.476974843776503 ], [ 128.266328947590523, 36.483727540071925 ], [ 128.270302298700699, 36.486775631890566 ], [ 128.264365195474994, 36.507129702395858 ], [ 128.2666007141504, 36.516314920755079 ], [ 128.270852745935372, 36.519219693424546 ], [ 128.267929598414526, 36.535789589283233 ], [ 128.263838366541307, 36.542727614041944 ], [ 128.264573995413514, 36.548017080386586 ], [ 128.267940019212404, 36.551642325946773 ], [ 128.295186593892424, 36.552385931077765 ], [ 128.297927934872405, 36.554018258359044 ], [ 128.297566842736757, 36.556642705443579 ], [ 128.293067776469826, 36.562607736066852 ], [ 128.303143204098916, 36.566462172167689 ], [ 128.314445927995109, 36.56245225608054 ], [ 128.317314661090336, 36.558640802849169 ], [ 128.318537320735317, 36.551942846146268 ], [ 128.321141444032065, 36.549103992293624 ], [ 128.342094408876847, 36.545156364432856 ], [ 128.348037990150146, 36.540715625487074 ], [ 128.351365921067895, 36.533594109110361 ], [ 128.355336282493369, 36.531886181270103 ], [ 128.358262901083606, 36.532487564135216 ], [ 128.358304351013999, 36.530455133765813 ], [ 128.353852045352681, 36.527095585911425 ], [ 128.347552919675451, 36.527585486307125 ], [ 128.341064254631277, 36.52434682831408 ], [ 128.343665050856458, 36.521185189237578 ], [ 128.345540438089728, 36.514254437281608 ], [ 128.34168712595266, 36.509844687817214 ], [ 128.341195070610155, 36.50495825386205 ], [ 128.33597688692916, 36.499336037431306 ], [ 128.338254194649352, 36.496913852012497 ], [ 128.335979767407849, 36.495154030887903 ], [ 128.338772626209163, 36.489887019171029 ], [ 128.331364011877127, 36.485537067665923 ], [ 128.323536005091256, 36.475139501933832 ], [ 128.321034063508364, 36.474499314791323 ], [ 128.320518941118848, 36.471372727178512 ], [ 128.314668090572752, 36.470804239711839 ], [ 128.31064927760707, 36.467409293906478 ], [ 128.308699730627012, 36.463840651848159 ], [ 128.311743710519096, 36.461020505443607 ], [ 128.31353481548885, 36.454570311686375 ], [ 128.308745832380936, 36.45438691643934 ], [ 128.299600664667622, 36.463477246969681 ], [ 128.295814065835344, 36.464960251745765 ], [ 128.293206356257656, 36.464640833784983 ], [ 128.291198994458682, 36.461823618873218 ], [ 128.280592120579541, 36.463534879550245 ], [ 128.278535316096537, 36.466723221447964 ], [ 128.279190155842286, 36.471828786427359 ], [ 128.271022516292931, 36.4772186567779 ], [ 128.267442452911183, 36.477563658485266 ], [ 128.265068258860282, 36.475849555890122 ], [ 128.262045273700522, 36.476974843776503 ] ] ] ] } },
{ "type": "Feature", "properties": { "emd_cd": "47900420", "emd_nm": "효자면" }, "geometry": { "type": "MultiPolygon", "coordinates": [ [ [ [ 128.474214225334521, 36.781765953428135 ], [ 128.454911459453768, 36.780959143453906 ], [ 128.455262159062414, 36.775744143191389 ], [ 128.45087886600146, 36.778581842599941 ], [ 128.450658952609132, 36.774924401932871 ], [ 128.448843608748319, 36.773699472969902 ], [ 128.451231613133444, 36.767915932968513 ], [ 128.449722747790133, 36.764338111653871 ], [ 128.433064929262912, 36.770714494714518 ], [ 128.425930406748279, 36.765780867974541 ], [ 128.418521881867548, 36.764096203489721 ], [ 128.411596520652466, 36.760168954653473 ], [ 128.40931115820004, 36.751134901309982 ], [ 128.410044618459409, 36.749080462469891 ], [ 128.403077937855613, 36.746160805500296 ], [ 128.399818967157614, 36.748560962508904 ], [ 128.394540360851778, 36.745452646587815 ], [ 128.391947551751997, 36.746083564208554 ], [ 128.387817220807847, 36.744376387697834 ], [ 128.383537889663074, 36.747423146868861 ], [ 128.376550998378519, 36.746759802098047 ], [ 128.369068010335241, 36.751093041396402 ], [ 128.368140928826449, 36.755015663677234 ], [ 128.365002247922178, 36.756677309717524 ], [ 128.363499289587509, 36.760207012711994 ], [ 128.367807312925777, 36.767656626465332 ], [ 128.365014261397675, 36.772011552661297 ], [ 128.364709428701445, 36.776288742505002 ], [ 128.366136103851062, 36.777181965790398 ], [ 128.366588185691938, 36.783617351176197 ], [ 128.369127604558713, 36.786474727568148 ], [ 128.36912315743885, 36.791929287886532 ], [ 128.372083595503796, 36.796159631276417 ], [ 128.368246862417607, 36.80213183794644 ], [ 128.372704807167082, 36.805461680868028 ], [ 128.373253938648475, 36.807676281674489 ], [ 128.381316187519332, 36.814088851744621 ], [ 128.393654600875777, 36.815416559685936 ], [ 128.40318100810515, 36.812187991102157 ], [ 128.420374873745487, 36.811467052359404 ], [ 128.425286725054491, 36.815337757209562 ], [ 128.425651292070711, 36.818978372165049 ], [ 128.431694399987634, 36.824335071973955 ], [ 128.434124445740736, 36.834195772340323 ], [ 128.441139729761431, 36.837625632857552 ], [ 128.442136456056062, 36.840259098836121 ], [ 128.446591098964831, 36.843176098145634 ], [ 128.449048901296578, 36.848591908351132 ], [ 128.459385310450898, 36.845307070321638 ], [ 128.462839813911643, 36.846881637074773 ], [ 128.481618020877363, 36.834646499087967 ], [ 128.482557060444776, 36.829870528431485 ], [ 128.477499970960537, 36.823958020998454 ], [ 128.475992841475602, 36.818201020282956 ], [ 128.473149768791302, 36.817440542650246 ], [ 128.471130245213743, 36.803478246437493 ], [ 128.474525202551035, 36.799400028955048 ], [ 128.476125096395577, 36.793821354164983 ], [ 128.47653445466608, 36.786591368519389 ], [ 128.474214225334521, 36.781765953428135 ] ] ] ] } },
{ "type": "Feature", "properties": { "emd_cd": "47900430", "emd_nm": "은풍면" }, "geometry": { "type": "MultiPolygon", "coordinates": [ [ [ [ 128.39667595584325, 36.746377253194368 ], [ 128.399818967157614, 36.748560962508904 ], [ 128.402700874280583, 36.746157998751123 ], [ 128.408620221511143, 36.7480327024847 ], [ 128.410507765552069, 36.750461068840195 ], [ 128.40931115820004, 36.751134901309982 ], [ 128.411596520652466, 36.760168954653473 ], [ 128.422689230148848, 36.765958502808026 ], [ 128.425930406748279, 36.765780867974541 ], [ 128.432597248181992, 36.770592611529956 ], [ 128.449722747790133, 36.764338111653871 ], [ 128.451231613133444, 36.767915932968513 ], [ 128.448905299689216, 36.773920231331211 ], [ 128.450658952609132, 36.774924401932871 ], [ 128.451360885617703, 36.778739665148755 ], [ 128.455262159062414, 36.775744143191389 ], [ 128.454911459453768, 36.780959143453906 ], [ 128.470061171960737, 36.782324176401701 ], [ 128.474552521409493, 36.781355695364581 ], [ 128.475008213245019, 36.77669008320261 ], [ 128.471928361580609, 36.772394821327303 ], [ 128.475894594786183, 36.768547932269037 ], [ 128.473306224294362, 36.761085868778018 ], [ 128.474574215143974, 36.756685885626972 ], [ 128.472734656285752, 36.753615779290378 ], [ 128.478010360224914, 36.750413146035527 ], [ 128.47785059374317, 36.747655579565468 ], [ 128.467773405600553, 36.735284181279518 ], [ 128.462005248605664, 36.722488935258028 ], [ 128.452794741123057, 36.712599669583263 ], [ 128.448164225452217, 36.709962131211853 ], [ 128.44472177110859, 36.709455986812479 ], [ 128.445127105567423, 36.711197777332202 ], [ 128.440885764674476, 36.715675659041736 ], [ 128.438183000829895, 36.715528914797765 ], [ 128.434872653923833, 36.711900756010728 ], [ 128.432568836324833, 36.712798003540051 ], [ 128.427893551176538, 36.710314500907884 ], [ 128.422409707052736, 36.713791248871317 ], [ 128.419062093077628, 36.71359440817313 ], [ 128.417662545276897, 36.716006310936351 ], [ 128.418180556533173, 36.725473339633922 ], [ 128.408020266915088, 36.732139221256439 ], [ 128.408187718596821, 36.734202996164548 ], [ 128.403330774762708, 36.739817233424183 ], [ 128.397337950955972, 36.743499202184047 ], [ 128.39667595584325, 36.746377253194368 ] ] ] ] } }
]
}
