{
"type": "FeatureCollection",
"name": "47920",
"crs": { "type": "name", "properties": { "name": "urn:ogc:def:crs:OGC:1.3:CRS84" } },
"features": [
{ "type": "Feature", "properties": { "emd_cd": "47920250", "emd_nm": "봉화읍" }, "geometry": { "type": "MultiPolygon", "coordinates": [ [ [ [ 128.776415611938887, 36.886720045753215 ], [ 128.772873693653651, 36.883867934318715 ], [ 128.771043339628676, 36.878902210138612 ], [ 128.758168417453589, 36.879127447654817 ], [ 128.755536312425988, 36.876708921854359 ], [ 128.757237917226092, 36.872434960487496 ], [ 128.754174488886918, 36.869033187692864 ], [ 128.752554218632071, 36.861777833933502 ], [ 128.74794221878264, 36.86296450522142 ], [ 128.734221585517872, 36.85652863488194 ], [ 128.733017392772354, 36.854083267700247 ], [ 128.738972435144916, 36.849021251527574 ], [ 128.73656668997404, 36.844085085466851 ], [ 128.732085058436326, 36.846783919083471 ], [ 128.730273296749886, 36.851988235554032 ], [ 128.728227732171774, 36.85314517167317 ], [ 128.729341803717318, 36.853829217040335 ], [ 128.726389423231808, 36.854765228544728 ], [ 128.7270431577507, 36.857528182018605 ], [ 128.724101551587097, 36.861120191121252 ], [ 128.727011333207713, 36.862181857010505 ], [ 128.726776151264602, 36.865994031728036 ], [ 128.724588605971604, 36.865488037691435 ], [ 128.720270874971135, 36.86773503168164 ], [ 128.715091840370292, 36.864268954228415 ], [ 128.705427045206534, 36.867095053807034 ], [ 128.70086412224714, 36.860600890894517 ], [ 128.694790988287053, 36.862654620748948 ], [ 128.69070376043004, 36.86055617070398 ], [ 128.689623039463669, 36.86324747457143 ], [ 128.685437619320282, 36.863463882461069 ], [ 128.683202367190745, 36.862438871774813 ], [ 128.682157573988889, 36.857797798444061 ], [ 128.677257107812068, 36.855813461978464 ], [ 128.678107985275147, 36.849398913720322 ], [ 128.676150301210697, 36.84986403400233 ], [ 128.67345038305092, 36.847915745829617 ], [ 128.674423657654302, 36.842521702499084 ], [ 128.667629872215457, 36.845038727198286 ], [ 128.663718347257401, 36.842131917518032 ], [ 128.661951263665202, 36.84294973762254 ], [ 128.659441004083391, 36.850293990778681 ], [ 128.656341076876771, 36.850396235134127 ], [ 128.656757197249874, 36.851900945390028 ], [ 128.647879233741207, 36.855768881921144 ], [ 128.644792540225637, 36.853204005723477 ], [ 128.641787550916519, 36.857087349578272 ], [ 128.645493039292063, 36.864676331922688 ], [ 128.649176642704504, 36.867688510664465 ], [ 128.654351359173262, 36.867563112149583 ], [ 128.655907510978068, 36.870299206761253 ], [ 128.653155406949566, 36.876017001494205 ], [ 128.650015776545615, 36.878081058413585 ], [ 128.651769007307053, 36.881882431490617 ], [ 128.644273746370061, 36.879528065000663 ], [ 128.637520591265513, 36.88879050089885 ], [ 128.639624620101785, 36.889732084733495 ], [ 128.64041097239803, 36.893732872956001 ], [ 128.646835231554405, 36.901526212904074 ], [ 128.649811232976106, 36.910615083210836 ], [ 128.654941841953246, 36.911635635224187 ], [ 128.655052091998954, 36.909891158533767 ], [ 128.658699026980941, 36.909388811949064 ], [ 128.666332676471285, 36.917792917013955 ], [ 128.669770753047317, 36.91805299622834 ], [ 128.670774823950467, 36.92117198819296 ], [ 128.674051492780904, 36.91940829896059 ], [ 128.678849257718923, 36.920670428176074 ], [ 128.685338663821483, 36.917783571811924 ], [ 128.691936511556833, 36.921197009404878 ], [ 128.694473371883191, 36.920719845572087 ], [ 128.695914106394468, 36.924869404421919 ], [ 128.693806243440775, 36.931421139073663 ], [ 128.697383989176274, 36.934649588286661 ], [ 128.70542926045556, 36.931979370323695 ], [ 128.706289255005402, 36.926496713812398 ], [ 128.710391733008521, 36.923894486447395 ], [ 128.710299803949766, 36.919051010879514 ], [ 128.714692547891929, 36.914904159716251 ], [ 128.715119299731697, 36.912239875253988 ], [ 128.719186823752523, 36.909384983301713 ], [ 128.7236799775431, 36.914446489732441 ], [ 128.728334029189938, 36.913915449454215 ], [ 128.728301289908046, 36.912054179812195 ], [ 128.73069154752227, 36.91022648986327 ], [ 128.729944275001799, 36.907104039628358 ], [ 128.732225972101986, 36.906473443196077 ], [ 128.736689570882362, 36.909079274241179 ], [ 128.735223220175357, 36.911442161754458 ], [ 128.736661674015465, 36.91394880332556 ], [ 128.745012029702167, 36.917943402444642 ], [ 128.749334248303938, 36.921949773484556 ], [ 128.748104668517044, 36.923956884144907 ], [ 128.749909560683165, 36.925211075281901 ], [ 128.763587836028222, 36.923484500745282 ], [ 128.763104268469419, 36.925736362254746 ], [ 128.764811628344233, 36.92992252307593 ], [ 128.768051761417695, 36.932080391652072 ], [ 128.767328828926935, 36.935864152934762 ], [ 128.768818455710345, 36.936677758432332 ], [ 128.774316891087466, 36.936262090431121 ], [ 128.776648161026145, 36.93297512702631 ], [ 128.776034988661394, 36.919527137883001 ], [ 128.779614355514553, 36.916812667014213 ], [ 128.777986539647372, 36.914015146025882 ], [ 128.778663618421376, 36.911410166144229 ], [ 128.771809965941003, 36.907908813260292 ], [ 128.773290747691505, 36.905238245336378 ], [ 128.770394986791047, 36.903989497265698 ], [ 128.770240791161712, 36.90213998253585 ], [ 128.771811364897644, 36.900756252629201 ], [ 128.768389654872948, 36.898174996304483 ], [ 128.768807143560053, 36.895727652604428 ], [ 128.77053804160434, 36.895099644637838 ], [ 128.768876700240781, 36.889169201350931 ], [ 128.776415611938887, 36.886720045753215 ] ] ] ] } },
{ "type": "Feature", "properties": { "emd_cd": "47920310", "emd_nm": "물야면" }, "geometry": { "type": "MultiPolygon", "coordinates": [ [ [ [ 128.671755108525019, 36.921300324296013 ], [ 128.665630399557983, 36.918990096621521 ], [ 128.66645143108093, 36.92363912420749 ], [ 128.659904044970773, 36.928527045533137 ], [ 128.65888470958842, 36.932381120460917 ], [ 128.66076441303116, 36.933698565639261 ], [ 128.661598444628709, 36.939151317387896 ], [ 128.664240589386793, 36.940267683222231 ], [ 128.664855193905851, 36.943155435105815 ], [ 128.673327334577863, 36.942432636859913 ], [ 128.673402990239566, 36.944895382096703 ], [ 128.675450739877789, 36.946172761091717 ], [ 128.677985784890325, 36.951846179583633 ], [ 128.677344023924604, 36.953446125246813 ], [ 128.681590165060214, 36.953672510618233 ], [ 128.686318429622332, 36.960101069639926 ], [ 128.6860691338278, 36.963964059604244 ], [ 128.687880308021022, 36.96597225905046 ], [ 128.686469917490598, 36.967657964732972 ], [ 128.687114527871046, 36.969499159141719 ], [ 128.693112562139959, 36.974373206257958 ], [ 128.693463521362446, 36.976963990625407 ], [ 128.690010174782884, 36.979116715972594 ], [ 128.692689042167387, 36.984805101547195 ], [ 128.690451295374004, 36.985818744733905 ], [ 128.692309862456938, 36.986352512413958 ], [ 128.691143607100912, 36.987530507649474 ], [ 128.691971142425643, 36.994829356859 ], [ 128.694408314345395, 36.99842840009358 ], [ 128.692538712587066, 37.004563680534474 ], [ 128.694650900661344, 37.004263993548797 ], [ 128.695549637173258, 37.006842153180287 ], [ 128.702072262659158, 37.012565352015038 ], [ 128.702698820213357, 37.016157805340619 ], [ 128.699543610651716, 37.018339041606268 ], [ 128.700961020042854, 37.029810608074982 ], [ 128.712749740980996, 37.042652489917444 ], [ 128.718668608811015, 37.043751414031711 ], [ 128.734618087480612, 37.040227794482334 ], [ 128.750396684697591, 37.028311254631561 ], [ 128.756162812258736, 37.028132468994791 ], [ 128.765588211814617, 37.023792383744976 ], [ 128.775920722032367, 37.023348629535924 ], [ 128.781197633452507, 37.021101855479465 ], [ 128.780696129707621, 37.018250339325647 ], [ 128.778176512567171, 37.016632670686704 ], [ 128.776448706568345, 37.007054872545318 ], [ 128.772336564499767, 37.002911645230562 ], [ 128.784040769695167, 36.993330623383585 ], [ 128.790243263662376, 36.994730128126932 ], [ 128.799524187529329, 36.991116163056731 ], [ 128.801812959521243, 36.987279269316552 ], [ 128.811082180791828, 36.980950193892738 ], [ 128.809500418147962, 36.977796919333841 ], [ 128.802975367531758, 36.977323034155496 ], [ 128.79532134761277, 36.96981705233997 ], [ 128.789097735806365, 36.969634309905885 ], [ 128.783964376153563, 36.964493927824726 ], [ 128.786359144852639, 36.961068293295639 ], [ 128.782533755395747, 36.948689455708248 ], [ 128.78441644495723, 36.944280022253075 ], [ 128.777344375806848, 36.939674623666534 ], [ 128.77802895270483, 36.937310298682213 ], [ 128.767328828926935, 36.935864152934762 ], [ 128.768051761417695, 36.932080391652072 ], [ 128.764811628344233, 36.92992252307593 ], [ 128.763587836028222, 36.923484500745282 ], [ 128.749909560683165, 36.925211075281901 ], [ 128.748104668517044, 36.923956884144907 ], [ 128.749334248303938, 36.921949773484556 ], [ 128.745012029702167, 36.917943402444642 ], [ 128.736661674015465, 36.91394880332556 ], [ 128.735223220175357, 36.911442161754458 ], [ 128.736689570882362, 36.909079274241179 ], [ 128.733294539510297, 36.906793115041744 ], [ 128.729944275001799, 36.907104039628358 ], [ 128.73069154752227, 36.91022648986327 ], [ 128.728301289908046, 36.912054179812195 ], [ 128.728334029189938, 36.913915449454215 ], [ 128.7236799775431, 36.914446489732441 ], [ 128.719186823752523, 36.909384983301713 ], [ 128.715119299731697, 36.912239875253988 ], [ 128.714692547891929, 36.914904159716251 ], [ 128.710299803949766, 36.919051010879514 ], [ 128.710391733008521, 36.923894486447395 ], [ 128.706289255005402, 36.926496713812398 ], [ 128.70542926045556, 36.931979370323695 ], [ 128.697383989176274, 36.934649588286661 ], [ 128.693806243440775, 36.931421139073663 ], [ 128.695914106394468, 36.924869404421919 ], [ 128.694473371883191, 36.920719845572087 ], [ 128.691936511556833, 36.921197009404878 ], [ 128.685338663821483, 36.917783571811924 ], [ 128.678849257718923, 36.920670428176074 ], [ 128.674051492780904, 36.91940829896059 ], [ 128.671755108525019, 36.921300324296013 ] ] ] ] } },
{ "type": "Feature", "properties": { "emd_cd": "47920320", "emd_nm": "봉성면" }, "geometry": { "type": "MultiPolygon", "coordinates": [ [ [ [ 128.774316891087466, 36.936262090431121 ], [ 128.77802895270483, 36.937310298682213 ], [ 128.777344375806848, 36.939674623666534 ], [ 128.78441644495723, 36.944280022253075 ], [ 128.782533755395747, 36.948689455708248 ], [ 128.786359144852639, 36.961068293295639 ], [ 128.783964376153563, 36.964493927824726 ], [ 128.789097735806365, 36.969634309905885 ], [ 128.79532134761277, 36.96981705233997 ], [ 128.802975367531758, 36.977323034155496 ], [ 128.809500418147962, 36.977796919333841 ], [ 128.811412723182315, 36.981204331889231 ], [ 128.820009819953611, 36.97611268153404 ], [ 128.826683538823715, 36.969864051728564 ], [ 128.846612310582032, 36.961819507404385 ], [ 128.843937166101142, 36.957622796648238 ], [ 128.843919641838681, 36.950699821484882 ], [ 128.849482609744456, 36.948205611868786 ], [ 128.852734819346438, 36.94077933870031 ], [ 128.847385054777959, 36.933299153584606 ], [ 128.838107924273174, 36.928871650991603 ], [ 128.84143829955471, 36.924724033091174 ], [ 128.840911848648261, 36.920543071691085 ], [ 128.838241288183241, 36.917910887304608 ], [ 128.842246198350978, 36.912726839467545 ], [ 128.841113423753114, 36.910963777388197 ], [ 128.836452056752023, 36.910097168940361 ], [ 128.835349881610767, 36.90180507755899 ], [ 128.833482468387587, 36.899340249407381 ], [ 128.838083827476879, 36.898723616536977 ], [ 128.834443398138148, 36.892054471796023 ], [ 128.830931957919518, 36.889184894670386 ], [ 128.831915496824706, 36.885801583392684 ], [ 128.829895349118942, 36.881504038948556 ], [ 128.832062279070641, 36.878485466402957 ], [ 128.832374244487511, 36.872055351394273 ], [ 128.828309013413445, 36.868176267113391 ], [ 128.821815267917771, 36.872544452629 ], [ 128.819751948366815, 36.871219301690097 ], [ 128.81931423327535, 36.867925562425405 ], [ 128.814994668241525, 36.866665160501121 ], [ 128.815924994770569, 36.864527371050102 ], [ 128.812174219223152, 36.860790189672535 ], [ 128.813112199057514, 36.858113648708034 ], [ 128.818314152719722, 36.856786984207751 ], [ 128.820642527272184, 36.857652042926517 ], [ 128.825604940015381, 36.851523314447668 ], [ 128.825757241876147, 36.847221733773189 ], [ 128.818370741181496, 36.847335540738783 ], [ 128.813199918750627, 36.842341505000675 ], [ 128.803529512034004, 36.848926998689535 ], [ 128.803240932220518, 36.850650614913143 ], [ 128.797516423992022, 36.850782348730199 ], [ 128.798474152419402, 36.852406287654361 ], [ 128.796971463056821, 36.853947291047049 ], [ 128.79805238672418, 36.857982301021003 ], [ 128.796960195588127, 36.859918495323043 ], [ 128.799212029035374, 36.861976748079897 ], [ 128.797657442431074, 36.864232444975052 ], [ 128.791194435100778, 36.866357294961411 ], [ 128.785874510756713, 36.860166231766776 ], [ 128.779787191961958, 36.86462196167632 ], [ 128.778902355621028, 36.868878097253543 ], [ 128.789825620861507, 36.872729405243959 ], [ 128.793662746111465, 36.883371148690657 ], [ 128.791918449085841, 36.884150810203657 ], [ 128.790488290344115, 36.890203507680951 ], [ 128.783390093099143, 36.887751464550568 ], [ 128.781298957302539, 36.882713568444245 ], [ 128.777551416669013, 36.883445217993057 ], [ 128.776415611938887, 36.886720045753215 ], [ 128.768876700240781, 36.889169201350931 ], [ 128.77053804160434, 36.895099644637838 ], [ 128.768807143560053, 36.895727652604428 ], [ 128.768389654872948, 36.898174996304483 ], [ 128.771811364897644, 36.900756252629201 ], [ 128.770394986791047, 36.903989497265698 ], [ 128.773290747691505, 36.905238245336378 ], [ 128.771809965941003, 36.907908813260292 ], [ 128.778663618421376, 36.911410166144229 ], [ 128.777986539647372, 36.914015146025882 ], [ 128.779637695119249, 36.916305984303087 ], [ 128.776034988661394, 36.919527137883001 ], [ 128.777158421227085, 36.923033463067718 ], [ 128.775538870681203, 36.929378694107008 ], [ 128.77684002173072, 36.932328853766336 ], [ 128.774316891087466, 36.936262090431121 ] ] ] ] } },
{ "type": "Feature", "properties": { "emd_cd": "47920330", "emd_nm": "법전면" }, "geometry": { "type": "MultiPolygon", "coordinates": [ [ [ [ 128.956410036698315, 36.947470861066826 ], [ 128.960566664834886, 36.946583176560601 ], [ 128.963480314629436, 36.943196310271148 ], [ 128.96990895941255, 36.94165485198549 ], [ 128.987691344152068, 36.926969616637372 ], [ 128.988882832067475, 36.921222818197428 ], [ 128.99118567464194, 36.91934707353402 ], [ 128.989524025013765, 36.918147145085264 ], [ 128.989587657172251, 36.915830821295351 ], [ 128.983075939655578, 36.912332753805487 ], [ 128.982344278067103, 36.908947108198973 ], [ 128.978785010374622, 36.905914438009717 ], [ 128.984111221374206, 36.896389900419742 ], [ 128.99100998606022, 36.892546775924721 ], [ 128.994587637665632, 36.893238563466255 ], [ 128.994771208620847, 36.889803346833816 ], [ 128.997801751908725, 36.885547165094899 ], [ 128.998395641376305, 36.876802250080807 ], [ 128.990273822687556, 36.875972122018602 ], [ 128.983747505767838, 36.872552615214616 ], [ 128.980391264080424, 36.873104906708249 ], [ 128.976847381952155, 36.869210129444852 ], [ 128.973161303612159, 36.872407729807193 ], [ 128.9726098963352, 36.877348546062947 ], [ 128.968681998419697, 36.879232959063089 ], [ 128.967021148780645, 36.878296611841932 ], [ 128.966170239366164, 36.871329651551008 ], [ 128.956884169278965, 36.875609129039439 ], [ 128.953177532030395, 36.879470781596872 ], [ 128.953460285666523, 36.882081483761375 ], [ 128.951406735605246, 36.883593500727535 ], [ 128.951992572240982, 36.889413332371063 ], [ 128.947099184912446, 36.888615446678109 ], [ 128.942114729855916, 36.891150646147388 ], [ 128.941911012616231, 36.896363029923343 ], [ 128.936620002212834, 36.898196593686023 ], [ 128.930218322764034, 36.896048021032911 ], [ 128.925752901824467, 36.884224921297644 ], [ 128.922358376968361, 36.882843666272208 ], [ 128.916003164224094, 36.889662919599246 ], [ 128.907399854153624, 36.885471967520012 ], [ 128.909199668701945, 36.890340344663606 ], [ 128.906329816301167, 36.892116612275828 ], [ 128.906317943856322, 36.890013723142978 ], [ 128.902069362789604, 36.892470352829378 ], [ 128.892791502348899, 36.884955665188933 ], [ 128.883108906495522, 36.88959862123928 ], [ 128.884441926393038, 36.89251912053728 ], [ 128.882182860613511, 36.894626555218217 ], [ 128.88312525585448, 36.896810419213409 ], [ 128.877173226613053, 36.900227676085819 ], [ 128.87380012805238, 36.897750937410215 ], [ 128.876460124191993, 36.891587397462906 ], [ 128.872937831640883, 36.886288756100605 ], [ 128.867084912138893, 36.889372027846562 ], [ 128.86617879241021, 36.891364891388108 ], [ 128.862221272761332, 36.890164452459686 ], [ 128.859800837548903, 36.89208322390617 ], [ 128.855109712825168, 36.888918777116189 ], [ 128.849597856457223, 36.888205817573244 ], [ 128.84879523447637, 36.890282779709786 ], [ 128.835336125104703, 36.893762868333212 ], [ 128.838083827476879, 36.898723616536977 ], [ 128.833482468387587, 36.899340249407381 ], [ 128.835349881610767, 36.90180507755899 ], [ 128.836452056752023, 36.910097168940361 ], [ 128.841113423753114, 36.910963777388197 ], [ 128.842246198350978, 36.912726839467545 ], [ 128.838241288183241, 36.917910887304608 ], [ 128.840911848648261, 36.920543071691085 ], [ 128.84143829955471, 36.924724033091174 ], [ 128.838107924273174, 36.928871650991603 ], [ 128.847385054777959, 36.933299153584606 ], [ 128.849691064381972, 36.937948505683444 ], [ 128.85235036902202, 36.93892662320205 ], [ 128.852194973698545, 36.942656088388979 ], [ 128.853527398963934, 36.943455377472468 ], [ 128.868350950849589, 36.938741569049967 ], [ 128.875493742673683, 36.939932828271587 ], [ 128.877794622455696, 36.938421144952308 ], [ 128.889311154168666, 36.938334236677427 ], [ 128.897339195399809, 36.928400560338062 ], [ 128.900131700991636, 36.927321789082804 ], [ 128.903322784725646, 36.930150259332073 ], [ 128.904612425817589, 36.92792540879141 ], [ 128.908604351399021, 36.927901330777672 ], [ 128.909664481631978, 36.925593200514342 ], [ 128.913395628003116, 36.925619878199825 ], [ 128.914932483769206, 36.920286550825331 ], [ 128.914144706112637, 36.917531842743806 ], [ 128.923532461346127, 36.911696866790876 ], [ 128.929848253301202, 36.916849081290323 ], [ 128.926920660039144, 36.922245753650785 ], [ 128.932305588645136, 36.92694730991974 ], [ 128.935354802226442, 36.927377144485838 ], [ 128.934781438106967, 36.928574314478873 ], [ 128.937493636507327, 36.930727566185979 ], [ 128.93695221546318, 36.932575374621038 ], [ 128.939969329245201, 36.936706635339114 ], [ 128.939053277878969, 36.938486369033512 ], [ 128.950864053512475, 36.93836092867128 ], [ 128.956410036698315, 36.947470861066826 ] ] ] ] } },
{ "type": "Feature", "properties": { "emd_cd": "47920340", "emd_nm": "춘양면" }, "geometry": { "type": "MultiPolygon", "coordinates": [ [ [ [ 128.820009819953611, 36.97611268153404 ], [ 128.801812959521243, 36.987279269316552 ], [ 128.799524187529329, 36.991116163056731 ], [ 128.790243263662376, 36.994730128126932 ], [ 128.784040769695167, 36.993330623383585 ], [ 128.772336564499767, 37.002911645230562 ], [ 128.776448706568345, 37.007054872545318 ], [ 128.778176512567171, 37.016632670686704 ], [ 128.780696129707621, 37.018250339325647 ], [ 128.781197633452507, 37.021101855479465 ], [ 128.775920722032367, 37.023348629535924 ], [ 128.765588211814617, 37.023792383744976 ], [ 128.761140305598929, 37.026624118121667 ], [ 128.753764666408387, 37.027832485716957 ], [ 128.754549856500603, 37.031962722589917 ], [ 128.762175601542992, 37.036155422715957 ], [ 128.762544283537409, 37.037856562789457 ], [ 128.76142008811766, 37.044438881741208 ], [ 128.755193149214989, 37.050164624618219 ], [ 128.752319934765694, 37.055934393069336 ], [ 128.754550316781348, 37.059745758996989 ], [ 128.755260228206765, 37.066218101319109 ], [ 128.75750955128899, 37.070012477979112 ], [ 128.765355796728954, 37.064034525992014 ], [ 128.768387281986804, 37.067809690686687 ], [ 128.770081359395761, 37.075233623624626 ], [ 128.777928005703387, 37.078934820546252 ], [ 128.777839971217219, 37.083280331829421 ], [ 128.773591080868243, 37.087508050709069 ], [ 128.780281995900509, 37.092342718241021 ], [ 128.785806136008546, 37.087853528781579 ], [ 128.799423079944091, 37.086944255722223 ], [ 128.801525969536868, 37.084354042283906 ], [ 128.799965305160242, 37.078974915935895 ], [ 128.808003225147274, 37.075756792146606 ], [ 128.812569347779032, 37.078711782524735 ], [ 128.819427786995675, 37.077030952304668 ], [ 128.829383295148688, 37.078459053026386 ], [ 128.83208159815976, 37.075075453272319 ], [ 128.831665709948709, 37.067404053927035 ], [ 128.835952411043962, 37.065942738566918 ], [ 128.84064719463251, 37.059356496803019 ], [ 128.844016562205013, 37.057168876253265 ], [ 128.843924644108029, 37.054622745175955 ], [ 128.846874483935665, 37.051606609806896 ], [ 128.863653932690653, 37.048695073277308 ], [ 128.872479172800581, 37.043945257576645 ], [ 128.87684190886344, 37.046078074622692 ], [ 128.878543904498173, 37.05325512749404 ], [ 128.892837104285064, 37.047481357743429 ], [ 128.896419710189946, 37.044515500267394 ], [ 128.902174818912414, 37.033368537581779 ], [ 128.898571499374896, 37.014447925395935 ], [ 128.903948772551274, 37.005999155771143 ], [ 128.904051307757186, 37.00340088172036 ], [ 128.912689574611534, 37.001113205603417 ], [ 128.91793263196945, 36.995869181051646 ], [ 128.920729057688789, 36.990390468994406 ], [ 128.929659827502661, 36.986217389164736 ], [ 128.932461626112826, 36.981574226207186 ], [ 128.936199044365281, 36.979202934578453 ], [ 128.941923652905132, 36.976159386478145 ], [ 128.944811531800013, 36.977886367970243 ], [ 128.949070475768025, 36.97686987097287 ], [ 128.957260763377917, 36.961715439599836 ], [ 128.962062911297409, 36.958681628816997 ], [ 128.960817093869196, 36.957225752869292 ], [ 128.962385775315539, 36.954765008045896 ], [ 128.956871703209686, 36.950891829376388 ], [ 128.955157760669465, 36.944571617508011 ], [ 128.952627362570496, 36.94297030370268 ], [ 128.950864053512475, 36.93836092867128 ], [ 128.939053277878969, 36.938486369033512 ], [ 128.939969329245201, 36.936706635339114 ], [ 128.93695221546318, 36.932575374621038 ], [ 128.937493636507327, 36.930727566185979 ], [ 128.934781438106967, 36.928574314478873 ], [ 128.935354802226442, 36.927377144485838 ], [ 128.932305588645136, 36.92694730991974 ], [ 128.926920660039144, 36.922245753650785 ], [ 128.929848253301202, 36.916849081290323 ], [ 128.923532461346127, 36.911696866790876 ], [ 128.914144706112637, 36.917531842743806 ], [ 128.914932483769206, 36.920286550825331 ], [ 128.913395628003116, 36.925619878199825 ], [ 128.909664481631978, 36.925593200514342 ], [ 128.908604351399021, 36.927901330777672 ], [ 128.904612425817589, 36.92792540879141 ], [ 128.903322784725646, 36.930150259332073 ], [ 128.900131700991636, 36.927321789082804 ], [ 128.897339195399809, 36.928400560338062 ], [ 128.889311154168666, 36.938334236677427 ], [ 128.877794622455696, 36.938421144952308 ], [ 128.875493742673683, 36.939932828271587 ], [ 128.868350950849589, 36.938741569049967 ], [ 128.865653196676391, 36.940467551637681 ], [ 128.861049570051279, 36.940050734811003 ], [ 128.854297226030013, 36.943619772697531 ], [ 128.85253717779608, 36.942977574335721 ], [ 128.849482609744456, 36.948205611868786 ], [ 128.843919641838681, 36.950699821484882 ], [ 128.843937166101142, 36.957622796648238 ], [ 128.846612310582032, 36.961819507404385 ], [ 128.826683538823715, 36.969864051728564 ], [ 128.820009819953611, 36.97611268153404 ] ] ] ] } },
{ "type": "Feature", "properties": { "emd_cd": "47920350", "emd_nm": "소천면" }, "geometry": { "type": "MultiPolygon", "coordinates": [ [ [ [ 128.896164590178472, 37.043535784949704 ], [ 128.897882985034272, 37.045966787251203 ], [ 128.896802420251021, 37.055064634746763 ], [ 128.898897909326621, 37.0584734544368 ], [ 128.91041633775933, 37.066134830236713 ], [ 128.914748965361213, 37.064131160806838 ], [ 128.921212679990873, 37.064551562850951 ], [ 128.934672062092829, 37.060385115031508 ], [ 128.936207102304394, 37.057231973865939 ], [ 128.941787444292544, 37.055933367258504 ], [ 128.943980750720129, 37.052639597524959 ], [ 128.956264384034938, 37.051424844194159 ], [ 128.962324782496268, 37.043301422164909 ], [ 128.968000608795819, 37.042057540014724 ], [ 128.966812216645508, 37.037912330235777 ], [ 128.971656158931552, 37.033857766212734 ], [ 128.973197547256575, 37.02766074539273 ], [ 128.976837854839147, 37.025274221316948 ], [ 128.98338302522447, 37.024392116101211 ], [ 128.990781824167414, 37.026509418042707 ], [ 128.993640935516567, 37.022297948018192 ], [ 128.999579748708413, 37.018790928208148 ], [ 129.001895058460519, 37.019377127456941 ], [ 129.006700904270275, 37.025600733281472 ], [ 129.013469205247333, 37.027739506513647 ], [ 129.017120026101679, 37.025256781690636 ], [ 129.023937485151919, 37.023948863596445 ], [ 129.027164728333304, 37.019742911646894 ], [ 129.02710676969204, 37.017542196627105 ], [ 129.035203606149025, 37.013883949919517 ], [ 129.034161478261467, 37.010960408260502 ], [ 129.040221846034655, 37.005570221232567 ], [ 129.039530176071537, 37.002307280647372 ], [ 129.042820747328079, 37.000654373597456 ], [ 129.042941273482711, 36.997822167671238 ], [ 129.044727568759242, 36.99642765530983 ], [ 129.054536253462231, 36.996286138516638 ], [ 129.07273161830966, 36.989754367381018 ], [ 129.078010689199346, 36.991843366641191 ], [ 129.087106279280789, 36.991781596326618 ], [ 129.089322753586629, 36.994006565898829 ], [ 129.088808822673371, 36.997212831484418 ], [ 129.090396713750209, 36.997840198894011 ], [ 129.092580005040816, 36.995035430151532 ], [ 129.092572519292531, 36.988860137723378 ], [ 129.090238493021189, 36.986051956834856 ], [ 129.092324904915756, 36.981518197933269 ], [ 129.091537083249079, 36.97884126877031 ], [ 129.095118698247177, 36.977576960906859 ], [ 129.09481588957928, 36.974250332221871 ], [ 129.091676873019935, 36.970010985493786 ], [ 129.092023026105409, 36.963902257946479 ], [ 129.0887986036158, 36.961178665578885 ], [ 129.08242980712609, 36.963860245209567 ], [ 129.077068493674943, 36.958558180061182 ], [ 129.076813749228137, 36.955676661694099 ], [ 129.087537142423685, 36.951878998727558 ], [ 129.087931430935811, 36.949927479236564 ], [ 129.083970311812266, 36.945913371505966 ], [ 129.088711771092164, 36.946611983400466 ], [ 129.091551998268386, 36.944444531431287 ], [ 129.096528299461397, 36.946063363045418 ], [ 129.101139543062601, 36.943624746295079 ], [ 129.104038951540275, 36.944918713860389 ], [ 129.108045096937332, 36.942582901991457 ], [ 129.104125387329361, 36.937948495816173 ], [ 129.110883378387911, 36.933799768892285 ], [ 129.118477163831216, 36.935474347167052 ], [ 129.123093500642, 36.933607419618546 ], [ 129.125452874325731, 36.929792999335632 ], [ 129.136957015089394, 36.926767286262965 ], [ 129.13744127966612, 36.922580823155094 ], [ 129.141680640008587, 36.920371097562963 ], [ 129.144761800070171, 36.914232868108144 ], [ 129.147325136549057, 36.913275514752527 ], [ 129.144560716300873, 36.909641539539798 ], [ 129.147312224083464, 36.907917789790709 ], [ 129.14801052038689, 36.904372295821425 ], [ 129.143617615266493, 36.899907420470932 ], [ 129.149249520880232, 36.895911313089435 ], [ 129.147798057257233, 36.889590859227958 ], [ 129.155520565741654, 36.887844119807518 ], [ 129.15639209743253, 36.884100235121693 ], [ 129.153864140056697, 36.874599576182625 ], [ 129.136395220097626, 36.873156334700695 ], [ 129.137168766528163, 36.871325690570018 ], [ 129.135657435922894, 36.869103673700756 ], [ 129.129203077831875, 36.864913595330485 ], [ 129.128287105423993, 36.85838396687047 ], [ 129.123976331777072, 36.85665217061505 ], [ 129.124071554442196, 36.852978116167549 ], [ 129.121070638991085, 36.847139719272803 ], [ 129.116556358891643, 36.843925825194503 ], [ 129.111019822012736, 36.851894553066295 ], [ 129.10373238342865, 36.854314346598002 ], [ 129.088925119786381, 36.850219275107314 ], [ 129.082117248644892, 36.850531820723475 ], [ 129.069595453321966, 36.854900275691087 ], [ 129.064866462512839, 36.85827274471152 ], [ 129.054917360398207, 36.860042602616069 ], [ 129.049222990220954, 36.858575857320723 ], [ 129.043463177945085, 36.852176699805575 ], [ 129.040671633028239, 36.85147475921417 ], [ 129.036548783914839, 36.855215497304989 ], [ 129.031521088122332, 36.855080798367517 ], [ 129.02668554068299, 36.857148247464856 ], [ 129.026672152185284, 36.859748386215593 ], [ 129.021528832793365, 36.859017618585419 ], [ 129.01834578044722, 36.86188229592134 ], [ 129.008852081898652, 36.86461879479387 ], [ 129.00606331641464, 36.868442630032042 ], [ 129.002759063640184, 36.867100509712941 ], [ 128.999708600399657, 36.869249852032929 ], [ 129.000041874580319, 36.870896357423092 ], [ 128.996632417816727, 36.869622846681722 ], [ 128.995935914368062, 36.873339827644266 ], [ 128.991130812311184, 36.872793693845949 ], [ 128.990861513831362, 36.8711552345641 ], [ 128.983288519318222, 36.870686880867943 ], [ 128.983754027095557, 36.8728704056049 ], [ 128.987446952838866, 36.874943473399945 ], [ 128.998395641376305, 36.876802250080807 ], [ 128.997801751908725, 36.885547165094899 ], [ 128.994771208620847, 36.889803346833816 ], [ 128.994587637665632, 36.893238563466255 ], [ 128.99100998606022, 36.892546775924721 ], [ 128.984111221374206, 36.896389900419742 ], [ 128.978785010374622, 36.905914438009717 ], [ 128.982344278067103, 36.908947108198973 ], [ 128.983075939655578, 36.912332753805487 ], [ 128.989587657172251, 36.915830821295351 ], [ 128.989524025013765, 36.918147145085264 ], [ 128.99118567464194, 36.91934707353402 ], [ 128.988882832067475, 36.921222818197428 ], [ 128.987691344152068, 36.926969616637372 ], [ 128.96990895941255, 36.94165485198549 ], [ 128.963480314629436, 36.943196310271148 ], [ 128.960566664834886, 36.946583176560601 ], [ 128.955819841467275, 36.947823211724447 ], [ 128.958262588981313, 36.952232813872165 ], [ 128.961647471546172, 36.953407686216423 ], [ 128.962385775315539, 36.954765008045896 ], [ 128.960817093869196, 36.957225752869292 ], [ 128.962062911297409, 36.958681628816997 ], [ 128.957260763377917, 36.961715439599836 ], [ 128.949070475768025, 36.97686987097287 ], [ 128.944811531800013, 36.977886367970243 ], [ 128.941923652905132, 36.976159386478145 ], [ 128.936199044365281, 36.979202934578453 ], [ 128.932461626112826, 36.981574226207186 ], [ 128.929659827502661, 36.986217389164736 ], [ 128.920729057688789, 36.990390468994406 ], [ 128.91793263196945, 36.995869181051646 ], [ 128.912689574611534, 37.001113205603417 ], [ 128.904051307757186, 37.00340088172036 ], [ 128.903948772551274, 37.005999155771143 ], [ 128.898571499374896, 37.014447925395935 ], [ 128.902174818912414, 37.033368537581779 ], [ 128.896164590178472, 37.043535784949704 ] ] ] ] } },
{ "type": "Feature", "properties": { "emd_cd": "47920360", "emd_nm": "재산면" }, "geometry": { "type": "MultiPolygon", "coordinates": [ [ [ [ 129.116556358891643, 36.843925825194503 ], [ 129.103756927804056, 36.835662249426896 ], [ 129.100475924268693, 36.828665827710374 ], [ 129.096486336169647, 36.826048594899838 ], [ 129.089657175230343, 36.826408140253228 ], [ 129.089115647416492, 36.824392692740339 ], [ 129.080195871614222, 36.818023677985103 ], [ 129.077892281482661, 36.819947459510132 ], [ 129.071460801970261, 36.820579558265564 ], [ 129.064400199141801, 36.817868422753051 ], [ 129.06312980438824, 36.813368477436271 ], [ 129.056668455308511, 36.806464678912143 ], [ 129.053411172848485, 36.806310551254171 ], [ 129.046709822475464, 36.797312179878432 ], [ 129.044059838148257, 36.797641647168838 ], [ 129.0385519856884, 36.795139223039172 ], [ 129.036020088507371, 36.789193753487545 ], [ 129.032234868284661, 36.787065445065402 ], [ 129.021929097777246, 36.783368969112757 ], [ 129.016802366017117, 36.784365834270339 ], [ 129.008327722639393, 36.77995132102884 ], [ 129.000665236235335, 36.780603962676921 ], [ 128.996585762654888, 36.777932866055501 ], [ 128.990263936008631, 36.776802579944686 ], [ 128.988407260224704, 36.773555075915944 ], [ 128.984660962967553, 36.772563409762832 ], [ 128.9837571691221, 36.763553981955525 ], [ 128.992013680629981, 36.755994624927297 ], [ 128.989686123084795, 36.750463622573058 ], [ 128.99169669694723, 36.747835812634477 ], [ 128.990259755902315, 36.747413152892733 ], [ 128.985362226746844, 36.748261746144898 ], [ 128.982100822980897, 36.746488144639848 ], [ 128.977215097013925, 36.746915187543316 ], [ 128.963930382399809, 36.751993480429825 ], [ 128.956792735931657, 36.768138071790304 ], [ 128.952518535681889, 36.771331540626846 ], [ 128.94225137187459, 36.773602446303691 ], [ 128.941004246081889, 36.782736992434245 ], [ 128.933385567221251, 36.788465710633169 ], [ 128.925661590262649, 36.791645228907477 ], [ 128.928981586181266, 36.801454624585766 ], [ 128.935617311182483, 36.802733892989266 ], [ 128.940421988566868, 36.811037009490661 ], [ 128.938264335133084, 36.812547728524002 ], [ 128.937731835581076, 36.817129767180504 ], [ 128.93466097284508, 36.817589959789835 ], [ 128.933514225162753, 36.820985506406394 ], [ 128.929397134770056, 36.822633650300247 ], [ 128.930470897492683, 36.824833600499687 ], [ 128.928633998777656, 36.828934037280668 ], [ 128.931389665996534, 36.831162235942251 ], [ 128.938455455139263, 36.832584697536689 ], [ 128.940147187856667, 36.835287237851333 ], [ 128.936403215580015, 36.845948959600378 ], [ 128.926818601685795, 36.847809907658849 ], [ 128.923729384068309, 36.855164595808709 ], [ 128.926964574904304, 36.857000718106704 ], [ 128.928834274049677, 36.855373807882053 ], [ 128.93157903987364, 36.855819127656424 ], [ 128.933318503030506, 36.858792995054394 ], [ 128.933185747648878, 36.865239557006021 ], [ 128.935912665788237, 36.867012279270568 ], [ 128.940267874335063, 36.867431837310527 ], [ 128.946798491483065, 36.865296332615436 ], [ 128.951141338508478, 36.865936444581322 ], [ 128.956154021498918, 36.869419938593332 ], [ 128.964230072772892, 36.869833501009161 ], [ 128.966916391260582, 36.872712521342045 ], [ 128.96757401570332, 36.879025369127461 ], [ 128.9726098963352, 36.877348546062947 ], [ 128.973161303612159, 36.872407729807193 ], [ 128.975999016548599, 36.869381257848296 ], [ 128.98116732622745, 36.873330243826217 ], [ 128.983547140662154, 36.872872501118472 ], [ 128.983010312494173, 36.871091411978789 ], [ 128.984277527833399, 36.870399876031797 ], [ 128.995935914368062, 36.873339827644266 ], [ 128.996632417816727, 36.869622846681722 ], [ 129.000041874580319, 36.870896357423092 ], [ 128.999708600399657, 36.869249852032929 ], [ 129.002759063640184, 36.867100509712941 ], [ 129.00606331641464, 36.868442630032042 ], [ 129.008852081898652, 36.86461879479387 ], [ 129.01834578044722, 36.86188229592134 ], [ 129.021528832793365, 36.859017618585419 ], [ 129.026672152185284, 36.859748386215593 ], [ 129.02668554068299, 36.857148247464856 ], [ 129.031521088122332, 36.855080798367517 ], [ 129.036548783914839, 36.855215497304989 ], [ 129.040671633028239, 36.85147475921417 ], [ 129.043463177945085, 36.852176699805575 ], [ 129.049222990220954, 36.858575857320723 ], [ 129.055151044523484, 36.860023628397791 ], [ 129.064866462512839, 36.85827274471152 ], [ 129.069595453321966, 36.854900275691087 ], [ 129.082117248644892, 36.850531820723475 ], [ 129.088925119786381, 36.850219275107314 ], [ 129.104752681551162, 36.854089722146171 ], [ 129.111278027339694, 36.851674591071017 ], [ 129.116556358891643, 36.843925825194503 ] ], [ [ 129.107074321289929, 36.852855980892741 ], [ 129.106040847021347, 36.853449852897512 ], [ 129.105746469968608, 36.853454959304905 ], [ 129.1057140260138, 36.853418249974219 ], [ 129.107074321289929, 36.852855980892741 ] ], [ [ 129.104708014147974, 36.854051914809716 ], [ 129.104817277564678, 36.853971468977953 ], [ 129.104718594415601, 36.854065016602348 ], [ 129.104708014147974, 36.854051914809716 ] ] ] ] } },
{ "type": "Feature", "properties": { "emd_cd": "47920370", "emd_nm": "명호면" }, "geometry": { "type": "MultiPolygon", "coordinates": [ [ [ [ 128.825757241876147, 36.847221733773189 ], [ 128.825604940015381, 36.851523314447668 ], [ 128.820642527272184, 36.857652042926517 ], [ 128.818314152719722, 36.856786984207751 ], [ 128.813112199057514, 36.858113648708034 ], [ 128.812174219223152, 36.860790189672535 ], [ 128.815924994770569, 36.864527371050102 ], [ 128.814994668241525, 36.866665160501121 ], [ 128.81931423327535, 36.867925562425405 ], [ 128.819751948366815, 36.871219301690097 ], [ 128.821815267917771, 36.872544452629 ], [ 128.828309013413445, 36.868176267113391 ], [ 128.832374244487511, 36.872055351394273 ], [ 128.832062279070641, 36.878485466402957 ], [ 128.829895349118942, 36.881504038948556 ], [ 128.831915496824706, 36.885801583392684 ], [ 128.830931957919518, 36.889184894670386 ], [ 128.835336125104703, 36.893762868333212 ], [ 128.84879523447637, 36.890282779709786 ], [ 128.849597856457223, 36.888205817573244 ], [ 128.855109712825168, 36.888918777116189 ], [ 128.859800837548903, 36.89208322390617 ], [ 128.862221272761332, 36.890164452459686 ], [ 128.86617879241021, 36.891364891388108 ], [ 128.867084912138893, 36.889372027846562 ], [ 128.872937831640883, 36.886288756100605 ], [ 128.876460124191993, 36.891587397462906 ], [ 128.87380012805238, 36.897750937410215 ], [ 128.877173226613053, 36.900227676085819 ], [ 128.88312525585448, 36.896810419213409 ], [ 128.882182860613511, 36.894626555218217 ], [ 128.884441926393038, 36.89251912053728 ], [ 128.883108906495522, 36.88959862123928 ], [ 128.892791502348899, 36.884955665188933 ], [ 128.902069362789604, 36.892470352829378 ], [ 128.906317943856322, 36.890013723142978 ], [ 128.906329816301167, 36.892116612275828 ], [ 128.909199668701945, 36.890340344663606 ], [ 128.907399854153624, 36.885471967520012 ], [ 128.916003164224094, 36.889662919599246 ], [ 128.922358376968361, 36.882843666272208 ], [ 128.925752901824467, 36.884224921297644 ], [ 128.930218322764034, 36.896048021032911 ], [ 128.939585794841435, 36.89774509815399 ], [ 128.94263164326361, 36.894873965056057 ], [ 128.942114729855916, 36.891150646147388 ], [ 128.947099184912446, 36.888615446678109 ], [ 128.951992572240982, 36.889413332371063 ], [ 128.951416906456842, 36.88354697252344 ], [ 128.95558427231353, 36.876695868251709 ], [ 128.966071509799463, 36.871085046719472 ], [ 128.963080854691526, 36.869421811751536 ], [ 128.956154021498918, 36.869419938593332 ], [ 128.951141338508478, 36.865936444581322 ], [ 128.946798491483065, 36.865296332615436 ], [ 128.940267874335063, 36.867431837310527 ], [ 128.935912665788237, 36.867012279270568 ], [ 128.933185747648878, 36.865239557006021 ], [ 128.933318503030506, 36.858792995054394 ], [ 128.93157903987364, 36.855819127656424 ], [ 128.928834274049677, 36.855373807882053 ], [ 128.926964574904304, 36.857000718106704 ], [ 128.923729384068309, 36.855164595808709 ], [ 128.926818601685795, 36.847809907658849 ], [ 128.936403215580015, 36.845948959600378 ], [ 128.940147187856667, 36.835287237851333 ], [ 128.938455455139263, 36.832584697536689 ], [ 128.931389665996534, 36.831162235942251 ], [ 128.928633998777656, 36.828934037280668 ], [ 128.930470897492683, 36.824833600499687 ], [ 128.929397134770056, 36.822633650300247 ], [ 128.933514225162753, 36.820985506406394 ], [ 128.93466097284508, 36.817589959789835 ], [ 128.937731835581076, 36.817129767180504 ], [ 128.938264335133084, 36.812547728524002 ], [ 128.940421988566868, 36.811037009490661 ], [ 128.935617311182483, 36.802733892989266 ], [ 128.928981586181266, 36.801454624585766 ], [ 128.925661590262649, 36.791645228907477 ], [ 128.933385567221251, 36.788465710633169 ], [ 128.941004246081889, 36.782736992434245 ], [ 128.94225137187459, 36.773602446303691 ], [ 128.930272344960684, 36.767613032180691 ], [ 128.924845426549552, 36.768980042995075 ], [ 128.919395703425693, 36.767014471503231 ], [ 128.912136329277814, 36.774067210675994 ], [ 128.904528231624766, 36.776287472900563 ], [ 128.896592375709787, 36.771863154947852 ], [ 128.890423631685081, 36.771787287380867 ], [ 128.884285818660999, 36.782966279002501 ], [ 128.87216149872873, 36.785989117565663 ], [ 128.871824760743721, 36.789410879814454 ], [ 128.864324618325924, 36.794380652816763 ], [ 128.862818920684248, 36.799351437889328 ], [ 128.842713975553835, 36.803415776746547 ], [ 128.840385490483953, 36.809044793778448 ], [ 128.842499532942696, 36.8120666621273 ], [ 128.840543196799757, 36.8181144807197 ], [ 128.841159644212041, 36.820855612088906 ], [ 128.837919567582134, 36.823699962265991 ], [ 128.825023674729266, 36.827731128399932 ], [ 128.823396106695469, 36.830642042662973 ], [ 128.823490547432158, 36.832050063880743 ], [ 128.830131257136344, 36.833724008554292 ], [ 128.828909417910666, 36.839079100884135 ], [ 128.831327784743024, 36.839927358620031 ], [ 128.825757241876147, 36.847221733773189 ] ] ] ] } },
{ "type": "Feature", "properties": { "emd_cd": "47920380", "emd_nm": "상운면" }, "geometry": { "type": "MultiPolygon", "coordinates": [ [ [ [ 128.840385490483953, 36.809044793778448 ], [ 128.821546009467141, 36.810180448419018 ], [ 128.819122338756529, 36.802094200388638 ], [ 128.812161149829478, 36.795508027948046 ], [ 128.806679935430253, 36.800996821963402 ], [ 128.80497854851302, 36.804962921133665 ], [ 128.806509896587613, 36.808430944255768 ], [ 128.803267221679363, 36.811177572624445 ], [ 128.808911690973702, 36.816553420851783 ], [ 128.805377352312405, 36.818882527693795 ], [ 128.804754483731131, 36.822084682606345 ], [ 128.800729269827144, 36.822977569890732 ], [ 128.792915814422372, 36.813587080224004 ], [ 128.790734926510765, 36.814535619914274 ], [ 128.786105848291157, 36.812383971827401 ], [ 128.785096064082069, 36.810379896461498 ], [ 128.78193157355463, 36.809528104568109 ], [ 128.781544524307833, 36.807337743751212 ], [ 128.775899606913811, 36.804922881198287 ], [ 128.767954352826763, 36.806831816523982 ], [ 128.767176130361321, 36.80318080630385 ], [ 128.764578611117997, 36.801759115868229 ], [ 128.763043567818642, 36.802022694094909 ], [ 128.763152275570434, 36.806266534615325 ], [ 128.758622404423932, 36.810133321843807 ], [ 128.755892346959655, 36.809516208927299 ], [ 128.754373292847561, 36.807149613046491 ], [ 128.748315416499594, 36.809336608290025 ], [ 128.743128824087904, 36.797580559816048 ], [ 128.738240782598183, 36.799006742844945 ], [ 128.736195867890842, 36.802064033283713 ], [ 128.734316269609479, 36.799065430795466 ], [ 128.735331966678189, 36.795599762723079 ], [ 128.732740719098274, 36.7946357916652 ], [ 128.731004275781402, 36.790227767928528 ], [ 128.728282824233872, 36.790029550017081 ], [ 128.72760018907104, 36.792663370271633 ], [ 128.724417969340067, 36.793390689217112 ], [ 128.722350511364937, 36.798539928776535 ], [ 128.723275573147333, 36.800036766058916 ], [ 128.721211351829169, 36.800973690131691 ], [ 128.723519506176189, 36.802303882114693 ], [ 128.724660465828777, 36.808324487002132 ], [ 128.727594135590209, 36.811664231431394 ], [ 128.727551993104157, 36.818723615727656 ], [ 128.723437828630352, 36.81748062223447 ], [ 128.712980934969551, 36.822025814971141 ], [ 128.716375929002083, 36.824642165278163 ], [ 128.717230624070083, 36.830260250397799 ], [ 128.718415768326338, 36.829214234492163 ], [ 128.720876609012237, 36.831130451534975 ], [ 128.728223446723689, 36.830776751930706 ], [ 128.731418199932904, 36.836175307261932 ], [ 128.734921978731848, 36.836714502014829 ], [ 128.736632053153244, 36.839494589239877 ], [ 128.736193597045258, 36.843464001181701 ], [ 128.739078254237569, 36.847817782203684 ], [ 128.738390375311212, 36.850149759539008 ], [ 128.733189031441071, 36.853845396498656 ], [ 128.733476296539209, 36.855181333053146 ], [ 128.736470107729446, 36.858444567713747 ], [ 128.74794221878264, 36.86296450522142 ], [ 128.752554218632071, 36.861777833933502 ], [ 128.754174488886918, 36.869033187692864 ], [ 128.757237917226092, 36.872434960487496 ], [ 128.755536312425988, 36.876708921854359 ], [ 128.75767788112401, 36.878805932771243 ], [ 128.770285217955632, 36.878601376675689 ], [ 128.772873693653651, 36.883867934318715 ], [ 128.776126646212106, 36.885401948937655 ], [ 128.777551416669013, 36.883445217993057 ], [ 128.781860818512854, 36.882829668625305 ], [ 128.783390093099143, 36.887751464550568 ], [ 128.790488290344115, 36.890203507680951 ], [ 128.791918449085841, 36.884150810203657 ], [ 128.793662746111465, 36.883371148690657 ], [ 128.793476830307014, 36.880054676500791 ], [ 128.789865123983816, 36.875696876204259 ], [ 128.789825620861507, 36.872729405243959 ], [ 128.778902355621028, 36.868878097253543 ], [ 128.779787191961958, 36.86462196167632 ], [ 128.785874510756713, 36.860166231766776 ], [ 128.791194435100778, 36.866357294961411 ], [ 128.797657442431074, 36.864232444975052 ], [ 128.799212029035374, 36.861976748079897 ], [ 128.796960195588127, 36.859918495323043 ], [ 128.79805238672418, 36.857982301021003 ], [ 128.796971463056821, 36.853947291047049 ], [ 128.798474152419402, 36.852406287654361 ], [ 128.797516423992022, 36.850782348730199 ], [ 128.803240932220518, 36.850650614913143 ], [ 128.803529512034004, 36.848926998689535 ], [ 128.813199918750627, 36.842341505000675 ], [ 128.818370741181496, 36.847335540738783 ], [ 128.825757241876147, 36.847221733773189 ], [ 128.831327784743024, 36.839927358620031 ], [ 128.828909417910666, 36.839079100884135 ], [ 128.830131257136344, 36.833724008554292 ], [ 128.823490547432158, 36.832050063880743 ], [ 128.823396106695469, 36.830642042662973 ], [ 128.825023674729266, 36.827731128399932 ], [ 128.837919567582134, 36.823699962265991 ], [ 128.841159644212041, 36.820855612088906 ], [ 128.840543196799757, 36.8181144807197 ], [ 128.842499532942696, 36.8120666621273 ], [ 128.840385490483953, 36.809044793778448 ] ] ] ] } },
{ "type": "Feature", "properties": { "emd_cd": "47920390", "emd_nm": "석포면" }, "geometry": { "type": "MultiPolygon", "coordinates": [ [ [ [ 128.91041633775933, 37.066134830236713 ], [ 128.910174688269052, 37.070196971951376 ], [ 128.916929899237601, 37.07869537011431 ], [ 128.91504763011892, 37.083729525329915 ], [ 128.921775924550275, 37.091432025715292 ], [ 128.932034070875034, 37.090855743598013 ], [ 128.945662898960762, 37.09377789764627 ], [ 128.95364777676977, 37.084843362724691 ], [ 128.953258009067241, 37.081729454101911 ], [ 128.954929456056561, 37.079487788932838 ], [ 128.959315332296057, 37.07747589418932 ], [ 128.969986895496334, 37.079822932088192 ], [ 128.971798252496598, 37.081514011673242 ], [ 128.97743717058205, 37.081454657525008 ], [ 128.983303997165166, 37.084556722186527 ], [ 128.988580302313522, 37.084332184896901 ], [ 128.991207867130328, 37.082172025346203 ], [ 129.009612378817451, 37.078683925084505 ], [ 129.015118004642318, 37.079682845459423 ], [ 129.020382678107779, 37.076694456794037 ], [ 129.024322980850371, 37.078524655060498 ], [ 129.030426769114428, 37.077307824350576 ], [ 129.032296933742487, 37.075219974594212 ], [ 129.036642598899988, 37.076297620725413 ], [ 129.041748717568879, 37.071056684409619 ], [ 129.048332440816864, 37.069986289636802 ], [ 129.05135937541192, 37.067687825463032 ], [ 129.053430375332965, 37.070193827746778 ], [ 129.057067007851884, 37.067899509029985 ], [ 129.056508959001121, 37.065189533881366 ], [ 129.059721187833134, 37.065256689392854 ], [ 129.062328881535365, 37.068260507988178 ], [ 129.064301135311069, 37.068066454131561 ], [ 129.067613428087412, 37.074593556620414 ], [ 129.065737295534433, 37.078785780072685 ], [ 129.070815808267781, 37.084015082480633 ], [ 129.070454780402372, 37.088404694577761 ], [ 129.076953729692946, 37.092989199467354 ], [ 129.091289775279989, 37.097249550645486 ], [ 129.096231783687756, 37.100382722530604 ], [ 129.10449620134284, 37.097704657048794 ], [ 129.107734883121026, 37.093476363912899 ], [ 129.122890855176081, 37.091276647251142 ], [ 129.122550568162751, 37.089936350155249 ], [ 129.126579882044354, 37.088935405754036 ], [ 129.127134508990338, 37.084451394358922 ], [ 129.133578214729624, 37.081782573539236 ], [ 129.139562050222736, 37.082317487941452 ], [ 129.144304441310908, 37.076667675724451 ], [ 129.148060852681681, 37.07624701896156 ], [ 129.155259520380497, 37.070203227519087 ], [ 129.157974414833973, 37.071253310436028 ], [ 129.161772915849525, 37.068825961501659 ], [ 129.166136108195758, 37.0691577957612 ], [ 129.166761962013112, 37.065261099112639 ], [ 129.170328811593151, 37.060345089160307 ], [ 129.177082009774352, 37.056636050082993 ], [ 129.183671489125345, 37.048860657375648 ], [ 129.185428981720264, 37.041146352841075 ], [ 129.182092479898529, 37.036243561226279 ], [ 129.177892960336777, 37.034577645629092 ], [ 129.176191622701367, 37.028474825312585 ], [ 129.169833940629957, 37.023710516502021 ], [ 129.159845206121588, 37.019704031625722 ], [ 129.154968249196287, 37.023411897791803 ], [ 129.147268731877915, 37.024958976644093 ], [ 129.145951968285431, 37.028141134439124 ], [ 129.139773990077373, 37.032775203837161 ], [ 129.135416336286255, 37.032817280183892 ], [ 129.133893022019805, 37.0343100447271 ], [ 129.13010737001332, 37.033468318728659 ], [ 129.126425789570902, 37.029814660626322 ], [ 129.121473107248477, 37.028488194554114 ], [ 129.118007299084439, 37.029345412566478 ], [ 129.114636743566336, 37.025520867382468 ], [ 129.106273866986299, 37.024962923752177 ], [ 129.103125762049189, 37.019144967017567 ], [ 129.094469378845588, 37.015755386218224 ], [ 129.08464506693997, 37.008831441150754 ], [ 129.087330665306666, 37.007148754957392 ], [ 129.090411196121039, 37.009227600776832 ], [ 129.094637679715674, 37.006865877924589 ], [ 129.089416501100288, 36.999241147171887 ], [ 129.090396713750209, 36.997840198894011 ], [ 129.088808822673371, 36.997212831484418 ], [ 129.088248580168226, 36.992323413888343 ], [ 129.077607434857129, 36.991782163342918 ], [ 129.07273161830966, 36.989754367381018 ], [ 129.054536253462231, 36.996286138516638 ], [ 129.044727568759242, 36.99642765530983 ], [ 129.042941273482711, 36.997822167671238 ], [ 129.042820747328079, 37.000654373597456 ], [ 129.039530176071537, 37.002307280647372 ], [ 129.040221846034655, 37.005570221232567 ], [ 129.034161478261467, 37.010960408260502 ], [ 129.035203606149025, 37.013883949919517 ], [ 129.02710676969204, 37.017542196627105 ], [ 129.027164728333304, 37.019742911646894 ], [ 129.023937485151919, 37.023948863596445 ], [ 129.017120026101679, 37.025256781690636 ], [ 129.013469205247333, 37.027739506513647 ], [ 129.006700904270275, 37.025600733281472 ], [ 129.001895058460519, 37.019377127456941 ], [ 128.999579748708413, 37.018790928208148 ], [ 128.993640935516567, 37.022297948018192 ], [ 128.990781824167414, 37.026509418042707 ], [ 128.98338302522447, 37.024392116101211 ], [ 128.976837854839147, 37.025274221316948 ], [ 128.973197547256575, 37.02766074539273 ], [ 128.971656158931552, 37.033857766212734 ], [ 128.966812216645508, 37.037912330235777 ], [ 128.968000608795819, 37.042057540014724 ], [ 128.962324782496268, 37.043301422164909 ], [ 128.956264384034938, 37.051424844194159 ], [ 128.943980750720129, 37.052639597524959 ], [ 128.943170361991434, 37.055001441330582 ], [ 128.93671595102532, 37.056850822036814 ], [ 128.934672062092829, 37.060385115031508 ], [ 128.931652381211535, 37.06164871634504 ], [ 128.921212679990873, 37.064551562850951 ], [ 128.914748965361213, 37.064131160806838 ], [ 128.91041633775933, 37.066134830236713 ] ] ] ] } }
]
}
