{
"type": "FeatureCollection",
"name": "47930",
"crs": { "type": "name", "properties": { "name": "urn:ogc:def:crs:OGC:1.3:CRS84" } },
"features": [
{ "type": "Feature", "properties": { "emd_cd": "47930250", "emd_nm": "울진읍" }, "geometry": { "type": "MultiPolygon", "coordinates": [ [ [ [ 129.279342685040916, 36.991328969635596 ], [ 129.288797839705126, 36.996574017877968 ], [ 129.289699950596685, 36.999273645952108 ], [ 129.29451670947978, 37.000861303949385 ], [ 129.291982700177272, 37.006315398374888 ], [ 129.299606405020739, 37.015541560270961 ], [ 129.299182935384778, 37.017398440709933 ], [ 129.303429771367433, 37.019158847534484 ], [ 129.303431393314696, 37.021593813139113 ], [ 129.306379354479105, 37.02277652650605 ], [ 129.304119306374673, 37.024474419610826 ], [ 129.306513859169968, 37.025014373520456 ], [ 129.306489015836036, 37.026772440643889 ], [ 129.309003624345479, 37.026901805851999 ], [ 129.30778419404902, 37.030130919203934 ], [ 129.309379479403162, 37.034033379699721 ], [ 129.320224819987857, 37.034183878794188 ], [ 129.324500704329637, 37.030718571219957 ], [ 129.327407971513054, 37.032861002064742 ], [ 129.329419541485123, 37.039443636812173 ], [ 129.333617742669958, 37.039580465703033 ], [ 129.33499087662716, 37.03817699753899 ], [ 129.338759724075118, 37.040000438668024 ], [ 129.344532496720063, 37.038603160725593 ], [ 129.350801358416021, 37.039649031711718 ], [ 129.357099791456505, 37.047105017783529 ], [ 129.358149524728248, 37.052422216866219 ], [ 129.361176534553181, 37.052754284842464 ], [ 129.365112131923382, 37.048383141518777 ], [ 129.371917834814383, 37.046093742804729 ], [ 129.373162921869607, 37.044831792607937 ], [ 129.371127154686775, 37.042534274078825 ], [ 129.372051512301709, 37.040597778182423 ], [ 129.378320719486254, 37.037799511370601 ], [ 129.380723861787203, 37.038399633170719 ], [ 129.3878070603852, 37.033545111706829 ], [ 129.39483675607039, 37.03318807561503 ], [ 129.399992754674628, 37.0301452670993 ], [ 129.404340145385845, 37.033228713154827 ], [ 129.406651740324691, 37.031005169337426 ], [ 129.408984707372866, 37.033447267605666 ], [ 129.412280327087956, 37.032842301821809 ], [ 129.409284281059882, 37.028807897038313 ], [ 129.409221771808376, 37.023214086637807 ], [ 129.415960357142922, 37.010746691783929 ], [ 129.417690796587124, 37.003866573541373 ], [ 129.41659560256204, 36.996383780338668 ], [ 129.418223415970374, 36.993069400378566 ], [ 129.411208276576019, 36.985546713112001 ], [ 129.411660613261887, 36.983955263370426 ], [ 129.410470159121985, 36.984721154614469 ], [ 129.407995875642143, 36.978012694360714 ], [ 129.402152963314848, 36.978691473451299 ], [ 129.392267469374588, 36.972998606900383 ], [ 129.388177360025082, 36.97464161736103 ], [ 129.381575898721792, 36.972842022004613 ], [ 129.377336387097785, 36.978077010135323 ], [ 129.368951835122004, 36.977377258584013 ], [ 129.362530977898359, 36.984788620961261 ], [ 129.346815561603279, 36.982917550152159 ], [ 129.334003502198613, 36.978774287414467 ], [ 129.32768102896776, 36.975080374657239 ], [ 129.325035801784651, 36.970573453000803 ], [ 129.326017575099456, 36.967475222932237 ], [ 129.33010686332392, 36.964043018620316 ], [ 129.323991939029099, 36.955897759726035 ], [ 129.31729895447998, 36.952973676367719 ], [ 129.315523654107096, 36.950002107626453 ], [ 129.311879757945405, 36.951153201690566 ], [ 129.307558308523141, 36.94969815174025 ], [ 129.301767567666531, 36.952852350871851 ], [ 129.296014340537852, 36.953678459230325 ], [ 129.288929977086354, 36.960804938280226 ], [ 129.283872031194988, 36.961666285698335 ], [ 129.28144894360122, 36.966474195894463 ], [ 129.279581047849717, 36.966587966677793 ], [ 129.277621567063733, 36.969238186136934 ], [ 129.271654751812235, 36.97017786793819 ], [ 129.272051065619138, 36.978014113933845 ], [ 129.273682444567982, 36.982476318798618 ], [ 129.278605467077881, 36.986742184237016 ], [ 129.279342685040916, 36.991328969635596 ] ] ] ] } },
{ "type": "Feature", "properties": { "emd_cd": "47930253", "emd_nm": "평해읍" }, "geometry": { "type": "MultiPolygon", "coordinates": [ [ [ [ 129.380261168985896, 36.750035830495321 ], [ 129.385696784314604, 36.758515395807621 ], [ 129.395201281768351, 36.759129368479186 ], [ 129.398059734553698, 36.762878599896297 ], [ 129.407889852046225, 36.757169137184462 ], [ 129.409854289632278, 36.758484912457142 ], [ 129.427852554668419, 36.755696137760211 ], [ 129.431716712993307, 36.756998656392497 ], [ 129.439233317362579, 36.755710469893046 ], [ 129.445697199390821, 36.752470288617616 ], [ 129.454628653576947, 36.753497486901473 ], [ 129.458262129239955, 36.752095370033864 ], [ 129.459399152391541, 36.747113532082018 ], [ 129.468837060444429, 36.747219110632386 ], [ 129.472620595960677, 36.738236511619689 ], [ 129.470111398644605, 36.736061546401828 ], [ 129.47085577266057, 36.733873534112831 ], [ 129.471848105270226, 36.73319533545012 ], [ 129.470683801723823, 36.735005355313803 ], [ 129.473085120226784, 36.735672182706963 ], [ 129.476076497492073, 36.733035851441464 ], [ 129.476718466552455, 36.72674962460588 ], [ 129.474766154378074, 36.723025439708778 ], [ 129.475331607357589, 36.725060418952026 ], [ 129.473107169056391, 36.724813608085995 ], [ 129.474147159500461, 36.723767403882789 ], [ 129.472328558053988, 36.724425653812162 ], [ 129.471506841455721, 36.721150572922454 ], [ 129.473216316012582, 36.71307410256216 ], [ 129.475217833344487, 36.710938126078048 ], [ 129.474077746985671, 36.707627114881696 ], [ 129.476004567146418, 36.69934468572486 ], [ 129.475104041593625, 36.697615114411931 ], [ 129.469203082289511, 36.695506566342573 ], [ 129.467096265502846, 36.690647073938869 ], [ 129.464389844181795, 36.692806334158888 ], [ 129.464219648165965, 36.696478685927694 ], [ 129.457863740531479, 36.696320335192361 ], [ 129.452873072678869, 36.700893275153554 ], [ 129.449407320286213, 36.698813390453481 ], [ 129.44162145271423, 36.698877325300359 ], [ 129.433927372010942, 36.702398976953567 ], [ 129.429426078262736, 36.699353243303854 ], [ 129.427264640952359, 36.700057878323292 ], [ 129.427711240362584, 36.70178638495279 ], [ 129.414675845596406, 36.704593801285569 ], [ 129.414579713404038, 36.708477145080124 ], [ 129.416212933211426, 36.708639119410158 ], [ 129.41622825718585, 36.710270352587102 ], [ 129.413450095286947, 36.71432865645351 ], [ 129.420112676017482, 36.716253521890465 ], [ 129.418196544636118, 36.728775895561917 ], [ 129.408818122532097, 36.729657033385386 ], [ 129.402816309459467, 36.734023820976262 ], [ 129.39999820454031, 36.734317094351319 ], [ 129.395582703698835, 36.739851015933489 ], [ 129.396459326602695, 36.741954940793008 ], [ 129.391848070544057, 36.742905938763705 ], [ 129.389870652265699, 36.747509399287388 ], [ 129.380261168985896, 36.750035830495321 ] ] ], [ [ [ 129.473317829540377, 36.735995397977703 ], [ 129.473152847288418, 36.73570585907656 ], [ 129.472915203009393, 36.735886328311622 ], [ 129.473317829540377, 36.735995397977703 ] ] ] ] } },
{ "type": "Feature", "properties": { "emd_cd": "47930310", "emd_nm": "북면" }, "geometry": { "type": "MultiPolygon", "coordinates": [ [ [ [ 129.225399026332212, 37.073749369258323 ], [ 129.240470711118405, 37.085066894246324 ], [ 129.249214028954697, 37.09626385708124 ], [ 129.25331376311189, 37.096909968841196 ], [ 129.259171615864602, 37.101134641783617 ], [ 129.265938038827528, 37.102370406732668 ], [ 129.270139080537007, 37.106959674235313 ], [ 129.268907231465931, 37.109855193829056 ], [ 129.271979616367304, 37.117042447550581 ], [ 129.27664770365763, 37.118636487044377 ], [ 129.281897118169212, 37.116152297345657 ], [ 129.285315155771457, 37.117252382470468 ], [ 129.294575714571891, 37.11437327534798 ], [ 129.295162180930134, 37.120333286040768 ], [ 129.297824773661091, 37.124505940661386 ], [ 129.303892737990395, 37.128444830334594 ], [ 129.309157438326821, 37.128234486694041 ], [ 129.311820578322795, 37.132342581971479 ], [ 129.314461974898876, 37.131535161747266 ], [ 129.31815406680829, 37.133077204378345 ], [ 129.3248324503042, 37.14227389718517 ], [ 129.33321269677117, 37.140742691523428 ], [ 129.334045999811707, 37.142672821810741 ], [ 129.336459072116781, 37.142004152460935 ], [ 129.338347812083441, 37.143450284385047 ], [ 129.339459858374767, 37.146855655518429 ], [ 129.340940016051604, 37.144654126531137 ], [ 129.34775416384241, 37.146478623758036 ], [ 129.356631229165117, 37.144835455526547 ], [ 129.363853227554785, 37.146007291432674 ], [ 129.366202038168012, 37.14064914339707 ], [ 129.371405710367412, 37.135183244140038 ], [ 129.374460232330534, 37.135266770610428 ], [ 129.373277800599169, 37.131250509810805 ], [ 129.370532381274217, 37.129939254501991 ], [ 129.372104183015324, 37.129004538673286 ], [ 129.370546237330728, 37.126535002463847 ], [ 129.373547001930405, 37.121686055058383 ], [ 129.378658846604594, 37.118182443560258 ], [ 129.375749498849871, 37.114234515457895 ], [ 129.375834331996344, 37.113624027137398 ], [ 129.377064585848132, 37.113467219157499 ], [ 129.377442224401307, 37.112740349869114 ], [ 129.374888045543884, 37.113614630212453 ], [ 129.373632673771226, 37.110391568970691 ], [ 129.376845113557721, 37.105187099022586 ], [ 129.375546102324535, 37.102141257825451 ], [ 129.371833231149537, 37.099660338129503 ], [ 129.381754655961771, 37.102608686324082 ], [ 129.383103740547028, 37.102411896459074 ], [ 129.385858601097084, 37.099959319786329 ], [ 129.381930212573877, 37.102470919601984 ], [ 129.378417809490742, 37.101022587684284 ], [ 129.379501680798285, 37.098949863590967 ], [ 129.382517106641558, 37.0963422985729 ], [ 129.383518621471438, 37.097088584166549 ], [ 129.381704604529972, 37.098981476878464 ], [ 129.381495376369742, 37.099558534773564 ], [ 129.381618134450662, 37.099780963413856 ], [ 129.382917244545183, 37.100248107448735 ], [ 129.381801908108201, 37.09915033809812 ], [ 129.38788673953087, 37.092811806772758 ], [ 129.391813958832557, 37.090913639709434 ], [ 129.39538150129161, 37.088484931945736 ], [ 129.38960127764264, 37.091029910718369 ], [ 129.395056865097501, 37.087331332048443 ], [ 129.392808715526343, 37.086495290798489 ], [ 129.39459713532176, 37.084514998002376 ], [ 129.403697829844418, 37.078047762976055 ], [ 129.399479919811, 37.073717742325876 ], [ 129.393494581914439, 37.07228392113123 ], [ 129.390401385529543, 37.063715279352564 ], [ 129.387834485735937, 37.064337847422827 ], [ 129.383067528899744, 37.069818820440361 ], [ 129.381531288927619, 37.068509510390939 ], [ 129.375293295766795, 37.069131229461583 ], [ 129.371709825142233, 37.064717158461484 ], [ 129.362547986185803, 37.065198827538644 ], [ 129.361308870275678, 37.05303154625782 ], [ 129.358149524728248, 37.052422216866219 ], [ 129.357099791456505, 37.047105017783529 ], [ 129.350801358416021, 37.039649031711718 ], [ 129.344532496720063, 37.038603160725593 ], [ 129.338759724075118, 37.040000438668024 ], [ 129.33499087662716, 37.03817699753899 ], [ 129.333617742669958, 37.039580465703033 ], [ 129.329419541485123, 37.039443636812173 ], [ 129.327407971513054, 37.032861002064742 ], [ 129.324500704329637, 37.030718571219957 ], [ 129.320224819987857, 37.034183878794188 ], [ 129.309379479403162, 37.034033379699721 ], [ 129.30778419404902, 37.030130919203934 ], [ 129.309003624345479, 37.026901805851999 ], [ 129.306489015836036, 37.026772440643889 ], [ 129.306513859169968, 37.025014373520456 ], [ 129.304119306374673, 37.024474419610826 ], [ 129.306379354479105, 37.02277652650605 ], [ 129.303431393314696, 37.021593813139113 ], [ 129.303429771367433, 37.019158847534484 ], [ 129.299182935384778, 37.017398440709933 ], [ 129.299606405020739, 37.015541560270961 ], [ 129.291982700177272, 37.006315398374888 ], [ 129.29451670947978, 37.000861303949385 ], [ 129.289699950596685, 36.999273645952108 ], [ 129.288797839705126, 36.996574017877968 ], [ 129.279342685040916, 36.991328969635596 ], [ 129.274890720690763, 36.992914924371028 ], [ 129.270346794181449, 36.999048992444436 ], [ 129.262622300818578, 36.99857820434049 ], [ 129.254768684298398, 37.003428290674044 ], [ 129.248521392467069, 37.004959358472007 ], [ 129.254183203197982, 37.012329883632383 ], [ 129.257335138554538, 37.013584983806886 ], [ 129.257059568487904, 37.018327429521257 ], [ 129.259567279185603, 37.024116031067138 ], [ 129.245089736415423, 37.024523375171107 ], [ 129.239585238722697, 37.026570252182943 ], [ 129.234743819849001, 37.031478594880603 ], [ 129.23884366429067, 37.039467279929028 ], [ 129.232606537987721, 37.044273839728866 ], [ 129.232012905419481, 37.054359634210741 ], [ 129.229547154753305, 37.054727051166388 ], [ 129.228550645043953, 37.057201973404702 ], [ 129.233084888983086, 37.063834085656161 ], [ 129.230481640292084, 37.067213237055803 ], [ 129.230847250197058, 37.068902070650346 ], [ 129.225399026332212, 37.073749369258323 ] ] ] ] } },
{ "type": "Feature", "properties": { "emd_cd": "47930330", "emd_nm": "근남면" }, "geometry": { "type": "MultiPolygon", "coordinates": [ [ [ [ 129.329034606974034, 36.89891273379714 ], [ 129.326139455493148, 36.899132866846671 ], [ 129.322710664221177, 36.90685459005136 ], [ 129.316647833462042, 36.911118105334587 ], [ 129.314257838552891, 36.91659031656134 ], [ 129.311581784975942, 36.916749704668462 ], [ 129.309258725132906, 36.91937548810828 ], [ 129.309514765699276, 36.92251725851191 ], [ 129.307740401523375, 36.925391303713155 ], [ 129.302737459662836, 36.927029876274403 ], [ 129.303102122415879, 36.928991872006613 ], [ 129.299495702035102, 36.93050544090881 ], [ 129.30126888568131, 36.934759913003084 ], [ 129.306918302492363, 36.937797181641017 ], [ 129.307526657822592, 36.940543916002078 ], [ 129.311104722010555, 36.943731293035803 ], [ 129.304127096601178, 36.94556196351666 ], [ 129.302296062576744, 36.952169175212433 ], [ 129.307558308514359, 36.949698151740485 ], [ 129.311879757936481, 36.951153201690794 ], [ 129.315523654098143, 36.950002107626659 ], [ 129.317298954471084, 36.952973676367975 ], [ 129.323991939019976, 36.955897759726312 ], [ 129.330106863314683, 36.964043018620593 ], [ 129.326017575090361, 36.967475222932478 ], [ 129.325035801775471, 36.970573453001023 ], [ 129.327681028958608, 36.975080374657445 ], [ 129.33400350218929, 36.978774287414673 ], [ 129.350451663340067, 36.983804704333487 ], [ 129.36418181293638, 36.984397344270981 ], [ 129.368565494382437, 36.977624095529677 ], [ 129.377336387087666, 36.978077010135614 ], [ 129.381575898711503, 36.972842022004905 ], [ 129.388177360014595, 36.974641617361272 ], [ 129.392267469363986, 36.972998606900688 ], [ 129.402152963304133, 36.978691473451661 ], [ 129.409134496420904, 36.976995840011902 ], [ 129.411614986797616, 36.971704617714515 ], [ 129.410498496877068, 36.968050493521638 ], [ 129.413289922010534, 36.968615028876805 ], [ 129.418377936749067, 36.954017268403682 ], [ 129.418016169783641, 36.947716872396278 ], [ 129.420827640743369, 36.940197421079155 ], [ 129.420464827800402, 36.936171319582556 ], [ 129.416964762564191, 36.930692207295941 ], [ 129.419553368547156, 36.922836099185041 ], [ 129.418403882953783, 36.919955262677263 ], [ 129.419950692037276, 36.919446245839197 ], [ 129.41863575115525, 36.917393699669361 ], [ 129.417882136096097, 36.918859439456796 ], [ 129.415500307695538, 36.916728053437247 ], [ 129.416383275510185, 36.912006327047031 ], [ 129.414604315163245, 36.911334721967648 ], [ 129.412814072244714, 36.914056878868884 ], [ 129.406181899660169, 36.916623672876213 ], [ 129.401265841397532, 36.921208138413817 ], [ 129.401990772418543, 36.924587511407609 ], [ 129.399648268212218, 36.932470411347261 ], [ 129.401345325479781, 36.935671061008136 ], [ 129.399567939236903, 36.937375287095826 ], [ 129.389410007398737, 36.942200296303227 ], [ 129.383607402557317, 36.938495131603929 ], [ 129.379015683492128, 36.938975825792888 ], [ 129.377378243666271, 36.943543555674651 ], [ 129.375577848304744, 36.943503068337392 ], [ 129.371988323115801, 36.937191340560716 ], [ 129.365760321350962, 36.932770047862 ], [ 129.366255946805552, 36.926069333720726 ], [ 129.363572263939886, 36.923318022580929 ], [ 129.363531389652621, 36.920027580319868 ], [ 129.353105492952579, 36.914407852715811 ], [ 129.349637648865496, 36.910827511495121 ], [ 129.339297429626583, 36.908728734018361 ], [ 129.338379653013277, 36.905486636663795 ], [ 129.329034606974034, 36.89891273379714 ] ] ] ] } },
{ "type": "Feature", "properties": { "emd_cd": "47930350", "emd_nm": "기성면" }, "geometry": { "type": "MultiPolygon", "coordinates": [ [ [ [ 129.472379792449829, 36.760979575185509 ], [ 129.473437389393524, 36.758871504976568 ], [ 129.472124091676051, 36.760736198324828 ], [ 129.469445352949634, 36.760487551283894 ], [ 129.467615105571497, 36.757830429820778 ], [ 129.467560718109951, 36.756239264481835 ], [ 129.46929878857074, 36.756256765271203 ], [ 129.46756599732467, 36.756191899744657 ], [ 129.468403846193723, 36.748281863761513 ], [ 129.460758748424382, 36.746699019383968 ], [ 129.45852727713924, 36.748381424597007 ], [ 129.458262129239898, 36.752095370033892 ], [ 129.455188540525114, 36.753357998056359 ], [ 129.445697199390821, 36.752470288617616 ], [ 129.439233317362579, 36.755710469893046 ], [ 129.431716712993278, 36.756998656392462 ], [ 129.4242560530177, 36.755905338415893 ], [ 129.409854289632278, 36.758484912457106 ], [ 129.408116266304802, 36.757119685927641 ], [ 129.398059734553641, 36.762878599896297 ], [ 129.395201281768351, 36.759129368479151 ], [ 129.387417879222625, 36.758840965382205 ], [ 129.384268547221865, 36.766734380571855 ], [ 129.390297811414456, 36.769021329474697 ], [ 129.387772848845373, 36.771669477516838 ], [ 129.385872817254835, 36.780396297663103 ], [ 129.378370789527196, 36.779846980796208 ], [ 129.3772909194752, 36.777557527017592 ], [ 129.366098827072221, 36.77210325038542 ], [ 129.36306582858839, 36.772129131538378 ], [ 129.362264167001086, 36.769753888115027 ], [ 129.351438829478212, 36.773422508263288 ], [ 129.34868876422513, 36.771645779779277 ], [ 129.338396431405528, 36.776745993191994 ], [ 129.338849107110434, 36.779564063176998 ], [ 129.335727378606009, 36.784183487526953 ], [ 129.3390703540733, 36.78636254339699 ], [ 129.34195082157575, 36.792166086069265 ], [ 129.344221093785052, 36.792658462722152 ], [ 129.343773316646434, 36.796897712001361 ], [ 129.346056434034978, 36.798710734900702 ], [ 129.347201658788549, 36.804927889911767 ], [ 129.35185557374686, 36.806668175398528 ], [ 129.358984030816572, 36.815476934366202 ], [ 129.363186348542541, 36.816455572657652 ], [ 129.363374614478317, 36.82063695514713 ], [ 129.359581503521468, 36.826457385390647 ], [ 129.358272563386407, 36.832544700656243 ], [ 129.359432941019293, 36.835589632484762 ], [ 129.366213690991259, 36.83866467028826 ], [ 129.361219500579949, 36.843739293151017 ], [ 129.36147069765434, 36.845163515598152 ], [ 129.363988803160424, 36.845997676530693 ], [ 129.365385250984417, 36.852996011837455 ], [ 129.368486069156859, 36.852890099073505 ], [ 129.373901561873026, 36.856216773364785 ], [ 129.374786550769358, 36.864156603691697 ], [ 129.379683012826632, 36.865073503600442 ], [ 129.382998307388959, 36.863506274044262 ], [ 129.393342826558836, 36.865760160876306 ], [ 129.401907928217639, 36.8650623501536 ], [ 129.404048851859557, 36.863384010096446 ], [ 129.406134949838616, 36.865322237900742 ], [ 129.410367690784426, 36.864048677948787 ], [ 129.416076099225791, 36.866652321862503 ], [ 129.416496362736041, 36.870177738748048 ], [ 129.420193037539633, 36.871066413426668 ], [ 129.42170437106563, 36.861999819068188 ], [ 129.428501070989824, 36.848641734717226 ], [ 129.43478475279494, 36.841038358415766 ], [ 129.443421048586856, 36.834817798275864 ], [ 129.445837573054405, 36.831017753782852 ], [ 129.445452572230437, 36.8287695819714 ], [ 129.448006706881159, 36.828023040144714 ], [ 129.452490448141191, 36.824280217497645 ], [ 129.448027242930436, 36.82788238321794 ], [ 129.44520849863315, 36.827794390912452 ], [ 129.443374501598697, 36.827174490578649 ], [ 129.445241089823838, 36.82759749717701 ], [ 129.448953418395035, 36.822780946304242 ], [ 129.450941577611815, 36.824126362451338 ], [ 129.450541334086552, 36.823369016994363 ], [ 129.448952775578789, 36.822670528463149 ], [ 129.448805033516408, 36.822787154418307 ], [ 129.456236593498829, 36.814702241971965 ], [ 129.4576159829804, 36.804586917959689 ], [ 129.459621385626747, 36.80365717090725 ], [ 129.460446264803068, 36.803111412588947 ], [ 129.458138086649768, 36.804278712450085 ], [ 129.457516361595253, 36.802694597174323 ], [ 129.46000806496798, 36.79700780757036 ], [ 129.462543123092445, 36.796150993438978 ], [ 129.461714837983607, 36.788638352883169 ], [ 129.466806140961324, 36.783262504166778 ], [ 129.466724867558383, 36.782608460466882 ], [ 129.465037742881378, 36.782318980417244 ], [ 129.464046643291454, 36.781260700907474 ], [ 129.467038330500912, 36.782540922187373 ], [ 129.468987426684549, 36.781323334380687 ], [ 129.472040674342026, 36.774579518451148 ], [ 129.478704352361149, 36.767615768068097 ], [ 129.472379792449829, 36.760979575185509 ] ] ] ] } },
{ "type": "Feature", "properties": { "emd_cd": "47930360", "emd_nm": "온정면" }, "geometry": { "type": "MultiPolygon", "coordinates": [ [ [ [ 129.414244173079425, 36.706283726009865 ], [ 129.409309867459541, 36.705774370795268 ], [ 129.409077569705659, 36.700674881761607 ], [ 129.411901312908071, 36.698084170719561 ], [ 129.411495074303929, 36.694301450330933 ], [ 129.409034182623003, 36.691500730233422 ], [ 129.406756287183271, 36.692116416037159 ], [ 129.403754096195343, 36.690322081787002 ], [ 129.404816275457705, 36.684366606751119 ], [ 129.399127674090181, 36.676034419360036 ], [ 129.397651805686081, 36.666007516264003 ], [ 129.392381761708492, 36.666311908134141 ], [ 129.388832759930381, 36.664493000239325 ], [ 129.383533310895103, 36.668837625483803 ], [ 129.373968503621171, 36.664605120036242 ], [ 129.3728374206664, 36.662434099560379 ], [ 129.366550488583982, 36.663013581342675 ], [ 129.364794292560504, 36.660861807196909 ], [ 129.36150297326995, 36.660438116798112 ], [ 129.357268828389266, 36.65285812321536 ], [ 129.354285787322965, 36.650933875551416 ], [ 129.348989463209477, 36.656791729585365 ], [ 129.330015007198654, 36.66150368824465 ], [ 129.327260735275331, 36.666662353579873 ], [ 129.317447309517462, 36.665575100241973 ], [ 129.310406119880582, 36.66830996125988 ], [ 129.298204807072807, 36.668951402517891 ], [ 129.294162321427223, 36.671364853435527 ], [ 129.285357377153815, 36.668009032424358 ], [ 129.279902384742428, 36.671037969310838 ], [ 129.275362542214253, 36.670519931800811 ], [ 129.269018628940387, 36.673690580443193 ], [ 129.271422138033188, 36.676983411783091 ], [ 129.275185873371981, 36.677878638851134 ], [ 129.278524086515603, 36.681509273469572 ], [ 129.276275108259341, 36.691598913203677 ], [ 129.280486257406778, 36.692820943577587 ], [ 129.282652220299127, 36.695195652764141 ], [ 129.282183068117718, 36.698961853032223 ], [ 129.284742300749912, 36.69959555098562 ], [ 129.286670478150228, 36.703890924540907 ], [ 129.286232839741928, 36.708287454403013 ], [ 129.289005431125673, 36.709735753522189 ], [ 129.292286736122406, 36.71723215832629 ], [ 129.295074039024541, 36.718675717495501 ], [ 129.28777560960043, 36.718846087607631 ], [ 129.280903883596352, 36.723263806778647 ], [ 129.27533515663373, 36.723033166872426 ], [ 129.272033371017443, 36.725200834766028 ], [ 129.270503508117969, 36.727712610262799 ], [ 129.272934418814401, 36.74069389295007 ], [ 129.271715556745164, 36.744762225907159 ], [ 129.276959485347476, 36.746425723020273 ], [ 129.285210057887014, 36.752113908099659 ], [ 129.295063911360415, 36.75348050274355 ], [ 129.297667184575715, 36.756463855140062 ], [ 129.296597063413628, 36.767996404570276 ], [ 129.302947984916131, 36.776325100353496 ], [ 129.305584635611865, 36.776829399202825 ], [ 129.310807216697242, 36.773800426844581 ], [ 129.313118519594724, 36.779808606484025 ], [ 129.320776114059981, 36.784394862399893 ], [ 129.326617046202017, 36.784310378786635 ], [ 129.328549794815416, 36.782606695932984 ], [ 129.335727378606009, 36.784183487526953 ], [ 129.338849107110434, 36.779564063176998 ], [ 129.338396431405528, 36.776745993191994 ], [ 129.34868876422513, 36.771645779779277 ], [ 129.351438829478212, 36.773422508263288 ], [ 129.360496576005602, 36.769697977325166 ], [ 129.362264167001086, 36.769753888115027 ], [ 129.36306582858839, 36.772129131538378 ], [ 129.366098827072221, 36.77210325038542 ], [ 129.3772909194752, 36.777557527017592 ], [ 129.378370789527196, 36.779846980796208 ], [ 129.386208769161527, 36.780216540837664 ], [ 129.387772848845373, 36.771669477516838 ], [ 129.390297811414456, 36.769021329474697 ], [ 129.384268547221865, 36.766734380571855 ], [ 129.387417879222625, 36.758840965382205 ], [ 129.382396247107295, 36.754565817781483 ], [ 129.37984244236128, 36.749245087684663 ], [ 129.389870652265756, 36.747509399287374 ], [ 129.391848070544114, 36.742905938763741 ], [ 129.396459326602695, 36.741954940792972 ], [ 129.395582703698807, 36.739851015933517 ], [ 129.398582404730547, 36.73531603052043 ], [ 129.402816309459467, 36.734023820976304 ], [ 129.404584223617462, 36.731838303303434 ], [ 129.406923277921891, 36.731784726811597 ], [ 129.408818122532097, 36.729657033385358 ], [ 129.418196544636061, 36.728775895561895 ], [ 129.420112676017425, 36.716253521890472 ], [ 129.413450095287004, 36.71432865645351 ], [ 129.416228257185907, 36.710270352587067 ], [ 129.414244173079425, 36.706283726009865 ] ] ] ] } },
{ "type": "Feature", "properties": { "emd_cd": "47930370", "emd_nm": "죽변면" }, "geometry": { "type": "MultiPolygon", "coordinates": [ [ [ [ 129.361176534543404, 37.052754284842763 ], [ 129.362561730302474, 37.055805798707468 ], [ 129.361332221719607, 37.05986806401765 ], [ 129.36254798617594, 37.065198827538936 ], [ 129.371709825132115, 37.064717158461796 ], [ 129.375293295756677, 37.069131229461867 ], [ 129.381531288917159, 37.068509510391237 ], [ 129.383067528889512, 37.069818820440659 ], [ 129.387834485725506, 37.064337847423097 ], [ 129.39040138551897, 37.063715279352941 ], [ 129.393494581903781, 37.072283921131543 ], [ 129.399479919800342, 37.073717742326203 ], [ 129.403438936295998, 37.077842622561185 ], [ 129.4167722681008, 37.070014863109662 ], [ 129.416611834157521, 37.068604347885866 ], [ 129.418088223516776, 37.069604763469847 ], [ 129.42189035678345, 37.06621276558932 ], [ 129.426132970162769, 37.064911140478493 ], [ 129.425138820746099, 37.064403830009773 ], [ 129.427012381729241, 37.063661796915738 ], [ 129.427542785107306, 37.059695229171709 ], [ 129.429990826377264, 37.05819547317401 ], [ 129.428474376610637, 37.055603425668593 ], [ 129.420520125053031, 37.052790882623533 ], [ 129.426181948334801, 37.055702048015156 ], [ 129.424384361007128, 37.058066977646519 ], [ 129.421801000471561, 37.058318678247922 ], [ 129.418073920566286, 37.057048163105662 ], [ 129.420307768339029, 37.054788898204265 ], [ 129.418777897533317, 37.056198511583403 ], [ 129.414831837156413, 37.053581036023076 ], [ 129.412420912935971, 37.044474623521573 ], [ 129.41462835429445, 37.043964849919782 ], [ 129.415111828855345, 37.04271677893351 ], [ 129.413077301007775, 37.044314202957587 ], [ 129.41408633471616, 37.038867085665117 ], [ 129.415624307397763, 37.039996572985956 ], [ 129.415964823665036, 37.039637688836251 ], [ 129.416204636860812, 37.038751799060115 ], [ 129.414101138257337, 37.038833920093253 ], [ 129.416646793723629, 37.034371729748237 ], [ 129.415652631498432, 37.032907432293037 ], [ 129.408984707361981, 37.033447267605993 ], [ 129.406651740313805, 37.031005169337732 ], [ 129.404340145375102, 37.033228713155147 ], [ 129.39999275466397, 37.03014526709962 ], [ 129.394836756059874, 37.033188075615357 ], [ 129.387807060374769, 37.033545111707134 ], [ 129.380723861776858, 37.038399633171011 ], [ 129.378320719475937, 37.037799511370899 ], [ 129.372051512291563, 37.040597778182644 ], [ 129.371127154676799, 37.042534274079188 ], [ 129.373162921859489, 37.044831792608264 ], [ 129.369738987780579, 37.047520133107099 ], [ 129.364788423313627, 37.0485885304264 ], [ 129.361176534543404, 37.052754284842763 ] ] ] ] } },
{ "type": "Feature", "properties": { "emd_cd": "47930380", "emd_nm": "후포면" }, "geometry": { "type": "MultiPolygon", "coordinates": [ [ [ [ 129.452763864299953, 36.67796513279864 ], [ 129.449341644091078, 36.67643057078444 ], [ 129.453148844091572, 36.675163486297599 ], [ 129.450182798605283, 36.675210580173506 ], [ 129.448020340623003, 36.678188945037569 ], [ 129.442509411229793, 36.676677796065938 ], [ 129.434548724341681, 36.666758735819919 ], [ 129.43302949336092, 36.662680877889294 ], [ 129.433998408611217, 36.660864444186053 ], [ 129.432959265278498, 36.662070172588614 ], [ 129.430790098863127, 36.65927613720136 ], [ 129.428408254476324, 36.64969704025404 ], [ 129.423063154039625, 36.643531152969182 ], [ 129.418594891422174, 36.646393133554405 ], [ 129.41922580707211, 36.650595995798696 ], [ 129.411223880001984, 36.652749986160494 ], [ 129.4067921382142, 36.659209820682442 ], [ 129.396889824761359, 36.661173026171198 ], [ 129.395912127445598, 36.662886975211975 ], [ 129.399127674090153, 36.676034419360001 ], [ 129.404816275457705, 36.68436660675107 ], [ 129.403754096195343, 36.690322081786967 ], [ 129.406756287183271, 36.692116416037159 ], [ 129.409034182622946, 36.691500730233365 ], [ 129.411495074303929, 36.694301450330933 ], [ 129.4119013129081, 36.698084170719511 ], [ 129.409077569705659, 36.700674881761607 ], [ 129.40981679371265, 36.706092213654493 ], [ 129.414244173079453, 36.706283726009914 ], [ 129.414675845596406, 36.704593801285569 ], [ 129.418892174250658, 36.70309448101191 ], [ 129.427711240362584, 36.70178638495279 ], [ 129.427264640952359, 36.700057878323292 ], [ 129.429426078262736, 36.699353243303854 ], [ 129.433927372010942, 36.702398976953567 ], [ 129.44162145271423, 36.698877325300359 ], [ 129.449407320286213, 36.698813390453481 ], [ 129.452873072678869, 36.700893275153554 ], [ 129.457863740531479, 36.696320335192361 ], [ 129.464219648165965, 36.696478685927694 ], [ 129.464389844181795, 36.692806334158888 ], [ 129.467755645054922, 36.690642123947434 ], [ 129.467679752104374, 36.688659138720595 ], [ 129.470216291469029, 36.686244609008412 ], [ 129.465499078369305, 36.688428112387491 ], [ 129.464705866354677, 36.685207305977613 ], [ 129.468115965482212, 36.684833492149743 ], [ 129.464359046430587, 36.684943456101365 ], [ 129.465970252905038, 36.679921010548185 ], [ 129.459289381255189, 36.676060947038074 ], [ 129.457767609424479, 36.674649400904975 ], [ 129.456666206337388, 36.671915586282609 ], [ 129.456011131023246, 36.671565940004264 ], [ 129.457668621926672, 36.674684310930317 ], [ 129.459360243228758, 36.676201221924892 ], [ 129.459138773995875, 36.676513021778455 ], [ 129.461842237819241, 36.677769591381171 ], [ 129.459020520453947, 36.681773629851044 ], [ 129.452222326248545, 36.678886692802379 ], [ 129.455082368417663, 36.674758006109819 ], [ 129.452763864299953, 36.67796513279864 ] ] ] ] } },
{ "type": "Feature", "properties": { "emd_cd": "47930390", "emd_nm": "금강송면" }, "geometry": { "type": "MultiPolygon", "coordinates": [ [ [ [ 129.084791991796891, 36.952744616883564 ], [ 129.083093613613499, 36.955765270875972 ], [ 129.079641947222541, 36.955252758362789 ], [ 129.077832382755247, 36.957977637761097 ], [ 129.083016382969163, 36.96337737791945 ], [ 129.09044471866045, 36.961168451338779 ], [ 129.092540295849432, 36.964771189821398 ], [ 129.093068078781329, 36.971417813989788 ], [ 129.095215202902921, 36.973964339380146 ], [ 129.095114586483305, 36.977915274384593 ], [ 129.09179259837714, 36.97936689948267 ], [ 129.092527934483599, 36.981796385683694 ], [ 129.090710234423938, 36.985633034513043 ], [ 129.093535220943636, 36.988457217364051 ], [ 129.093095984758918, 36.996548625592951 ], [ 129.089445997113899, 36.999187817663206 ], [ 129.094650525060786, 37.006868553048463 ], [ 129.09039971777338, 37.009221896560888 ], [ 129.08734274269662, 37.007138113540513 ], [ 129.084704159180831, 37.00876264775021 ], [ 129.094588469282058, 37.015684684759535 ], [ 129.103255967187977, 37.019094007917133 ], [ 129.106724774670738, 37.023546688218332 ], [ 129.106292084998188, 37.024996445569052 ], [ 129.114611073177912, 37.025511637841767 ], [ 129.11797665514456, 37.029303894249075 ], [ 129.121460053176037, 37.028484333142551 ], [ 129.126382966370358, 37.029798837833162 ], [ 129.130057018463191, 37.0333886645844 ], [ 129.133856918366206, 37.034256759654809 ], [ 129.13540023807704, 37.032770388614182 ], [ 129.139756263638589, 37.032718186724438 ], [ 129.145992544910712, 37.028161836713309 ], [ 129.14729608199039, 37.024992507967958 ], [ 129.155016842171051, 37.02346243913977 ], [ 129.159907660381691, 37.019778557074886 ], [ 129.169819397636587, 37.023704887408933 ], [ 129.176177980077455, 37.028470358060687 ], [ 129.177886434156932, 37.034584215117434 ], [ 129.183919148610755, 37.037930344438465 ], [ 129.18535200013244, 37.041702900058787 ], [ 129.194754969458899, 37.040645584776506 ], [ 129.195928041116218, 37.042498608127524 ], [ 129.205087704083695, 37.044989990676186 ], [ 129.213428057813189, 37.042978278903469 ], [ 129.225319250990225, 37.044621888865059 ], [ 129.237277108464298, 37.03982748717911 ], [ 129.234689882879053, 37.03170255354739 ], [ 129.239809189842219, 37.026420963941675 ], [ 129.24668227853968, 37.024294693119586 ], [ 129.259567279185603, 37.024116031067138 ], [ 129.257059568487904, 37.018327429521257 ], [ 129.257335138554538, 37.013584983806886 ], [ 129.254183203197982, 37.012329883632383 ], [ 129.248521392467069, 37.004959358472007 ], [ 129.254768684298398, 37.003428290674044 ], [ 129.262622300818578, 36.99857820434049 ], [ 129.270346794181449, 36.999048992444436 ], [ 129.274890720690763, 36.992914924371028 ], [ 129.279342685040916, 36.991328969635596 ], [ 129.278605467077881, 36.986742184237016 ], [ 129.273682444567982, 36.982476318798618 ], [ 129.272051065619138, 36.978014113933845 ], [ 129.271654751812235, 36.97017786793819 ], [ 129.277621567063733, 36.969238186136934 ], [ 129.279581047849717, 36.966587966677793 ], [ 129.28144894360122, 36.966474195894463 ], [ 129.283872031194988, 36.961666285698335 ], [ 129.289776434442871, 36.96024196474918 ], [ 129.292875533027427, 36.955485964644076 ], [ 129.301767567666531, 36.952852350871851 ], [ 129.304127096609932, 36.945561963516397 ], [ 129.311104722019422, 36.943731293035597 ], [ 129.307526657831431, 36.940543916001772 ], [ 129.306918302501117, 36.93779718164069 ], [ 129.301268885689979, 36.934759913002864 ], [ 129.299495702043799, 36.930505440908547 ], [ 129.303102122424605, 36.928991872006364 ], [ 129.302737459671533, 36.927029876274155 ], [ 129.307740401532129, 36.925391303712949 ], [ 129.309514765708059, 36.922517258511697 ], [ 129.309258725141689, 36.919375488108017 ], [ 129.31158178498481, 36.916749704668256 ], [ 129.314257838561844, 36.916590316561063 ], [ 129.316647833470938, 36.911118105334275 ], [ 129.322710664230186, 36.906854590051125 ], [ 129.326139455502272, 36.899132866846386 ], [ 129.329034606983271, 36.898912733796841 ], [ 129.327486513750586, 36.890398759672166 ], [ 129.323425642532271, 36.887531543375417 ], [ 129.321981378947868, 36.876740834909199 ], [ 129.31773593576915, 36.873668347095794 ], [ 129.313666507299473, 36.872949076100603 ], [ 129.311545857303742, 36.869609592091066 ], [ 129.313634330708936, 36.866167268232871 ], [ 129.312706473682766, 36.864730565261951 ], [ 129.311075682006191, 36.863160388194004 ], [ 129.307080189844271, 36.862956104152907 ], [ 129.304725821838247, 36.859470538297089 ], [ 129.300455460235327, 36.857793676677062 ], [ 129.297547364647272, 36.852450945911599 ], [ 129.294009851412881, 36.850577331716636 ], [ 129.29412653550159, 36.848613871805846 ], [ 129.29925313119017, 36.843650663334557 ], [ 129.298303511580912, 36.839252728178899 ], [ 129.301457999366988, 36.835629851286811 ], [ 129.300872694677167, 36.829658918241577 ], [ 129.294027975535442, 36.824995778889885 ], [ 129.289633816274204, 36.829202062581111 ], [ 129.288390817145142, 36.833040343286257 ], [ 129.279200441289305, 36.832016680338 ], [ 129.272675197311344, 36.833491025452204 ], [ 129.271595720675265, 36.838280063882713 ], [ 129.273533538672325, 36.840124717222608 ], [ 129.270483323664251, 36.840704935386007 ], [ 129.277600664083877, 36.847309279022021 ], [ 129.275191120661503, 36.850226329298209 ], [ 129.275524107406142, 36.854304319130506 ], [ 129.277539782828342, 36.856596890546548 ], [ 129.275543752273819, 36.858761496831647 ], [ 129.280944391694788, 36.86135925110726 ], [ 129.278968195234796, 36.86431800082827 ], [ 129.28543865461836, 36.863681182489557 ], [ 129.278823980116698, 36.874357219661022 ], [ 129.275616339466779, 36.875304022593483 ], [ 129.27152688962039, 36.871665291407133 ], [ 129.267416355151823, 36.872949677492912 ], [ 129.261730218918416, 36.8707004556098 ], [ 129.261131961990912, 36.873397005926897 ], [ 129.263701020815176, 36.875759699583746 ], [ 129.26217245841454, 36.87714520268095 ], [ 129.25603970037821, 36.872094163292772 ], [ 129.254512391475799, 36.858954151692267 ], [ 129.252556553830715, 36.858686591080065 ], [ 129.24707379370679, 36.852377539914713 ], [ 129.240115597330515, 36.851924256762693 ], [ 129.236380048655434, 36.855222536461099 ], [ 129.233535772609031, 36.853121818037827 ], [ 129.226117948163306, 36.856204559928941 ], [ 129.232389704357729, 36.86314949845066 ], [ 129.222480592565375, 36.861671108435594 ], [ 129.217711033724783, 36.858363215638761 ], [ 129.215481886585508, 36.858688057349625 ], [ 129.214710041706979, 36.861555487897668 ], [ 129.211234705117789, 36.863684885979488 ], [ 129.208266687508967, 36.856869005285589 ], [ 129.205510380654971, 36.855895780222575 ], [ 129.200944203770007, 36.862118488953072 ], [ 129.200940720590324, 36.865089208759407 ], [ 129.195670687429953, 36.869681759897666 ], [ 129.195852572156355, 36.874789279985315 ], [ 129.191160192027922, 36.879811671727566 ], [ 129.181962916144073, 36.878451671911769 ], [ 129.179359501841247, 36.879963540336519 ], [ 129.175857024764241, 36.87952332865126 ], [ 129.174056191599988, 36.881427984824633 ], [ 129.168872051607963, 36.881499232012352 ], [ 129.165204538122254, 36.879176536318575 ], [ 129.165789671306584, 36.875418302111513 ], [ 129.159117614742058, 36.874746713659782 ], [ 129.155182777219665, 36.878073363074236 ], [ 129.156539431528472, 36.884357872765605 ], [ 129.155503552958578, 36.887857694286318 ], [ 129.147654716582451, 36.890252860851547 ], [ 129.149239357582985, 36.895929410628739 ], [ 129.144464546776788, 36.899131799798013 ], [ 129.148013713457544, 36.904381555090033 ], [ 129.147001114761707, 36.906683173756655 ], [ 129.148140153823419, 36.908180114295909 ], [ 129.144763599940319, 36.910058589527893 ], [ 129.14749001740509, 36.913387885283434 ], [ 129.144639700219187, 36.914649732693327 ], [ 129.141943906830107, 36.920447045686622 ], [ 129.13744977202569, 36.922819105996538 ], [ 129.136958029188833, 36.926775872463395 ], [ 129.12564098788539, 36.92983319860781 ], [ 129.123920059693944, 36.933002789058193 ], [ 129.118477161303304, 36.935472689171874 ], [ 129.110897921422691, 36.933796863014052 ], [ 129.104134227593846, 36.937952939539777 ], [ 129.108042358463052, 36.942583373011743 ], [ 129.104030603733321, 36.944922118154309 ], [ 129.100675822999222, 36.943553317951597 ], [ 129.096518675606575, 36.946070173930018 ], [ 129.091504207536161, 36.944539442835122 ], [ 129.088734931826423, 36.946602432922091 ], [ 129.084164819693825, 36.946078062627841 ], [ 129.088616301913646, 36.950616596163087 ], [ 129.087628683987077, 36.952771112948263 ], [ 129.084791991796891, 36.952744616883564 ] ] ] ] } },
{ "type": "Feature", "properties": { "emd_cd": "47930400", "emd_nm": "매화면" }, "geometry": { "type": "MultiPolygon", "coordinates": [ [ [ [ 129.287582646991837, 36.808661763742265 ], [ 129.290750404267698, 36.821233188193233 ], [ 129.301078858992099, 36.83010766886494 ], [ 129.301200982876793, 36.836782571026632 ], [ 129.298303511572385, 36.839252728179147 ], [ 129.29925313118153, 36.843650663334834 ], [ 129.293907361280333, 36.850357301952691 ], [ 129.299708138838668, 36.854526904238824 ], [ 129.300455460226715, 36.857793676677232 ], [ 129.307357653662564, 36.861768686149638 ], [ 129.307080189835517, 36.86295610415317 ], [ 129.311075681997494, 36.863160388194373 ], [ 129.312706473673927, 36.864730565262207 ], [ 129.313634330699983, 36.866167268233227 ], [ 129.311318244059208, 36.868573559641121 ], [ 129.313666507290634, 36.872949076100852 ], [ 129.317735935760197, 36.873668347095979 ], [ 129.321981378938773, 36.876740834909469 ], [ 129.323425642523091, 36.887531543375673 ], [ 129.327486513741405, 36.890398759672422 ], [ 129.329034606974091, 36.89891273379714 ], [ 129.338379653013305, 36.905486636663795 ], [ 129.339297429626555, 36.908728734018332 ], [ 129.349637648865524, 36.910827511495121 ], [ 129.353105492952523, 36.914407852715854 ], [ 129.36353138965265, 36.920027580319918 ], [ 129.363572263939943, 36.923318022580936 ], [ 129.366255946805552, 36.926069333720697 ], [ 129.365760321350962, 36.932770047862 ], [ 129.371988323115744, 36.937191340560751 ], [ 129.37480140912362, 36.943346308440404 ], [ 129.377378243666271, 36.943543555674651 ], [ 129.379015683492071, 36.938975825792916 ], [ 129.383607402557317, 36.938495131603908 ], [ 129.389410007398823, 36.942200296303227 ], [ 129.399609235899902, 36.937342799926391 ], [ 129.401345325479753, 36.935671061008115 ], [ 129.399648268212275, 36.932470411347197 ], [ 129.401990772418543, 36.924587511407552 ], [ 129.401265841397475, 36.921208138413796 ], [ 129.406181899660169, 36.916623672876213 ], [ 129.412814072244657, 36.914056878868905 ], [ 129.414604315163331, 36.911334721967648 ], [ 129.416405255196281, 36.912005763707633 ], [ 129.415458212945026, 36.90834010758627 ], [ 129.420348931688324, 36.897778180449627 ], [ 129.418667590778824, 36.894015521050392 ], [ 129.419418908249071, 36.891353875458201 ], [ 129.420228469640591, 36.891380220825624 ], [ 129.421550244852767, 36.889652480879114 ], [ 129.421778720949874, 36.888998962101283 ], [ 129.419391744039075, 36.891229558013038 ], [ 129.418615700359425, 36.893507634952485 ], [ 129.414757921404828, 36.890391109374029 ], [ 129.415233541319992, 36.888846460774104 ], [ 129.420053274642356, 36.889841521312128 ], [ 129.415167827867549, 36.88838724342326 ], [ 129.420615545185399, 36.87652545959245 ], [ 129.420225639835792, 36.873959659438391 ], [ 129.421720025069476, 36.873113669471621 ], [ 129.420193037539633, 36.871066413426668 ], [ 129.416496362736041, 36.870177738748048 ], [ 129.416076099225847, 36.866652321862539 ], [ 129.410367690784398, 36.864048677948787 ], [ 129.406134949838645, 36.865322237900742 ], [ 129.404048851859471, 36.863384010096446 ], [ 129.401907928217668, 36.865062350153572 ], [ 129.393342826558836, 36.865760160876256 ], [ 129.382998307388959, 36.863506274044219 ], [ 129.379683012826632, 36.865073503600442 ], [ 129.374261681626194, 36.863630075877879 ], [ 129.375568118539462, 36.862157399325191 ], [ 129.373871062767819, 36.860828543582336 ], [ 129.373901561873083, 36.856216773364821 ], [ 129.368486069156859, 36.85289009907347 ], [ 129.365385250984417, 36.852996011837455 ], [ 129.363988803160424, 36.845997676530658 ], [ 129.36147069765434, 36.845163515598109 ], [ 129.361219500579949, 36.843739293151017 ], [ 129.366213690991202, 36.83866467028826 ], [ 129.359432941019293, 36.835589632484762 ], [ 129.358272563386407, 36.832544700656243 ], [ 129.359581503521554, 36.826457385390633 ], [ 129.363374614478374, 36.820636955147151 ], [ 129.363186348542598, 36.816455572657638 ], [ 129.358984030816657, 36.815476934366231 ], [ 129.351855573746889, 36.80666817539857 ], [ 129.347688559020582, 36.805509873802016 ], [ 129.346056434034978, 36.798710734900752 ], [ 129.343773316646434, 36.796897712001325 ], [ 129.3440571770264, 36.79236604021218 ], [ 129.34195082157575, 36.792166086069265 ], [ 129.339070354073357, 36.786362543397033 ], [ 129.335641328101417, 36.784136574432836 ], [ 129.328549794815359, 36.782606695932948 ], [ 129.326617046202017, 36.784310378786635 ], [ 129.320776114059981, 36.784394862399928 ], [ 129.314127168705511, 36.780759510667572 ], [ 129.31206320478617, 36.786093235263913 ], [ 129.308022895487483, 36.788693887014126 ], [ 129.30729470860436, 36.791688771455433 ], [ 129.300135515287593, 36.793886641697974 ], [ 129.297022376792285, 36.799525901972757 ], [ 129.293957900042415, 36.800523671899128 ], [ 129.292405849102323, 36.805731861951045 ], [ 129.287582646991837, 36.808661763742265 ] ] ] ] } }
]
}
