{
"type": "FeatureCollection",
"name": "47940",
"crs": { "type": "name", "properties": { "name": "urn:ogc:def:crs:OGC:1.3:CRS84" } },
"features": [
{ "type": "Feature", "properties": { "emd_cd": "47940250", "emd_nm": "울릉읍" }, "geometry": { "type": "MultiPolygon", "coordinates": [ [ [ [ 131.943643865910786, 37.431557808307723 ], [ 131.943767890795897, 37.431794484592388 ], [ 131.943864567115753, 37.43154924811347 ], [ 131.943643865910786, 37.431557808307723 ] ] ], [ [ [ 131.94442566062483, 37.432084784716132 ], [ 131.944346122850419, 37.432323469853358 ], [ 131.944404470329061, 37.432345344129168 ], [ 131.94442566062483, 37.432084784716132 ] ] ], [ [ [ 131.94501289786092, 37.432422594306594 ], [ 131.945165553461948, 37.432496249775646 ], [ 131.945168144671129, 37.432372159147398 ], [ 131.94501289786092, 37.432422594306594 ] ] ], [ [ [ 131.944047195967556, 37.432555281316574 ], [ 131.94401761507325, 37.43252962783005 ], [ 131.943995043828835, 37.432541629010345 ], [ 131.944047195967556, 37.432555281316574 ] ] ], [ [ [ 131.944198392859818, 37.432845412045033 ], [ 131.944328040685889, 37.432836327293771 ], [ 131.944253930983194, 37.432781159615452 ], [ 131.944198392859818, 37.432845412045033 ] ] ], [ [ [ 131.943958843954306, 37.433162931443682 ], [ 131.944014766189781, 37.433163249576111 ], [ 131.943974599224163, 37.433149929167037 ], [ 131.943958843954306, 37.433162931443682 ] ] ], [ [ [ 131.943414601051046, 37.433931453670318 ], [ 131.943908118742428, 37.433517268630766 ], [ 131.943652758170316, 37.433145787315041 ], [ 131.943414601051046, 37.433931453670318 ] ] ], [ [ [ 131.94392418372351, 37.433881200605093 ], [ 131.944293521511526, 37.433546576805234 ], [ 131.944253280634825, 37.43347660445955 ], [ 131.94392418372351, 37.433881200605093 ] ] ], [ [ [ 131.945253723334616, 37.433855366365052 ], [ 131.945291196503604, 37.433822998042842 ], [ 131.945250828064559, 37.43382184251584 ], [ 131.945253723334616, 37.433855366365052 ] ] ], [ [ [ 131.945060065869797, 37.433946029375157 ], [ 131.945174044284357, 37.433851227513088 ], [ 131.944983384050914, 37.433946319184578 ], [ 131.945060065869797, 37.433946029375157 ] ] ], [ [ [ 131.94441475690212, 37.43354472698072 ], [ 131.944196910859915, 37.434370059776228 ], [ 131.945025966330547, 37.433753229272412 ], [ 131.94441475690212, 37.43354472698072 ] ] ], [ [ [ 131.943621386873275, 37.434697750311472 ], [ 131.943712690098948, 37.434652602680806 ], [ 131.943678295398655, 37.434602119722229 ], [ 131.943621386873275, 37.434697750311472 ] ] ], [ [ [ 131.943774904654617, 37.434917299027525 ], [ 131.943984998109983, 37.434897203556048 ], [ 131.943804794474516, 37.434838373873419 ], [ 131.943774904654617, 37.434917299027525 ] ] ], [ [ [ 131.945458531082465, 37.434916506952902 ], [ 131.945600668919809, 37.43491476534291 ], [ 131.945599359974068, 37.434858324260176 ], [ 131.945458531082465, 37.434916506952902 ] ] ], [ [ [ 131.945105219808738, 37.435305587406354 ], [ 131.945341549180966, 37.435620525445415 ], [ 131.945408418006963, 37.435182561024924 ], [ 131.945105219808738, 37.435305587406354 ] ] ], [ [ [ 131.944511155629925, 37.43541964863477 ], [ 131.944545561746367, 37.435565514887834 ], [ 131.944653985684056, 37.435473013574914 ], [ 131.944511155629925, 37.43541964863477 ] ] ], [ [ [ 131.943428877477771, 37.435697276018551 ], [ 131.943496379074304, 37.435664430475022 ], [ 131.94343498925295, 37.435657222880913 ], [ 131.943428877477771, 37.435697276018551 ] ] ], [ [ [ 131.945329014801899, 37.437528153857976 ], [ 131.945590600163882, 37.437478670196853 ], [ 131.945359120539734, 37.437278991247027 ], [ 131.945329014801899, 37.437528153857976 ] ] ], [ [ [ 131.945574156993416, 37.437759376942424 ], [ 131.945849026114217, 37.43785565458036 ], [ 131.945768012699517, 37.437607280504352 ], [ 131.945574156993416, 37.437759376942424 ] ] ], [ [ [ 131.94577498408907, 37.438199945324968 ], [ 131.945865912679807, 37.438153814566206 ], [ 131.945958805234966, 37.438100158992825 ], [ 131.94577498408907, 37.438199945324968 ] ] ], [ [ [ 130.861603585297473, 37.475847909902846 ], [ 130.866006633757877, 37.486496914747619 ], [ 130.863929274002373, 37.488622453696451 ], [ 130.863307129504932, 37.499856930830944 ], [ 130.871557986065625, 37.505581965223911 ], [ 130.873017753409272, 37.509929625401853 ], [ 130.881772278620986, 37.511705286783211 ], [ 130.883548926519779, 37.520804894868512 ], [ 130.889641706425209, 37.521905086029385 ], [ 130.892610043383115, 37.525346853010412 ], [ 130.902165516889568, 37.526333412484789 ], [ 130.9039172626604, 37.531371924379187 ], [ 130.906273360313691, 37.533659394180717 ], [ 130.907911827945412, 37.533126247681203 ], [ 130.906022766604138, 37.530756920435365 ], [ 130.907526137222732, 37.529383559470311 ], [ 130.906573073528875, 37.529075981169477 ], [ 130.916636726440572, 37.516983306976094 ], [ 130.915293024188145, 37.511992211250082 ], [ 130.912618740569911, 37.510942716578981 ], [ 130.913993117456215, 37.505795654403038 ], [ 130.913019246737093, 37.501115383889314 ], [ 130.913297288171492, 37.503097739971494 ], [ 130.909432579338528, 37.501120664427063 ], [ 130.908701758389839, 37.497191290317922 ], [ 130.909975946720209, 37.494882857472085 ], [ 130.912093395820136, 37.494984292957305 ], [ 130.911620214200696, 37.498455448128993 ], [ 130.912161784542292, 37.499926509454333 ], [ 130.912636484909143, 37.496075215596072 ], [ 130.911903096549537, 37.490183147977035 ], [ 130.915842890796426, 37.489775160924374 ], [ 130.917702930597216, 37.491085438240844 ], [ 130.919225707401154, 37.488759919867583 ], [ 130.914173074583289, 37.486164156682662 ], [ 130.909490059970665, 37.486874697482918 ], [ 130.908199044710472, 37.484353709236601 ], [ 130.90714232726981, 37.485716890483367 ], [ 130.907915821218722, 37.483580585229099 ], [ 130.905882261988467, 37.481334155636858 ], [ 130.899841531664947, 37.478252715191232 ], [ 130.894263734086167, 37.479479785177588 ], [ 130.881939013594177, 37.474362506461766 ], [ 130.878988357023132, 37.471582433264885 ], [ 130.882432059389657, 37.468441155678228 ], [ 130.879801647353872, 37.470034130075774 ], [ 130.875778995049103, 37.467274128448643 ], [ 130.877853548180525, 37.464804878874205 ], [ 130.875043888068689, 37.467331139224207 ], [ 130.872230127278982, 37.463414960232527 ], [ 130.872800417968818, 37.462112995080943 ], [ 130.878061588562502, 37.463624243197181 ], [ 130.872782825356694, 37.462018852543586 ], [ 130.872605525457857, 37.457671239322067 ], [ 130.865255833939955, 37.466828349651365 ], [ 130.866599397680261, 37.472577953868445 ], [ 130.861603585297473, 37.475847909902846 ] ] ], [ [ [ 130.936397476963776, 37.512789419764431 ], [ 130.935505971533274, 37.513001232683884 ], [ 130.935486329048302, 37.513159025439052 ], [ 130.936397476963776, 37.512789419764431 ] ] ], [ [ [ 130.938617758010764, 37.534223799060882 ], [ 130.940743138270904, 37.53323460716706 ], [ 130.936944252042167, 37.528166512620302 ], [ 130.934717170922596, 37.532282417658259 ], [ 130.938617758010764, 37.534223799060882 ] ] ], [ [ [ 131.947319856254921, 37.431786110615164 ], [ 131.947367964757319, 37.431932805197448 ], [ 131.94746804708609, 37.431921572196011 ], [ 131.947319856254921, 37.431786110615164 ] ] ], [ [ [ 131.944638367751054, 37.434947665739308 ], [ 131.946601278946332, 37.434628886846369 ], [ 131.947045794071272, 37.434918787641728 ], [ 131.947299229450209, 37.435574055623405 ], [ 131.947037460082868, 37.436122623599452 ], [ 131.947462875114155, 37.436215593257764 ], [ 131.947758969810849, 37.434454641042031 ], [ 131.948862997840223, 37.433097307088893 ], [ 131.945350049451179, 37.432370777856924 ], [ 131.945417462639909, 37.433644034768939 ], [ 131.944638367751054, 37.434947665739308 ] ] ], [ [ [ 131.946257264097852, 37.43488614699573 ], [ 131.946417413053041, 37.434839641043368 ], [ 131.946414985606651, 37.434780615847409 ], [ 131.946257264097852, 37.43488614699573 ] ] ], [ [ [ 131.946816704266865, 37.434929121356539 ], [ 131.94688714451155, 37.434896380762481 ], [ 131.946776698226643, 37.434919941123873 ], [ 131.946816704266865, 37.434929121356539 ] ] ], [ [ [ 131.947041991245186, 37.435017085457268 ], [ 131.947019217650933, 37.434992253763987 ], [ 131.947022307077305, 37.435004786471836 ], [ 131.947041991245186, 37.435017085457268 ] ] ], [ [ [ 131.946909899346934, 37.435004257201136 ], [ 131.946921817768867, 37.435106549346457 ], [ 131.947011831734898, 37.435045849284684 ], [ 131.946909899346934, 37.435004257201136 ] ] ], [ [ [ 131.94677166009069, 37.435079490108876 ], [ 131.946814809537614, 37.43513713951382 ], [ 131.946834114701204, 37.435090812619841 ], [ 131.94677166009069, 37.435079490108876 ] ] ], [ [ [ 131.946930666590163, 37.435150733024763 ], [ 131.946889867597292, 37.435161658147763 ], [ 131.946936957923384, 37.435164266720228 ], [ 131.946930666590163, 37.435150733024763 ] ] ], [ [ [ 131.946998009925409, 37.435200303214259 ], [ 131.947033773852752, 37.435204995610277 ], [ 131.947011056846549, 37.435187368080264 ], [ 131.946998009925409, 37.435200303214259 ] ] ], [ [ [ 131.946954608190254, 37.435545181574582 ], [ 131.947048029521, 37.435608782727215 ], [ 131.947022691623516, 37.435458097583492 ], [ 131.946954608190254, 37.435545181574582 ] ] ], [ [ [ 131.947409514476448, 37.436312308003338 ], [ 131.947498279104366, 37.436291719720529 ], [ 131.947513668079552, 37.436200275438935 ], [ 131.947409514476448, 37.436312308003338 ] ] ], [ [ [ 131.947338684684041, 37.436424410010687 ], [ 131.947388459597079, 37.436527108888704 ], [ 131.947494002817308, 37.436413060145718 ], [ 131.947338684684041, 37.436424410010687 ] ] ], [ [ [ 131.946547987070517, 37.436726317418184 ], [ 131.94659042237484, 37.436685088186806 ], [ 131.946538983263792, 37.4366897034365 ], [ 131.946547987070517, 37.436726317418184 ] ] ], [ [ [ 131.946077755553176, 37.437259185156286 ], [ 131.946167568506752, 37.437213442276096 ], [ 131.946088637031494, 37.437211176932514 ], [ 131.946077755553176, 37.437259185156286 ] ] ], [ [ [ 131.946337829661189, 37.43777033116038 ], [ 131.946391166290795, 37.437747834878408 ], [ 131.946374295484389, 37.43773240328116 ], [ 131.946337829661189, 37.43777033116038 ] ] ], [ [ [ 131.946227964867433, 37.437814592601384 ], [ 131.946275940469775, 37.437753319941201 ], [ 131.946208519930735, 37.437805530038133 ], [ 131.946227964867433, 37.437814592601384 ] ] ], [ [ [ 131.946234325664363, 37.437927831717687 ], [ 131.946340245758449, 37.437932756593426 ], [ 131.94638309682, 37.437847382926876 ], [ 131.946234325664363, 37.437927831717687 ] ] ], [ [ [ 131.94610227749564, 37.438051637246069 ], [ 131.946159753226226, 37.438131807357792 ], [ 131.94620385402618, 37.438092698401853 ], [ 131.94610227749564, 37.438051637246069 ] ] ], [ [ [ 131.946368039742367, 37.438295854935468 ], [ 131.946538086202281, 37.438331605727598 ], [ 131.946544699141583, 37.438235246435198 ], [ 131.946368039742367, 37.438295854935468 ] ] ], [ [ [ 131.945818904707437, 37.438245542520924 ], [ 131.94592906897077, 37.438393266488717 ], [ 131.946162026223504, 37.438218577843408 ], [ 131.945818904707437, 37.438245542520924 ] ] ], [ [ [ 131.946579973500207, 37.438705521187217 ], [ 131.9465759737067, 37.438678419892824 ], [ 131.94656271111603, 37.438694512800758 ], [ 131.946579973500207, 37.438705521187217 ] ] ], [ [ [ 131.946457377164506, 37.438626794980571 ], [ 131.946480088188935, 37.439159801282578 ], [ 131.946662777625676, 37.439261527851656 ], [ 131.946457377164506, 37.438626794980571 ] ] ], [ [ [ 131.945949617795037, 37.438923084373819 ], [ 131.945630792654867, 37.439803177131068 ], [ 131.946259860760136, 37.439520887555659 ], [ 131.945949617795037, 37.438923084373819 ] ] ], [ [ [ 131.948752480999786, 37.432246834907446 ], [ 131.94883710325945, 37.432207164221353 ], [ 131.948766991456722, 37.432184865163933 ], [ 131.948752480999786, 37.432246834907446 ] ] ], [ [ [ 131.947766013769069, 37.432287568826958 ], [ 131.947750405938081, 37.432261117391569 ], [ 131.947727768684672, 37.432280056288747 ], [ 131.947766013769069, 37.432287568826958 ] ] ], [ [ [ 131.948297410812927, 37.432525966687145 ], [ 131.948316481612494, 37.432476583041044 ], [ 131.94827386449731, 37.43248142924061 ], [ 131.948297410812927, 37.432525966687145 ] ] ], [ [ [ 131.9492224534022, 37.432825243071612 ], [ 131.949179183193877, 37.432819207471212 ], [ 131.949174318211249, 37.432839144212146 ], [ 131.9492224534022, 37.432825243071612 ] ] ], [ [ [ 131.949345801163389, 37.432911783880499 ], [ 131.949341518123333, 37.432874601940142 ], [ 131.949308526552244, 37.432865697829087 ], [ 131.949345801163389, 37.432911783880499 ] ] ], [ [ [ 131.948330877770559, 37.432903964779207 ], [ 131.948322808837958, 37.432882549374419 ], [ 131.948306134191, 37.432898007038176 ], [ 131.948330877770559, 37.432903964779207 ] ] ], [ [ [ 131.949186001041426, 37.433030340741951 ], [ 131.949151719424407, 37.433031736725127 ], [ 131.949176537600096, 37.433045348345964 ], [ 131.949186001041426, 37.433030340741951 ] ] ], [ [ [ 131.949098541781581, 37.433109983348572 ], [ 131.949116762929663, 37.433070618519892 ], [ 131.949066323579416, 37.433060348383805 ], [ 131.949098541781581, 37.433109983348572 ] ] ], [ [ [ 131.949217317989593, 37.433163492738807 ], [ 131.94933872308502, 37.433128578061698 ], [ 131.949268876613473, 37.4330785312467 ], [ 131.949217317989593, 37.433163492738807 ] ] ], [ [ [ 131.948896581212807, 37.433158707169838 ], [ 131.949019741755365, 37.433298033806274 ], [ 131.949077196467073, 37.4332740825512 ], [ 131.948896581212807, 37.433158707169838 ] ] ], [ [ [ 131.949449828173954, 37.433323327746777 ], [ 131.949436154546135, 37.433282867479832 ], [ 131.94938950367262, 37.43329718201278 ], [ 131.949449828173954, 37.433323327746777 ] ] ], [ [ [ 131.948701683886526, 37.433352897051336 ], [ 131.948736584989661, 37.433326986789133 ], [ 131.948691163220104, 37.433315060105052 ], [ 131.948701683886526, 37.433352897051336 ] ] ], [ [ [ 131.949343914358536, 37.43343063218245 ], [ 131.949318831671462, 37.433418918664849 ], [ 131.949332027790149, 37.433435702544891 ], [ 131.949343914358536, 37.43343063218245 ] ] ], [ [ [ 131.949457698739991, 37.433437519757007 ], [ 131.949431319371683, 37.433441690886553 ], [ 131.949467749713847, 37.433457624629753 ], [ 131.949457698739991, 37.433437519757007 ] ] ], [ [ [ 131.948300316923593, 37.434266850913275 ], [ 131.94841010724673, 37.434272668223727 ], [ 131.948280988258517, 37.434240582469279 ], [ 131.948300316923593, 37.434266850913275 ] ] ], [ [ [ 131.948207043182919, 37.434327903468109 ], [ 131.94823360585562, 37.43431400050914 ], [ 131.94822255064301, 37.434305719710601 ], [ 131.948207043182919, 37.434327903468109 ] ] ], [ [ [ 131.948309021228539, 37.434445512092445 ], [ 131.948315878116915, 37.434410123774938 ], [ 131.948300811986996, 37.43444355524089 ], [ 131.948309021228539, 37.434445512092445 ] ] ], [ [ [ 131.94933278305507, 37.434254957205205 ], [ 131.949459089275877, 37.434744845899168 ], [ 131.949886057980336, 37.434489108606414 ], [ 131.94933278305507, 37.434254957205205 ] ] ], [ [ [ 131.948489715384085, 37.43453981004869 ], [ 131.948507331312527, 37.434513790719897 ], [ 131.948478145338555, 37.434532803096559 ], [ 131.948489715384085, 37.43453981004869 ] ] ], [ [ [ 131.948165265611323, 37.435047971888949 ], [ 131.948201993760506, 37.435011027692227 ], [ 131.948183585571229, 37.434990951078817 ], [ 131.948165265611323, 37.435047971888949 ] ] ], [ [ [ 131.948770448520349, 37.435439085765289 ], [ 131.948590265377106, 37.435521942535345 ], [ 131.948875026091542, 37.435648770210577 ], [ 131.948770448520349, 37.435439085765289 ] ] ], [ [ [ 131.948107529667823, 37.435585867198597 ], [ 131.948176549617244, 37.435942982715616 ], [ 131.94838620079949, 37.43558918236576 ], [ 131.948107529667823, 37.435585867198597 ] ] ], [ [ [ 131.947433216251511, 37.436619935181099 ], [ 131.947490753833478, 37.436563467443257 ], [ 131.947454519877482, 37.4365496898874 ], [ 131.947433216251511, 37.436619935181099 ] ] ], [ [ [ 131.951808524290698, 37.430079300540363 ], [ 131.951938961378289, 37.430093335693115 ], [ 131.951977388756291, 37.430022121465043 ], [ 131.951808524290698, 37.430079300540363 ] ] ], [ [ [ 131.951208019536637, 37.430036654246287 ], [ 131.95130730496706, 37.430232417986666 ], [ 131.951482589932368, 37.42991594889299 ], [ 131.951208019536637, 37.430036654246287 ] ] ], [ [ [ 131.950735563302544, 37.430309654228409 ], [ 131.950836286607625, 37.430415492957025 ], [ 131.950834622851232, 37.430286824965115 ], [ 131.950735563302544, 37.430309654228409 ] ] ], [ [ [ 131.952056643368707, 37.430541734876286 ], [ 131.952090475373836, 37.430497296018999 ], [ 131.952022475828954, 37.430543128824382 ], [ 131.952056643368707, 37.430541734876286 ] ] ], [ [ [ 131.951957348372872, 37.430647705313852 ], [ 131.952007568372153, 37.430589166521663 ], [ 131.951934805982916, 37.430646016681443 ], [ 131.951957348372872, 37.430647705313852 ] ] ], [ [ [ 131.951684904210794, 37.430788083937244 ], [ 131.951761863794445, 37.430740316190139 ], [ 131.951670013583737, 37.4307885459408 ], [ 131.951684904210794, 37.430788083937244 ] ] ], [ [ [ 131.951671548433211, 37.430839126736892 ], [ 131.951676058978478, 37.430807309563541 ], [ 131.951638601429948, 37.43080833523122 ], [ 131.951671548433211, 37.430839126736892 ] ] ], [ [ [ 131.950007358918242, 37.431344181091717 ], [ 131.950032181366339, 37.431323385825252 ], [ 131.95000482159972, 37.43131407109594 ], [ 131.950007358918242, 37.431344181091717 ] ] ], [ [ [ 131.954209098569038, 37.431675422285728 ], [ 131.954302048780363, 37.43174425350626 ], [ 131.954324366408684, 37.431694247367538 ], [ 131.954209098569038, 37.431675422285728 ] ] ], [ [ [ 131.954544616167624, 37.4316742396339 ], [ 131.954666872538724, 37.431798991588678 ], [ 131.954758395988961, 37.43173959906548 ], [ 131.954544616167624, 37.4316742396339 ] ] ], [ [ [ 131.949838894428893, 37.430418660312213 ], [ 131.949805785582015, 37.431137909495568 ], [ 131.950209362352552, 37.431388469319039 ], [ 131.950700161527237, 37.432914244422541 ], [ 131.952327500835992, 37.433931375899675 ], [ 131.952036098029453, 37.432229495240236 ], [ 131.954179472048139, 37.431792055440525 ], [ 131.951518788378991, 37.430811480907103 ], [ 131.952156969437539, 37.430125331643374 ], [ 131.950327516849143, 37.431063700604454 ], [ 131.949838894428893, 37.430418660312213 ] ] ], [ [ [ 131.954118731868249, 37.4320831745584 ], [ 131.95429193287984, 37.432029936853432 ], [ 131.954271714491597, 37.431949469777976 ], [ 131.954118731868249, 37.4320831745584 ] ] ], [ [ [ 131.952447920982678, 37.432503313262863 ], [ 131.952452063579557, 37.432462138025485 ], [ 131.952418061339415, 37.432467761244453 ], [ 131.952447920982678, 37.432503313262863 ] ] ], [ [ [ 131.95030274790156, 37.432648310861424 ], [ 131.950343805279658, 37.432580724331643 ], [ 131.950338873860602, 37.432555808093447 ], [ 131.95030274790156, 37.432648310861424 ] ] ], [ [ [ 131.950395782612077, 37.432696337001516 ], [ 131.950466703567059, 37.432681686317636 ], [ 131.950444979648609, 37.432646200861363 ], [ 131.950395782612077, 37.432696337001516 ] ] ], [ [ [ 131.952326094410466, 37.432740177670006 ], [ 131.952292478030586, 37.432726876599403 ], [ 131.952306542869849, 37.432751384419788 ], [ 131.952326094410466, 37.432740177670006 ] ] ], [ [ [ 131.95233815337167, 37.432840123851726 ], [ 131.95236118945212, 37.432765240904928 ], [ 131.952343544964577, 37.432770365352177 ], [ 131.95233815337167, 37.432840123851726 ] ] ], [ [ [ 131.952676496012685, 37.433060176820369 ], [ 131.952717219462045, 37.433288836703909 ], [ 131.952882749164871, 37.433215617109667 ], [ 131.952676496012685, 37.433060176820369 ] ] ], [ [ [ 131.950591710290013, 37.433187278371172 ], [ 131.950750099050708, 37.433438400616986 ], [ 131.950899262998149, 37.433371176746753 ], [ 131.950591710290013, 37.433187278371172 ] ] ], [ [ [ 131.950152120566088, 37.433544211168751 ], [ 131.950319933628322, 37.433595234207324 ], [ 131.950162207506594, 37.433473164611677 ], [ 131.950152120566088, 37.433544211168751 ] ] ], [ [ [ 131.952672109531676, 37.433865508474163 ], [ 131.952836947308214, 37.433903992485455 ], [ 131.952764657236003, 37.433783214177545 ], [ 131.952672109531676, 37.433865508474163 ] ] ], [ [ [ 131.949576087604157, 37.433981827923432 ], [ 131.94956208954531, 37.433999290554851 ], [ 131.949579229823343, 37.433987063600405 ], [ 131.949576087604157, 37.433981827923432 ] ] ], [ [ [ 131.949928566039631, 37.434067152074284 ], [ 131.950077739101545, 37.434198622587168 ], [ 131.950123312286479, 37.434099308952845 ], [ 131.949928566039631, 37.434067152074284 ] ] ] ] } },
{ "type": "Feature", "properties": { "emd_cd": "47940310", "emd_nm": "서면" }, "geometry": { "type": "MultiPolygon", "coordinates": [ [ [ [ 130.819884673841699, 37.473103587788749 ], [ 130.820086393743054, 37.472950160882078 ], [ 130.81988354999956, 37.472952256385568 ], [ 130.819884673841699, 37.473103587788749 ] ] ], [ [ [ 130.803226086219723, 37.504093135499637 ], [ 130.803269589310474, 37.503950168325488 ], [ 130.803142175810791, 37.504020957615957 ], [ 130.803226086219723, 37.504093135499637 ] ] ], [ [ [ 130.801209221803617, 37.512542627263862 ], [ 130.8015534013646, 37.511868107085327 ], [ 130.801077321353148, 37.511680385092497 ], [ 130.801209221803617, 37.512542627263862 ] ] ] ] } },
{ "type": "Feature", "properties": { "emd_cd": "47940320", "emd_nm": "북면" }, "geometry": { "type": "MultiPolygon", "coordinates": [ [ [ [ 130.856136426353345, 37.538657915376938 ], [ 130.866731976592519, 37.540644644866063 ], [ 130.873845149689856, 37.546908409214474 ], [ 130.885895909691726, 37.546220345495549 ], [ 130.888822217933381, 37.544360045646592 ], [ 130.890717983775687, 37.544162602521126 ], [ 130.892615318172261, 37.544689012527108 ], [ 130.897681025703804, 37.550176528873301 ], [ 130.903046593201793, 37.552403563101976 ], [ 130.907860731927059, 37.55147739092213 ], [ 130.910324714830296, 37.544728820352844 ], [ 130.91795986995831, 37.54523353873612 ], [ 130.919385925216545, 37.543876175179378 ], [ 130.911585235223725, 37.541427496353194 ], [ 130.90827464194652, 37.533220267500297 ], [ 130.906273360190283, 37.533659394188668 ], [ 130.903917262537476, 37.531371924387109 ], [ 130.902165516766701, 37.526333412492725 ], [ 130.892610043261897, 37.525346853018256 ], [ 130.889641706304445, 37.521905086037151 ], [ 130.88354892640001, 37.520804894876136 ], [ 130.881772278501415, 37.511705286790843 ], [ 130.873017753291123, 37.509929625409328 ], [ 130.87155798594776, 37.505581965231372 ], [ 130.865772995345878, 37.502062247030047 ], [ 130.855357780683192, 37.503095762064717 ], [ 130.848093326207874, 37.508626060048655 ], [ 130.847692410332343, 37.515139924215738 ], [ 130.842497838303444, 37.515600797794193 ], [ 130.835140258140342, 37.519904553064315 ], [ 130.828701844364616, 37.519593395956811 ], [ 130.823697388093251, 37.521791747995252 ], [ 130.815461975764975, 37.520226654364897 ], [ 130.803301904565899, 37.525177903555253 ], [ 130.805337413660482, 37.526722021861858 ], [ 130.812441082079914, 37.527066678239244 ], [ 130.816697685711773, 37.530586296356788 ], [ 130.821380584260993, 37.531605855128873 ], [ 130.823495194752269, 37.534356814768969 ], [ 130.828141362105185, 37.535197979195715 ], [ 130.830471436481815, 37.533246338912981 ], [ 130.842753110327806, 37.539397393476619 ], [ 130.856136426353345, 37.538657915376938 ] ] ], [ [ [ 130.855690564137291, 37.538826976529826 ], [ 130.856110149203403, 37.5392384532406 ], [ 130.856194487412495, 37.539181742752845 ], [ 130.855690564137291, 37.538826976529826 ] ] ], [ [ [ 130.846499060785646, 37.54259302455911 ], [ 130.84722608996654, 37.542828138637837 ], [ 130.847177210481135, 37.542229678842169 ], [ 130.846499060785646, 37.54259302455911 ] ] ], [ [ [ 130.91952242886839, 37.547087953293108 ], [ 130.922308409893759, 37.547356576890635 ], [ 130.921670652151136, 37.545174228707701 ], [ 130.919147493118203, 37.545579587860622 ], [ 130.91952242886839, 37.547087953293108 ] ] ], [ [ [ 130.914904054982827, 37.54766490774643 ], [ 130.914636227322291, 37.547716111497472 ], [ 130.914803067619431, 37.547798764146698 ], [ 130.914904054982827, 37.54766490774643 ] ] ], [ [ [ 130.892009609125637, 37.551330091348433 ], [ 130.892848583015564, 37.550918172388933 ], [ 130.892295248369152, 37.55042925498276 ], [ 130.892009609125637, 37.551330091348433 ] ] ], [ [ [ 130.907622895565851, 37.552320637451039 ], [ 130.908109698067335, 37.552189708783935 ], [ 130.907573868088747, 37.55218831767867 ], [ 130.907622895565851, 37.552320637451039 ] ] ], [ [ [ 130.907255665549798, 37.552897848865435 ], [ 130.907794133324785, 37.552555789986137 ], [ 130.906956429413043, 37.552557333942616 ], [ 130.907255665549798, 37.552897848865435 ] ] ] ] } }
]
}
