{
"type": "FeatureCollection",
"name": "43112",
"crs": { "type": "name", "properties": { "name": "urn:ogc:def:crs:OGC:1.3:CRS84" } },
"features": [
{ "type": "Feature", "properties": { "emd_cd": "43112101", "emd_nm": "사직동" }, "geometry": { "type": "MultiPolygon", "coordinates": [ [ [ [ 127.465503357549295, 36.628899417490977 ], [ 127.465380544279171, 36.63076324788036 ], [ 127.46789448687656, 36.630711964018985 ], [ 127.468333027453568, 36.633467998487696 ], [ 127.470808696866655, 36.634434909265821 ], [ 127.468860890259521, 36.636004986209045 ], [ 127.46897317479015, 36.642486766364563 ], [ 127.473515270194909, 36.64269089299767 ], [ 127.480847646015292, 36.646189332050554 ], [ 127.481588498789009, 36.644859529842371 ], [ 127.482477428827522, 36.646582508976856 ], [ 127.484610968193053, 36.637615580327918 ], [ 127.482202881812796, 36.632727758521881 ], [ 127.483519507695135, 36.629195391054232 ], [ 127.48066674287864, 36.630243702852177 ], [ 127.480306926186458, 36.629201117309648 ], [ 127.478321739816295, 36.629184477701067 ], [ 127.476971794551105, 36.630984558029581 ], [ 127.469955291453857, 36.628619085356711 ], [ 127.465503357549295, 36.628899417490977 ] ] ] ] } },
{ "type": "Feature", "properties": { "emd_cd": "43112102", "emd_nm": "사창동" }, "geometry": { "type": "MultiPolygon", "coordinates": [ [ [ [ 127.465503357549295, 36.628899417490977 ], [ 127.455683627872759, 36.630765715220861 ], [ 127.454636159113178, 36.632667028281134 ], [ 127.456211496995522, 36.633213955770941 ], [ 127.456653373322851, 36.637987228896471 ], [ 127.460256265227017, 36.637814992666215 ], [ 127.461710603387559, 36.639369046178118 ], [ 127.466896624353822, 36.637761033006946 ], [ 127.466949393482224, 36.639860261083804 ], [ 127.468947994105591, 36.63985522950577 ], [ 127.468949998323524, 36.635670770755148 ], [ 127.470808696866655, 36.634434909265821 ], [ 127.468333027453568, 36.633467998487696 ], [ 127.46789448687656, 36.630711964018985 ], [ 127.465380544279171, 36.63076324788036 ], [ 127.465503357549295, 36.628899417490977 ] ] ] ] } },
{ "type": "Feature", "properties": { "emd_cd": "43112103", "emd_nm": "모충동" }, "geometry": { "type": "MultiPolygon", "coordinates": [ [ [ [ 127.468706451093325, 36.628508798195853 ], [ 127.476971794551105, 36.630984558029581 ], [ 127.478321739816295, 36.629184477701067 ], [ 127.48066674287864, 36.630243702852177 ], [ 127.483519507695135, 36.629195391054232 ], [ 127.493644753774632, 36.623446213994029 ], [ 127.493793513167077, 36.618786258089884 ], [ 127.483532393086236, 36.621642923872614 ], [ 127.477529733690389, 36.619957793537331 ], [ 127.474795919148363, 36.621451330631601 ], [ 127.475186482122041, 36.623230733649109 ], [ 127.470072539254843, 36.624766590413266 ], [ 127.468706451093325, 36.628508798195853 ] ] ] ] } },
{ "type": "Feature", "properties": { "emd_cd": "43112104", "emd_nm": "산남동" }, "geometry": { "type": "MultiPolygon", "coordinates": [ [ [ [ 127.459473141900204, 36.608434256573545 ], [ 127.460491913152609, 36.614220930908267 ], [ 127.464354999394246, 36.618172491594954 ], [ 127.463674817148316, 36.620130447118846 ], [ 127.467124914010611, 36.62259157617985 ], [ 127.471038153477963, 36.615757543350433 ], [ 127.47836269653763, 36.609276326286611 ], [ 127.476685988521766, 36.608133285698422 ], [ 127.480156689786142, 36.607670941931509 ], [ 127.477499667606509, 36.603989857223745 ], [ 127.47544454449276, 36.603952594731481 ], [ 127.474085234062926, 36.606026268118761 ], [ 127.464750017392362, 36.606219238811825 ], [ 127.459473141900204, 36.608434256573545 ] ] ] ] } },
{ "type": "Feature", "properties": { "emd_cd": "43112105", "emd_nm": "미평동" }, "geometry": { "type": "MultiPolygon", "coordinates": [ [ [ [ 127.48363936956757, 36.600761977371704 ], [ 127.476138626755258, 36.600127601957347 ], [ 127.47426700032932, 36.598679070619234 ], [ 127.46604046793054, 36.599927607707592 ], [ 127.463747915642628, 36.601627731122399 ], [ 127.459391978915065, 36.600508106266815 ], [ 127.45373920787776, 36.602754250588468 ], [ 127.459473141900204, 36.608434256573545 ], [ 127.464750017392362, 36.606219238811825 ], [ 127.474085234062926, 36.606026268118761 ], [ 127.47544454449276, 36.603952594731481 ], [ 127.478226995769091, 36.604569285314696 ], [ 127.479683195405045, 36.607600671528921 ], [ 127.482415803796201, 36.607939997624527 ], [ 127.481574323816389, 36.60702803528131 ], [ 127.483875132025403, 36.605768837480284 ], [ 127.48363936956757, 36.600761977371704 ] ] ] ] } },
{ "type": "Feature", "properties": { "emd_cd": "43112106", "emd_nm": "분평동" }, "geometry": { "type": "MultiPolygon", "coordinates": [ [ [ [ 127.48472821344771, 36.597311962737798 ], [ 127.483570815970396, 36.606623138141671 ], [ 127.481574323816389, 36.60702803528131 ], [ 127.482475846833722, 36.607930888231827 ], [ 127.476821354212689, 36.608032892065332 ], [ 127.478362729957936, 36.609276308130362 ], [ 127.47392855345926, 36.612793671776522 ], [ 127.480460591772626, 36.61435285724162 ], [ 127.486598113674589, 36.612606278218472 ], [ 127.491720124210403, 36.613586981715834 ], [ 127.494037919585239, 36.616274031042956 ], [ 127.497337698826726, 36.615321762387303 ], [ 127.496969797653378, 36.598733955120018 ], [ 127.48472821344771, 36.597311962737798 ] ] ] ] } },
{ "type": "Feature", "properties": { "emd_cd": "43112107", "emd_nm": "수곡동" }, "geometry": { "type": "MultiPolygon", "coordinates": [ [ [ [ 127.467124914010611, 36.62259157617985 ], [ 127.471418332138498, 36.623973491771196 ], [ 127.475186482122041, 36.623230733649109 ], [ 127.474795919148363, 36.621451330631601 ], [ 127.477622622523398, 36.619929253269277 ], [ 127.483532393086236, 36.621642923872614 ], [ 127.49243940310356, 36.620138889917342 ], [ 127.494433363982608, 36.616535497214322 ], [ 127.490598319327702, 36.61329753607238 ], [ 127.485497300208351, 36.612615530140204 ], [ 127.480460591772626, 36.61435285724162 ], [ 127.47392855345926, 36.612793671776522 ], [ 127.467124914010611, 36.62259157617985 ] ] ] ] } },
{ "type": "Feature", "properties": { "emd_cd": "43112108", "emd_nm": "성화동" }, "geometry": { "type": "MultiPolygon", "coordinates": [ [ [ [ 127.444792534454223, 36.607024480618705 ], [ 127.446458996800359, 36.609143182987914 ], [ 127.445129101080511, 36.6108365921082 ], [ 127.446269986038203, 36.611541030918644 ], [ 127.44549799194472, 36.616619054672405 ], [ 127.458928262499512, 36.620262421507178 ], [ 127.461835070583959, 36.617921638461063 ], [ 127.460750398589269, 36.617976286720783 ], [ 127.460480795195565, 36.617539180217115 ], [ 127.463453035841539, 36.617718490268395 ], [ 127.460491913152609, 36.614220930908267 ], [ 127.459349466980896, 36.6081962034661 ], [ 127.45373920787776, 36.602754250588468 ], [ 127.455284223872894, 36.598698734518052 ], [ 127.448439916246528, 36.594251968204013 ], [ 127.446663231469898, 36.600032719090116 ], [ 127.44815344328552, 36.603188824805109 ], [ 127.445536138325096, 36.604437926461046 ], [ 127.444792534454223, 36.607024480618705 ] ] ] ] } },
{ "type": "Feature", "properties": { "emd_cd": "43112109", "emd_nm": "개신동" }, "geometry": { "type": "MultiPolygon", "coordinates": [ [ [ [ 127.468706451093325, 36.628508798195853 ], [ 127.47102895725709, 36.623882391164265 ], [ 127.464131450521023, 36.620595719209035 ], [ 127.46335929316092, 36.617666164835889 ], [ 127.460480795195565, 36.617539180217115 ], [ 127.461835070583959, 36.617921638461063 ], [ 127.458928262499512, 36.620262421507178 ], [ 127.444790167619473, 36.616422721193707 ], [ 127.443259715387427, 36.623669400776748 ], [ 127.449900235157003, 36.624660524831036 ], [ 127.450033469935107, 36.62743260362172 ], [ 127.453991703710585, 36.629726236323805 ], [ 127.454320184467306, 36.631719941241542 ], [ 127.468706451093325, 36.628508798195853 ] ] ] ] } },
{ "type": "Feature", "properties": { "emd_cd": "43112110", "emd_nm": "죽림동" }, "geometry": { "type": "MultiPolygon", "coordinates": [ [ [ [ 127.434229785924643, 36.601525516190129 ], [ 127.434224720691532, 36.605919392394227 ], [ 127.436621796162314, 36.607308530561369 ], [ 127.436715970175413, 36.610651884021181 ], [ 127.445591116977965, 36.6166400643503 ], [ 127.446269986038203, 36.611541030918644 ], [ 127.445129101080511, 36.6108365921082 ], [ 127.446459041353521, 36.609143155787741 ], [ 127.444820028343543, 36.606543734839896 ], [ 127.44815344328552, 36.603188824805109 ], [ 127.44665110343891, 36.600446724870537 ], [ 127.447774791869762, 36.595544706517806 ], [ 127.443337992312252, 36.599199905895411 ], [ 127.44195441431259, 36.605762511897119 ], [ 127.43862929861433, 36.601961584555937 ], [ 127.434229785924643, 36.601525516190129 ] ] ] ] } },
{ "type": "Feature", "properties": { "emd_cd": "43112111", "emd_nm": "장성동" }, "geometry": { "type": "MultiPolygon", "coordinates": [ [ [ [ 127.48363936956757, 36.600761977371704 ], [ 127.486746014399003, 36.594625351620913 ], [ 127.484476316271866, 36.595223169113645 ], [ 127.48087597977235, 36.590134684932373 ], [ 127.476314578244114, 36.587783377801536 ], [ 127.477053619615873, 36.594569518872831 ], [ 127.473325935186253, 36.596182088145596 ], [ 127.473386160396885, 36.597751344666513 ], [ 127.476138626755258, 36.600127601957347 ], [ 127.48363936956757, 36.600761977371704 ] ] ] ] } },
{ "type": "Feature", "properties": { "emd_cd": "43112112", "emd_nm": "장암동" }, "geometry": { "type": "MultiPolygon", "coordinates": [ [ [ [ 127.473932267849378, 36.581689526073419 ], [ 127.476314578244114, 36.587783377801536 ], [ 127.48087597977235, 36.590134684932373 ], [ 127.484476316271866, 36.595223169113645 ], [ 127.486746014399003, 36.594625351620913 ], [ 127.485142851217432, 36.597301161525891 ], [ 127.496969797653378, 36.598733955120018 ], [ 127.49635901671698, 36.592872865211547 ], [ 127.498918532169469, 36.588372935057819 ], [ 127.491306635579335, 36.584659526285357 ], [ 127.492000001457939, 36.5827111276962 ], [ 127.488143221246119, 36.581935905088955 ], [ 127.485615898913196, 36.582507149055303 ], [ 127.486226778313764, 36.583402912806186 ], [ 127.486279666265759, 36.583844819001882 ], [ 127.478554575665655, 36.581181632768249 ], [ 127.473932267849378, 36.581689526073419 ] ] ] ] } },
{ "type": "Feature", "properties": { "emd_cd": "43112310", "emd_nm": "남이면" }, "geometry": { "type": "MultiPolygon", "coordinates": [ [ [ [ 127.372049004187573, 36.563605452756732 ], [ 127.373963361760218, 36.565237357417672 ], [ 127.376884058027571, 36.566498457035337 ], [ 127.377362925363315, 36.569106502578094 ], [ 127.386744602799354, 36.577275332944083 ], [ 127.389601366464106, 36.584964747308142 ], [ 127.39824360033225, 36.59071638370721 ], [ 127.401016258880006, 36.596040738230499 ], [ 127.406268871528326, 36.598334974491898 ], [ 127.40707595129085, 36.600791901497743 ], [ 127.412918965523019, 36.605865129962609 ], [ 127.416013075226203, 36.606688024702855 ], [ 127.415474318870579, 36.604895145998135 ], [ 127.418747199049491, 36.602334852829081 ], [ 127.419472528971539, 36.5966319089734 ], [ 127.421656913128714, 36.596487329077846 ], [ 127.426290127924531, 36.598759433536941 ], [ 127.426683919866463, 36.600354064807988 ], [ 127.433845958500612, 36.598645026135458 ], [ 127.434229785924643, 36.601525516190129 ], [ 127.439096048711264, 36.602162274234374 ], [ 127.441490439708886, 36.605884427201822 ], [ 127.443337992312252, 36.599199905895411 ], [ 127.448439916246528, 36.594251968204013 ], [ 127.455284223872894, 36.598698734518067 ], [ 127.454467963215578, 36.601683096609008 ], [ 127.459391978915065, 36.600508106266851 ], [ 127.463747915642628, 36.601627731122399 ], [ 127.466032893579609, 36.599928105815984 ], [ 127.47426700032932, 36.598679070619227 ], [ 127.473325890320865, 36.596182061289362 ], [ 127.477053585980386, 36.594569500984477 ], [ 127.476276132128021, 36.58720209515149 ], [ 127.474159324484916, 36.584413562791234 ], [ 127.474048858374672, 36.578707772195187 ], [ 127.470710414608192, 36.577291557660104 ], [ 127.470725291069257, 36.574923298666967 ], [ 127.468527962054395, 36.573502794989516 ], [ 127.467244560806364, 36.562080559435586 ], [ 127.472023445575658, 36.560871660184091 ], [ 127.475782309810725, 36.562852228338599 ], [ 127.481778446914973, 36.56136934536547 ], [ 127.479829498207934, 36.556016867105761 ], [ 127.48631103982072, 36.547444050971862 ], [ 127.484799525925155, 36.544821259005694 ], [ 127.482737591351565, 36.547434374868693 ], [ 127.479654966653428, 36.547666489904714 ], [ 127.470797937755663, 36.542827637084578 ], [ 127.466459982901554, 36.542455446107567 ], [ 127.466210797496004, 36.544470736901175 ], [ 127.458984172734205, 36.548358786537065 ], [ 127.45065089115495, 36.547450498604526 ], [ 127.447137291625097, 36.5498102580327 ], [ 127.447433441678754, 36.541756078163829 ], [ 127.444831579825092, 36.539519954319303 ], [ 127.444518273073996, 36.535636699201319 ], [ 127.43642069171095, 36.527531584529697 ], [ 127.431441413482503, 36.528931913719056 ], [ 127.42733841267524, 36.526472804745687 ], [ 127.422391768053757, 36.527579300910006 ], [ 127.416384704609953, 36.526037183197872 ], [ 127.408364076070399, 36.527182506328025 ], [ 127.405612298703332, 36.531400098673828 ], [ 127.404982781888137, 36.537302588608448 ], [ 127.403200609445193, 36.537802465198844 ], [ 127.401536806930437, 36.541458438022666 ], [ 127.392321939476034, 36.539999643069009 ], [ 127.383833646917751, 36.541488364907657 ], [ 127.383152857881811, 36.547900114146806 ], [ 127.378481499687297, 36.549804733044134 ], [ 127.378121249508169, 36.555129164720441 ], [ 127.372546971712126, 36.559724275400505 ], [ 127.377991929763752, 36.562939134031467 ], [ 127.374102571088244, 36.56509921980831 ], [ 127.372049004187573, 36.563605452756732 ] ] ] ] } },
{ "type": "Feature", "properties": { "emd_cd": "43112320", "emd_nm": "현도면" }, "geometry": { "type": "MultiPolygon", "coordinates": [ [ [ [ 127.396122671498446, 36.491725289150835 ], [ 127.409940621424411, 36.494921716726964 ], [ 127.410836773877492, 36.497756533433886 ], [ 127.407900850881404, 36.500138132064187 ], [ 127.409022294999716, 36.50974273169129 ], [ 127.404925333424259, 36.511969928480674 ], [ 127.403710542709192, 36.517406030748333 ], [ 127.397859433227978, 36.521351794832832 ], [ 127.40196864276281, 36.523777569063277 ], [ 127.407652062828816, 36.523071538064428 ], [ 127.408974597933849, 36.527476284800393 ], [ 127.417620679720756, 36.525889019520051 ], [ 127.422391723440953, 36.527579310078828 ], [ 127.427338412872814, 36.526472840790618 ], [ 127.431441413482503, 36.528931913719056 ], [ 127.436420669481095, 36.527531602633573 ], [ 127.444212083418208, 36.53512199742547 ], [ 127.446206405060536, 36.541147165600421 ], [ 127.45196781334549, 36.541522484452365 ], [ 127.453592125792127, 36.537600786930177 ], [ 127.452919508939814, 36.535227466136142 ], [ 127.455129104678221, 36.531987825173331 ], [ 127.455654124682979, 36.525597967119531 ], [ 127.453475994304554, 36.522814761413017 ], [ 127.454611740347048, 36.519746458207948 ], [ 127.451201161989133, 36.51664431891281 ], [ 127.445374062803097, 36.514902844368208 ], [ 127.445276639250963, 36.513444645856303 ], [ 127.448906423926829, 36.50667786461662 ], [ 127.449774811878086, 36.500500197033261 ], [ 127.455136422051297, 36.500299774934156 ], [ 127.457762424514982, 36.495918935064829 ], [ 127.465182399105686, 36.493542282370825 ], [ 127.467508564231224, 36.491257281071434 ], [ 127.47566874278904, 36.490231891117858 ], [ 127.476845578986172, 36.480221571075354 ], [ 127.480377209901931, 36.477243060016683 ], [ 127.470246933431952, 36.473652704966661 ], [ 127.463738056303896, 36.464689088685923 ], [ 127.462576844861474, 36.456171402908673 ], [ 127.458396793769055, 36.452298138533749 ], [ 127.451328407044272, 36.44925513184657 ], [ 127.442972037016901, 36.450954774331151 ], [ 127.436818122503368, 36.456408090429555 ], [ 127.427491457339272, 36.45690125519932 ], [ 127.414932832092489, 36.454723454068592 ], [ 127.403170371646439, 36.455369603443799 ], [ 127.401115840703596, 36.460923016107984 ], [ 127.401045720585472, 36.467360540579925 ], [ 127.404154538915705, 36.481000430388775 ], [ 127.403005561638764, 36.485458468349698 ], [ 127.396122671498446, 36.491725289150835 ] ] ] ] } }
]
}
