{
"type": "FeatureCollection",
"name": "43113",
"crs": { "type": "name", "properties": { "name": "urn:ogc:def:crs:OGC:1.3:CRS84" } },
"features": [
{ "type": "Feature", "properties": { "emd_cd": "43113104", "emd_nm": "운천동" }, "geometry": { "type": "MultiPolygon", "coordinates": [ [ [ [ 127.470602858709071, 36.642606039780937 ], [ 127.471554948336518, 36.65174931931913 ], [ 127.470051695658768, 36.651920867555532 ], [ 127.474115056173446, 36.656125560066933 ], [ 127.481695410250893, 36.645148863281854 ], [ 127.480847646015292, 36.646189332050554 ], [ 127.470602858709071, 36.642606039780937 ] ] ] ] } },
{ "type": "Feature", "properties": { "emd_cd": "43113105", "emd_nm": "신봉동" }, "geometry": { "type": "MultiPolygon", "coordinates": [ [ [ [ 127.46897317479015, 36.642486766364563 ], [ 127.469369054437848, 36.645709153569022 ], [ 127.466587373515765, 36.645708601702715 ], [ 127.467397800065143, 36.646863375377094 ], [ 127.465515783719042, 36.647784727807725 ], [ 127.466546572018558, 36.649107563339818 ], [ 127.465050401241584, 36.652737925988966 ], [ 127.461920450268394, 36.65564637253533 ], [ 127.465504183041531, 36.65705378417173 ], [ 127.46408455605615, 36.661092273396328 ], [ 127.46501995870095, 36.666481992554978 ], [ 127.471730704686905, 36.660642943187099 ], [ 127.473713290771869, 36.65600134821684 ], [ 127.470051695658739, 36.651920867555525 ], [ 127.47155494833649, 36.651749319319123 ], [ 127.470676293150035, 36.642991592733395 ], [ 127.46897317479015, 36.642486766364563 ] ] ] ] } },
{ "type": "Feature", "properties": { "emd_cd": "43113113", "emd_nm": "가경동" }, "geometry": { "type": "MultiPolygon", "coordinates": [ [ [ [ 127.426156756254386, 36.609941708985168 ], [ 127.423680908358762, 36.619260610167778 ], [ 127.42690615392749, 36.624009248177089 ], [ 127.427667755787724, 36.622881741468888 ], [ 127.431375950073672, 36.624070793284432 ], [ 127.427772750278194, 36.627993685111036 ], [ 127.433612414681065, 36.633151628897082 ], [ 127.4388497954955, 36.632788271460058 ], [ 127.438591897484883, 36.630667539029545 ], [ 127.444667194114544, 36.620717854750488 ], [ 127.444790167619473, 36.616422721193707 ], [ 127.432880521828466, 36.609241371815116 ], [ 127.426156756254386, 36.609941708985168 ] ] ] ] } },
{ "type": "Feature", "properties": { "emd_cd": "43113114", "emd_nm": "복대동" }, "geometry": { "type": "MultiPolygon", "coordinates": [ [ [ [ 127.422877996117421, 36.64590646167558 ], [ 127.434932907721659, 36.644069257223826 ], [ 127.435063036909611, 36.642391118804774 ], [ 127.43825482413763, 36.641984498066584 ], [ 127.438680467336923, 36.640363177754082 ], [ 127.446691867641121, 36.637923997497566 ], [ 127.450512396046108, 36.638740576096936 ], [ 127.452086613979475, 36.638132205137573 ], [ 127.451690133985522, 36.636624566515266 ], [ 127.45654985336509, 36.636868970655833 ], [ 127.456211496995522, 36.633213955770941 ], [ 127.454636159113178, 36.632667028281134 ], [ 127.455864348614028, 36.63078469771424 ], [ 127.454320184467306, 36.631719941241542 ], [ 127.453991703710585, 36.629726236323805 ], [ 127.450033469935107, 36.62743260362172 ], [ 127.449900235157003, 36.624660524831036 ], [ 127.44314183435813, 36.623347144798302 ], [ 127.438591897484883, 36.630667539029545 ], [ 127.4388497954955, 36.632788271460058 ], [ 127.433612414681065, 36.633151628897082 ], [ 127.427772750278194, 36.627993685111036 ], [ 127.422391134957749, 36.638759483047096 ], [ 127.425060053114194, 36.638660569799043 ], [ 127.422586751482569, 36.64259626165876 ], [ 127.422877996117421, 36.64590646167558 ] ] ] ] } },
{ "type": "Feature", "properties": { "emd_cd": "43113115", "emd_nm": "봉명동" }, "geometry": { "type": "MultiPolygon", "coordinates": [ [ [ [ 127.464728826990097, 36.65973159410855 ], [ 127.465504183041531, 36.65705378417173 ], [ 127.461920450268394, 36.65564637253533 ], [ 127.465050401241584, 36.652737925988966 ], [ 127.466546572018558, 36.649107563339818 ], [ 127.465515783719042, 36.647784727807725 ], [ 127.467397800065143, 36.646863375377094 ], [ 127.466587373515765, 36.645708601702715 ], [ 127.469369054437848, 36.645709153569022 ], [ 127.468947994105562, 36.63985522950577 ], [ 127.466949393482224, 36.639860261083797 ], [ 127.466896624353822, 36.637761033006953 ], [ 127.461710603387559, 36.639369046178118 ], [ 127.460256265226988, 36.637814992666215 ], [ 127.451690133985522, 36.636624566515266 ], [ 127.451803204331767, 36.638127942024916 ], [ 127.453506189972245, 36.638153573085901 ], [ 127.45388485098222, 36.643536701731662 ], [ 127.446610733665281, 36.652293833123309 ], [ 127.447186354333567, 36.655530947738512 ], [ 127.453534281448569, 36.65908257134123 ], [ 127.464728826990097, 36.65973159410855 ] ] ] ] } },
{ "type": "Feature", "properties": { "emd_cd": "43113116", "emd_nm": "송정동" }, "geometry": { "type": "MultiPolygon", "coordinates": [ [ [ [ 127.430596808771213, 36.64441206180139 ], [ 127.437312733423582, 36.650682414725033 ], [ 127.441175919853691, 36.650634669794435 ], [ 127.442628596322137, 36.653513733256069 ], [ 127.444295219235968, 36.653233753159448 ], [ 127.449920059527997, 36.649103924944875 ], [ 127.45388485098222, 36.643536701731662 ], [ 127.453506189972245, 36.638153573085901 ], [ 127.446691867641121, 36.637923997497566 ], [ 127.438680467336923, 36.640363177754082 ], [ 127.43825482413763, 36.641984498066584 ], [ 127.435063036909611, 36.642391118804774 ], [ 127.434932907721659, 36.644069257223826 ], [ 127.430596808771213, 36.64441206180139 ] ] ] ] } },
{ "type": "Feature", "properties": { "emd_cd": "43113117", "emd_nm": "강서동" }, "geometry": { "type": "MultiPolygon", "coordinates": [ [ [ [ 127.427734439321966, 36.628020657671655 ], [ 127.431375950073672, 36.624070793284432 ], [ 127.427667755787724, 36.622881741468888 ], [ 127.42690615392749, 36.624009248177089 ], [ 127.423680908358762, 36.619260610167778 ], [ 127.424133153647091, 36.613954811588435 ], [ 127.42632285635338, 36.610168435510019 ], [ 127.416124352348618, 36.606681536972388 ], [ 127.417005254173347, 36.613732085714823 ], [ 127.413095618837971, 36.616984134412959 ], [ 127.413593947221187, 36.623913761708714 ], [ 127.419582785352986, 36.621993388260123 ], [ 127.420877437518598, 36.62617419021506 ], [ 127.422726753824719, 36.625310344997835 ], [ 127.427734439321966, 36.628020657671655 ] ] ] ] } },
{ "type": "Feature", "properties": { "emd_cd": "43113118", "emd_nm": "석곡동" }, "geometry": { "type": "MultiPolygon", "coordinates": [ [ [ [ 127.418697450890349, 36.602373901700844 ], [ 127.41548378304347, 36.606726855812951 ], [ 127.423665445338798, 36.609763882736637 ], [ 127.432773690717326, 36.609215670821683 ], [ 127.437616921746269, 36.611438996157794 ], [ 127.436621796162314, 36.607308530561369 ], [ 127.434224720691532, 36.605919392394227 ], [ 127.43384285303668, 36.59864528070532 ], [ 127.426759667436727, 36.600392029476168 ], [ 127.424304826561112, 36.597710954461988 ], [ 127.419475834354088, 36.596604494014549 ], [ 127.418697450890349, 36.602373901700844 ] ] ] ] } },
{ "type": "Feature", "properties": { "emd_cd": "43113119", "emd_nm": "휴암동" }, "geometry": { "type": "MultiPolygon", "coordinates": [ [ [ [ 127.403066445662859, 36.62774115814068 ], [ 127.407343725796309, 36.630360385771795 ], [ 127.409136042347967, 36.628839015757208 ], [ 127.408906096649872, 36.625204002629836 ], [ 127.413593947221187, 36.623913761708714 ], [ 127.413095618837971, 36.616984134412959 ], [ 127.417005254173347, 36.613732085714823 ], [ 127.416124352348618, 36.606681536972388 ], [ 127.412596046622397, 36.605564672461789 ], [ 127.407556884125924, 36.606867327660638 ], [ 127.40468354708068, 36.609775068333846 ], [ 127.406829685234143, 36.610236203855351 ], [ 127.405695442979223, 36.613414226553907 ], [ 127.401635562600703, 36.614822216112366 ], [ 127.3987612191832, 36.619067962205541 ], [ 127.403066445662859, 36.62774115814068 ] ] ] ] } },
{ "type": "Feature", "properties": { "emd_cd": "43113120", "emd_nm": "신전동" }, "geometry": { "type": "MultiPolygon", "coordinates": [ [ [ [ 127.412596046622397, 36.605564672461789 ], [ 127.407246677815834, 36.601018026660874 ], [ 127.406268904866906, 36.59833493833348 ], [ 127.400887879261504, 36.595848578796982 ], [ 127.397462715447745, 36.60233999997719 ], [ 127.395216264394961, 36.602391282242742 ], [ 127.393245086967838, 36.604772678585341 ], [ 127.39343637748199, 36.606540147042217 ], [ 127.397973998312651, 36.609179323556134 ], [ 127.397949478184643, 36.612331120747321 ], [ 127.401320067007276, 36.615581727386996 ], [ 127.405695442979223, 36.613414226553907 ], [ 127.406829685234143, 36.610236203855351 ], [ 127.40468354708068, 36.609775068333846 ], [ 127.407556884125924, 36.606867327660638 ], [ 127.412596046622397, 36.605564672461789 ] ] ] ] } },
{ "type": "Feature", "properties": { "emd_cd": "43113121", "emd_nm": "현암동" }, "geometry": { "type": "MultiPolygon", "coordinates": [ [ [ [ 127.383865343305317, 36.588916494681953 ], [ 127.385048441280688, 36.59400026877114 ], [ 127.387204162241957, 36.594553473773225 ], [ 127.386779207027672, 36.597301766671592 ], [ 127.389034699908606, 36.598237569021656 ], [ 127.391027683250471, 36.603758056319194 ], [ 127.393245086967838, 36.604772678585341 ], [ 127.395216264394961, 36.602391282242742 ], [ 127.397462715447745, 36.60233999997719 ], [ 127.400887879261504, 36.595848578796982 ], [ 127.39824363371747, 36.59071635656214 ], [ 127.390226489891589, 36.585343646274822 ], [ 127.385143744975394, 36.586498027494216 ], [ 127.383865343305317, 36.588916494681953 ] ] ] ] } },
{ "type": "Feature", "properties": { "emd_cd": "43113122", "emd_nm": "동막동" }, "geometry": { "type": "MultiPolygon", "coordinates": [ [ [ [ 127.364851019882977, 36.592851888219144 ], [ 127.36483280859315, 36.599696193608189 ], [ 127.369016299496849, 36.601181623608412 ], [ 127.368520851160085, 36.605481390641479 ], [ 127.370277677862063, 36.608304371506762 ], [ 127.37462780263111, 36.6074624763664 ], [ 127.379060439275094, 36.603205292407786 ], [ 127.382101948536572, 36.604531192342428 ], [ 127.389212602978262, 36.601314531762348 ], [ 127.389034699908606, 36.598237569021656 ], [ 127.386594092849634, 36.596854151307383 ], [ 127.387407399229275, 36.594895308955557 ], [ 127.385048441280688, 36.594000268771147 ], [ 127.383865343305317, 36.588916494681961 ], [ 127.381264251728709, 36.586774419146607 ], [ 127.378930001890069, 36.588164657335035 ], [ 127.374229849123168, 36.587098799487478 ], [ 127.370224911971292, 36.593067426816532 ], [ 127.364851019882977, 36.592851888219144 ] ] ] ] } },
{ "type": "Feature", "properties": { "emd_cd": "43113123", "emd_nm": "수의동" }, "geometry": { "type": "MultiPolygon", "coordinates": [ [ [ [ 127.376046787756508, 36.610366403105289 ], [ 127.377018417638865, 36.614040934413737 ], [ 127.382065776288201, 36.614294612189994 ], [ 127.384706390159025, 36.618612755051842 ], [ 127.388066570478543, 36.619991170444756 ], [ 127.38646970725928, 36.621073430850231 ], [ 127.387943171466546, 36.624482888083882 ], [ 127.393430352388904, 36.62664546676735 ], [ 127.401507616032262, 36.626320775005574 ], [ 127.3987612191832, 36.619067962205541 ], [ 127.401320067007276, 36.615581727386996 ], [ 127.397949478184643, 36.612331120747321 ], [ 127.397973998312651, 36.609179323556134 ], [ 127.39343637748199, 36.606540147042217 ], [ 127.389212602978262, 36.601314531762341 ], [ 127.382101948536572, 36.604531192342428 ], [ 127.379060439275094, 36.603205292407779 ], [ 127.376046787756508, 36.610366403105289 ] ] ] ] } },
{ "type": "Feature", "properties": { "emd_cd": "43113124", "emd_nm": "지동동" }, "geometry": { "type": "MultiPolygon", "coordinates": [ [ [ [ 127.407040119092912, 36.632626073464216 ], [ 127.397562634419202, 36.630080520156653 ], [ 127.395523386519784, 36.640662902815208 ], [ 127.397486940463779, 36.646298688630125 ], [ 127.401699669714148, 36.646139088465098 ], [ 127.40238321180486, 36.648124000791455 ], [ 127.406847837900273, 36.648991064802459 ], [ 127.408076816569974, 36.655893787840711 ], [ 127.412588139992749, 36.651739911666262 ], [ 127.417108350698115, 36.651775347296727 ], [ 127.421837836826626, 36.647852695007856 ], [ 127.419788084610246, 36.642002945142302 ], [ 127.407040119092912, 36.632626073464216 ] ] ] ] } },
{ "type": "Feature", "properties": { "emd_cd": "43113125", "emd_nm": "서촌동" }, "geometry": { "type": "MultiPolygon", "coordinates": [ [ [ [ 127.389340163545114, 36.631155010714949 ], [ 127.392190152371256, 36.643051631661841 ], [ 127.395395491708456, 36.646420065005181 ], [ 127.396324376963236, 36.653128318521752 ], [ 127.393432247831001, 36.660797089504037 ], [ 127.3968712732526, 36.665081808196604 ], [ 127.402099544909362, 36.66703728666598 ], [ 127.403231267869131, 36.663708845711099 ], [ 127.405516941802873, 36.664209814985149 ], [ 127.407734593021686, 36.659472235645218 ], [ 127.406383080082634, 36.65827076782606 ], [ 127.408076816569974, 36.655893787840711 ], [ 127.406847837900273, 36.648991064802459 ], [ 127.396266390241806, 36.645023549748991 ], [ 127.397249658521758, 36.644465645832845 ], [ 127.3957002059324, 36.636161263750196 ], [ 127.397562634419202, 36.630080520156653 ], [ 127.389340163545114, 36.631155010714949 ] ] ] ] } },
{ "type": "Feature", "properties": { "emd_cd": "43113126", "emd_nm": "신성동" }, "geometry": { "type": "MultiPolygon", "coordinates": [ [ [ [ 127.422634752262169, 36.655149101454569 ], [ 127.422621411832495, 36.651169237552217 ], [ 127.418802398316899, 36.650007560216622 ], [ 127.417108350698115, 36.651775347296727 ], [ 127.410436573961931, 36.653145984744064 ], [ 127.406591653284551, 36.659311412274079 ], [ 127.412086205948967, 36.660934936605862 ], [ 127.412887522594218, 36.656861150709993 ], [ 127.419168696178588, 36.657352705516793 ], [ 127.422634752262169, 36.655149101454569 ] ] ] ] } },
{ "type": "Feature", "properties": { "emd_cd": "43113127", "emd_nm": "평동" }, "geometry": { "type": "MultiPolygon", "coordinates": [ [ [ [ 127.411070825648991, 36.669453800270233 ], [ 127.413633922906001, 36.662066273795133 ], [ 127.420644784688889, 36.660351135942065 ], [ 127.418565854202242, 36.656928461438255 ], [ 127.413224270594554, 36.656699623676396 ], [ 127.412086205948967, 36.660934936605862 ], [ 127.40714614858183, 36.659412892778825 ], [ 127.405516941802873, 36.664209814985149 ], [ 127.403231267869131, 36.663708845711099 ], [ 127.402066137728539, 36.6670489694067 ], [ 127.411070825648991, 36.669453800270233 ] ] ] ] } },
{ "type": "Feature", "properties": { "emd_cd": "43113128", "emd_nm": "신대동" }, "geometry": { "type": "MultiPolygon", "coordinates": [ [ [ [ 127.418180380844902, 36.671023570086042 ], [ 127.3968712732526, 36.665081808196604 ], [ 127.396257987252824, 36.671129168433758 ], [ 127.395171615472066, 36.669833457841435 ], [ 127.395378590294442, 36.672638084980129 ], [ 127.40257268933631, 36.679568791551837 ], [ 127.409150766984112, 36.680917344194746 ], [ 127.423029898124227, 36.680599707883708 ], [ 127.422934766395016, 36.67802929157164 ], [ 127.417873664358922, 36.675979659299095 ], [ 127.418180380844902, 36.671023570086042 ] ] ] ] } },
{ "type": "Feature", "properties": { "emd_cd": "43113129", "emd_nm": "남촌동" }, "geometry": { "type": "MultiPolygon", "coordinates": [ [ [ [ 127.422634752262169, 36.655149101454569 ], [ 127.419168696178588, 36.657352705516793 ], [ 127.420644784688889, 36.660351135942065 ], [ 127.413633922906001, 36.662066273795133 ], [ 127.411070825648991, 36.669453800270233 ], [ 127.416891741814695, 36.670740740805691 ], [ 127.41943372538077, 36.663225828917113 ], [ 127.421720784438818, 36.663886980620589 ], [ 127.423877093757071, 36.661469452213076 ], [ 127.422634752262169, 36.655149101454569 ] ] ] ] } },
{ "type": "Feature", "properties": { "emd_cd": "43113130", "emd_nm": "내곡동" }, "geometry": { "type": "MultiPolygon", "coordinates": [ [ [ [ 127.421008244031313, 36.677201189924517 ], [ 127.423798481792701, 36.668933794674288 ], [ 127.425796341563796, 36.669986364785565 ], [ 127.430175397475054, 36.668873346332873 ], [ 127.433865439535765, 36.664175305983747 ], [ 127.419433725380742, 36.663225828917113 ], [ 127.417062240663412, 36.674310153053682 ], [ 127.421008244031313, 36.677201189924517 ] ] ] ] } },
{ "type": "Feature", "properties": { "emd_cd": "43113131", "emd_nm": "상신동" }, "geometry": { "type": "MultiPolygon", "coordinates": [ [ [ [ 127.439432634258637, 36.666607461072104 ], [ 127.433865439535765, 36.664175305983747 ], [ 127.430175397475054, 36.668873346332873 ], [ 127.425796341563796, 36.669986364785565 ], [ 127.423798481792701, 36.668933794674288 ], [ 127.421008244031313, 36.677201189924517 ], [ 127.422934766395016, 36.67802929157164 ], [ 127.423029898124227, 36.680599707883701 ], [ 127.437049124129743, 36.682588233458482 ], [ 127.4324680411451, 36.675670957089118 ], [ 127.434347452015643, 36.670699782741913 ], [ 127.438385657828235, 36.668347239309611 ], [ 127.437385240206453, 36.666723691571661 ], [ 127.439432634258637, 36.666607461072104 ] ] ] ] } },
{ "type": "Feature", "properties": { "emd_cd": "43113132", "emd_nm": "원평동" }, "geometry": { "type": "MultiPolygon", "coordinates": [ [ [ [ 127.444549485217522, 36.669026260683076 ], [ 127.437385240206453, 36.666723691571661 ], [ 127.438385657828235, 36.668347239309611 ], [ 127.434347452015643, 36.670699782741913 ], [ 127.4324680411451, 36.675670957089118 ], [ 127.433617481565662, 36.675925241527231 ], [ 127.433109204154405, 36.678397426145246 ], [ 127.437316019416812, 36.681474774496472 ], [ 127.435064386185658, 36.683747959042442 ], [ 127.446638215973252, 36.685274226584312 ], [ 127.449093775771857, 36.683147426852777 ], [ 127.44710157817606, 36.681689259762202 ], [ 127.448304450912474, 36.679706603916728 ], [ 127.447311977439398, 36.676433141734421 ], [ 127.44363419479221, 36.672949516489091 ], [ 127.444549485217522, 36.669026260683076 ] ] ] ] } },
{ "type": "Feature", "properties": { "emd_cd": "43113133", "emd_nm": "문암동" }, "geometry": { "type": "MultiPolygon", "coordinates": [ [ [ [ 127.447321795826568, 36.676606975518737 ], [ 127.450413572758933, 36.674892745520886 ], [ 127.456259471006078, 36.674755223322819 ], [ 127.46108279382824, 36.671039856641841 ], [ 127.460161584760428, 36.670098135632003 ], [ 127.458093350963367, 36.671782765014491 ], [ 127.449585176520813, 36.666177846905462 ], [ 127.443447962566708, 36.67105043492905 ], [ 127.447321795826568, 36.676606975518737 ] ] ] ] } },
{ "type": "Feature", "properties": { "emd_cd": "43113134", "emd_nm": "송절동" }, "geometry": { "type": "MultiPolygon", "coordinates": [ [ [ [ 127.464728826990097, 36.65973159410855 ], [ 127.453534281448569, 36.65908257134123 ], [ 127.448207213712834, 36.65613136084729 ], [ 127.444584686610256, 36.65743405144346 ], [ 127.446022711087451, 36.658939709431955 ], [ 127.44321377325663, 36.661992699530146 ], [ 127.441772384302396, 36.661627090343458 ], [ 127.44298826071747, 36.662223681524843 ], [ 127.438716327157394, 36.666103204320216 ], [ 127.446187285251838, 36.670021848825073 ], [ 127.449695943383006, 36.666163643019111 ], [ 127.458093350963367, 36.671782765014491 ], [ 127.461705162522946, 36.670659885175468 ], [ 127.464503930447847, 36.667430362726734 ], [ 127.464728826990097, 36.65973159410855 ] ] ] ] } },
{ "type": "Feature", "properties": { "emd_cd": "43113135", "emd_nm": "화계동" }, "geometry": { "type": "MultiPolygon", "coordinates": [ [ [ [ 127.435546982130916, 36.654006194998821 ], [ 127.436106422112061, 36.665055734645698 ], [ 127.439381183830946, 36.666582427923217 ], [ 127.442985186874978, 36.662222079914599 ], [ 127.44173776069475, 36.661661352727805 ], [ 127.443213392254265, 36.66199257478636 ], [ 127.446022722271763, 36.658939709390189 ], [ 127.444584686610284, 36.65743405144346 ], [ 127.448207213712834, 36.65613136084729 ], [ 127.446610733665281, 36.652293833123309 ], [ 127.435546982130916, 36.654006194998821 ] ] ] ] } },
{ "type": "Feature", "properties": { "emd_cd": "43113136", "emd_nm": "외북동" }, "geometry": { "type": "MultiPolygon", "coordinates": [ [ [ [ 127.421774492624309, 36.663849304533827 ], [ 127.436104867835311, 36.66505781289127 ], [ 127.435545270678432, 36.654008129633773 ], [ 127.440773191800844, 36.653880695718712 ], [ 127.442110953977817, 36.652796933166613 ], [ 127.441174534463642, 36.650636873643592 ], [ 127.432800224005462, 36.652585092602806 ], [ 127.431027890720628, 36.650364771393804 ], [ 127.422633421199521, 36.655151124671875 ], [ 127.423907383651851, 36.661172822191006 ], [ 127.421774492624309, 36.663849304533827 ] ] ] ] } },
{ "type": "Feature", "properties": { "emd_cd": "43113137", "emd_nm": "향정동" }, "geometry": { "type": "MultiPolygon", "coordinates": [ [ [ [ 127.427424876283425, 36.645468899930798 ], [ 127.427424865101031, 36.645468899970801 ], [ 127.427423912048738, 36.64547047133135 ], [ 127.427424876283425, 36.645468899930798 ] ] ], [ [ [ 127.4273709248627, 36.645492089457655 ], [ 127.423314941052155, 36.645991350998834 ], [ 127.419965080163777, 36.650320117794344 ], [ 127.422621411832495, 36.651169237552217 ], [ 127.4231863473819, 36.654533783874186 ], [ 127.431029209748075, 36.650362649001963 ], [ 127.432801587754952, 36.652582970030217 ], [ 127.437312733423582, 36.650682414725033 ], [ 127.430596808771213, 36.64441206180139 ], [ 127.4273709248627, 36.645492089457655 ] ] ] ] } },
{ "type": "Feature", "properties": { "emd_cd": "43113138", "emd_nm": "비하동" }, "geometry": { "type": "MultiPolygon", "coordinates": [ [ [ [ 127.419582785352986, 36.621993388260123 ], [ 127.408906096649872, 36.625204002629836 ], [ 127.409136042347967, 36.628839015757208 ], [ 127.407040119092912, 36.632626073464216 ], [ 127.419788084610246, 36.642002945142302 ], [ 127.421124480355388, 36.648271915934572 ], [ 127.423084557799697, 36.64685767663331 ], [ 127.422586751482569, 36.64259626165876 ], [ 127.425060053114194, 36.638660569799043 ], [ 127.422391134957749, 36.638759483047096 ], [ 127.423142401186155, 36.635717335814903 ], [ 127.42825035353988, 36.628588105741883 ], [ 127.424961839169214, 36.625973824289616 ], [ 127.420877437518598, 36.62617419021506 ], [ 127.419582785352986, 36.621993388260123 ] ] ] ] } },
{ "type": "Feature", "properties": { "emd_cd": "43113139", "emd_nm": "석소동" }, "geometry": { "type": "MultiPolygon", "coordinates": [ [ [ [ 127.380931194719139, 36.62959143642243 ], [ 127.382673357926237, 36.625527291578443 ], [ 127.387943171466546, 36.624482888083882 ], [ 127.38646970725928, 36.621073430850231 ], [ 127.388066570478543, 36.619991170444756 ], [ 127.384706390159025, 36.618612755051842 ], [ 127.382065776288201, 36.614294612189994 ], [ 127.378346643287117, 36.614112292174958 ], [ 127.379427010252243, 36.618629994232194 ], [ 127.375519841078528, 36.624041519063283 ], [ 127.373069355023986, 36.625059439637084 ], [ 127.373099074774814, 36.627924931005069 ], [ 127.380931194719139, 36.62959143642243 ] ] ] ] } },
{ "type": "Feature", "properties": { "emd_cd": "43113140", "emd_nm": "정봉동" }, "geometry": { "type": "MultiPolygon", "coordinates": [ [ [ [ 127.37813721547775, 36.646601378762682 ], [ 127.377543011428841, 36.650013621336804 ], [ 127.378392546573181, 36.652484636717972 ], [ 127.38180550036904, 36.654342204247207 ], [ 127.386196156179011, 36.652282683264346 ], [ 127.389101204691087, 36.653948470915921 ], [ 127.395278080762466, 36.649409118161259 ], [ 127.395395491708456, 36.646420065005195 ], [ 127.392190152371256, 36.643051631661841 ], [ 127.390335071766557, 36.636737483951038 ], [ 127.387126514961324, 36.640334299105945 ], [ 127.387628627193124, 36.641528735232122 ], [ 127.381744284432799, 36.642855301500937 ], [ 127.37813721547775, 36.646601378762682 ] ] ] ] } },
{ "type": "Feature", "properties": { "emd_cd": "43113141", "emd_nm": "신촌동" }, "geometry": { "type": "MultiPolygon", "coordinates": [ [ [ [ 127.377543000333361, 36.650013639394288 ], [ 127.377181792901609, 36.659107350211414 ], [ 127.380052237809309, 36.661146502934123 ], [ 127.393432247831001, 36.660797089504037 ], [ 127.396324376963236, 36.653128318521752 ], [ 127.395626711245939, 36.649642878939744 ], [ 127.389101204691087, 36.653948470915921 ], [ 127.386196156179011, 36.65228268326436 ], [ 127.381804618892716, 36.654342621577868 ], [ 127.378408661196687, 36.652516557573271 ], [ 127.377543000333361, 36.650013639394288 ] ] ] ] } },
{ "type": "Feature", "properties": { "emd_cd": "43113250", "emd_nm": "오송읍" }, "geometry": { "type": "MultiPolygon", "coordinates": [ [ [ [ 127.275708695412661, 36.639833299912468 ], [ 127.277111377883756, 36.641841820922416 ], [ 127.279519306025364, 36.640693857911664 ], [ 127.282636695516032, 36.642217782446025 ], [ 127.281473558289392, 36.644995685831965 ], [ 127.286324240942065, 36.650926951235185 ], [ 127.288986405628847, 36.659377802535666 ], [ 127.295754658703331, 36.659671225102009 ], [ 127.300858275783426, 36.662040466139921 ], [ 127.302454793669128, 36.665714593708252 ], [ 127.305159785532084, 36.667467161168801 ], [ 127.311547321492384, 36.666611380782491 ], [ 127.314339366947053, 36.664453739712556 ], [ 127.322739825576051, 36.66841701629459 ], [ 127.324926428052976, 36.664226133200401 ], [ 127.331591072094085, 36.662124102248555 ], [ 127.334218060286574, 36.657068899549145 ], [ 127.345227636465225, 36.656136163479005 ], [ 127.345619702857192, 36.658874049277351 ], [ 127.349819782296137, 36.659924895559364 ], [ 127.35219300342176, 36.655898220911091 ], [ 127.352159304528058, 36.649748980180995 ], [ 127.348950192238391, 36.643084347416696 ], [ 127.355137761709813, 36.642302734421712 ], [ 127.357808660913335, 36.639086139090701 ], [ 127.356773384545193, 36.636252423648841 ], [ 127.352462771185287, 36.634115436792278 ], [ 127.351048039259538, 36.63158531207003 ], [ 127.351829788310681, 36.623707432082313 ], [ 127.349815694438774, 36.619419180185425 ], [ 127.343320021191232, 36.613237760305559 ], [ 127.345714286058055, 36.60519323546707 ], [ 127.344253251842829, 36.601623487164183 ], [ 127.33746468321074, 36.60088606428176 ], [ 127.336638147747863, 36.600198881144969 ], [ 127.337841920383653, 36.599597715163554 ], [ 127.336470413240036, 36.595815866164649 ], [ 127.332784995801788, 36.591566600313648 ], [ 127.330353394212892, 36.591975635833862 ], [ 127.329961974228667, 36.588764614871117 ], [ 127.325998400465238, 36.585295803733175 ], [ 127.308770029613441, 36.582834464250965 ], [ 127.30390745571259, 36.583393672052104 ], [ 127.299388547446071, 36.586531710510073 ], [ 127.304333315524715, 36.59147933885717 ], [ 127.304369460744539, 36.595987646815018 ], [ 127.306233355916191, 36.602711241335811 ], [ 127.306721579702611, 36.602198193802202 ], [ 127.307058951769932, 36.602121985632543 ], [ 127.301884053149223, 36.606695131523928 ], [ 127.301937169621979, 36.612220258639105 ], [ 127.299610030367077, 36.617940749603015 ], [ 127.29537238282829, 36.619380684554422 ], [ 127.292287796593541, 36.623786865203954 ], [ 127.290434184600471, 36.630630268465254 ], [ 127.292186964646262, 36.635634268139334 ], [ 127.289203722558256, 36.636909504391525 ], [ 127.285460897234387, 36.633889270208265 ], [ 127.279413536659561, 36.633511773284361 ], [ 127.275708695412661, 36.639833299912468 ] ] ] ] } },
{ "type": "Feature", "properties": { "emd_cd": "43113310", "emd_nm": "강내면" }, "geometry": { "type": "MultiPolygon", "coordinates": [ [ [ [ 127.390335071766557, 36.636737483951038 ], [ 127.389340163545114, 36.63115501071497 ], [ 127.390834251215765, 36.630527595064528 ], [ 127.39967802082208, 36.629602361034578 ], [ 127.401617813183222, 36.631506753570477 ], [ 127.407040119092926, 36.63262607346423 ], [ 127.407343725796309, 36.630360385771802 ], [ 127.401507593719529, 36.626320784091739 ], [ 127.393430352388904, 36.62664546676735 ], [ 127.387774896291347, 36.624556830502854 ], [ 127.382754877059924, 36.625524300355522 ], [ 127.380929514153209, 36.629595280572445 ], [ 127.37343261390555, 36.628388673497639 ], [ 127.373069355024015, 36.625059439637063 ], [ 127.375519841078528, 36.624041519063276 ], [ 127.379427010252243, 36.618629994232187 ], [ 127.376101975800765, 36.611770180098191 ], [ 127.378173297683517, 36.606748919338052 ], [ 127.376976247497041, 36.6057294546126 ], [ 127.372894703465519, 36.608577982805954 ], [ 127.370035515573107, 36.608298217959693 ], [ 127.368492950602615, 36.605589260764901 ], [ 127.369016299496849, 36.601181623608412 ], [ 127.36483280859315, 36.599696193608189 ], [ 127.364851019882977, 36.592851888219144 ], [ 127.370224911971292, 36.593067426816532 ], [ 127.374229849123168, 36.587098799487478 ], [ 127.378930001890069, 36.588164657335035 ], [ 127.381264251728709, 36.586774419146607 ], [ 127.383865343305317, 36.588916494681961 ], [ 127.385143744975366, 36.586498027494194 ], [ 127.390297454564532, 36.585345667666708 ], [ 127.386744569460603, 36.577275369097201 ], [ 127.377162015834017, 36.567881663281618 ], [ 127.368359026101501, 36.566272747244909 ], [ 127.365668595145991, 36.562230935451311 ], [ 127.362146636042496, 36.561989123893831 ], [ 127.361421096210876, 36.563744892927005 ], [ 127.360484242233099, 36.562276899461374 ], [ 127.356259928666461, 36.561684510651872 ], [ 127.343237433611449, 36.564666544504654 ], [ 127.337049452529811, 36.562864921633576 ], [ 127.33534542683195, 36.56715655110186 ], [ 127.335770619442442, 36.571079107698033 ], [ 127.332458193271023, 36.572731192969776 ], [ 127.331297525180673, 36.575136721381718 ], [ 127.326387713590421, 36.576520073757251 ], [ 127.324871942288013, 36.580339495348888 ], [ 127.321532537940541, 36.581178525023205 ], [ 127.322958604617654, 36.581954413294291 ], [ 127.321472055803525, 36.583785716451963 ], [ 127.327044196876628, 36.585882014878145 ], [ 127.330391180979888, 36.589477372752611 ], [ 127.330353394212892, 36.591975635833855 ], [ 127.332270063414697, 36.591400221296588 ], [ 127.334593275134509, 36.593271695503645 ], [ 127.337749531756728, 36.599165846929701 ], [ 127.336949578229309, 36.600464127333645 ], [ 127.343183982416079, 36.60096992978103 ], [ 127.345697866780355, 36.603852264534446 ], [ 127.343320021191232, 36.613237760305545 ], [ 127.349815694438746, 36.619419180185425 ], [ 127.351713181898418, 36.623244333674613 ], [ 127.350428046538894, 36.629156347991362 ], [ 127.351884646647719, 36.633522737290932 ], [ 127.358605442789113, 36.637532150192094 ], [ 127.366624304533232, 36.638753398335773 ], [ 127.37813721547775, 36.646601378762682 ], [ 127.381752485515761, 36.642849390982782 ], [ 127.387628627193124, 36.641528735232122 ], [ 127.387126514961324, 36.640334299105945 ], [ 127.390335071766557, 36.636737483951038 ] ] ] ] } },
{ "type": "Feature", "properties": { "emd_cd": "43113320", "emd_nm": "옥산면" }, "geometry": { "type": "MultiPolygon", "coordinates": [ [ [ [ 127.285603690731577, 36.691115836290471 ], [ 127.29170874568392, 36.697351499239538 ], [ 127.296529011627001, 36.697931984874963 ], [ 127.308411254781205, 36.705175822738795 ], [ 127.305814581324853, 36.708238003695392 ], [ 127.308282710372609, 36.714080974898323 ], [ 127.308234902094981, 36.720853706966103 ], [ 127.311337184636017, 36.723650967127249 ], [ 127.310429746658528, 36.724291368396017 ], [ 127.318013592866279, 36.724902935662591 ], [ 127.320191175875806, 36.723674602578313 ], [ 127.326184601500941, 36.724244931180948 ], [ 127.339476635447127, 36.718893336044047 ], [ 127.362646523082972, 36.717762253861473 ], [ 127.374730587907337, 36.712501675191518 ], [ 127.387081652565271, 36.717651552699074 ], [ 127.394700288983543, 36.71729634686865 ], [ 127.4002159915524, 36.712348039192392 ], [ 127.405949591060718, 36.710451039540573 ], [ 127.405983207211264, 36.708758877596438 ], [ 127.410715057877539, 36.710057088832151 ], [ 127.408925378247815, 36.705440478156497 ], [ 127.423198132072059, 36.694421207983048 ], [ 127.425754787995317, 36.689182871509793 ], [ 127.431456626804376, 36.689334271684764 ], [ 127.431649404082947, 36.684625478491391 ], [ 127.436762905183784, 36.682568905717162 ], [ 127.402823412880963, 36.679781890334667 ], [ 127.39536995284999, 36.672615855897142 ], [ 127.396878463951978, 36.664969973296337 ], [ 127.395060403937038, 36.661654355174591 ], [ 127.39054244001116, 36.659958364820511 ], [ 127.379700977537709, 36.661002718427468 ], [ 127.376874167799798, 36.658360118425946 ], [ 127.377974340928489, 36.646362987636401 ], [ 127.366624304533232, 36.63875339833578 ], [ 127.356919761399041, 36.636876160999158 ], [ 127.357723875280101, 36.639862054456728 ], [ 127.35618953907003, 36.641669486848421 ], [ 127.348871535036423, 36.643295818568156 ], [ 127.352159304528058, 36.649748980180995 ], [ 127.35219300342176, 36.655898220911091 ], [ 127.349819782296137, 36.659924895559364 ], [ 127.345619702857192, 36.658874049277351 ], [ 127.345227636465225, 36.656136163479005 ], [ 127.338160130798911, 36.655946557631204 ], [ 127.336871954362522, 36.657538394556681 ], [ 127.334218060286574, 36.657068899549145 ], [ 127.329996122339807, 36.663559873094108 ], [ 127.324926428052976, 36.664226133200401 ], [ 127.322739825576051, 36.66841701629459 ], [ 127.314339366947053, 36.664453739712556 ], [ 127.311547321492384, 36.666611380782491 ], [ 127.306940981761329, 36.666323028771984 ], [ 127.305266658896329, 36.6743043780234 ], [ 127.307688293979268, 36.678214873115444 ], [ 127.307769279693503, 36.681886596423119 ], [ 127.304481421818139, 36.685116502756024 ], [ 127.291939341080521, 36.687036546467517 ], [ 127.285603690731577, 36.691115836290471 ] ] ] ] } }
]
}
