{
"type": "FeatureCollection",
"name": "43111",
"crs": { "type": "name", "properties": { "name": "urn:ogc:def:crs:OGC:1.3:CRS84" } },
"features": [
{ "type": "Feature", "properties": { "emd_cd": "43111101", "emd_nm": "영동" }, "geometry": { "type": "MultiPolygon", "coordinates": [ [ [ [ 127.482776828046511, 36.644836027725077 ], [ 127.48672308984581, 36.644967127606478 ], [ 127.487454351203354, 36.636879839059162 ], [ 127.484617739249245, 36.636593978261679 ], [ 127.482776828046511, 36.644836027725077 ] ] ] ] } },
{ "type": "Feature", "properties": { "emd_cd": "43111102", "emd_nm": "북문로1가동" }, "geometry": { "type": "MultiPolygon", "coordinates": [ [ [ [ 127.487565922390345, 36.633606797746076 ], [ 127.487570851826916, 36.636698634861183 ], [ 127.490197825744559, 36.636805349450846 ], [ 127.490682372743336, 36.633629285777673 ], [ 127.487565922390345, 36.633606797746076 ] ] ] ] } },
{ "type": "Feature", "properties": { "emd_cd": "43111103", "emd_nm": "북문로2가" }, "geometry": { "type": "MultiPolygon", "coordinates": [ [ [ [ 127.487097132826818, 36.640947911844989 ], [ 127.489734383142647, 36.641225023203923 ], [ 127.490295577633205, 36.644723088800617 ], [ 127.490342876031761, 36.636586845176261 ], [ 127.487473384288734, 36.636695067538277 ], [ 127.487097132826818, 36.640947911844989 ] ] ] ] } },
{ "type": "Feature", "properties": { "emd_cd": "43111104", "emd_nm": "북문로3가동" }, "geometry": { "type": "MultiPolygon", "coordinates": [ [ [ [ 127.48672308984581, 36.644967127606478 ], [ 127.489306605532974, 36.646467169578095 ], [ 127.489734383142647, 36.641225023203923 ], [ 127.487097132826818, 36.640947911844989 ], [ 127.48672308984581, 36.644967127606478 ] ] ] ] } },
{ "type": "Feature", "properties": { "emd_cd": "43111105", "emd_nm": "남문로1가동" }, "geometry": { "type": "MultiPolygon", "coordinates": [ [ [ [ 127.491208140114026, 36.628538127648049 ], [ 127.487848822352277, 36.628612685932929 ], [ 127.487593993371334, 36.63134892139783 ], [ 127.490978895078399, 36.631855308473462 ], [ 127.491208140114026, 36.628538127648049 ] ] ] ] } },
{ "type": "Feature", "properties": { "emd_cd": "43111106", "emd_nm": "남문로2가동" }, "geometry": { "type": "MultiPolygon", "coordinates": [ [ [ [ 127.490460953350421, 36.631759753525927 ], [ 127.487499597250022, 36.631340205142159 ], [ 127.487565922390345, 36.633606797746076 ], [ 127.490682372743336, 36.633629285777673 ], [ 127.490460953350421, 36.631759753525927 ] ] ] ] } },
{ "type": "Feature", "properties": { "emd_cd": "43111107", "emd_nm": "문화동" }, "geometry": { "type": "MultiPolygon", "coordinates": [ [ [ [ 127.490431015122908, 36.635844878457299 ], [ 127.493737860445435, 36.636357868269393 ], [ 127.494479644962965, 36.63253290079389 ], [ 127.490460953350421, 36.631759753525927 ], [ 127.490431015122908, 36.635844878457299 ] ] ] ] } },
{ "type": "Feature", "properties": { "emd_cd": "43111108", "emd_nm": "서운동" }, "geometry": { "type": "MultiPolygon", "coordinates": [ [ [ [ 127.495216726385024, 36.627955445534639 ], [ 127.491208140114026, 36.628538127648049 ], [ 127.490978895078399, 36.631855308473462 ], [ 127.493851810541713, 36.631732570103374 ], [ 127.495216726385024, 36.627955445534639 ] ] ] ] } },
{ "type": "Feature", "properties": { "emd_cd": "43111109", "emd_nm": "서문동" }, "geometry": { "type": "MultiPolygon", "coordinates": [ [ [ [ 127.482191702278072, 36.632609143823714 ], [ 127.484617739249245, 36.636593978261679 ], [ 127.487454351203354, 36.636879839059162 ], [ 127.487518890140933, 36.632003559778617 ], [ 127.482191702278072, 36.632609143823714 ] ] ] ] } },
{ "type": "Feature", "properties": { "emd_cd": "43111110", "emd_nm": "남주동" }, "geometry": { "type": "MultiPolygon", "coordinates": [ [ [ [ 127.487593993371334, 36.63134892139783 ], [ 127.487848822352277, 36.628612685932929 ], [ 127.486170146833487, 36.628546742486186 ], [ 127.483546237372053, 36.629155534383905 ], [ 127.482270992886228, 36.631816710182122 ], [ 127.487593993371334, 36.63134892139783 ] ] ] ] } },
{ "type": "Feature", "properties": { "emd_cd": "43111111", "emd_nm": "석교동" }, "geometry": { "type": "MultiPolygon", "coordinates": [ [ [ [ 127.496112746424174, 36.624941690724484 ], [ 127.491754592062435, 36.62440748452255 ], [ 127.484598476733751, 36.628767042847841 ], [ 127.495216726385024, 36.627955445534639 ], [ 127.496112746424174, 36.624941690724484 ] ] ] ] } },
{ "type": "Feature", "properties": { "emd_cd": "43111112", "emd_nm": "수동" }, "geometry": { "type": "MultiPolygon", "coordinates": [ [ [ [ 127.489306605532974, 36.646467169578095 ], [ 127.493997999330773, 36.647838258568633 ], [ 127.500948068358539, 36.647243851922894 ], [ 127.505099334948426, 36.650117282362466 ], [ 127.506537183194538, 36.648366358419189 ], [ 127.503411551452473, 36.644349383629567 ], [ 127.500905596376882, 36.643743233737851 ], [ 127.501697834198325, 36.640115207726438 ], [ 127.500547271575357, 36.638613836647892 ], [ 127.490431015122908, 36.635844878457299 ], [ 127.489306605532974, 36.646467169578095 ] ] ] ] } },
{ "type": "Feature", "properties": { "emd_cd": "43111117", "emd_nm": "탑동" }, "geometry": { "type": "MultiPolygon", "coordinates": [ [ [ [ 127.50346286570911, 36.631839006627516 ], [ 127.498634116111973, 36.625272299819713 ], [ 127.49611274642416, 36.624941690724455 ], [ 127.493173970125142, 36.632254352510586 ], [ 127.497114205364156, 36.63148275186272 ], [ 127.499404805491324, 36.633030529349483 ], [ 127.50346286570911, 36.631839006627516 ] ] ] ] } },
{ "type": "Feature", "properties": { "emd_cd": "43111118", "emd_nm": "대성동" }, "geometry": { "type": "MultiPolygon", "coordinates": [ [ [ [ 127.493529421921593, 36.635660134829848 ], [ 127.499538923972878, 36.638093847127934 ], [ 127.499619925493278, 36.634451771264345 ], [ 127.501974862815757, 36.632655266629904 ], [ 127.496209413761719, 36.631620112466216 ], [ 127.493529421921593, 36.635660134829848 ] ] ] ] } },
{ "type": "Feature", "properties": { "emd_cd": "43111119", "emd_nm": "영운동" }, "geometry": { "type": "MultiPolygon", "coordinates": [ [ [ [ 127.493905408168146, 36.622380351632003 ], [ 127.497954415659549, 36.623203019180622 ], [ 127.50330949040341, 36.620772056177742 ], [ 127.511135370514438, 36.620922824717773 ], [ 127.497703149952471, 36.614789911427707 ], [ 127.494037919585239, 36.616274031042956 ], [ 127.493905408168146, 36.622380351632003 ] ] ] ] } },
{ "type": "Feature", "properties": { "emd_cd": "43111120", "emd_nm": "금천동" }, "geometry": { "type": "MultiPolygon", "coordinates": [ [ [ [ 127.491754592062435, 36.62440748452255 ], [ 127.498634116111973, 36.625272299819713 ], [ 127.50346286570911, 36.631839006627516 ], [ 127.506097564437923, 36.630808528571244 ], [ 127.511743609887489, 36.633306001095207 ], [ 127.514939265623184, 36.628883806501008 ], [ 127.513595672123927, 36.628484174061526 ], [ 127.51454442678272, 36.625719325119455 ], [ 127.509494289596219, 36.621231149769379 ], [ 127.503903527985401, 36.620669870782862 ], [ 127.497954415659549, 36.623203019180615 ], [ 127.49512664559883, 36.622076206823245 ], [ 127.491754592062435, 36.62440748452255 ] ] ] ] } },
{ "type": "Feature", "properties": { "emd_cd": "43111121", "emd_nm": "용담동" }, "geometry": { "type": "MultiPolygon", "coordinates": [ [ [ [ 127.516339743872749, 36.638215863526057 ], [ 127.514060315962013, 36.635873289856988 ], [ 127.515359663271013, 36.633720366950975 ], [ 127.508327194340936, 36.632775675138518 ], [ 127.506097564437923, 36.630808528571222 ], [ 127.499608079589748, 36.634482224629174 ], [ 127.499538923972878, 36.638093847127934 ], [ 127.501697834198325, 36.640115207726438 ], [ 127.500905596376882, 36.643743233737851 ], [ 127.503411551452473, 36.644349383629567 ], [ 127.506537183194538, 36.648366358419189 ], [ 127.508745429484705, 36.648248301026825 ], [ 127.51080393455544, 36.645174090688556 ], [ 127.512706260177694, 36.645397332047288 ], [ 127.511971228585466, 36.640248485070934 ], [ 127.516339743872749, 36.638215863526057 ] ] ] ] } },
{ "type": "Feature", "properties": { "emd_cd": "43111122", "emd_nm": "명암동" }, "geometry": { "type": "MultiPolygon", "coordinates": [ [ [ [ 127.516339743872749, 36.638215863526057 ], [ 127.511971228585466, 36.640248485070934 ], [ 127.512706260177694, 36.645397332047288 ], [ 127.51080393455544, 36.645174090688556 ], [ 127.505996008293366, 36.649909970551228 ], [ 127.509562057538886, 36.653240244184843 ], [ 127.51844193486815, 36.65487386491786 ], [ 127.52421454585695, 36.657866181232187 ], [ 127.528301073154111, 36.662623175848552 ], [ 127.534316617431969, 36.664313529771952 ], [ 127.53391056432497, 36.662570163769487 ], [ 127.536654661373603, 36.660780811507806 ], [ 127.537721152236387, 36.657176515295227 ], [ 127.535844340804587, 36.651967301958905 ], [ 127.532754609962325, 36.648647661818103 ], [ 127.526020142668017, 36.648446809545341 ], [ 127.516339743872749, 36.638215863526057 ] ] ] ] } },
{ "type": "Feature", "properties": { "emd_cd": "43111123", "emd_nm": "산성동" }, "geometry": { "type": "MultiPolygon", "coordinates": [ [ [ [ 127.532706598293501, 36.665931690533348 ], [ 127.535981343860271, 36.669151763526706 ], [ 127.540181973830258, 36.669479695352166 ], [ 127.553658712441589, 36.664327628054714 ], [ 127.553688704291119, 36.662364554433154 ], [ 127.547987820525179, 36.654514896671074 ], [ 127.548927899075622, 36.65226470916582 ], [ 127.544859773869064, 36.650783831342899 ], [ 127.545260797713709, 36.647618484711415 ], [ 127.539762436240437, 36.645318039428389 ], [ 127.533236551959291, 36.646355382855297 ], [ 127.532754609962325, 36.648647661818103 ], [ 127.536698224614057, 36.653291066582405 ], [ 127.537721152236387, 36.657176515295227 ], [ 127.532706598293501, 36.665931690533348 ] ] ] ] } },
{ "type": "Feature", "properties": { "emd_cd": "43111124", "emd_nm": "용암동" }, "geometry": { "type": "MultiPolygon", "coordinates": [ [ [ [ 127.508430166237986, 36.605335666941009 ], [ 127.507763016800297, 36.606600078493855 ], [ 127.501372088685741, 36.604703422647127 ], [ 127.498238758699117, 36.606134219961113 ], [ 127.497407847285601, 36.615532036237909 ], [ 127.499726607981287, 36.614807574252083 ], [ 127.505088307547098, 36.617283268042122 ], [ 127.518047046462073, 36.625604437974815 ], [ 127.51844366581399, 36.623338828494106 ], [ 127.515277568509859, 36.618485323033852 ], [ 127.515593659432682, 36.618263508959195 ], [ 127.519131161877311, 36.62367301684494 ], [ 127.521881497488408, 36.621176282246488 ], [ 127.532429789015055, 36.628063015504424 ], [ 127.535447529987678, 36.633602676826918 ], [ 127.539188000493652, 36.634663008647514 ], [ 127.543042643728924, 36.625638924407724 ], [ 127.53652527413476, 36.619863349934505 ], [ 127.530903562022957, 36.618954436182882 ], [ 127.52980019874984, 36.615149745896744 ], [ 127.525841778033779, 36.614300600679222 ], [ 127.524005066986547, 36.606572697683433 ], [ 127.514326007739427, 36.601500150404327 ], [ 127.510888804215753, 36.606038451423295 ], [ 127.508430166237986, 36.605335666941009 ] ] ] ] } },
{ "type": "Feature", "properties": { "emd_cd": "43111125", "emd_nm": "용정동" }, "geometry": { "type": "MultiPolygon", "coordinates": [ [ [ [ 127.511135370514438, 36.620922824717773 ], [ 127.510022525600675, 36.622501291294135 ], [ 127.515049783208184, 36.627106227804383 ], [ 127.511805951711821, 36.633129294564903 ], [ 127.515359663271013, 36.633720366950975 ], [ 127.514060315962013, 36.635873289856988 ], [ 127.522190550567572, 36.643011101987945 ], [ 127.522674162794885, 36.645659169439853 ], [ 127.527296975569783, 36.648985302879588 ], [ 127.532754609962325, 36.648647661818103 ], [ 127.533236551959291, 36.646355382855297 ], [ 127.537647883857815, 36.645243437484929 ], [ 127.536651297080795, 36.641187495909605 ], [ 127.539875866299866, 36.636392295883077 ], [ 127.535447529987678, 36.633602676826918 ], [ 127.532429789015055, 36.628063015504424 ], [ 127.521881497488408, 36.621176282246488 ], [ 127.519131161877311, 36.62367301684494 ], [ 127.515593659432682, 36.618263508959195 ], [ 127.51844366581399, 36.623338828494106 ], [ 127.518047046462073, 36.625604437974815 ], [ 127.511135370514438, 36.620922824717773 ] ] ] ] } },
{ "type": "Feature", "properties": { "emd_cd": "43111126", "emd_nm": "방서동" }, "geometry": { "type": "MultiPolygon", "coordinates": [ [ [ [ 127.504765601140349, 36.597320441551524 ], [ 127.498861892548334, 36.596579112145761 ], [ 127.499046946466976, 36.598655410696523 ], [ 127.49675237138517, 36.598079883593492 ], [ 127.497436895062535, 36.613118982957985 ], [ 127.498238758699117, 36.606134219961113 ], [ 127.501372088685741, 36.604703422647127 ], [ 127.510888804215753, 36.606038451423295 ], [ 127.514326007739427, 36.601500150404327 ], [ 127.504765601140349, 36.597320441551524 ] ] ] ] } },
{ "type": "Feature", "properties": { "emd_cd": "43111127", "emd_nm": "평촌동" }, "geometry": { "type": "MultiPolygon", "coordinates": [ [ [ [ 127.502330954735044, 36.597072523966759 ], [ 127.501941982088113, 36.593610305496547 ], [ 127.498816360828371, 36.593247193946986 ], [ 127.499847028613019, 36.59013697146321 ], [ 127.498493806480028, 36.588911409786647 ], [ 127.496317740288731, 36.593062525747278 ], [ 127.496724122993427, 36.598080487577931 ], [ 127.499046946466976, 36.598655410696523 ], [ 127.498861892548334, 36.596579112145761 ], [ 127.502330954735044, 36.597072523966759 ] ] ] ] } },
{ "type": "Feature", "properties": { "emd_cd": "43111128", "emd_nm": "지북동" }, "geometry": { "type": "MultiPolygon", "coordinates": [ [ [ [ 127.50006174864977, 36.586639596070178 ], [ 127.498816360828371, 36.593247193946986 ], [ 127.501941982088113, 36.593610305496547 ], [ 127.502330954735044, 36.597072523966759 ], [ 127.511676227378331, 36.600082886250803 ], [ 127.51319988295181, 36.598188521877411 ], [ 127.516854175249009, 36.600158597724146 ], [ 127.521662588412013, 36.598746397781561 ], [ 127.519655031109551, 36.59390756874356 ], [ 127.503405286080138, 36.58985935389709 ], [ 127.503591867080232, 36.586969577822138 ], [ 127.50006174864977, 36.586639596070178 ] ] ] ] } },
{ "type": "Feature", "properties": { "emd_cd": "43111129", "emd_nm": "운동동" }, "geometry": { "type": "MultiPolygon", "coordinates": [ [ [ [ 127.543787080976458, 36.603068785788174 ], [ 127.542216453886368, 36.599404081914194 ], [ 127.533375698766818, 36.601854183259555 ], [ 127.524004411783523, 36.601654783333359 ], [ 127.521802490168824, 36.598106023682789 ], [ 127.51685417524898, 36.600158597724146 ], [ 127.513199882951781, 36.598188521877418 ], [ 127.511676227378331, 36.600082886250803 ], [ 127.524005066986547, 36.606572697683433 ], [ 127.525841778033779, 36.614300600679222 ], [ 127.528875333704519, 36.614784625299279 ], [ 127.52888298110075, 36.611319618263352 ], [ 127.534465739550669, 36.609578861564451 ], [ 127.536705422009177, 36.60632156986027 ], [ 127.543787080976458, 36.603068785788174 ] ] ] ] } },
{ "type": "Feature", "properties": { "emd_cd": "43111130", "emd_nm": "월오동" }, "geometry": { "type": "MultiPolygon", "coordinates": [ [ [ [ 127.52888298110075, 36.611319618263352 ], [ 127.530903562022957, 36.618954436182861 ], [ 127.53652527413476, 36.619863349934526 ], [ 127.543042643728924, 36.625638924407724 ], [ 127.540655775400779, 36.632848089189537 ], [ 127.538463046615064, 36.634796652185869 ], [ 127.539875866299866, 36.636392295883063 ], [ 127.536523966959606, 36.643788957894991 ], [ 127.545260797713709, 36.647618484711415 ], [ 127.553860075722795, 36.647905928570246 ], [ 127.553571618117417, 36.64483716761481 ], [ 127.557439938666988, 36.637384269196211 ], [ 127.556489356304198, 36.634692174992942 ], [ 127.558590932564357, 36.632105787731831 ], [ 127.556423573929578, 36.630462644946391 ], [ 127.557574172290529, 36.626664349451083 ], [ 127.554803886038783, 36.6243473808521 ], [ 127.553451072878204, 36.617343300783048 ], [ 127.550516713562416, 36.615388724521274 ], [ 127.543787080976458, 36.603068785788174 ], [ 127.536705422009177, 36.60632156986027 ], [ 127.534465739550669, 36.609578861564451 ], [ 127.52888298110075, 36.611319618263352 ] ] ] ] } },
{ "type": "Feature", "properties": { "emd_cd": "43111310", "emd_nm": "낭성면" }, "geometry": { "type": "MultiPolygon", "coordinates": [ [ [ [ 127.557574172290529, 36.626664349451083 ], [ 127.556423573929578, 36.630462644946377 ], [ 127.558590921319237, 36.632105778773216 ], [ 127.556489356304198, 36.634692174992942 ], [ 127.557439938666988, 36.637384269196218 ], [ 127.553571618117445, 36.64483716761481 ], [ 127.553860075722795, 36.647905928570232 ], [ 127.545260797713709, 36.647618484711415 ], [ 127.544892906265375, 36.650256427526998 ], [ 127.548927899075622, 36.65226470916582 ], [ 127.547987820461486, 36.65451488766017 ], [ 127.55374909435163, 36.662350784754864 ], [ 127.553713663518238, 36.66432419236002 ], [ 127.543246182267268, 36.668812344444802 ], [ 127.548622277607464, 36.673493331831374 ], [ 127.552718027711606, 36.672928686041821 ], [ 127.560030338299796, 36.675249973398962 ], [ 127.566987803001538, 36.674364066017674 ], [ 127.579366104830541, 36.684242057547777 ], [ 127.583075648555479, 36.684459494551781 ], [ 127.597791897893401, 36.675560120345907 ], [ 127.59693053206837, 36.669967707730173 ], [ 127.600449012162031, 36.664783151169409 ], [ 127.601686395682322, 36.65688165786748 ], [ 127.609278663519859, 36.648752914501152 ], [ 127.613061846605021, 36.647579062556602 ], [ 127.620755653150226, 36.648603882998565 ], [ 127.620444235754846, 36.64652507216929 ], [ 127.62501739055206, 36.645862739262078 ], [ 127.626229006442244, 36.643220334655027 ], [ 127.631159285427913, 36.642959430346728 ], [ 127.634585560413242, 36.639606148128507 ], [ 127.638746729860074, 36.639498492182518 ], [ 127.638782262320035, 36.634527806736592 ], [ 127.641931529316466, 36.633521999974839 ], [ 127.643515501069473, 36.629301084748974 ], [ 127.646632864347396, 36.62673502578582 ], [ 127.643969157902148, 36.619005194506151 ], [ 127.649033503533573, 36.616077139362893 ], [ 127.648662575198429, 36.613251996752226 ], [ 127.645492571490678, 36.609884182062345 ], [ 127.646241508601889, 36.606610152652223 ], [ 127.64055226119757, 36.60158027878645 ], [ 127.635692348417265, 36.600180098333887 ], [ 127.630159165415904, 36.593591280479188 ], [ 127.631834488015883, 36.589468837391401 ], [ 127.630456155827943, 36.586422249702423 ], [ 127.622154167961398, 36.58106382651647 ], [ 127.622334534109299, 36.578177541347436 ], [ 127.617730284578002, 36.577536860243661 ], [ 127.614281534025551, 36.573430069931526 ], [ 127.607606854188461, 36.577786043916475 ], [ 127.605903933806331, 36.582683581478229 ], [ 127.601877309759729, 36.585345558408783 ], [ 127.595727090562434, 36.58382320636769 ], [ 127.590804159328641, 36.585631359277762 ], [ 127.585526397817418, 36.58328347283679 ], [ 127.58050199653519, 36.584745143488867 ], [ 127.585319547155649, 36.591039630470455 ], [ 127.585730658547547, 36.593858720395616 ], [ 127.584340675536467, 36.594445065274819 ], [ 127.585855575356518, 36.598149519896168 ], [ 127.583456519524532, 36.605571109830557 ], [ 127.584513487955647, 36.606801310175889 ], [ 127.575498759661485, 36.614727885290137 ], [ 127.576412210338262, 36.617043553132959 ], [ 127.57432506206446, 36.619985409752459 ], [ 127.563231941708793, 36.622355876057917 ], [ 127.557574172290529, 36.626664349451083 ] ] ] ] } },
{ "type": "Feature", "properties": { "emd_cd": "43111320", "emd_nm": "미원면" }, "geometry": { "type": "MultiPolygon", "coordinates": [ [ [ [ 127.585815761153341, 36.682925042365518 ], [ 127.586859674032581, 36.68534185653489 ], [ 127.591663781036658, 36.688091633308936 ], [ 127.590697261415684, 36.691622396890772 ], [ 127.594577888165574, 36.693173808713055 ], [ 127.597606547884283, 36.697311351071974 ], [ 127.612014472485882, 36.699646309722482 ], [ 127.617375793430583, 36.707292118888148 ], [ 127.623004240080405, 36.704610240437134 ], [ 127.627388624147059, 36.707507564012658 ], [ 127.633814085192682, 36.708927442923908 ], [ 127.638238317579024, 36.707967263540226 ], [ 127.64235398858051, 36.702615048448664 ], [ 127.651137735483005, 36.701990511848201 ], [ 127.654812791839532, 36.704374034281464 ], [ 127.662568439113713, 36.714998485257759 ], [ 127.661357480886423, 36.722303214960476 ], [ 127.664512797507825, 36.729914061811421 ], [ 127.671969605837958, 36.722199219342727 ], [ 127.677417001166717, 36.71976073492521 ], [ 127.679539740156329, 36.717055489520042 ], [ 127.683753808836528, 36.717350338387128 ], [ 127.684539753804415, 36.719646628403773 ], [ 127.686891257223024, 36.720502123717402 ], [ 127.688731591679115, 36.715598341643997 ], [ 127.692597916577299, 36.712114597203382 ], [ 127.701926496731431, 36.709871825979725 ], [ 127.703388823978173, 36.701936263361823 ], [ 127.70852810957868, 36.70040419583696 ], [ 127.711388910561041, 36.696014089823187 ], [ 127.713694104476588, 36.695265772113999 ], [ 127.712904039245728, 36.69032029775542 ], [ 127.718611237034168, 36.688269467051249 ], [ 127.723514202398619, 36.683062100851814 ], [ 127.723183087149749, 36.681452691682189 ], [ 127.727055018064007, 36.682573465470846 ], [ 127.724874262949768, 36.675303308218737 ], [ 127.712504086828702, 36.667628385526456 ], [ 127.714628297748618, 36.665367235819517 ], [ 127.712588918576913, 36.66619850805175 ], [ 127.710196311486413, 36.662731675896346 ], [ 127.712168781049826, 36.660388740636797 ], [ 127.712238905319836, 36.657169025062963 ], [ 127.709288453573947, 36.654009610368931 ], [ 127.712547259975651, 36.650356130035782 ], [ 127.719059090454863, 36.652000685917017 ], [ 127.723366453600889, 36.651320564529819 ], [ 127.725894554468198, 36.644675248597046 ], [ 127.734773605771181, 36.639646975967509 ], [ 127.738107184743427, 36.641283090649011 ], [ 127.737677853219338, 36.636466576634646 ], [ 127.740202223671474, 36.634978673457169 ], [ 127.74000887182045, 36.633173174133447 ], [ 127.745433935692091, 36.632227653070061 ], [ 127.744204388498829, 36.628953310190958 ], [ 127.749178368664502, 36.62611693669502 ], [ 127.75018706853642, 36.621875292518745 ], [ 127.764527918121914, 36.613066255070173 ], [ 127.769470038760559, 36.603994581120737 ], [ 127.769184785997822, 36.593828031554466 ], [ 127.763512141943096, 36.590995221449802 ], [ 127.755174416837463, 36.590038687067761 ], [ 127.745829916198261, 36.585265566707932 ], [ 127.742011312360319, 36.588194343324346 ], [ 127.741015731817853, 36.591264536027488 ], [ 127.737321936168527, 36.592633727105095 ], [ 127.735964421780594, 36.595718509826682 ], [ 127.736485598503734, 36.600021105712095 ], [ 127.728739875151476, 36.60231238929677 ], [ 127.726408737057525, 36.599938265738956 ], [ 127.720166572444867, 36.602642344765485 ], [ 127.713782625877371, 36.601959083120143 ], [ 127.709839194558825, 36.596043208242165 ], [ 127.705659375449599, 36.595109051683572 ], [ 127.70243332362999, 36.591103088388245 ], [ 127.694614478000119, 36.588430586161685 ], [ 127.686953061432874, 36.592051144218573 ], [ 127.680458748810707, 36.592429595659766 ], [ 127.679148729694731, 36.595568980626048 ], [ 127.676678376897101, 36.596715175185338 ], [ 127.668595054020415, 36.59452407724622 ], [ 127.668511877270632, 36.598451612049359 ], [ 127.665122202992535, 36.602547799891376 ], [ 127.654065982277899, 36.600316772290327 ], [ 127.652402778844205, 36.604821686738426 ], [ 127.646241508601889, 36.60661015265223 ], [ 127.645496583941949, 36.609873401023435 ], [ 127.648375211532056, 36.612701505096084 ], [ 127.649033503533573, 36.616077139362893 ], [ 127.643969157902148, 36.619005194506151 ], [ 127.646632864347396, 36.626735025785827 ], [ 127.643515501069473, 36.629301084748988 ], [ 127.641931529316437, 36.63352199997486 ], [ 127.638782262320049, 36.634527806736621 ], [ 127.638746729860074, 36.639498492182511 ], [ 127.634585560413242, 36.639606148128493 ], [ 127.631159285427884, 36.642959430346728 ], [ 127.62622900644223, 36.643220334655027 ], [ 127.62501739055206, 36.645862739262078 ], [ 127.620444235754846, 36.646525072169275 ], [ 127.620755653150226, 36.648603882998565 ], [ 127.613061846605021, 36.647579062556595 ], [ 127.609278663519859, 36.648752914501138 ], [ 127.601686395682322, 36.656881657867466 ], [ 127.600449012162031, 36.664783151169416 ], [ 127.59693053206837, 36.669967707730173 ], [ 127.597791897893401, 36.675560120345914 ], [ 127.585815761153341, 36.682925042365518 ] ] ] ] } },
{ "type": "Feature", "properties": { "emd_cd": "43111330", "emd_nm": "가덕면" }, "geometry": { "type": "MultiPolygon", "coordinates": [ [ [ [ 127.544292195130069, 36.603948732153931 ], [ 127.550516713562416, 36.615388724521274 ], [ 127.553451072878175, 36.617343300783041 ], [ 127.554803886038783, 36.6243473808521 ], [ 127.557574172290529, 36.626664349451083 ], [ 127.563231941708793, 36.622355876057917 ], [ 127.57432506206446, 36.619985409752459 ], [ 127.576412210338262, 36.617043553132959 ], [ 127.575498759661485, 36.614727885290137 ], [ 127.584513487955647, 36.606801310175889 ], [ 127.583456519524532, 36.605571109830557 ], [ 127.585855575356518, 36.598149519896168 ], [ 127.584340675536467, 36.594445065274819 ], [ 127.585730658547547, 36.593858720395616 ], [ 127.585319547155649, 36.591039630470455 ], [ 127.58050199653519, 36.584745143488867 ], [ 127.585526397817418, 36.58328347283679 ], [ 127.590802840602862, 36.585628392084942 ], [ 127.59574331811136, 36.583829487415201 ], [ 127.601872951557354, 36.585348391867619 ], [ 127.605191675575099, 36.583325646507504 ], [ 127.607606854188461, 36.577786043916475 ], [ 127.614321192992435, 36.573397290383767 ], [ 127.611184764318565, 36.57002692190926 ], [ 127.611240209997433, 36.56675382785739 ], [ 127.617139399672055, 36.559511170789989 ], [ 127.61423465082423, 36.556852171488529 ], [ 127.612341397029653, 36.551456897924119 ], [ 127.603624135731351, 36.547879738242891 ], [ 127.599059620533339, 36.548296897962949 ], [ 127.591940764434455, 36.543579415906962 ], [ 127.580884457588908, 36.541980247710789 ], [ 127.579498145924205, 36.537299356228942 ], [ 127.571121087905581, 36.535685324606767 ], [ 127.55292542821644, 36.521793089638827 ], [ 127.546247385816528, 36.52439574391682 ], [ 127.538181647473905, 36.522129083334171 ], [ 127.53668507478136, 36.523085326372325 ], [ 127.537648158047986, 36.525395588653986 ], [ 127.535504927337797, 36.525748923653175 ], [ 127.531691225717069, 36.525648599719311 ], [ 127.524215716937235, 36.519125612388869 ], [ 127.522365450463198, 36.520390180638898 ], [ 127.518644513516975, 36.519451010999859 ], [ 127.518739979736694, 36.521015918813909 ], [ 127.514839759959912, 36.522156441335511 ], [ 127.510412270473381, 36.52081977716194 ], [ 127.510430445367803, 36.523446544037341 ], [ 127.508322763946964, 36.524019846838428 ], [ 127.506313436570622, 36.528510833241981 ], [ 127.503345694050907, 36.529105933268561 ], [ 127.504954661773539, 36.542105098574645 ], [ 127.508064013368852, 36.546544519636001 ], [ 127.504262673343135, 36.55083929135121 ], [ 127.505974068888079, 36.55593174016942 ], [ 127.507398564221091, 36.554150679825177 ], [ 127.518739039551761, 36.555628663066891 ], [ 127.521067579606395, 36.554225667842736 ], [ 127.521449045549573, 36.557656436709266 ], [ 127.524262369641974, 36.558513142331201 ], [ 127.525670406998742, 36.561069815464549 ], [ 127.528886384761748, 36.559584320587419 ], [ 127.531242401636959, 36.554279924658623 ], [ 127.533825938196145, 36.554955406135257 ], [ 127.535134122632698, 36.553269334796965 ], [ 127.538411525082353, 36.555145008466511 ], [ 127.545700448425819, 36.555551942773697 ], [ 127.548185151914055, 36.558699032582901 ], [ 127.547514288987557, 36.56356267874304 ], [ 127.550640708468578, 36.565436079337523 ], [ 127.556881532761324, 36.563827266267772 ], [ 127.561709056433315, 36.565185599246092 ], [ 127.561817658052419, 36.569633539263961 ], [ 127.56664197123041, 36.573272719031685 ], [ 127.567957667346931, 36.578468863790803 ], [ 127.570601390362924, 36.580009409363832 ], [ 127.566151061204209, 36.583064467331965 ], [ 127.569555179302398, 36.586393742561675 ], [ 127.562052802227612, 36.590003430688917 ], [ 127.562953503815464, 36.593087338929237 ], [ 127.559841190167333, 36.593277606051537 ], [ 127.559962848093534, 36.597402133435793 ], [ 127.557694561257037, 36.601036530695318 ], [ 127.548429744804992, 36.604779999731328 ], [ 127.544292195130069, 36.603948732153931 ] ] ] ] } },
{ "type": "Feature", "properties": { "emd_cd": "43111340", "emd_nm": "남일면" }, "geometry": { "type": "MultiPolygon", "coordinates": [ [ [ [ 127.467037156441336, 36.563769111486415 ], [ 127.468527939764769, 36.573502804088136 ], [ 127.47073759720756, 36.57492233107601 ], [ 127.47071039215416, 36.577291539725856 ], [ 127.474048846927445, 36.578707727184032 ], [ 127.474097926599015, 36.581106937376866 ], [ 127.486279588615389, 36.583844909430631 ], [ 127.485583157808975, 36.582506705294378 ], [ 127.49164517785924, 36.582587825768684 ], [ 127.492559144922836, 36.583218937087373 ], [ 127.491307540208808, 36.584655918050835 ], [ 127.498918066748573, 36.58837180157812 ], [ 127.50006174864977, 36.586639596070178 ], [ 127.503591867080232, 36.586969577822138 ], [ 127.503405207627054, 36.589859318182313 ], [ 127.519655031109551, 36.59390756874356 ], [ 127.524004411783523, 36.601654783333345 ], [ 127.533375698766818, 36.601854183259562 ], [ 127.54218632592746, 36.599391593832365 ], [ 127.544010819006829, 36.603684470017171 ], [ 127.547321096144174, 36.604902012192369 ], [ 127.552785534007882, 36.603499141282889 ], [ 127.558684008248193, 36.599961337580901 ], [ 127.559841190167333, 36.593277606051537 ], [ 127.562953503815464, 36.593087338929237 ], [ 127.562316499299172, 36.589679145780686 ], [ 127.569555179302398, 36.586393742561675 ], [ 127.566151061204209, 36.583064467331965 ], [ 127.570601390362924, 36.580009409363832 ], [ 127.567957667346931, 36.578468863790803 ], [ 127.56664197123041, 36.573272719031685 ], [ 127.561817658052419, 36.569633539263961 ], [ 127.561934814100923, 36.565404170522548 ], [ 127.556881532761324, 36.563827266267772 ], [ 127.549705367416337, 36.565198322190973 ], [ 127.547514288987557, 36.56356267874304 ], [ 127.548185151914055, 36.558699032582901 ], [ 127.545700448425819, 36.555551942773697 ], [ 127.538411525082353, 36.555145008466511 ], [ 127.535134122632698, 36.553269334796965 ], [ 127.533825938196145, 36.554955406135257 ], [ 127.531242401636959, 36.554279924658623 ], [ 127.528886384761748, 36.559584320587419 ], [ 127.525670406998742, 36.561069815464549 ], [ 127.524262369641974, 36.558513142331201 ], [ 127.521449045549573, 36.557656436709266 ], [ 127.521478082308889, 36.554403113760962 ], [ 127.518739039551761, 36.555628663066891 ], [ 127.507398564221091, 36.554150679825177 ], [ 127.506060907683533, 36.556009960560878 ], [ 127.504105727038748, 36.553504199971826 ], [ 127.504262673343135, 36.55083929135121 ], [ 127.499126494693286, 36.550802163009848 ], [ 127.497801902065774, 36.548287805150714 ], [ 127.491572846487998, 36.544492249595734 ], [ 127.485961090415472, 36.545325381055477 ], [ 127.484135033110846, 36.551956146235739 ], [ 127.480262388116984, 36.554712810618092 ], [ 127.47957435305949, 36.557656656621582 ], [ 127.481778469199568, 36.56136933626437 ], [ 127.475249801386298, 36.562860923660217 ], [ 127.472552849035665, 36.560959052427947 ], [ 127.468855797312955, 36.561245175682011 ], [ 127.467037156441336, 36.563769111486415 ] ] ] ] } },
{ "type": "Feature", "properties": { "emd_cd": "43111350", "emd_nm": "문의면" }, "geometry": { "type": "MultiPolygon", "coordinates": [ [ [ [ 127.504262673343135, 36.55083929135121 ], [ 127.508064013368852, 36.546544519636001 ], [ 127.504954661773539, 36.542105098574645 ], [ 127.503345694050907, 36.529105933268561 ], [ 127.506313436570622, 36.528510833241981 ], [ 127.508322763946964, 36.524019846838428 ], [ 127.510430445367803, 36.523446544037341 ], [ 127.510412270473381, 36.52081977716194 ], [ 127.514839759959912, 36.522156441335511 ], [ 127.518739979736694, 36.521015918813909 ], [ 127.518644513516975, 36.519451010999859 ], [ 127.522365450463198, 36.520390180638898 ], [ 127.524215716937235, 36.519125612388869 ], [ 127.531691225717069, 36.525648599719311 ], [ 127.535504927337797, 36.525748923653175 ], [ 127.537648158047986, 36.525395588653986 ], [ 127.53668507478136, 36.523085326372325 ], [ 127.538181647473905, 36.522129083334171 ], [ 127.546247385816528, 36.52439574391682 ], [ 127.55292542821644, 36.521793089638827 ], [ 127.559506181186009, 36.52792768583145 ], [ 127.565054276806208, 36.530618116146393 ], [ 127.567991629859748, 36.526924282840319 ], [ 127.570965738728106, 36.518499815319572 ], [ 127.573315925089403, 36.516462350107268 ], [ 127.573516183515878, 36.508446328215662 ], [ 127.570565668038086, 36.505513664590147 ], [ 127.570167176238556, 36.499360203555611 ], [ 127.572191169852886, 36.493479878594336 ], [ 127.578447829182053, 36.490267504529776 ], [ 127.567348426566227, 36.484350959288129 ], [ 127.567082406834174, 36.48166515168495 ], [ 127.562759136919112, 36.480257037515365 ], [ 127.558636153979307, 36.472117887607688 ], [ 127.556198231843155, 36.471812554815592 ], [ 127.55704970900257, 36.469997313253259 ], [ 127.555659940652447, 36.465695124213802 ], [ 127.552940452404314, 36.464747604292249 ], [ 127.554259855095026, 36.463617187592114 ], [ 127.553243491790724, 36.459172539070948 ], [ 127.545997334382307, 36.450354904921504 ], [ 127.545761710567206, 36.4462595513439 ], [ 127.53037874987001, 36.441730644606054 ], [ 127.519382814898293, 36.434790367733612 ], [ 127.516843616004806, 36.430792781879148 ], [ 127.511381570998267, 36.411118671010634 ], [ 127.508059207993071, 36.408267073656155 ], [ 127.501555920054415, 36.408654979613338 ], [ 127.489785846016701, 36.433414537535015 ], [ 127.49349517379531, 36.441164298249348 ], [ 127.503555611097141, 36.449272296728736 ], [ 127.504518933554309, 36.451746257158497 ], [ 127.502787489954912, 36.455507960601075 ], [ 127.500584213386389, 36.456224468559753 ], [ 127.486906907386313, 36.452788531782325 ], [ 127.482133014301496, 36.453887155990628 ], [ 127.479004028451342, 36.456503449904872 ], [ 127.477679710944514, 36.460493242564112 ], [ 127.483359796764049, 36.470117782722866 ], [ 127.484028673980461, 36.476625881475584 ], [ 127.479488499793476, 36.477540693898654 ], [ 127.476845578986172, 36.480221571075369 ], [ 127.47566874278904, 36.490231891117858 ], [ 127.467508564231224, 36.491257281071455 ], [ 127.465182399105686, 36.493542282370825 ], [ 127.457762424514982, 36.495918935064829 ], [ 127.455136422051297, 36.500299774934156 ], [ 127.449774811878086, 36.500500197033261 ], [ 127.448932228272014, 36.506688878931421 ], [ 127.445261777224616, 36.513144882231707 ], [ 127.445374062803097, 36.514902844368187 ], [ 127.454056741509774, 36.518668737284244 ], [ 127.453500116281603, 36.522788879377444 ], [ 127.455639047726535, 36.525587769555813 ], [ 127.45196781334549, 36.541522484452358 ], [ 127.447433475232714, 36.541756087049755 ], [ 127.447137269391447, 36.549810276138501 ], [ 127.450650879778209, 36.547450462601894 ], [ 127.458984161565908, 36.548358786579911 ], [ 127.46621075298674, 36.544470764108695 ], [ 127.467261180166247, 36.542444542873497 ], [ 127.470797937755663, 36.542827637084557 ], [ 127.479748448557345, 36.547677649567177 ], [ 127.482737591351594, 36.547434374868708 ], [ 127.48480476749225, 36.54482006628664 ], [ 127.492169108564866, 36.544579109293657 ], [ 127.499126494693286, 36.550802163009848 ], [ 127.504262673343135, 36.55083929135121 ] ] ] ] } }
]
}
