{
"type": "FeatureCollection",
"name": "43130",
"crs": { "type": "name", "properties": { "name": "urn:ogc:def:crs:OGC:1.3:CRS84" } },
"features": [
{ "type": "Feature", "properties": { "emd_cd": "43130101", "emd_nm": "성내동" }, "geometry": { "type": "MultiPolygon", "coordinates": [ [ [ [ 127.93816079207356, 36.969103706694483 ], [ 127.934056882754845, 36.969302668317432 ], [ 127.933750461137791, 36.973798540487778 ], [ 127.937586326953181, 36.971712568176066 ], [ 127.93816079207356, 36.969103706694483 ] ] ] ] } },
{ "type": "Feature", "properties": { "emd_cd": "43130102", "emd_nm": "성남동" }, "geometry": { "type": "MultiPolygon", "coordinates": [ [ [ [ 127.931803577271907, 36.969272238025233 ], [ 127.93816079207356, 36.969103706694483 ], [ 127.938478605874209, 36.967040288621746 ], [ 127.93360855495537, 36.967219210239094 ], [ 127.933966612725726, 36.968413656356347 ], [ 127.931803577271907, 36.969272238025233 ] ] ] ] } },
{ "type": "Feature", "properties": { "emd_cd": "43130103", "emd_nm": "성서동" }, "geometry": { "type": "MultiPolygon", "coordinates": [ [ [ [ 127.931811346468379, 36.969009125431072 ], [ 127.929291711267751, 36.97295900102592 ], [ 127.933892726702339, 36.972262247379248 ], [ 127.934056882754845, 36.969302668317432 ], [ 127.931811346468379, 36.969009125431072 ] ] ] ] } },
{ "type": "Feature", "properties": { "emd_cd": "43130104", "emd_nm": "충인동" }, "geometry": { "type": "MultiPolygon", "coordinates": [ [ [ [ 127.933892726702339, 36.972262247379248 ], [ 127.931526545339082, 36.972693665235191 ], [ 127.93074699198101, 36.975868181986719 ], [ 127.9339269261, 36.973941709617925 ], [ 127.933892726702339, 36.972262247379248 ] ] ] ] } },
{ "type": "Feature", "properties": { "emd_cd": "43130105", "emd_nm": "교현동" }, "geometry": { "type": "MultiPolygon", "coordinates": [ [ [ [ 127.927544888910973, 36.975714199333652 ], [ 127.921855464644352, 36.978499468983067 ], [ 127.924091000509677, 36.984694063245051 ], [ 127.928304509909722, 36.984308033583964 ], [ 127.928285761540252, 36.98231795100024 ], [ 127.94326988080185, 36.980349302260734 ], [ 127.944322420404461, 36.978390059991987 ], [ 127.943112191969831, 36.975635699537449 ], [ 127.946476211470312, 36.974053497269949 ], [ 127.942389275119922, 36.972220673749398 ], [ 127.94187037117905, 36.968769785858676 ], [ 127.948409399783714, 36.96891954275435 ], [ 127.948508489826494, 36.967136618290979 ], [ 127.953259567553715, 36.964399599831914 ], [ 127.960786177276105, 36.957389071247093 ], [ 127.960879245659726, 36.955769210039136 ], [ 127.947224108928339, 36.964608228651279 ], [ 127.943130270769032, 36.963557237407002 ], [ 127.942488526312289, 36.966201644901822 ], [ 127.938151373316586, 36.96852653437562 ], [ 127.937586326953181, 36.971712568176066 ], [ 127.931276781587712, 36.975685807263382 ], [ 127.927544888910973, 36.975714199333652 ] ] ] ] } },
{ "type": "Feature", "properties": { "emd_cd": "43130106", "emd_nm": "용산동" }, "geometry": { "type": "MultiPolygon", "coordinates": [ [ [ [ 127.955142854899975, 36.954601299771994 ], [ 127.947022222711666, 36.957755650771141 ], [ 127.943909698947238, 36.957385995840056 ], [ 127.940033798444475, 36.959795451080126 ], [ 127.936320811545329, 36.959114939072677 ], [ 127.932689877621272, 36.96872492333376 ], [ 127.93360855495537, 36.967219210239094 ], [ 127.938478605874209, 36.967040288621746 ], [ 127.93880873664979, 36.96817276786026 ], [ 127.942488526312289, 36.966201644901822 ], [ 127.943130270769032, 36.963557237407002 ], [ 127.947520992799838, 36.964471715821624 ], [ 127.960401338135114, 36.95559283368155 ], [ 127.955142854899975, 36.954601299771994 ] ] ] ] } },
{ "type": "Feature", "properties": { "emd_cd": "43130107", "emd_nm": "호암동" }, "geometry": { "type": "MultiPolygon", "coordinates": [ [ [ [ 127.914209670652866, 36.95601782342959 ], [ 127.909884965297309, 36.957519597868902 ], [ 127.911624345445915, 36.961360124552776 ], [ 127.915069792065538, 36.96027951036897 ], [ 127.923434417893944, 36.966638716689047 ], [ 127.927500198361628, 36.965169059566968 ], [ 127.930965811619373, 36.961443071034608 ], [ 127.930899927970671, 36.957371972836825 ], [ 127.93452365983579, 36.957396555292242 ], [ 127.93544149362134, 36.959630761384837 ], [ 127.940033798444475, 36.959795451080126 ], [ 127.943909698947238, 36.957385995840056 ], [ 127.947022222711666, 36.957755650771141 ], [ 127.955142854899975, 36.954601299771994 ], [ 127.947422486208936, 36.949492002728192 ], [ 127.944584410010208, 36.950935024683062 ], [ 127.941275161108464, 36.944067687703111 ], [ 127.941686764440874, 36.937963586971819 ], [ 127.935714359999082, 36.937267338045189 ], [ 127.93403214857274, 36.939417383819176 ], [ 127.928293511350859, 36.939636782915073 ], [ 127.921567481145274, 36.944347444888209 ], [ 127.919525045656385, 36.948364026934129 ], [ 127.913719378242732, 36.952370236023469 ], [ 127.914209670652866, 36.95601782342959 ] ] ] ] } },
{ "type": "Feature", "properties": { "emd_cd": "43130108", "emd_nm": "직동" }, "geometry": { "type": "MultiPolygon", "coordinates": [ [ [ [ 127.941686764440874, 36.937963586971819 ], [ 127.941275161108464, 36.944067687703111 ], [ 127.944584410010208, 36.950935024683062 ], [ 127.947422486208936, 36.949492002728192 ], [ 127.955142854899975, 36.954601299771994 ], [ 127.965905452070174, 36.956810058756233 ], [ 127.970561999824142, 36.955719258569665 ], [ 127.974388268517032, 36.95678825738559 ], [ 127.977004924207122, 36.955201844907087 ], [ 127.978981308221108, 36.947862194084131 ], [ 127.985993646357628, 36.941595524475289 ], [ 127.980749624079905, 36.938144894122892 ], [ 127.982722000374395, 36.930339329065298 ], [ 127.97386751119565, 36.928141472639773 ], [ 127.971674084288878, 36.930374631309064 ], [ 127.969118997013496, 36.930481541999022 ], [ 127.965473220930448, 36.935454653614833 ], [ 127.953521062468667, 36.935099316010806 ], [ 127.948419174074189, 36.933239233857762 ], [ 127.945541672683433, 36.934125058494665 ], [ 127.945408968871504, 36.936953918290584 ], [ 127.941686764440874, 36.937963586971819 ] ] ] ] } },
{ "type": "Feature", "properties": { "emd_cd": "43130109", "emd_nm": "단월동" }, "geometry": { "type": "MultiPolygon", "coordinates": [ [ [ [ 127.905846192400801, 36.958642777436296 ], [ 127.914209670652866, 36.95601782342959 ], [ 127.913719378242732, 36.952370236023469 ], [ 127.919525045656385, 36.948364026934129 ], [ 127.921567481145274, 36.944347444888209 ], [ 127.928293511350859, 36.939636782915073 ], [ 127.934680985058947, 36.938858041808949 ], [ 127.935714359999082, 36.937267338045189 ], [ 127.931896893687039, 36.934526640472022 ], [ 127.931338425012157, 36.931887712995334 ], [ 127.926856123749417, 36.936935301135883 ], [ 127.91007737080642, 36.941849811135782 ], [ 127.893210034454597, 36.939494057546511 ], [ 127.887082742511652, 36.94216855819861 ], [ 127.889768880621077, 36.950318341996521 ], [ 127.899839732564956, 36.948852182448249 ], [ 127.900048592164211, 36.951030599244412 ], [ 127.905208552176475, 36.952916307378139 ], [ 127.905846192400801, 36.958642777436296 ] ] ] ] } },
{ "type": "Feature", "properties": { "emd_cd": "43130110", "emd_nm": "풍동" }, "geometry": { "type": "MultiPolygon", "coordinates": [ [ [ [ 127.930517309771048, 36.931511100625521 ], [ 127.914303956514487, 36.914999884233801 ], [ 127.907155149814386, 36.915176331188334 ], [ 127.904631943766248, 36.917691116497295 ], [ 127.898625450198352, 36.91766403065742 ], [ 127.894737427614061, 36.921988325981609 ], [ 127.890009075621137, 36.922910561985177 ], [ 127.890065452409104, 36.924330755604153 ], [ 127.896230778943192, 36.926912443315381 ], [ 127.895897103612029, 36.931764302560588 ], [ 127.898199779642098, 36.933556619964989 ], [ 127.899089543647165, 36.941069422220913 ], [ 127.901330178495144, 36.941568518683923 ], [ 127.91007737080642, 36.941849811135782 ], [ 127.924405401383964, 36.937839617615715 ], [ 127.928191176684123, 36.935867885654403 ], [ 127.930517309771048, 36.931511100625521 ] ] ] ] } },
{ "type": "Feature", "properties": { "emd_cd": "43130111", "emd_nm": "가주동" }, "geometry": { "type": "MultiPolygon", "coordinates": [ [ [ [ 127.871489576232435, 36.934581822620522 ], [ 127.875631187953232, 36.936676302935972 ], [ 127.87941176688409, 36.941867340061208 ], [ 127.882993448280573, 36.94244898637799 ], [ 127.892794518279672, 36.939500222053212 ], [ 127.899089543647165, 36.941069422220913 ], [ 127.898199779642098, 36.933556619964989 ], [ 127.895897103612029, 36.931764302560588 ], [ 127.896230778943192, 36.926912443315381 ], [ 127.890065452409104, 36.924330755604153 ], [ 127.890091279268944, 36.922755596027621 ], [ 127.877645642112114, 36.92586218860307 ], [ 127.872749574371937, 36.930743744567827 ], [ 127.871489576232435, 36.934581822620522 ] ] ] ] } },
{ "type": "Feature", "properties": { "emd_cd": "43130112", "emd_nm": "용관동" }, "geometry": { "type": "MultiPolygon", "coordinates": [ [ [ [ 127.874625114136876, 36.954987303233779 ], [ 127.876199717250387, 36.956717333778734 ], [ 127.879767475143495, 36.957105250171757 ], [ 127.880246428279165, 36.960160842609724 ], [ 127.884259210816737, 36.960149361387813 ], [ 127.884840345735824, 36.961563511377982 ], [ 127.891997825530282, 36.960974249471008 ], [ 127.889693968241602, 36.948452424911522 ], [ 127.886779697645764, 36.943471606433512 ], [ 127.887493268732968, 36.941652553178052 ], [ 127.886083138271957, 36.940782418662621 ], [ 127.882993448280573, 36.94244898637799 ], [ 127.880675460153014, 36.941266026211864 ], [ 127.874889972609836, 36.944393113996334 ], [ 127.874988798558235, 36.947643374066857 ], [ 127.878717889863168, 36.952577152525095 ], [ 127.874625114136876, 36.954987303233779 ] ] ] ] } },
{ "type": "Feature", "properties": { "emd_cd": "43130113", "emd_nm": "용두동" }, "geometry": { "type": "MultiPolygon", "coordinates": [ [ [ [ 127.873094662785064, 36.963748461687878 ], [ 127.876014464209973, 36.964287537862724 ], [ 127.878389369725568, 36.966866952380634 ], [ 127.879438761505682, 36.974263166733493 ], [ 127.889120784481307, 36.975414271369232 ], [ 127.892970793177028, 36.965045519382713 ], [ 127.891997825530282, 36.960974249471008 ], [ 127.884840345735824, 36.961563511377982 ], [ 127.882337290513107, 36.959868124547015 ], [ 127.873094662785064, 36.963748461687878 ] ] ] ] } },
{ "type": "Feature", "properties": { "emd_cd": "43130114", "emd_nm": "달천동" }, "geometry": { "type": "MultiPolygon", "coordinates": [ [ [ [ 127.919274017693155, 36.963877327155437 ], [ 127.915069792065538, 36.96027951036897 ], [ 127.911624345445915, 36.961360124552776 ], [ 127.909884965297309, 36.957519597868902 ], [ 127.912215722446902, 36.956684970196463 ], [ 127.905846192400801, 36.958642777436296 ], [ 127.905208552176475, 36.952916307378139 ], [ 127.900048592164211, 36.951030599244412 ], [ 127.899839732564956, 36.948852182448249 ], [ 127.889768880621077, 36.950318341996521 ], [ 127.892970793177028, 36.965045519382713 ], [ 127.89790037952757, 36.970527976171439 ], [ 127.912922616205307, 36.970966584806483 ], [ 127.914961729397788, 36.967584030000793 ], [ 127.917875618651678, 36.96709630255372 ], [ 127.919274017693155, 36.963877327155437 ] ] ] ] } },
{ "type": "Feature", "properties": { "emd_cd": "43130115", "emd_nm": "봉방동" }, "geometry": { "type": "MultiPolygon", "coordinates": [ [ [ [ 127.89089807026842, 36.988190304167247 ], [ 127.894036190009246, 36.983508102601299 ], [ 127.905465353120363, 36.979880582592997 ], [ 127.911688130787098, 36.978571067527589 ], [ 127.91278686578066, 36.980973399117268 ], [ 127.918389068016694, 36.979142561340922 ], [ 127.922636652774344, 36.979713922870602 ], [ 127.922008175785422, 36.978188514258477 ], [ 127.92489044084995, 36.977662122532045 ], [ 127.929267600910265, 36.973245848457701 ], [ 127.924534579004373, 36.974921346885658 ], [ 127.913848853767163, 36.969197534150489 ], [ 127.912922616205307, 36.970966584806483 ], [ 127.899607352920583, 36.971288321031778 ], [ 127.892970793177028, 36.965045519382713 ], [ 127.889120784481307, 36.975414271369232 ], [ 127.89089807026842, 36.988190304167247 ] ] ], [ [ [ 127.890922155630733, 36.988275488926476 ], [ 127.890985375267675, 36.988240162744368 ], [ 127.89089807026842, 36.988190304167247 ], [ 127.890922155630733, 36.988275488926476 ] ] ] ] } },
{ "type": "Feature", "properties": { "emd_cd": "43130116", "emd_nm": "칠금동" }, "geometry": { "type": "MultiPolygon", "coordinates": [ [ [ [ 127.894036190009246, 36.983508102601299 ], [ 127.890726105516379, 36.989463195164689 ], [ 127.901282495751346, 36.990031034409135 ], [ 127.903819129155622, 36.989559293030865 ], [ 127.905669137552053, 36.986641829477293 ], [ 127.909179948791945, 36.98937862687108 ], [ 127.91142011288369, 36.987963144124137 ], [ 127.924453192367793, 36.987471332785532 ], [ 127.923035882191741, 36.979580803667879 ], [ 127.918389068016694, 36.979142561340922 ], [ 127.91278686578066, 36.980973399117268 ], [ 127.911688130787098, 36.978571067527589 ], [ 127.894036190009246, 36.983508102601299 ] ] ] ] } },
{ "type": "Feature", "properties": { "emd_cd": "43130118", "emd_nm": "연수동" }, "geometry": { "type": "MultiPolygon", "coordinates": [ [ [ [ 127.92421318613799, 36.986719195007787 ], [ 127.928163402506115, 36.987240414656377 ], [ 127.929100627063789, 36.992044410479274 ], [ 127.93227588225156, 36.993425841647252 ], [ 127.932904445782484, 36.996345544691884 ], [ 127.937319673000246, 37.000634704344421 ], [ 127.940755459503151, 36.999126136137875 ], [ 127.945716476576109, 37.000183046294374 ], [ 127.953332227271645, 36.999069956671569 ], [ 127.955266191138577, 36.996957493347331 ], [ 127.959392391195451, 36.997123667584013 ], [ 127.966187778644482, 36.991755475889065 ], [ 127.963821814497834, 36.989208170616315 ], [ 127.95202978092901, 36.985621218674652 ], [ 127.945906917602628, 36.980474755822435 ], [ 127.928285761540252, 36.98231795100024 ], [ 127.928304509909722, 36.984308033583964 ], [ 127.924091000509677, 36.984694063245051 ], [ 127.92421318613799, 36.986719195007787 ] ] ] ] } },
{ "type": "Feature", "properties": { "emd_cd": "43130119", "emd_nm": "목행동" }, "geometry": { "type": "MultiPolygon", "coordinates": [ [ [ [ 127.936251893732418, 36.999296465328285 ], [ 127.930194375570849, 37.000943734306773 ], [ 127.924280490782493, 36.997941727996029 ], [ 127.923782485641595, 36.999446322254222 ], [ 127.915935085028963, 37.003046173966951 ], [ 127.911316053474508, 37.000953260336864 ], [ 127.912216131119152, 37.014275178191461 ], [ 127.921097765907618, 37.019718132621612 ], [ 127.936196152608773, 37.019731303973359 ], [ 127.93854402500348, 37.013945468140776 ], [ 127.935155300862064, 37.011857433566654 ], [ 127.937745113161554, 37.009764332100318 ], [ 127.937415204063711, 37.006913193213677 ], [ 127.94029782217568, 37.006798881674328 ], [ 127.941705069853739, 37.002553091981007 ], [ 127.941288116975869, 36.99932001411841 ], [ 127.937319673000246, 37.000634704344421 ], [ 127.936251893732418, 36.999296465328285 ] ] ] ] } },
{ "type": "Feature", "properties": { "emd_cd": "43130120", "emd_nm": "용탄동" }, "geometry": { "type": "MultiPolygon", "coordinates": [ [ [ [ 127.941597204365451, 36.999522463465354 ], [ 127.941317678299356, 37.005294956240405 ], [ 127.937415204063711, 37.006913193213677 ], [ 127.937745113161554, 37.009764332100318 ], [ 127.935155300862064, 37.011857433566654 ], [ 127.93854402500348, 37.013945468140776 ], [ 127.936196152608773, 37.019731303973359 ], [ 127.948415670688419, 37.020312985707413 ], [ 127.959557274394101, 37.024288410989094 ], [ 127.975600044257078, 37.013552551092289 ], [ 127.973554829397941, 37.011790491517679 ], [ 127.974246004431905, 37.008310723173985 ], [ 127.971260477856504, 37.00376616701822 ], [ 127.973682316603359, 37.001822897567195 ], [ 127.977870196916442, 36.993010386637472 ], [ 127.975802491777813, 36.990271236806493 ], [ 127.972628533502586, 36.990138923018513 ], [ 127.966187778644482, 36.991755475889065 ], [ 127.959392391195451, 36.997123667584013 ], [ 127.955266191138577, 36.996957493347331 ], [ 127.950353980942907, 36.999975804117497 ], [ 127.941597204365451, 36.999522463465354 ] ] ] ] } },
{ "type": "Feature", "properties": { "emd_cd": "43130121", "emd_nm": "종민동" }, "geometry": { "type": "MultiPolygon", "coordinates": [ [ [ [ 127.97981963628861, 36.972911910724164 ], [ 127.981942885624704, 36.980605832417254 ], [ 127.981361254949434, 36.984241651906792 ], [ 127.976191862450719, 36.990522647471693 ], [ 127.977630226060128, 36.993868051112379 ], [ 127.971260477856504, 37.00376616701822 ], [ 127.974246004431905, 37.008310723173985 ], [ 127.973554829397941, 37.011790491517679 ], [ 127.975600044257078, 37.013552551092289 ], [ 127.987054799564689, 37.009932682506836 ], [ 127.997328814377582, 37.000262951445251 ], [ 128.001511434316711, 36.993019329334821 ], [ 128.002197709138642, 36.985133689047743 ], [ 128.007067498817889, 36.978555765803087 ], [ 128.008902341033519, 36.972920312587306 ], [ 128.014722538498148, 36.970452932789186 ], [ 128.000312767315563, 36.96956458268447 ], [ 127.97981963628861, 36.972911910724164 ] ] ] ] } },
{ "type": "Feature", "properties": { "emd_cd": "43130122", "emd_nm": "안림동" }, "geometry": { "type": "MultiPolygon", "coordinates": [ [ [ [ 127.94326988080185, 36.980349302260734 ], [ 127.945906917602628, 36.980474755822435 ], [ 127.953510418548575, 36.986305238702649 ], [ 127.963821814497834, 36.989208170616315 ], [ 127.966187778644482, 36.991755475889065 ], [ 127.976191862450719, 36.990522647471693 ], [ 127.981361254949434, 36.984241651906792 ], [ 127.981942885624704, 36.980605832417254 ], [ 127.979860494775977, 36.976392464871836 ], [ 127.980424622790423, 36.968600801547332 ], [ 127.975387204233883, 36.96245409627759 ], [ 127.974388268517032, 36.95678825738559 ], [ 127.960879245659726, 36.955769210039136 ], [ 127.960786177276105, 36.957389071247093 ], [ 127.953259567553715, 36.964399599831914 ], [ 127.948508489826494, 36.967136618290979 ], [ 127.948409399783714, 36.96891954275435 ], [ 127.941919090461781, 36.968729213315569 ], [ 127.942389275119922, 36.972220673749398 ], [ 127.946476211470312, 36.974053497269949 ], [ 127.943112191969831, 36.975635699537449 ], [ 127.944322420404461, 36.978390059991987 ], [ 127.94326988080185, 36.980349302260734 ] ] ] ] } },
{ "type": "Feature", "properties": { "emd_cd": "43130123", "emd_nm": "목벌동" }, "geometry": { "type": "MultiPolygon", "coordinates": [ [ [ [ 127.977942075356935, 36.953534695152278 ], [ 127.974285488414736, 36.95775458809306 ], [ 127.976529195954939, 36.96458797649835 ], [ 127.980424622790423, 36.968600801547332 ], [ 127.97981963628861, 36.972911910724164 ], [ 128.000312767315563, 36.96956458268447 ], [ 128.020843677224633, 36.9704617817562 ], [ 128.026085011053084, 36.968289725702171 ], [ 128.028293018141966, 36.96541973278039 ], [ 128.020173481696986, 36.962215304403522 ], [ 128.018607505016973, 36.959575403413758 ], [ 128.01275911069439, 36.958178298174587 ], [ 128.00379908699432, 36.95039164739098 ], [ 127.997051352495831, 36.955908621772558 ], [ 127.987646863823031, 36.952154146728773 ], [ 127.981361207299329, 36.95411258410433 ], [ 127.977942075356935, 36.953534695152278 ] ] ] ] } },
{ "type": "Feature", "properties": { "emd_cd": "43130124", "emd_nm": "충의동" }, "geometry": { "type": "MultiPolygon", "coordinates": [ [ [ [ 127.927544888910973, 36.975714199333652 ], [ 127.93074699198101, 36.975868181986719 ], [ 127.931526545339082, 36.972693665235191 ], [ 127.929291711267751, 36.97295900102592 ], [ 127.927544888910973, 36.975714199333652 ] ] ] ] } },
{ "type": "Feature", "properties": { "emd_cd": "43130125", "emd_nm": "지현동" }, "geometry": { "type": "MultiPolygon", "coordinates": [ [ [ [ 127.928587281790286, 36.964044358370018 ], [ 127.930556264884189, 36.967671931912719 ], [ 127.927415708747873, 36.970561074310361 ], [ 127.929855779155076, 36.971189837418393 ], [ 127.933148056172456, 36.96827963576348 ], [ 127.934799663047542, 36.964046356984305 ], [ 127.93452365983579, 36.957396555292242 ], [ 127.930899927970671, 36.957371972836825 ], [ 127.930965811619373, 36.961443071034608 ], [ 127.928587281790286, 36.964044358370018 ] ] ] ] } },
{ "type": "Feature", "properties": { "emd_cd": "43130127", "emd_nm": "문화동" }, "geometry": { "type": "MultiPolygon", "coordinates": [ [ [ [ 127.913848853767163, 36.969197534150489 ], [ 127.924894441457141, 36.974952833436369 ], [ 127.929267600910265, 36.973245848457701 ], [ 127.930524989892959, 36.970628665968277 ], [ 127.928494220378298, 36.970987350952257 ], [ 127.927472738615592, 36.969476894819699 ], [ 127.928853696224209, 36.969525829398599 ], [ 127.930745869864992, 36.966202037920489 ], [ 127.928587281790286, 36.964044358370018 ], [ 127.923285414375513, 36.966617833902902 ], [ 127.919262306483304, 36.963876417510036 ], [ 127.917875618651678, 36.96709630255372 ], [ 127.913848853767163, 36.969197534150489 ] ] ] ] } },
{ "type": "Feature", "properties": { "emd_cd": "43130128", "emd_nm": "금릉동" }, "geometry": { "type": "MultiPolygon", "coordinates": [ [ [ [ 127.92421318613799, 36.986719195007787 ], [ 127.924668712934562, 36.98714306420279 ], [ 127.925330795492002, 36.987131516233156 ], [ 127.92421318613799, 36.986719195007787 ] ] ], [ [ [ 127.928163402506115, 36.987240414656377 ], [ 127.91142011288369, 36.987963144124137 ], [ 127.909179948791945, 36.98937862687108 ], [ 127.905669137552053, 36.986641829477293 ], [ 127.903505057535341, 36.992343487999349 ], [ 127.905100537318631, 36.995667149934661 ], [ 127.915488768306247, 37.002967796889173 ], [ 127.919601084497927, 37.001922926346801 ], [ 127.924280490782493, 36.997941727996029 ], [ 127.930194375570849, 37.000943734306773 ], [ 127.936251893732418, 36.999296465328285 ], [ 127.932904445782484, 36.996345544691884 ], [ 127.93227588225156, 36.993425841647252 ], [ 127.929100627063789, 36.992044410479274 ], [ 127.928163402506115, 36.987240414656377 ] ] ] ] } },
{ "type": "Feature", "properties": { "emd_cd": "43130250", "emd_nm": "주덕읍" }, "geometry": { "type": "MultiPolygon", "coordinates": [ [ [ [ 127.827853413580087, 37.006769201105648 ], [ 127.823914186644103, 37.001837186897404 ], [ 127.815669935672616, 37.00370918736013 ], [ 127.8094948115412, 36.993714235751881 ], [ 127.813064567563814, 36.991698469953235 ], [ 127.805433542941927, 36.986211336082867 ], [ 127.803916621661074, 36.977502371930392 ], [ 127.806320547738281, 36.974559917053497 ], [ 127.814087725763486, 36.973486820579602 ], [ 127.810681650317036, 36.962895127642234 ], [ 127.812332013785209, 36.962070405190261 ], [ 127.803388465757195, 36.955403124200593 ], [ 127.800062545098783, 36.950457434073137 ], [ 127.800716824647424, 36.947546559143419 ], [ 127.794935581795187, 36.945909668463592 ], [ 127.791626683789133, 36.938655926706438 ], [ 127.787027921255486, 36.937035091624715 ], [ 127.784306717756607, 36.937724726855528 ], [ 127.780934142375287, 36.934913706651194 ], [ 127.774112233672142, 36.933828579042917 ], [ 127.766766625629614, 36.940404530175606 ], [ 127.764783210730627, 36.939831125139854 ], [ 127.760807353295831, 36.944779734382628 ], [ 127.763828013941449, 36.946331258615587 ], [ 127.762558399403915, 36.94844560533511 ], [ 127.754422163955553, 36.954862175319747 ], [ 127.753248765872826, 36.957753219299576 ], [ 127.746656955217261, 36.962091805917858 ], [ 127.750238588229109, 36.969392870452403 ], [ 127.749088614045547, 36.973193248768617 ], [ 127.752753308994542, 36.977623307363707 ], [ 127.760329483999655, 36.976783953627233 ], [ 127.770460751618629, 36.978817914907964 ], [ 127.776540636869413, 36.983025335059835 ], [ 127.765757285088867, 36.991296142499969 ], [ 127.763320314333441, 36.988203761637457 ], [ 127.742962806625286, 36.996132095299686 ], [ 127.746595740342485, 36.997773875178446 ], [ 127.745067004895944, 37.001055667913668 ], [ 127.74539773277597, 37.00555755908065 ], [ 127.749188900348145, 37.008337211903914 ], [ 127.749174877409629, 37.012457435816465 ], [ 127.745959369340326, 37.016706998735351 ], [ 127.756670608281553, 37.021319799558377 ], [ 127.759312174751472, 37.026887362979707 ], [ 127.764316392389645, 37.024610417077632 ], [ 127.771847054618263, 37.024518475919443 ], [ 127.774664444043808, 37.022198792650187 ], [ 127.778953762198299, 37.022858189576326 ], [ 127.785927055822668, 37.01904589844176 ], [ 127.78820562666283, 37.020680366262091 ], [ 127.789019236514775, 37.025735933949214 ], [ 127.792784501604601, 37.026991528246263 ], [ 127.795011232647553, 37.02605881630614 ], [ 127.797868413692967, 37.027763317228292 ], [ 127.800677880461095, 37.02507925813709 ], [ 127.803243441185799, 37.02501051201417 ], [ 127.811065856129218, 37.029313524018015 ], [ 127.815876133723009, 37.029444626913069 ], [ 127.817643719386339, 37.028154385597546 ], [ 127.817805528479965, 37.024070073327941 ], [ 127.820810750510432, 37.022144622919249 ], [ 127.820474453583799, 37.018854293406278 ], [ 127.821894607849259, 37.017708354230237 ], [ 127.820383707819545, 37.016575990590056 ], [ 127.827853413580087, 37.006769201105648 ] ] ] ] } },
{ "type": "Feature", "properties": { "emd_cd": "43130310", "emd_nm": "살미면" }, "geometry": { "type": "MultiPolygon", "coordinates": [ [ [ [ 127.900645057023894, 36.897350317731174 ], [ 127.907690481980609, 36.90581235944714 ], [ 127.911908377990855, 36.905469203243236 ], [ 127.921786178454838, 36.89917688292438 ], [ 127.924920740728695, 36.899856451460721 ], [ 127.925619543951299, 36.902546109167844 ], [ 127.9238723163499, 36.905377148800902 ], [ 127.915284028900544, 36.907831406574168 ], [ 127.911566232011793, 36.91223827164071 ], [ 127.917821392540233, 36.918006651902743 ], [ 127.920392543147273, 36.922598734760498 ], [ 127.929389503401538, 36.928987461417222 ], [ 127.931896893687039, 36.934526640472022 ], [ 127.935714359999082, 36.937267338045189 ], [ 127.945233302929523, 36.937053204416266 ], [ 127.945541672683433, 36.934125058494665 ], [ 127.948419174074189, 36.933239233857762 ], [ 127.953521062468667, 36.935099316010806 ], [ 127.965473220930448, 36.935454653614833 ], [ 127.969118997013496, 36.930481541999022 ], [ 127.971674084288878, 36.930374631309064 ], [ 127.97386751119565, 36.928141472639773 ], [ 127.982722000374395, 36.930339329065298 ], [ 127.980749624079905, 36.938144894122892 ], [ 127.985993646357628, 36.941595524475289 ], [ 127.978981308221108, 36.947862194084131 ], [ 127.977942075356935, 36.953534695152278 ], [ 127.981361207299329, 36.95411258410433 ], [ 127.987646863823031, 36.952154146728773 ], [ 127.997051352495831, 36.955908621772558 ], [ 128.00379908699432, 36.95039164739098 ], [ 128.01275911069439, 36.958178298174587 ], [ 128.018607505016973, 36.959575403413758 ], [ 128.020173481696986, 36.962215304403522 ], [ 128.028293018141966, 36.96541973278039 ], [ 128.032049365108435, 36.960652491381758 ], [ 128.042600693151542, 36.953192503022464 ], [ 128.043128686563819, 36.939267500638671 ], [ 128.046402878949692, 36.936338002025629 ], [ 128.057981192895653, 36.932277698863537 ], [ 128.060284930403725, 36.929631139974454 ], [ 128.062433605040013, 36.919942469451748 ], [ 128.072486916928909, 36.913108866861322 ], [ 128.072161315844937, 36.911097903424711 ], [ 128.066878538428085, 36.909246064532319 ], [ 128.068677969486913, 36.904780585256304 ], [ 128.066826599119793, 36.90156701167431 ], [ 128.067627851940927, 36.898675599904301 ], [ 128.065745123626101, 36.896327499415392 ], [ 128.066680506441429, 36.893643762153317 ], [ 128.05917279148747, 36.887075485425257 ], [ 128.060980827627418, 36.886275834781905 ], [ 128.060796521273716, 36.884803198361858 ], [ 128.055681068733037, 36.882445056253232 ], [ 128.051067594502683, 36.872046514986238 ], [ 128.045646381882733, 36.870439808463111 ], [ 128.044070558167306, 36.862510023341464 ], [ 128.038602081898205, 36.859818594356199 ], [ 128.027752110562943, 36.865840499746326 ], [ 128.026737865076512, 36.870396175095529 ], [ 128.02073007992081, 36.880290968144315 ], [ 128.024120319289665, 36.887512687563969 ], [ 128.021161797082129, 36.890699057382115 ], [ 128.014953249167718, 36.890142520248503 ], [ 128.012101397323647, 36.887288341017261 ], [ 128.006960130247933, 36.887587962261335 ], [ 128.002411626915659, 36.890764057017172 ], [ 127.997229593857895, 36.891902744616601 ], [ 127.996125619785701, 36.890054656991992 ], [ 127.991776459753197, 36.890671333166708 ], [ 127.991879901385332, 36.889458345467759 ], [ 127.979708081123405, 36.887767178042068 ], [ 127.976482509315318, 36.891872532520402 ], [ 127.972382109228604, 36.893874183353887 ], [ 127.964374314249795, 36.8852964813127 ], [ 127.956783735024075, 36.881681868476093 ], [ 127.95241158353403, 36.878039135861158 ], [ 127.953426688768417, 36.87621949237748 ], [ 127.946477445625902, 36.872372469463059 ], [ 127.945106112322549, 36.87491542624462 ], [ 127.951894070441483, 36.884727492089475 ], [ 127.950690962003989, 36.886620364979137 ], [ 127.9459459792795, 36.888098820249859 ], [ 127.930378721312749, 36.887966366395325 ], [ 127.924296956277303, 36.88290871377167 ], [ 127.917474975506082, 36.881098774173033 ], [ 127.913651131555241, 36.885686745015384 ], [ 127.903540125633299, 36.887957488439611 ], [ 127.903601929902209, 36.89202892284856 ], [ 127.900645057023894, 36.897350317731174 ] ] ] ] } },
{ "type": "Feature", "properties": { "emd_cd": "43130325", "emd_nm": "수안보면" }, "geometry": { "type": "MultiPolygon", "coordinates": [ [ [ [ 127.948398036049639, 36.872806893205272 ], [ 127.953426688768417, 36.87621949237748 ], [ 127.95241158353403, 36.878039135861158 ], [ 127.964374314249795, 36.8852964813127 ], [ 127.972382109228604, 36.893874183353887 ], [ 127.976482509315318, 36.891872532520402 ], [ 127.979708081123405, 36.887767178042068 ], [ 127.991879901385332, 36.889458345467759 ], [ 127.991776459753197, 36.890671333166708 ], [ 127.996125619785701, 36.890054656991992 ], [ 127.997229593857895, 36.891902744616601 ], [ 128.002411626915659, 36.890764057017172 ], [ 128.006960130247933, 36.887587962261335 ], [ 128.012101397323647, 36.887288341017261 ], [ 128.014953249167718, 36.890142520248503 ], [ 128.021161797082129, 36.890699057382115 ], [ 128.024120319289665, 36.887512687563969 ], [ 128.020684732381085, 36.881779780526301 ], [ 128.02110671845, 36.879043562126704 ], [ 128.026737865076512, 36.870396175095529 ], [ 128.027752110562943, 36.865840499746326 ], [ 128.038602081898205, 36.859818594356199 ], [ 128.035899895125681, 36.855953932130376 ], [ 128.036966749016102, 36.852093114009477 ], [ 128.058365444314489, 36.843845744317527 ], [ 128.059754780164269, 36.839076897458831 ], [ 128.062757614283669, 36.838169383013884 ], [ 128.069816665421655, 36.846273866022599 ], [ 128.087103323956143, 36.851812397781011 ], [ 128.09144494821075, 36.849215291476895 ], [ 128.093973707711882, 36.836815228727069 ], [ 128.097501122861786, 36.833507097117099 ], [ 128.112941782713591, 36.830528976549708 ], [ 128.126526211473532, 36.833795320087674 ], [ 128.12951219365533, 36.831834279933837 ], [ 128.13369681339779, 36.831786358153117 ], [ 128.1339752317283, 36.82844081371065 ], [ 128.12987826574016, 36.825149386329414 ], [ 128.119021072275814, 36.823041308819022 ], [ 128.118449747895568, 36.821488763425762 ], [ 128.109864287294329, 36.821505416073819 ], [ 128.109814823417196, 36.815773785673692 ], [ 128.107080422441584, 36.807308978908317 ], [ 128.092959933412288, 36.802863441142541 ], [ 128.093495670834386, 36.796776749002795 ], [ 128.090067639242704, 36.796637432071947 ], [ 128.083832966808927, 36.799298983566047 ], [ 128.08537320894817, 36.80420385253484 ], [ 128.06735912653005, 36.816766714778211 ], [ 128.059236770295485, 36.816393469581087 ], [ 128.054662255310319, 36.819050364029124 ], [ 128.051476629540758, 36.819001089971565 ], [ 128.047247907211784, 36.822226234509692 ], [ 128.042229964214783, 36.820595296722857 ], [ 128.039014430062082, 36.821405112569209 ], [ 128.035465927900702, 36.824948664160843 ], [ 128.024056775946264, 36.825999067314562 ], [ 128.022210729482964, 36.817438537189105 ], [ 128.02398600847286, 36.815262959893673 ], [ 128.023026089272548, 36.813120128453647 ], [ 128.018163028425761, 36.808273458468022 ], [ 128.013673837285836, 36.808765311621542 ], [ 128.011584415686173, 36.806789407022855 ], [ 127.99779448967044, 36.812944630955243 ], [ 127.992530924371962, 36.812622590794078 ], [ 127.986588390391177, 36.815675507734724 ], [ 127.982343385760345, 36.815967392494706 ], [ 127.981822004037255, 36.823404952514579 ], [ 127.972388202682154, 36.825471007901541 ], [ 127.971592099649257, 36.828056850638603 ], [ 127.9771588936554, 36.83614391983275 ], [ 127.974343352591006, 36.842078454501305 ], [ 127.970245456754043, 36.84530447422447 ], [ 127.970347711493602, 36.847569191687803 ], [ 127.96690212000675, 36.850948121564777 ], [ 127.969345640921503, 36.859346859606987 ], [ 127.962685496412405, 36.861637283278966 ], [ 127.956680461315017, 36.868428033783374 ], [ 127.948398036049639, 36.872806893205272 ] ] ] ] } },
{ "type": "Feature", "properties": { "emd_cd": "43130335", "emd_nm": "대소원면" }, "geometry": { "type": "MultiPolygon", "coordinates": [ [ [ [ 127.800716824647424, 36.947546559143419 ], [ 127.800062545098783, 36.950457434073137 ], [ 127.803388465757195, 36.955403124200593 ], [ 127.812332013785209, 36.962070405190261 ], [ 127.810681650317036, 36.962895127642234 ], [ 127.814087725763486, 36.973486820579602 ], [ 127.806320547738281, 36.974559917053497 ], [ 127.803532959861599, 36.979715791073033 ], [ 127.805433542941927, 36.986211336082867 ], [ 127.813064567563814, 36.991698469953235 ], [ 127.809692074164346, 36.994160886735521 ], [ 127.815669935672616, 37.00370918736013 ], [ 127.823914186644103, 37.001837186897404 ], [ 127.827853413580087, 37.006769201105648 ], [ 127.834708481538271, 37.008899289821365 ], [ 127.839613051756331, 37.001667114108656 ], [ 127.846242775034924, 37.003027779121084 ], [ 127.851742097179567, 37.002221676968503 ], [ 127.853924051172484, 36.992986014903735 ], [ 127.858131576678431, 36.991282974401777 ], [ 127.859123206206718, 36.986654720505804 ], [ 127.867243061883613, 36.984273238347527 ], [ 127.86845498181512, 36.981852483018457 ], [ 127.871920979445193, 36.983007739742199 ], [ 127.875295158628361, 36.980441462476101 ], [ 127.880616031274826, 36.979990464900695 ], [ 127.88300639614306, 36.974173514524772 ], [ 127.879438761505682, 36.974263166733493 ], [ 127.878389369725568, 36.966866952380634 ], [ 127.876014464209973, 36.964287537862724 ], [ 127.873094662785064, 36.963748461687878 ], [ 127.881772602594296, 36.960335101316026 ], [ 127.879909048176941, 36.959868929060718 ], [ 127.879767475143495, 36.957105250171757 ], [ 127.876199717250387, 36.956717333778734 ], [ 127.874625114136876, 36.954987303233779 ], [ 127.878717889863168, 36.952577152525095 ], [ 127.874988798558235, 36.947643374066857 ], [ 127.874682200004798, 36.944654397861804 ], [ 127.878252106760229, 36.943534865625878 ], [ 127.879502448331138, 36.941524106658797 ], [ 127.875631187953232, 36.936676302935972 ], [ 127.871489576232435, 36.934581822620522 ], [ 127.872749574371937, 36.930743744567827 ], [ 127.877645642112114, 36.92586218860307 ], [ 127.894202129236277, 36.922221858134357 ], [ 127.898625450198352, 36.91766403065742 ], [ 127.904631943766248, 36.917691116497295 ], [ 127.907155149814386, 36.915176331188334 ], [ 127.914702577411134, 36.914818132169643 ], [ 127.911566232011793, 36.91223827164071 ], [ 127.912284734132257, 36.910033771315661 ], [ 127.92353244446015, 36.905667746794194 ], [ 127.925552691501665, 36.902874091458777 ], [ 127.92520561959131, 36.900319894808511 ], [ 127.921786178454838, 36.89917688292438 ], [ 127.911908377990855, 36.905469203243236 ], [ 127.90669578990186, 36.905647993138579 ], [ 127.895953566865359, 36.89294366008339 ], [ 127.883092532190275, 36.890208936121049 ], [ 127.881559720229902, 36.895891591788093 ], [ 127.864019858856196, 36.896289607749907 ], [ 127.85989559029143, 36.899856352732009 ], [ 127.858333162650268, 36.904920895222801 ], [ 127.852465486498673, 36.909260528022727 ], [ 127.846085742764885, 36.909225479771528 ], [ 127.837955058681175, 36.913644053068367 ], [ 127.842123981946017, 36.91738431630074 ], [ 127.839961929794029, 36.919832027826288 ], [ 127.842406170839894, 36.921683279985025 ], [ 127.843000674417297, 36.927736976643665 ], [ 127.83985225024152, 36.930053336626663 ], [ 127.835380484016241, 36.92997756084425 ], [ 127.832414491762577, 36.933495817374151 ], [ 127.83293878917398, 36.939850415247946 ], [ 127.826189802274271, 36.940416533083386 ], [ 127.825811505944898, 36.94216594218932 ], [ 127.821575048874365, 36.943446750212914 ], [ 127.819377533343626, 36.941068547500286 ], [ 127.809442487645697, 36.939582607319402 ], [ 127.807155421036015, 36.941590638584522 ], [ 127.806639321723083, 36.94596414085116 ], [ 127.800716824647424, 36.947546559143419 ] ] ] ] } },
{ "type": "Feature", "properties": { "emd_cd": "43130350", "emd_nm": "신니면" }, "geometry": { "type": "MultiPolygon", "coordinates": [ [ [ [ 127.75296358433495, 36.957933398215815 ], [ 127.739272948083752, 36.952354090610314 ], [ 127.736720818363864, 36.954205561721871 ], [ 127.732895143289753, 36.953661705291623 ], [ 127.72991759800837, 36.957950589535756 ], [ 127.726783652662618, 36.959046198289585 ], [ 127.716296810431956, 36.958431952542192 ], [ 127.714513768525265, 36.961132522924196 ], [ 127.710586142552387, 36.962576448681503 ], [ 127.710111236729446, 36.964454411522318 ], [ 127.705841279884496, 36.965808972580284 ], [ 127.703779404176871, 36.972051457425501 ], [ 127.694481140977203, 36.975001938605971 ], [ 127.694122807644234, 36.978600496475003 ], [ 127.686669822973215, 36.981465494071251 ], [ 127.686339477129081, 36.985912140591395 ], [ 127.672163849284033, 36.9858851118559 ], [ 127.668748389920495, 36.987931284059734 ], [ 127.663766620701153, 36.983761037502781 ], [ 127.66914066607815, 36.982716018430203 ], [ 127.667071423717914, 36.97865890226192 ], [ 127.661780103236723, 36.977380825377374 ], [ 127.651098431040595, 36.982802511818072 ], [ 127.653692457755213, 36.98655861141426 ], [ 127.652555580776024, 36.991689969664662 ], [ 127.654462114561781, 36.994555286478544 ], [ 127.653253668002392, 36.997493093556784 ], [ 127.655397671856903, 36.999701828420918 ], [ 127.655051868702756, 37.001391921322899 ], [ 127.659057209777288, 37.003463266565632 ], [ 127.665521564453982, 37.003069090982635 ], [ 127.656131165290063, 37.013219128808984 ], [ 127.657389782409311, 37.018205962991836 ], [ 127.664617220887266, 37.023198034305032 ], [ 127.664285303202348, 37.030572039231998 ], [ 127.67272202865621, 37.035030407677652 ], [ 127.681845856456519, 37.033662378141607 ], [ 127.690438402262032, 37.030130413725651 ], [ 127.694889903508425, 37.034076793837642 ], [ 127.713392095040774, 37.031628106176008 ], [ 127.718289759317173, 37.033779905439602 ], [ 127.727888139244342, 37.034409966619613 ], [ 127.728905573772437, 37.036108502748007 ], [ 127.735432931655424, 37.033701007952253 ], [ 127.738296805998942, 37.034483293126186 ], [ 127.745601372473445, 37.030906156588564 ], [ 127.747159537077778, 37.025972722551089 ], [ 127.749933220551142, 37.023423733384433 ], [ 127.749725180313334, 37.020944046641652 ], [ 127.75236493718586, 37.019016470156842 ], [ 127.745959369340326, 37.016706998735351 ], [ 127.749174877409629, 37.012457435816465 ], [ 127.749188900348145, 37.008337211903914 ], [ 127.74539773277597, 37.00555755908065 ], [ 127.745067004895944, 37.001055667913668 ], [ 127.746595740342485, 36.997773875178446 ], [ 127.742962806625286, 36.996132095299686 ], [ 127.763320314333441, 36.988203761637457 ], [ 127.765757285088867, 36.991296142499969 ], [ 127.776540636869413, 36.983025335059835 ], [ 127.770460751618629, 36.978817914907964 ], [ 127.760329483999655, 36.976783953627233 ], [ 127.752241875587444, 36.97710504636013 ], [ 127.749088614045547, 36.973193248768617 ], [ 127.750238588229109, 36.969392870452403 ], [ 127.74647902710575, 36.962573529758927 ], [ 127.75296358433495, 36.957933398215815 ] ] ] ] } },
{ "type": "Feature", "properties": { "emd_cd": "43130360", "emd_nm": "노은면" }, "geometry": { "type": "MultiPolygon", "coordinates": [ [ [ [ 127.77888559617638, 37.022874782926294 ], [ 127.774664444043808, 37.022198792650187 ], [ 127.771847054618263, 37.024518475919443 ], [ 127.764316392389645, 37.024610417077632 ], [ 127.760544342892786, 37.027351800193735 ], [ 127.756670608281553, 37.021319799558377 ], [ 127.75236493718586, 37.019016470156842 ], [ 127.749725180313334, 37.020944046641652 ], [ 127.749933220551142, 37.023423733384433 ], [ 127.747159537077778, 37.025972722551089 ], [ 127.745601372473445, 37.030906156588564 ], [ 127.738296805998942, 37.034483293126186 ], [ 127.735432931655424, 37.033701007952253 ], [ 127.729726375391536, 37.036095016363134 ], [ 127.727888139244342, 37.034409966619613 ], [ 127.718289759317173, 37.033779905439602 ], [ 127.713392095040774, 37.031628106176008 ], [ 127.694889903508425, 37.034076793837642 ], [ 127.690438402262032, 37.030130413725651 ], [ 127.681845856456519, 37.033662378141607 ], [ 127.672025338780912, 37.034658769566889 ], [ 127.672012248682222, 37.040224961919243 ], [ 127.676967490661823, 37.044152708418601 ], [ 127.685644950255949, 37.047378382844883 ], [ 127.691184883908889, 37.053117208880131 ], [ 127.689109787130192, 37.066436443092996 ], [ 127.686517929140066, 37.073254272411212 ], [ 127.682955796370209, 37.075908964190511 ], [ 127.683556731831288, 37.078141897879711 ], [ 127.686633449164404, 37.080947313012636 ], [ 127.692220492541963, 37.081309304497971 ], [ 127.697855910557905, 37.07860068995447 ], [ 127.709913287573059, 37.077644363657825 ], [ 127.715266409491463, 37.075736881757102 ], [ 127.729950282530709, 37.079718328111397 ], [ 127.742345099177328, 37.075059923307862 ], [ 127.752081751579453, 37.078585021249594 ], [ 127.763917002161918, 37.079648046012309 ], [ 127.766330102825535, 37.076909247101298 ], [ 127.774000135099612, 37.074196882285939 ], [ 127.776490421423901, 37.069493931252111 ], [ 127.778937168137844, 37.068804066986146 ], [ 127.786732217769668, 37.07226778393904 ], [ 127.794883843352224, 37.069707249961887 ], [ 127.798045260474296, 37.072910752101635 ], [ 127.805494347860346, 37.073745721339392 ], [ 127.812247983071941, 37.070219989800364 ], [ 127.822383838069868, 37.068385844893584 ], [ 127.828753275217309, 37.062544666475148 ], [ 127.827116876645249, 37.061375929238643 ], [ 127.823994889601508, 37.062315569406159 ], [ 127.819766514487881, 37.058495618272353 ], [ 127.815142549100258, 37.061017233885387 ], [ 127.814899932523133, 37.055696201597733 ], [ 127.820147833017273, 37.05304218992358 ], [ 127.82077527005444, 37.048827882411011 ], [ 127.813330911940426, 37.047395226252235 ], [ 127.814614976107265, 37.044391391441458 ], [ 127.810236142022987, 37.041488591914707 ], [ 127.811379565237431, 37.036687523157042 ], [ 127.808556009317201, 37.032784996777458 ], [ 127.810378412782896, 37.028756977245223 ], [ 127.803243441185799, 37.02501051201417 ], [ 127.800677880461095, 37.02507925813709 ], [ 127.797868413692967, 37.027763317228292 ], [ 127.795011232647553, 37.02605881630614 ], [ 127.792784501604601, 37.026991528246263 ], [ 127.789019236514775, 37.025735933949214 ], [ 127.78820562666283, 37.020680366262091 ], [ 127.785927055822668, 37.01904589844176 ], [ 127.77888559617638, 37.022874782926294 ] ] ] ] } },
{ "type": "Feature", "properties": { "emd_cd": "43130370", "emd_nm": "앙성면" }, "geometry": { "type": "MultiPolygon", "coordinates": [ [ [ [ 127.830806489489134, 37.086118267865473 ], [ 127.835073999167861, 37.081298241816462 ], [ 127.833425031126936, 37.079786976745886 ], [ 127.833953290621707, 37.077560852548189 ], [ 127.830584664099845, 37.075689159176726 ], [ 127.827914048148187, 37.071482196217381 ], [ 127.822383838069868, 37.068385844893584 ], [ 127.812247983071941, 37.070219989800364 ], [ 127.805494347860346, 37.073745721339392 ], [ 127.798045260474296, 37.072910752101635 ], [ 127.794883843352224, 37.069707249961887 ], [ 127.786732217769668, 37.07226778393904 ], [ 127.778937168137844, 37.068804066986146 ], [ 127.776490421423901, 37.069493931252111 ], [ 127.774000135099612, 37.074196882285939 ], [ 127.766330102825535, 37.076909247101298 ], [ 127.763917002161918, 37.079648046012309 ], [ 127.752081751579453, 37.078585021249594 ], [ 127.742345099177328, 37.075059923307862 ], [ 127.729950282530709, 37.079718328111397 ], [ 127.712803510947523, 37.075661743631883 ], [ 127.709913287573059, 37.077644363657825 ], [ 127.697855910557905, 37.07860068995447 ], [ 127.692220492541963, 37.081309304497971 ], [ 127.693443830105409, 37.085553888702265 ], [ 127.699306347451241, 37.091639943032376 ], [ 127.700100584698276, 37.095551658902252 ], [ 127.698129733357234, 37.099413469657449 ], [ 127.699897506523996, 37.099691342118952 ], [ 127.700896347087337, 37.10299868458884 ], [ 127.712608888773104, 37.106383425682672 ], [ 127.714822450283975, 37.110007015590128 ], [ 127.721109454766165, 37.111080477006745 ], [ 127.722870405402418, 37.115915454477566 ], [ 127.720543014713044, 37.123062207383605 ], [ 127.711985932241831, 37.12778888294293 ], [ 127.709605647455788, 37.13569257342494 ], [ 127.700271244875509, 37.137794541400567 ], [ 127.694534177387197, 37.141258979390457 ], [ 127.694727434735071, 37.149978258029755 ], [ 127.704272196499971, 37.15764758363693 ], [ 127.704854409205836, 37.167520127537863 ], [ 127.709652788709306, 37.172192283573636 ], [ 127.710381710415589, 37.175730749063568 ], [ 127.71390981113791, 37.178445702033017 ], [ 127.714516895279573, 37.181121837255354 ], [ 127.717636897728497, 37.18383138121947 ], [ 127.722798399336057, 37.181569118292444 ], [ 127.726406996336465, 37.182540453035308 ], [ 127.728331747518709, 37.19178418500892 ], [ 127.732482811028575, 37.195797261804472 ], [ 127.732178129700713, 37.201377280804508 ], [ 127.734434965147656, 37.203153450536668 ], [ 127.736740031756796, 37.210193543944946 ], [ 127.744642649438688, 37.214393633581189 ], [ 127.744278742210412, 37.207272817281577 ], [ 127.755526138538997, 37.171440836210266 ], [ 127.765484310624245, 37.159142592377712 ], [ 127.787422772001591, 37.145147844692389 ], [ 127.798896247821162, 37.123319015168384 ], [ 127.801381978206791, 37.120204528265631 ], [ 127.816464631955427, 37.110515451647174 ], [ 127.817346287617639, 37.102553094084129 ], [ 127.826260644789301, 37.095281986147242 ], [ 127.830806489489134, 37.086118267865473 ] ] ] ] } },
{ "type": "Feature", "properties": { "emd_cd": "43130385", "emd_nm": "중앙탑면" }, "geometry": { "type": "MultiPolygon", "coordinates": [ [ [ [ 127.890726105516379, 36.989463195164689 ], [ 127.890024138191166, 36.976440350844214 ], [ 127.887207769130796, 36.97432941281604 ], [ 127.88300639614306, 36.974173514524772 ], [ 127.880616031274826, 36.979990464900695 ], [ 127.875295158628361, 36.980441462476101 ], [ 127.871920979445193, 36.983007739742199 ], [ 127.86845498181512, 36.981852483018457 ], [ 127.867243061883613, 36.984273238347527 ], [ 127.859123206206718, 36.986654720505804 ], [ 127.858131576678431, 36.991282974401777 ], [ 127.853924051172484, 36.992986014903735 ], [ 127.851742097179567, 37.002221676968503 ], [ 127.846242775034924, 37.003027779121084 ], [ 127.839613051756331, 37.001667114108656 ], [ 127.834708481538271, 37.008899289821365 ], [ 127.827853413580087, 37.006769201105648 ], [ 127.820383707819545, 37.016575990590056 ], [ 127.821894607849259, 37.017708354230237 ], [ 127.820474453583799, 37.018854293406278 ], [ 127.820810750510432, 37.022144622919249 ], [ 127.817805528479965, 37.024070073327941 ], [ 127.817314079092796, 37.028866784608745 ], [ 127.809202013916448, 37.030609612168469 ], [ 127.808556009317201, 37.032784996777458 ], [ 127.811379565237431, 37.036687523157042 ], [ 127.810236142022987, 37.041488591914707 ], [ 127.814614976107265, 37.044391391441458 ], [ 127.813330911940426, 37.047395226252235 ], [ 127.82077527005444, 37.048827882411011 ], [ 127.820147833017273, 37.05304218992358 ], [ 127.814899932523133, 37.055696201597733 ], [ 127.815142549100258, 37.061017233885387 ], [ 127.819766514487881, 37.058495618272353 ], [ 127.823994889601508, 37.062315569406159 ], [ 127.827116876645249, 37.061375929238643 ], [ 127.828753275217309, 37.062544666475148 ], [ 127.822383838069868, 37.068385844893584 ], [ 127.827914048148187, 37.071482196217381 ], [ 127.830584664099845, 37.075689159176726 ], [ 127.833953290621707, 37.077560852548189 ], [ 127.833425031126936, 37.079786976745886 ], [ 127.835073999167861, 37.081298241816462 ], [ 127.830800560831705, 37.08611812010399 ], [ 127.842146285237177, 37.084359180270091 ], [ 127.848873726227964, 37.079163515363625 ], [ 127.855478281415046, 37.078580687182786 ], [ 127.866772147133958, 37.080274944470403 ], [ 127.866296490388862, 37.082889621715601 ], [ 127.871021016958693, 37.084323737128308 ], [ 127.873891373122063, 37.083431475499467 ], [ 127.876596677500274, 37.078485347520193 ], [ 127.88350594589447, 37.075644016551514 ], [ 127.888481543525614, 37.0642050065603 ], [ 127.887510581897857, 37.059059956082791 ], [ 127.880619164889609, 37.05182656045568 ], [ 127.865410196341344, 37.04471522547292 ], [ 127.859312534449586, 37.0385009884887 ], [ 127.858808120914418, 37.036116818763823 ], [ 127.869151287002836, 37.018675307606976 ], [ 127.877182039598935, 37.001209991606835 ], [ 127.882616364283734, 36.994500834440352 ], [ 127.888181730436187, 36.989746161859031 ], [ 127.890726105516379, 36.989463195164689 ] ] ] ] } },
{ "type": "Feature", "properties": { "emd_cd": "43130390", "emd_nm": "금가면" }, "geometry": { "type": "MultiPolygon", "coordinates": [ [ [ [ 127.858760668161423, 37.037014644595651 ], [ 127.866237448161755, 37.045316545290703 ], [ 127.882773010124879, 37.053509307813229 ], [ 127.888152972127514, 37.060212853517775 ], [ 127.888438742680506, 37.064359791189545 ], [ 127.889448503533899, 37.062479037035743 ], [ 127.894894172689391, 37.067583368189716 ], [ 127.900731812983011, 37.069673285803397 ], [ 127.911622150631914, 37.068776998188959 ], [ 127.913086684569535, 37.066316913342504 ], [ 127.918597833064013, 37.065600657555983 ], [ 127.917393739813988, 37.062235984508924 ], [ 127.920514254381203, 37.060677145589203 ], [ 127.92365791303169, 37.055447806542951 ], [ 127.925126665698414, 37.055173062073742 ], [ 127.926591226905586, 37.058850837099939 ], [ 127.930348047765676, 37.058987875014424 ], [ 127.931372665508107, 37.054663714054129 ], [ 127.927410226545462, 37.041715106411203 ], [ 127.929349170214124, 37.037385677657127 ], [ 127.928424809323744, 37.033420435004324 ], [ 127.92121415358352, 37.03351421603486 ], [ 127.915104720476279, 37.031381213868514 ], [ 127.90900500832106, 37.032472730791532 ], [ 127.907806427397318, 37.030997455829045 ], [ 127.907395609531335, 37.027981379300165 ], [ 127.909251753648263, 37.026438129752648 ], [ 127.909767522269291, 37.02268647651232 ], [ 127.916972505205564, 37.021201387423105 ], [ 127.91971461275088, 37.018907318773316 ], [ 127.912216131119152, 37.014275178191461 ], [ 127.911316174656676, 37.000957773637928 ], [ 127.905100537318631, 36.995667149934661 ], [ 127.903533017760665, 36.989734504330215 ], [ 127.888181730436187, 36.989746161859031 ], [ 127.882616364283734, 36.994500834440352 ], [ 127.873432770199017, 37.007602527049684 ], [ 127.869415385809077, 37.018163592736897 ], [ 127.85929813345011, 37.03346272615746 ], [ 127.858760668161423, 37.037014644595651 ] ] ] ] } },
{ "type": "Feature", "properties": { "emd_cd": "43130400", "emd_nm": "동량면" }, "geometry": { "type": "MultiPolygon", "coordinates": [ [ [ [ 127.93008194308743, 37.059669482005752 ], [ 127.932005035442543, 37.061284481853477 ], [ 127.938959712795935, 37.059887897627419 ], [ 127.939669051253588, 37.057874193078888 ], [ 127.944705209334373, 37.05754531487446 ], [ 127.946659410475746, 37.060021783665221 ], [ 127.95088906148807, 37.060230377125656 ], [ 127.954986767694479, 37.064157455786216 ], [ 127.959112202683926, 37.061516909326834 ], [ 127.95993331395367, 37.057568138020656 ], [ 127.96668916839235, 37.055881847436211 ], [ 127.968579680314264, 37.052117896958052 ], [ 127.973793776067083, 37.053980897543205 ], [ 127.978666098753365, 37.05362877466321 ], [ 127.980516877466783, 37.055168046351525 ], [ 127.985896836609982, 37.054778980701066 ], [ 127.99361421108344, 37.059811851892157 ], [ 128.007113093244982, 37.05750641775888 ], [ 128.017373454431777, 37.058981009185459 ], [ 128.024755599720578, 37.061974411644172 ], [ 128.033129283861371, 37.061530931023825 ], [ 128.039771780677029, 37.063199855113446 ], [ 128.040920951801752, 37.062871323679737 ], [ 128.040623940307285, 37.057531979761116 ], [ 128.043988308756155, 37.050751468994228 ], [ 128.04795714897682, 37.049169644739798 ], [ 128.053209944253496, 37.044167197816108 ], [ 128.065324881651634, 37.04366909575154 ], [ 128.073743502106595, 37.048633544998282 ], [ 128.082149871138569, 37.048231712064066 ], [ 128.084486467166556, 37.044398091365615 ], [ 128.083496971886944, 37.038953513624435 ], [ 128.088840836018363, 37.031365691138355 ], [ 128.086179683648112, 37.028178672386559 ], [ 128.090506993076332, 37.023292460224376 ], [ 128.087742508420718, 37.022741212593381 ], [ 128.085619878160429, 37.020012543331852 ], [ 128.088911733191765, 37.017929757262948 ], [ 128.086397312613883, 37.010820939911198 ], [ 128.077433585839742, 37.006305008022153 ], [ 128.07617600673106, 37.003457998509582 ], [ 128.078539530764402, 37.000854264384579 ], [ 128.079570877222409, 36.995406139465118 ], [ 128.084685450929726, 36.994999884784463 ], [ 128.085412117190344, 36.989405195238341 ], [ 128.089358867508992, 36.988981467469237 ], [ 128.091047909933678, 36.985654106437416 ], [ 128.089075213214699, 36.973712796076406 ], [ 128.085353865719895, 36.966651283001731 ], [ 128.08704122543935, 36.961078061440581 ], [ 128.085031862022419, 36.956496161466944 ], [ 128.086034693343294, 36.95439222079721 ], [ 128.084737160050224, 36.94861598518613 ], [ 128.081097765842713, 36.947818125862035 ], [ 128.07472467000261, 36.949588560999672 ], [ 128.060222312943154, 36.959184512501281 ], [ 128.060371263540389, 36.960674989211064 ], [ 128.047916511549886, 36.9566367705728 ], [ 128.047312044166119, 36.955180130637672 ], [ 128.040274230377292, 36.954587676622516 ], [ 128.032049365108435, 36.960652491381758 ], [ 128.024846555473573, 36.969116406499978 ], [ 128.009415713942587, 36.972337550280592 ], [ 128.007067498817889, 36.978555765803087 ], [ 128.002197709138642, 36.985133689047743 ], [ 128.001511434316711, 36.993019329334821 ], [ 127.997328814377582, 37.000262951445251 ], [ 127.987614708998109, 37.009584295049159 ], [ 127.976247788465386, 37.012922029951227 ], [ 127.962937996152434, 37.023153153910727 ], [ 127.958099620957313, 37.024241918249842 ], [ 127.948415670688419, 37.020312985707413 ], [ 127.91971461275088, 37.018907318773316 ], [ 127.916972505205564, 37.021201387423105 ], [ 127.909887654425759, 37.022569854355723 ], [ 127.907238214537927, 37.029458394237537 ], [ 127.90900500832106, 37.032472730791532 ], [ 127.915104720476279, 37.031381213868514 ], [ 127.92121415358352, 37.03351421603486 ], [ 127.928424809323744, 37.033420435004324 ], [ 127.929435572481182, 37.036622174821034 ], [ 127.927465392475654, 37.042322181833626 ], [ 127.9313755257823, 37.054703724596891 ], [ 127.93008194308743, 37.059669482005752 ] ] ] ] } },
{ "type": "Feature", "properties": { "emd_cd": "43130410", "emd_nm": "산척면" }, "geometry": { "type": "MultiPolygon", "coordinates": [ [ [ [ 127.926591226905586, 37.058850837099939 ], [ 127.927464441353138, 37.069789894326803 ], [ 127.92699788879149, 37.072281439022539 ], [ 127.923217914058924, 37.073203408332894 ], [ 127.924255200560623, 37.075061326562171 ], [ 127.922224508456722, 37.074655577620383 ], [ 127.922985885498434, 37.080974375299199 ], [ 127.935400749566654, 37.083424020696178 ], [ 127.943606681481029, 37.089469943088822 ], [ 127.945670067585198, 37.087942427744132 ], [ 127.94871542956372, 37.090993838847119 ], [ 127.954413316308475, 37.090351891427659 ], [ 127.957964663523342, 37.097873834063385 ], [ 127.9571922838159, 37.099504827710874 ], [ 127.953791729908787, 37.100016288802827 ], [ 127.955680892708287, 37.103438506526622 ], [ 127.954177855383747, 37.106233354788039 ], [ 127.955891973479311, 37.110373546685643 ], [ 127.951838779580285, 37.113928991355763 ], [ 127.955195757618696, 37.11759285463895 ], [ 127.952981262216284, 37.125042204168174 ], [ 127.955237502533748, 37.128132050893484 ], [ 127.961650204301009, 37.12897215307283 ], [ 127.96282389716761, 37.131807786021717 ], [ 127.970456579043599, 37.137498068929446 ], [ 127.970961054321194, 37.141746762830387 ], [ 127.97463658520202, 37.142153664934533 ], [ 127.977977581647622, 37.140423606286149 ], [ 127.982602453976071, 37.131425343851454 ], [ 127.986550941303605, 37.131514254735137 ], [ 127.987046007937579, 37.129223217979849 ], [ 127.984921236292237, 37.125015639079471 ], [ 127.986172699849647, 37.123436052390524 ], [ 127.984507907229371, 37.118991013769822 ], [ 127.98503905869272, 37.11255709920799 ], [ 127.998814253162024, 37.108335119558788 ], [ 128.001076872326792, 37.100613508744274 ], [ 128.003445817989927, 37.098696836148164 ], [ 128.012632468108222, 37.098292020933329 ], [ 128.010455329856512, 37.101803872469318 ], [ 128.011818592368058, 37.103350851746754 ], [ 128.01169289274435, 37.10776563736043 ], [ 128.019703835136056, 37.117767015560155 ], [ 128.033753780119554, 37.113861000644405 ], [ 128.037998563321025, 37.111138591737841 ], [ 128.043188659190946, 37.115292838866083 ], [ 128.045711745212259, 37.11548736542403 ], [ 128.048455930412217, 37.108517204401288 ], [ 128.045551998473456, 37.106625876466758 ], [ 128.046649724680435, 37.103112694415003 ], [ 128.052743552564351, 37.096954531507087 ], [ 128.063106317838503, 37.096705839203636 ], [ 128.058963866883943, 37.089484133496875 ], [ 128.060919983179787, 37.088488185349867 ], [ 128.060632476832694, 37.086746306820828 ], [ 128.069046328713512, 37.086348913404528 ], [ 128.07560887093689, 37.084206573463412 ], [ 128.085200830606624, 37.075711804105815 ], [ 128.082819221384312, 37.073845588842865 ], [ 128.08204678160547, 37.070748874435509 ], [ 128.08580080280143, 37.065754559825749 ], [ 128.082586674816952, 37.059065563140464 ], [ 128.083795488113168, 37.055523036794284 ], [ 128.081167149764752, 37.048902822022434 ], [ 128.073743502106595, 37.048633544998282 ], [ 128.065324881651634, 37.04366909575154 ], [ 128.053209944253496, 37.044167197816108 ], [ 128.04795714897682, 37.049169644739798 ], [ 128.044769151216713, 37.04983377503941 ], [ 128.040623940307285, 37.057531979761116 ], [ 128.040920951801752, 37.062871323679737 ], [ 128.039771780677029, 37.063199855113446 ], [ 128.033129283861371, 37.061530931023825 ], [ 128.024755599720578, 37.061974411644172 ], [ 128.017373454431777, 37.058981009185459 ], [ 128.007113093244982, 37.05750641775888 ], [ 127.99361421108344, 37.059811851892157 ], [ 127.985896836609982, 37.054778980701066 ], [ 127.980516877466783, 37.055168046351525 ], [ 127.978666098753365, 37.05362877466321 ], [ 127.973793776067083, 37.053980897543205 ], [ 127.968579680314264, 37.052117896958052 ], [ 127.96668916839235, 37.055881847436211 ], [ 127.95993331395367, 37.057568138020656 ], [ 127.959112202683926, 37.061516909326834 ], [ 127.954986767694479, 37.064157455786216 ], [ 127.95088906148807, 37.060230377125656 ], [ 127.946659410475746, 37.060021783665221 ], [ 127.944705209334373, 37.05754531487446 ], [ 127.939669051253588, 37.057874193078888 ], [ 127.938959712795935, 37.059887897627419 ], [ 127.932005035442543, 37.061284481853477 ], [ 127.931047969833557, 37.059477042176887 ], [ 127.926591226905586, 37.058850837099939 ] ] ] ] } },
{ "type": "Feature", "properties": { "emd_cd": "43130420", "emd_nm": "엄정면" }, "geometry": { "type": "MultiPolygon", "coordinates": [ [ [ [ 127.971877424216345, 37.148041480911843 ], [ 127.970456579043599, 37.137498068929446 ], [ 127.96282389716761, 37.131807786021717 ], [ 127.961650204301009, 37.12897215307283 ], [ 127.955237502533748, 37.128132050893484 ], [ 127.952981262216284, 37.125042204168174 ], [ 127.955195757618696, 37.11759285463895 ], [ 127.951838779580285, 37.113928991355763 ], [ 127.955891973479311, 37.110373546685643 ], [ 127.954177855383747, 37.106233354788039 ], [ 127.955680892708287, 37.103438506526622 ], [ 127.953791729908787, 37.100016288802827 ], [ 127.9571922838159, 37.099504827710874 ], [ 127.957964663523342, 37.097873834063385 ], [ 127.955411727186885, 37.09156961335232 ], [ 127.954413316308475, 37.090351891427659 ], [ 127.94871542956372, 37.090993838847119 ], [ 127.945670067585198, 37.087942427744132 ], [ 127.943606681481029, 37.089469943088822 ], [ 127.935400749566654, 37.083424020696178 ], [ 127.922985885498434, 37.080974375299199 ], [ 127.922224508456722, 37.074655577620383 ], [ 127.924255200560623, 37.075061326562171 ], [ 127.923217914058924, 37.073203408332894 ], [ 127.92699788879149, 37.072281439022539 ], [ 127.927664425143831, 37.06781410740976 ], [ 127.925126665698414, 37.055173062073742 ], [ 127.922311534183251, 37.056237209330654 ], [ 127.921665199266101, 37.059315608708502 ], [ 127.917393739813988, 37.062235984508924 ], [ 127.918597833064013, 37.065600657555983 ], [ 127.913086684569535, 37.066316913342504 ], [ 127.911622150631914, 37.068776998188959 ], [ 127.900731812983011, 37.069673285803397 ], [ 127.894894172689391, 37.067583368189716 ], [ 127.889448503533899, 37.062479037035743 ], [ 127.88350594589447, 37.075644016551514 ], [ 127.88078315752287, 37.077198946842337 ], [ 127.88250260726079, 37.077202198891534 ], [ 127.884007681580584, 37.08621721402772 ], [ 127.888071904615003, 37.088413019876462 ], [ 127.886435922279347, 37.089829605730415 ], [ 127.886107161275987, 37.094901750828313 ], [ 127.89810427145791, 37.099742143714899 ], [ 127.899234531539577, 37.103210152457315 ], [ 127.903078188921072, 37.106496632786637 ], [ 127.903308976968901, 37.111398246883681 ], [ 127.900912417172947, 37.119858240089954 ], [ 127.895579570694892, 37.127412399763671 ], [ 127.89769896372735, 37.131685972563709 ], [ 127.895369792899913, 37.139748890247027 ], [ 127.897126756440315, 37.143821383749561 ], [ 127.895174829376458, 37.147949675577458 ], [ 127.901622042206128, 37.151794909277747 ], [ 127.903857216306847, 37.156950398153761 ], [ 127.903472614877927, 37.160060352255947 ], [ 127.90616855351233, 37.161726774798289 ], [ 127.908618102391486, 37.167153813372813 ], [ 127.915030132968127, 37.168914803154088 ], [ 127.923837921332634, 37.163626157320778 ], [ 127.926310777405007, 37.165529595747323 ], [ 127.934493657569178, 37.163296974660341 ], [ 127.939386147643589, 37.163923622285353 ], [ 127.942779165581427, 37.161902615750137 ], [ 127.954470838738729, 37.16214138990965 ], [ 127.959647002914153, 37.160687346048732 ], [ 127.960425336042988, 37.158977795682631 ], [ 127.968434412949648, 37.156176847104369 ], [ 127.971877424216345, 37.148041480911843 ] ] ] ] } },
{ "type": "Feature", "properties": { "emd_cd": "43130430", "emd_nm": "소태면" }, "geometry": { "type": "MultiPolygon", "coordinates": [ [ [ [ 127.830478323472818, 37.086471786132797 ], [ 127.826260644789301, 37.095281986147242 ], [ 127.817346287617639, 37.102553094084129 ], [ 127.816464631955427, 37.110515451647174 ], [ 127.801381978206791, 37.120204528265631 ], [ 127.798896247821162, 37.123319015168384 ], [ 127.787828387969199, 37.144234528324226 ], [ 127.789524870144106, 37.143408901790707 ], [ 127.793359433376466, 37.145747793996293 ], [ 127.80164701934018, 37.144266295139175 ], [ 127.808036123638047, 37.147205921992644 ], [ 127.815260112010634, 37.146612306793756 ], [ 127.825367401634423, 37.152266684113599 ], [ 127.837465122393894, 37.151510222856857 ], [ 127.847410388181132, 37.152922811132832 ], [ 127.850371459759998, 37.154875308845533 ], [ 127.851274184894109, 37.158461891657218 ], [ 127.853546404474557, 37.160334817877612 ], [ 127.85527826605886, 37.159951853061017 ], [ 127.855868772732947, 37.15647621308063 ], [ 127.861295455378169, 37.155348730107107 ], [ 127.862033342148209, 37.161099591604348 ], [ 127.871979731049805, 37.164339948178899 ], [ 127.886567793218447, 37.161072617863013 ], [ 127.895419056566411, 37.156047881302847 ], [ 127.89889407411502, 37.149822687314391 ], [ 127.895171375669662, 37.147941222991079 ], [ 127.897126756440315, 37.143821383749561 ], [ 127.895369792899913, 37.139748890247027 ], [ 127.89769896372735, 37.131685972563709 ], [ 127.895579570694892, 37.127412399763671 ], [ 127.900912417172947, 37.119858240089954 ], [ 127.903308976968901, 37.111398246883681 ], [ 127.903078188921072, 37.106496632786637 ], [ 127.899234531539577, 37.103210152457315 ], [ 127.89810427145791, 37.099742143714899 ], [ 127.886031534659836, 37.09479961536173 ], [ 127.886435922279347, 37.089829605730415 ], [ 127.888071904615003, 37.088413019876462 ], [ 127.884007681580584, 37.08621721402772 ], [ 127.88250260726079, 37.077202198891534 ], [ 127.876596677500274, 37.078485347520193 ], [ 127.873891373122063, 37.083431475499467 ], [ 127.871021016958693, 37.084323737128308 ], [ 127.866296490388862, 37.082889621715601 ], [ 127.866772147133958, 37.080274944470403 ], [ 127.855478281415046, 37.078580687182786 ], [ 127.848873726227964, 37.079163515363625 ], [ 127.842146285237177, 37.084359180270091 ], [ 127.830478323472818, 37.086471786132797 ] ] ] ] } }
]
}
