{
"type": "FeatureCollection",
"name": "43730",
"crs": { "type": "name", "properties": { "name": "urn:ogc:def:crs:OGC:1.3:CRS84" } },
"features": [
{ "type": "Feature", "properties": { "emd_cd": "43730250", "emd_nm": "옥천읍" }, "geometry": { "type": "MultiPolygon", "coordinates": [ [ [ [ 127.539704793492476, 36.286965312231544 ], [ 127.546788557928522, 36.296233289030482 ], [ 127.546868434978578, 36.298720416246084 ], [ 127.557872619980827, 36.306051841714911 ], [ 127.557508643531321, 36.308233596573608 ], [ 127.554942256940805, 36.30723007707644 ], [ 127.55294833913004, 36.308368887498624 ], [ 127.552112494802415, 36.311879915477881 ], [ 127.549485465244473, 36.313842654270772 ], [ 127.54400666320528, 36.314343459821679 ], [ 127.541648946647371, 36.316977796242206 ], [ 127.546782811235516, 36.321946764747381 ], [ 127.552058913853742, 36.32410409653945 ], [ 127.557485814417674, 36.330396002501267 ], [ 127.556425709987479, 36.333278393165045 ], [ 127.560553170158272, 36.329907610017713 ], [ 127.564690395268244, 36.321866843176593 ], [ 127.569353614093956, 36.324358005693384 ], [ 127.573267661981845, 36.323286038403296 ], [ 127.574903132795384, 36.325117959654989 ], [ 127.581243334192081, 36.32618679747042 ], [ 127.580082895625111, 36.33280842387822 ], [ 127.583760423332095, 36.335756905471051 ], [ 127.58991768291736, 36.333307209065808 ], [ 127.589949311339922, 36.336271599377639 ], [ 127.597509557302871, 36.338303186555621 ], [ 127.597691329484661, 36.341814169619603 ], [ 127.599462337856878, 36.343003739645084 ], [ 127.602673096661221, 36.3432932600006 ], [ 127.602264883889049, 36.340654244056161 ], [ 127.600300014277806, 36.34070668494671 ], [ 127.601407617490821, 36.340247116146287 ], [ 127.6053524441229, 36.341400434797166 ], [ 127.60682201720428, 36.346085082061535 ], [ 127.631411093655359, 36.350365622031994 ], [ 127.637544307342395, 36.357542394208316 ], [ 127.636122301160498, 36.359590913206709 ], [ 127.637711412862771, 36.358414320044794 ], [ 127.637413403836661, 36.355474863341833 ], [ 127.642623630442543, 36.361320120179961 ], [ 127.648120585626273, 36.358368842285429 ], [ 127.649539522086684, 36.353583439483103 ], [ 127.643595129024789, 36.353185325929921 ], [ 127.641374145740585, 36.35147083812852 ], [ 127.638022067694692, 36.343121322420799 ], [ 127.627064132580571, 36.332365259349451 ], [ 127.61681069724186, 36.326064507539982 ], [ 127.613325837376962, 36.32621718300858 ], [ 127.609463486484756, 36.330580684223911 ], [ 127.606465324889029, 36.328491781175359 ], [ 127.608314704216937, 36.326803422831176 ], [ 127.610435012265683, 36.31839120004048 ], [ 127.611992148889698, 36.316987480587898 ], [ 127.614429009354325, 36.318586075845438 ], [ 127.616307296248749, 36.316529382119221 ], [ 127.607558039216997, 36.312711964484826 ], [ 127.603175460272865, 36.31561029715651 ], [ 127.594599925855206, 36.313058209180312 ], [ 127.60045469925366, 36.309459438023062 ], [ 127.598779044217252, 36.302354633734282 ], [ 127.601344035309268, 36.301542493219408 ], [ 127.601692207094331, 36.298726688596766 ], [ 127.606096938872554, 36.296238118036193 ], [ 127.606211002341226, 36.297927167386263 ], [ 127.612420924450362, 36.298382896059174 ], [ 127.615941231027051, 36.294166057589166 ], [ 127.614589603963068, 36.292384141595988 ], [ 127.612108705548465, 36.293518862457105 ], [ 127.605400858922309, 36.291133463223929 ], [ 127.602884314277844, 36.280385858532277 ], [ 127.594118235978002, 36.274579874948763 ], [ 127.592377512944196, 36.26737961490624 ], [ 127.594666834566056, 36.261571820827925 ], [ 127.59880026075912, 36.258221838684562 ], [ 127.594179393442488, 36.255813996200793 ], [ 127.58986776116059, 36.250092957942812 ], [ 127.580087121686162, 36.25352387441955 ], [ 127.575534349022092, 36.251427919173295 ], [ 127.57343071053991, 36.246934474296651 ], [ 127.56809494273088, 36.247647038853344 ], [ 127.561129573103216, 36.260121492026322 ], [ 127.556506833314216, 36.260769572982255 ], [ 127.555144608856722, 36.268554809817402 ], [ 127.5521603432163, 36.269529977626121 ], [ 127.550861133392516, 36.274667552395904 ], [ 127.545740999234027, 36.280087792370502 ], [ 127.541953948160113, 36.281599057961344 ], [ 127.542434372411392, 36.283186536631334 ], [ 127.540199175012162, 36.284542618083883 ], [ 127.539704793492476, 36.286965312231544 ] ] ] ] } },
{ "type": "Feature", "properties": { "emd_cd": "43730310", "emd_nm": "동이면" }, "geometry": { "type": "MultiPolygon", "coordinates": [ [ [ [ 127.592377512944196, 36.26737961490624 ], [ 127.594118235978002, 36.274579874948763 ], [ 127.602884314277844, 36.280385858532277 ], [ 127.604775218582603, 36.290557512370725 ], [ 127.612108705548465, 36.293518862457105 ], [ 127.614589603963068, 36.292384141595988 ], [ 127.615941231027051, 36.294166057589166 ], [ 127.612420924450362, 36.298382896059174 ], [ 127.606211002341226, 36.297927167386263 ], [ 127.606096938872554, 36.296238118036193 ], [ 127.601692207094331, 36.298726688596766 ], [ 127.601344035309268, 36.301542493219408 ], [ 127.598779044217252, 36.302354633734282 ], [ 127.60045469925366, 36.309459438023062 ], [ 127.594599925855206, 36.313058209180312 ], [ 127.603175460272865, 36.31561029715651 ], [ 127.607558039216997, 36.312711964484826 ], [ 127.616307296248749, 36.316529382119221 ], [ 127.614429009354325, 36.318586075845438 ], [ 127.611992148889698, 36.316987480587898 ], [ 127.610435012265683, 36.31839120004048 ], [ 127.608314704216937, 36.326803422831176 ], [ 127.606465324889029, 36.328491781175359 ], [ 127.609463486484756, 36.330580684223911 ], [ 127.613325837376962, 36.32621718300858 ], [ 127.618898762508181, 36.326796009946797 ], [ 127.632499023162964, 36.336390317867142 ], [ 127.638022067694692, 36.343121322420799 ], [ 127.641374145740585, 36.35147083812852 ], [ 127.646894048399403, 36.35370014664575 ], [ 127.65040697536088, 36.350907035619649 ], [ 127.64677209761858, 36.342874790753172 ], [ 127.646784554706599, 36.335182464470797 ], [ 127.653986762810433, 36.333293308499186 ], [ 127.659304878700311, 36.333947551444886 ], [ 127.662022517664639, 36.337269013994806 ], [ 127.661562955538614, 36.345028370505624 ], [ 127.664806688435462, 36.346045587626641 ], [ 127.665687329265879, 36.332188993861884 ], [ 127.669002716502305, 36.3264792242936 ], [ 127.678600186297587, 36.318620133400493 ], [ 127.6907333160012, 36.314721825418403 ], [ 127.692085874219998, 36.306774782370979 ], [ 127.687237006963116, 36.303307292505188 ], [ 127.680592849026709, 36.304539716314913 ], [ 127.67098646754684, 36.310499448741531 ], [ 127.666231314368162, 36.309522458035822 ], [ 127.663727216132159, 36.303330576083617 ], [ 127.66633905591128, 36.296106768193759 ], [ 127.672137105569817, 36.292799862739031 ], [ 127.690875094272883, 36.291839563634255 ], [ 127.696520421026634, 36.288971722845496 ], [ 127.698214461125929, 36.284388879593465 ], [ 127.697690283937547, 36.280028933475293 ], [ 127.692666615265921, 36.277110279443257 ], [ 127.698784653828611, 36.276630417595875 ], [ 127.70117021470115, 36.274341167428766 ], [ 127.705894981777504, 36.274528982432066 ], [ 127.708119743942106, 36.268892276700853 ], [ 127.711457593797931, 36.268384375109918 ], [ 127.714671962175771, 36.263136053297757 ], [ 127.706588609630572, 36.262659696150862 ], [ 127.703708662549687, 36.260219992309274 ], [ 127.698022294094429, 36.263230004941967 ], [ 127.693978892050936, 36.263170512048703 ], [ 127.69146769042419, 36.26141059696144 ], [ 127.68742393849557, 36.26217684100088 ], [ 127.684316229881347, 36.260193928271612 ], [ 127.68029577233979, 36.261806699139278 ], [ 127.676381832952956, 36.260271400920374 ], [ 127.662700588468837, 36.267525662777366 ], [ 127.658650852944334, 36.266846115400476 ], [ 127.657179509329637, 36.264391401855043 ], [ 127.653838761012722, 36.265228345695938 ], [ 127.63763289685042, 36.259775180313603 ], [ 127.633738157211482, 36.262669684081892 ], [ 127.630731522385403, 36.260875517486532 ], [ 127.625510858124954, 36.263428761799673 ], [ 127.59846327844393, 36.259068713761664 ], [ 127.594666834566056, 36.261571820827925 ], [ 127.592377512944196, 36.26737961490624 ] ] ] ] } },
{ "type": "Feature", "properties": { "emd_cd": "43730320", "emd_nm": "안남면" }, "geometry": { "type": "MultiPolygon", "coordinates": [ [ [ [ 127.680990166794672, 36.317982887780921 ], [ 127.672035327273591, 36.32284904920521 ], [ 127.667373164527945, 36.328542849677092 ], [ 127.665687329265879, 36.332188993861884 ], [ 127.664806688435462, 36.346045587626641 ], [ 127.661562955538614, 36.345028370505624 ], [ 127.662022517664639, 36.337269013994806 ], [ 127.659304878700311, 36.333947551444886 ], [ 127.653986762810433, 36.333293308499186 ], [ 127.646784554706599, 36.335182464470797 ], [ 127.64677209761858, 36.342874790753172 ], [ 127.65040697536088, 36.350907035619649 ], [ 127.648006261656164, 36.353195082580726 ], [ 127.649642037456388, 36.353948933389233 ], [ 127.648120585626273, 36.358368842285429 ], [ 127.642847332076713, 36.361332166629985 ], [ 127.646063420430096, 36.364442654679905 ], [ 127.668194871068977, 36.365529767053971 ], [ 127.668772599983143, 36.369465620160369 ], [ 127.666398291731142, 36.373892697065472 ], [ 127.662415009088804, 36.375101780487604 ], [ 127.664922024150997, 36.384771412964348 ], [ 127.669709442029315, 36.388072408457418 ], [ 127.674469949765367, 36.38661727829836 ], [ 127.679954932733153, 36.38941861951303 ], [ 127.690492848744057, 36.390489539496684 ], [ 127.693338276714883, 36.388264042583089 ], [ 127.701611356587009, 36.386423399680453 ], [ 127.708257970902068, 36.380197310648803 ], [ 127.705218097753047, 36.374194365566552 ], [ 127.713381138865159, 36.359659354783616 ], [ 127.709251957939856, 36.356513511707028 ], [ 127.709997102949728, 36.349742270382066 ], [ 127.700917931734907, 36.345982230153915 ], [ 127.699462086478633, 36.339534294441307 ], [ 127.702679236094866, 36.336497165708757 ], [ 127.703354243591534, 36.332760369064431 ], [ 127.700650505933879, 36.327583709679509 ], [ 127.700829769330042, 36.32195059240145 ], [ 127.698592078038445, 36.321586564076583 ], [ 127.695164403553846, 36.317862826589774 ], [ 127.685856059687126, 36.320554895355301 ], [ 127.684756194169424, 36.318471613249649 ], [ 127.680990166794672, 36.317982887780921 ] ] ] ] } },
{ "type": "Feature", "properties": { "emd_cd": "43730330", "emd_nm": "안내면" }, "geometry": { "type": "MultiPolygon", "coordinates": [ [ [ [ 127.571709928332027, 36.393043936581641 ], [ 127.569587953243783, 36.400403322174625 ], [ 127.580127495588584, 36.408299577439877 ], [ 127.583601185486529, 36.418731211057761 ], [ 127.586408998571628, 36.416774916693718 ], [ 127.585219591418721, 36.414689454108476 ], [ 127.588525144028139, 36.415020328661917 ], [ 127.588056581214161, 36.412892643777006 ], [ 127.589497500025885, 36.413553688954622 ], [ 127.591238149240723, 36.411999703758262 ], [ 127.594029171603239, 36.413193367070157 ], [ 127.593382969641524, 36.411496244087914 ], [ 127.596515105336067, 36.410697966518633 ], [ 127.598621219798616, 36.411969575557059 ], [ 127.598470987505237, 36.408208679098294 ], [ 127.600965040248425, 36.407179182700027 ], [ 127.602503034453875, 36.409528485412153 ], [ 127.604460698867683, 36.40855500765111 ], [ 127.604082058226325, 36.403964786949849 ], [ 127.612256919763027, 36.403358815800559 ], [ 127.617329140187749, 36.41052195891875 ], [ 127.617377727138447, 36.417467624302589 ], [ 127.620789189783537, 36.418167223012439 ], [ 127.620025980016038, 36.420440315796967 ], [ 127.625300084299013, 36.423344620398211 ], [ 127.631597623999497, 36.440221353377737 ], [ 127.637593413087004, 36.435654771303803 ], [ 127.639237696442279, 36.436030572079027 ], [ 127.641321936075926, 36.442521375982253 ], [ 127.645601241100053, 36.445225152519775 ], [ 127.648473617899782, 36.442374622862545 ], [ 127.650952462837523, 36.443207967693667 ], [ 127.656257221191353, 36.437619467007572 ], [ 127.66131598050346, 36.440528523363845 ], [ 127.665182055683687, 36.445093819391168 ], [ 127.676263030967277, 36.43721433541689 ], [ 127.680542491638462, 36.43605386577471 ], [ 127.680392986753731, 36.430196834124885 ], [ 127.678475024785939, 36.427098696301748 ], [ 127.681388998790538, 36.418520137233998 ], [ 127.693418011182217, 36.417129972228622 ], [ 127.700131808375048, 36.413806244405222 ], [ 127.704134541235916, 36.414942343820364 ], [ 127.705476014518467, 36.413557232642731 ], [ 127.710114969119246, 36.413803761233765 ], [ 127.708261470606672, 36.406557309984436 ], [ 127.719158699639465, 36.395783069217565 ], [ 127.731442897069286, 36.390229593856013 ], [ 127.72858586476147, 36.383350961276065 ], [ 127.719920245560786, 36.378845985125679 ], [ 127.713540746031867, 36.381604209417233 ], [ 127.708257970902068, 36.380197310648803 ], [ 127.701611356587009, 36.386423399680453 ], [ 127.693338276714883, 36.388264042583089 ], [ 127.690492848744057, 36.390489539496684 ], [ 127.679954932733153, 36.38941861951303 ], [ 127.674469949765367, 36.38661727829836 ], [ 127.669709442029315, 36.388072408457418 ], [ 127.664922024150997, 36.384771412964348 ], [ 127.662264658701091, 36.377540464770348 ], [ 127.662415009088804, 36.375101780487604 ], [ 127.666398291731142, 36.373892697065472 ], [ 127.669052043739768, 36.366099430530539 ], [ 127.665510048557636, 36.364548843728251 ], [ 127.646063420430096, 36.364442654679905 ], [ 127.637413403836661, 36.355474863341833 ], [ 127.637711412862771, 36.358414320044794 ], [ 127.636122301160498, 36.359590913206709 ], [ 127.637544307342395, 36.357542394208316 ], [ 127.631411093655359, 36.350365622031994 ], [ 127.608996516112398, 36.346877035430843 ], [ 127.605743877480577, 36.344967917811815 ], [ 127.6053524441229, 36.341400434797166 ], [ 127.603529367622798, 36.341363168593467 ], [ 127.602365476161339, 36.340490114498905 ], [ 127.601440343898588, 36.340244320474298 ], [ 127.600300014277806, 36.34070668494671 ], [ 127.602264883889049, 36.340654244056161 ], [ 127.602673096661221, 36.3432932600006 ], [ 127.60051525254363, 36.343382000789255 ], [ 127.601153963046755, 36.345451124874458 ], [ 127.605717234126772, 36.350223581801593 ], [ 127.609056498827471, 36.350697665599505 ], [ 127.61146261932079, 36.354176786455028 ], [ 127.614662141833946, 36.355114621112726 ], [ 127.621562623276887, 36.363259116646709 ], [ 127.62258943727312, 36.371668365551336 ], [ 127.62029856987445, 36.376002446503826 ], [ 127.625830187582423, 36.379616492968196 ], [ 127.637111685975853, 36.381564635136272 ], [ 127.63780771219713, 36.383354152402006 ], [ 127.630021586591596, 36.388333899264943 ], [ 127.620678396408422, 36.385461183893852 ], [ 127.619756673990764, 36.383955381032258 ], [ 127.613066734803894, 36.384708795279622 ], [ 127.604882295802597, 36.388462252788209 ], [ 127.600716463923405, 36.387013017168421 ], [ 127.595526706165899, 36.387602745738235 ], [ 127.590115432365522, 36.392814829807044 ], [ 127.583356279981373, 36.38916519895961 ], [ 127.577248730874274, 36.388874937799734 ], [ 127.571709928332027, 36.393043936581641 ] ] ] ] } },
{ "type": "Feature", "properties": { "emd_cd": "43730340", "emd_nm": "청성면" }, "geometry": { "type": "MultiPolygon", "coordinates": [ [ [ [ 127.733722010055644, 36.394363638854941 ], [ 127.742910336157962, 36.386899635759079 ], [ 127.746718349718108, 36.385829338718906 ], [ 127.754899378073404, 36.390922155491189 ], [ 127.756933843888049, 36.390643765286974 ], [ 127.759628288042023, 36.381716994467155 ], [ 127.758290565901305, 36.377947725678901 ], [ 127.768324851990272, 36.377733848981784 ], [ 127.774280620929019, 36.371958781010854 ], [ 127.77556590780253, 36.367934768558158 ], [ 127.780903105877201, 36.365513435415806 ], [ 127.781634991731877, 36.359380637244399 ], [ 127.772851027796037, 36.353497074075094 ], [ 127.771472905706815, 36.344764298155717 ], [ 127.762496669714579, 36.342209789187066 ], [ 127.764227796051117, 36.339544508634773 ], [ 127.763148047952043, 36.332436026366409 ], [ 127.76491180020183, 36.331643338480376 ], [ 127.763809442582698, 36.329476764694839 ], [ 127.765456423070219, 36.324351568387804 ], [ 127.762389329318495, 36.316625494815383 ], [ 127.770113844534848, 36.318278539967935 ], [ 127.773455015181767, 36.315078410266302 ], [ 127.777574098315128, 36.308253899054741 ], [ 127.777661174461997, 36.304602271419874 ], [ 127.781931327590485, 36.29890214106932 ], [ 127.782706622438596, 36.292575051053603 ], [ 127.778535232629224, 36.289846236379788 ], [ 127.77584159280859, 36.291878494275259 ], [ 127.769346384863624, 36.289733357207865 ], [ 127.769246685366312, 36.28567269561092 ], [ 127.764520012176519, 36.284302554924629 ], [ 127.761878824124253, 36.28013322414872 ], [ 127.761662222319444, 36.271768069007912 ], [ 127.75581240262018, 36.267914947765988 ], [ 127.751854169396637, 36.270055679267244 ], [ 127.735444696247583, 36.272854517930107 ], [ 127.730975831597405, 36.276411836034249 ], [ 127.7268904398139, 36.274754437705091 ], [ 127.72168488149741, 36.269465744543979 ], [ 127.713999857480474, 36.268626386974219 ], [ 127.712404814237118, 36.265827087233632 ], [ 127.711457593797931, 36.268384375109918 ], [ 127.708119743942106, 36.268892276700853 ], [ 127.705894981777504, 36.274528982432066 ], [ 127.70117021470115, 36.274341167428766 ], [ 127.698784653828611, 36.276630417595875 ], [ 127.692666615265921, 36.277110279443257 ], [ 127.697690283937547, 36.280028933475293 ], [ 127.698214461125929, 36.284388879593465 ], [ 127.696520421026634, 36.288971722845496 ], [ 127.690875094272883, 36.291839563634255 ], [ 127.668731840939458, 36.29365403179893 ], [ 127.665191393276714, 36.29818569632662 ], [ 127.663811977383318, 36.304681797822653 ], [ 127.667656490749764, 36.310518050637107 ], [ 127.67098646754684, 36.310499448741531 ], [ 127.682684193490232, 36.30368191573433 ], [ 127.687237006963116, 36.303307292505188 ], [ 127.691100078072353, 36.305042320887779 ], [ 127.692085538298244, 36.310379429474679 ], [ 127.690529017566632, 36.315042761898219 ], [ 127.680990166794672, 36.317982887780921 ], [ 127.684756194169424, 36.318471613249649 ], [ 127.685856059687126, 36.320554895355301 ], [ 127.695164403553846, 36.317862826589774 ], [ 127.698592078038445, 36.321586564076583 ], [ 127.700829769330042, 36.32195059240145 ], [ 127.700650505933879, 36.327583709679509 ], [ 127.703354243591534, 36.332760369064431 ], [ 127.702679236094866, 36.336497165708757 ], [ 127.699462086478633, 36.339534294441307 ], [ 127.700917931734907, 36.345982230153915 ], [ 127.709997102949728, 36.349742270382066 ], [ 127.709251957939856, 36.356513511707028 ], [ 127.713381138865159, 36.359659354783616 ], [ 127.705218097753047, 36.374194365566552 ], [ 127.710186639804576, 36.381461848956583 ], [ 127.715382690233653, 36.381146543492811 ], [ 127.719920245560786, 36.378845985125679 ], [ 127.725818377573646, 36.381213957593893 ], [ 127.730587990389822, 36.38623861519477 ], [ 127.733722010055644, 36.394363638854941 ] ], [ [ 127.763419007969674, 36.330898337145115 ], [ 127.763874029759165, 36.331650205837015 ], [ 127.763419008057411, 36.330898346156097 ], [ 127.763419007969674, 36.330898337145115 ] ], [ [ 127.763493838861208, 36.331802942737873 ], [ 127.763088481430245, 36.33176629916958 ], [ 127.763226461990911, 36.331362360900023 ], [ 127.763493838861208, 36.331802942737873 ] ], [ [ 127.76375494743877, 36.32983677176221 ], [ 127.763511183869326, 36.330664269598643 ], [ 127.76370775032666, 36.330175428970492 ], [ 127.76375494743877, 36.32983677176221 ] ] ] ] } },
{ "type": "Feature", "properties": { "emd_cd": "43730350", "emd_nm": "청산면" }, "geometry": { "type": "MultiPolygon", "coordinates": [ [ [ [ 127.763511183869326, 36.330664269598643 ], [ 127.764069360848438, 36.330356885659185 ], [ 127.76375494743877, 36.32983677176221 ], [ 127.763511183869326, 36.330664269598643 ] ] ], [ [ [ 127.763435863521295, 36.330855370824416 ], [ 127.763915881997406, 36.330661247190051 ], [ 127.764236747270971, 36.3305333989383 ], [ 127.764150017352662, 36.330404970250413 ], [ 127.763511183869326, 36.330664269598643 ], [ 127.763435863521295, 36.330855370824416 ] ] ], [ [ [ 127.763419007969674, 36.330898337145115 ], [ 127.763419008057411, 36.330898346156097 ], [ 127.763874029759165, 36.331650205837015 ], [ 127.763419007969674, 36.330898337145115 ] ] ], [ [ [ 127.763139891416969, 36.331572899414851 ], [ 127.763493838861208, 36.331802942737873 ], [ 127.763226461990911, 36.331362360900023 ], [ 127.763139891416969, 36.331572899414851 ] ] ], [ [ [ 127.763148048039753, 36.332436035377391 ], [ 127.7634672629015, 36.332951001450411 ], [ 127.763148047952043, 36.332436026366409 ], [ 127.763148048039753, 36.332436035377391 ] ] ], [ [ [ 127.762449802258061, 36.393531524471825 ], [ 127.770748143200223, 36.387494886946769 ], [ 127.781327401656782, 36.388886790287877 ], [ 127.785590632405871, 36.387056269086429 ], [ 127.790623171612154, 36.389009987414028 ], [ 127.794756394408282, 36.384668422062148 ], [ 127.800525842430474, 36.382474767270963 ], [ 127.818515915947586, 36.38164901530579 ], [ 127.822757772727542, 36.379902737880997 ], [ 127.828654003002654, 36.373955832837126 ], [ 127.831671490391798, 36.373916879357353 ], [ 127.832727067690683, 36.369044375919671 ], [ 127.835692913125769, 36.369092749701707 ], [ 127.837122115151985, 36.373229073393908 ], [ 127.842208268300283, 36.37116049321935 ], [ 127.853214879528679, 36.371091615365295 ], [ 127.859479583592005, 36.374297357785814 ], [ 127.870476831587283, 36.373702292159265 ], [ 127.87498989919267, 36.370815973347234 ], [ 127.883465653636506, 36.370661542846285 ], [ 127.886233153554173, 36.363710078908859 ], [ 127.891169810668231, 36.359750098643438 ], [ 127.890749277580085, 36.35661859225641 ], [ 127.885556960022996, 36.354652595356505 ], [ 127.885098344422659, 36.349079691792959 ], [ 127.883677795955123, 36.349028882670588 ], [ 127.881320428029596, 36.345017467093825 ], [ 127.875364867738313, 36.345561760625188 ], [ 127.870042921629945, 36.343497504557092 ], [ 127.869996378884309, 36.339833562206636 ], [ 127.865769566861502, 36.335455267686001 ], [ 127.862016949450478, 36.335956664394899 ], [ 127.861906307162727, 36.332997491843173 ], [ 127.86033600615049, 36.333609085151195 ], [ 127.854612548190431, 36.330623671922588 ], [ 127.852748305911646, 36.332000355398179 ], [ 127.850539301663204, 36.32027135318139 ], [ 127.845887663262829, 36.318192097538876 ], [ 127.845378525353723, 36.316492293599495 ], [ 127.840528265075918, 36.315673099707205 ], [ 127.835337999163869, 36.312776366906746 ], [ 127.835058558775714, 36.311160892429939 ], [ 127.825041270364622, 36.310064346103587 ], [ 127.8209781109218, 36.305177394858354 ], [ 127.819035287243153, 36.311650019665976 ], [ 127.81373503536291, 36.308045632862203 ], [ 127.80881268860098, 36.309585992407058 ], [ 127.805121284861428, 36.305033106823224 ], [ 127.800501425348415, 36.303042780119178 ], [ 127.801136560512973, 36.297796005825148 ], [ 127.794712044536851, 36.297253733270189 ], [ 127.794473875402588, 36.29053053550453 ], [ 127.789097764508284, 36.290989116167054 ], [ 127.786793097488896, 36.288164751361926 ], [ 127.78377785815178, 36.290423930531212 ], [ 127.778758084122359, 36.28967005329968 ], [ 127.782706622438596, 36.292575051053603 ], [ 127.782401880290948, 36.297430722843451 ], [ 127.780274609797729, 36.302622043263995 ], [ 127.777661174461997, 36.304602271419874 ], [ 127.777574098315128, 36.308253899054741 ], [ 127.775252385756673, 36.312214128139864 ], [ 127.770113844534848, 36.318278539967935 ], [ 127.762389329318495, 36.316625494815383 ], [ 127.765456423070219, 36.324351568387804 ], [ 127.763809442582698, 36.329476764694839 ], [ 127.76491180020183, 36.331643338480376 ], [ 127.763479324080109, 36.332954348939012 ], [ 127.763332359118863, 36.33291383275364 ], [ 127.763193761717318, 36.332683714449622 ], [ 127.764227796051117, 36.339544508634773 ], [ 127.762496669714579, 36.342209789187066 ], [ 127.771472905706815, 36.344764298155717 ], [ 127.772851027796037, 36.353497074075094 ], [ 127.781634991731877, 36.359380637244399 ], [ 127.781287955516532, 36.364335134043628 ], [ 127.77556590780253, 36.367934768558158 ], [ 127.774280620929019, 36.371958781010854 ], [ 127.768324851990272, 36.377733848981784 ], [ 127.758290565901305, 36.377947725678901 ], [ 127.759628288042023, 36.381716994467155 ], [ 127.756933843888049, 36.390643765286974 ], [ 127.760405574483812, 36.391135987078435 ], [ 127.762449802258061, 36.393531524471825 ] ] ] ] } },
{ "type": "Feature", "properties": { "emd_cd": "43730360", "emd_nm": "이원면" }, "geometry": { "type": "MultiPolygon", "coordinates": [ [ [ [ 127.70175185401358, 36.260804904254961 ], [ 127.696895430584192, 36.251596517418392 ], [ 127.693807783123532, 36.249934483745804 ], [ 127.691383766432097, 36.238218918108529 ], [ 127.685443908795762, 36.235260606196015 ], [ 127.681068976255119, 36.224879628705906 ], [ 127.673698556844712, 36.223648854832597 ], [ 127.672543953072704, 36.222185996120814 ], [ 127.663852452358043, 36.223270322049686 ], [ 127.656153184235109, 36.229337383859701 ], [ 127.650595163166031, 36.225003422867367 ], [ 127.650309186447416, 36.219803770468289 ], [ 127.652272706216564, 36.215656146827484 ], [ 127.648455303454966, 36.20712142797052 ], [ 127.650886684902133, 36.201421143577541 ], [ 127.65438563248928, 36.19815809610904 ], [ 127.652384872900015, 36.197046906339637 ], [ 127.65192128635438, 36.194310621854818 ], [ 127.654583369472249, 36.191791403492203 ], [ 127.653789325747368, 36.188821961481672 ], [ 127.650013010823045, 36.185276881316817 ], [ 127.655056570450412, 36.177331429519278 ], [ 127.649739676485183, 36.170711068747593 ], [ 127.643824178412785, 36.17221041188688 ], [ 127.635103283929311, 36.178028227693744 ], [ 127.633779341341025, 36.180984891911066 ], [ 127.627124982647686, 36.177973885158401 ], [ 127.62394076711962, 36.181036909178509 ], [ 127.614357679267627, 36.184014542050235 ], [ 127.611219199609948, 36.183158410758665 ], [ 127.608278545564417, 36.185663306250142 ], [ 127.597761849774656, 36.184897982553323 ], [ 127.592430209022197, 36.195998037121569 ], [ 127.599487992470898, 36.203153233200894 ], [ 127.598785460405779, 36.210281022803201 ], [ 127.59633044927962, 36.212070892517509 ], [ 127.597745850315761, 36.216355540903294 ], [ 127.592434351310871, 36.219767323344954 ], [ 127.590050761838128, 36.225472317263019 ], [ 127.586615761752725, 36.225034374036525 ], [ 127.583516842468086, 36.231279923768327 ], [ 127.57024742732473, 36.233558291293967 ], [ 127.566506498634695, 36.242708773214503 ], [ 127.56710310211048, 36.246866572849001 ], [ 127.57343071053991, 36.246934474296651 ], [ 127.575534349022092, 36.251427919173295 ], [ 127.580087121686162, 36.25352387441955 ], [ 127.589465509516558, 36.249911095876442 ], [ 127.599242011648343, 36.259541509615126 ], [ 127.604946612449027, 36.259408762901089 ], [ 127.616703360579379, 36.263018078236499 ], [ 127.625510858124954, 36.263428761799673 ], [ 127.630731522385403, 36.260875517486532 ], [ 127.633738157211482, 36.262669684081892 ], [ 127.637138358175932, 36.259719052956555 ], [ 127.653838761012722, 36.265228345695938 ], [ 127.657179509329637, 36.264391401855043 ], [ 127.658650852944334, 36.266846115400476 ], [ 127.662700588468837, 36.267525662777366 ], [ 127.669016146675887, 36.265247770940405 ], [ 127.675641386391561, 36.260337207349828 ], [ 127.68029577233979, 36.261806699139278 ], [ 127.684316229881347, 36.260193928271612 ], [ 127.693978892050936, 36.263170512048703 ], [ 127.698022294094429, 36.263230004941967 ], [ 127.70175185401358, 36.260804904254961 ] ] ] ] } },
{ "type": "Feature", "properties": { "emd_cd": "43730370", "emd_nm": "군서면" }, "geometry": { "type": "MultiPolygon", "coordinates": [ [ [ [ 127.541648946647371, 36.316977796242206 ], [ 127.54400666320528, 36.314343459821679 ], [ 127.551440737086267, 36.312512473374305 ], [ 127.55392013658583, 36.307499567667378 ], [ 127.557508643531321, 36.308233596573608 ], [ 127.558006214558645, 36.307051435844507 ], [ 127.546868434978578, 36.298720416246084 ], [ 127.546788557928522, 36.296233289030482 ], [ 127.542035889735942, 36.290810317346924 ], [ 127.539848948058946, 36.285151071924666 ], [ 127.542434372411392, 36.283186536631334 ], [ 127.541953948160113, 36.281599057961344 ], [ 127.545740999234027, 36.280087792370502 ], [ 127.550861133392516, 36.274667552395904 ], [ 127.5521603432163, 36.269529977626121 ], [ 127.555144608856722, 36.268554809817402 ], [ 127.556506833314216, 36.260769572982255 ], [ 127.561992416495997, 36.258944761498192 ], [ 127.564751530656736, 36.251849081454829 ], [ 127.567680686553246, 36.248951011365961 ], [ 127.566506498634695, 36.242708773214503 ], [ 127.57024742732473, 36.233558291293967 ], [ 127.563536523501639, 36.227614929780486 ], [ 127.561572764093015, 36.228860718915577 ], [ 127.552749489676145, 36.225724571630629 ], [ 127.545088252898267, 36.22544532447187 ], [ 127.545096696120368, 36.228386741076761 ], [ 127.549907119274124, 36.238522844826861 ], [ 127.537787626195708, 36.242854311727896 ], [ 127.534957914602003, 36.247390970345322 ], [ 127.536078981491997, 36.251418927161424 ], [ 127.523653530837748, 36.246613210986119 ], [ 127.518262132658833, 36.240600618518869 ], [ 127.511961425836986, 36.240696256216815 ], [ 127.502168284642622, 36.23768841217715 ], [ 127.492713370694773, 36.238037115106152 ], [ 127.492443327389836, 36.244393208868956 ], [ 127.488954244646507, 36.246724600774641 ], [ 127.487547428418708, 36.250706385988003 ], [ 127.489883210491968, 36.253886724159393 ], [ 127.489810427604027, 36.258050189109028 ], [ 127.486302648356414, 36.259355161696796 ], [ 127.486030343329489, 36.261413060850785 ], [ 127.488353162284, 36.267332045389772 ], [ 127.490277120453698, 36.268481859711983 ], [ 127.488491927893108, 36.272978318371322 ], [ 127.496609548088685, 36.279411573293849 ], [ 127.498729904267819, 36.283198371385822 ], [ 127.491009405091688, 36.296591370184458 ], [ 127.491387177146208, 36.299340219935161 ], [ 127.493874494657405, 36.300420988987185 ], [ 127.496254113490522, 36.298979626651978 ], [ 127.499111002494786, 36.305523019818466 ], [ 127.509783558045356, 36.311998017360658 ], [ 127.523615051685766, 36.31734558446734 ], [ 127.530944404247933, 36.315836522125849 ], [ 127.532859630997251, 36.31747088987467 ], [ 127.541648946647371, 36.316977796242206 ] ] ] ] } },
{ "type": "Feature", "properties": { "emd_cd": "43730380", "emd_nm": "군북면" }, "geometry": { "type": "MultiPolygon", "coordinates": [ [ [ [ 127.494141857070559, 36.311066686622013 ], [ 127.499080986224698, 36.314833506605417 ], [ 127.49734780603896, 36.319559123500639 ], [ 127.500158483437545, 36.320776373769469 ], [ 127.503607080261901, 36.326131684370054 ], [ 127.500691176587139, 36.33942116081586 ], [ 127.508556858074726, 36.3432882015845 ], [ 127.507603138455366, 36.346320969489845 ], [ 127.512541094699898, 36.34591843798853 ], [ 127.517223265188179, 36.348866785352527 ], [ 127.52292311847026, 36.356004414199504 ], [ 127.522037532886685, 36.358000943832458 ], [ 127.524650712307817, 36.36160335286101 ], [ 127.524341524935792, 36.366201701411441 ], [ 127.527037258013976, 36.370122286802371 ], [ 127.525318558863503, 36.375125433007497 ], [ 127.526209705901493, 36.378713164788238 ], [ 127.524836110224228, 36.387385342324862 ], [ 127.529426482155699, 36.38936075604483 ], [ 127.530147015093718, 36.391453678754793 ], [ 127.53260976179233, 36.390947540946584 ], [ 127.533584249595819, 36.393648530346667 ], [ 127.537934779612556, 36.3948650335103 ], [ 127.539518512607387, 36.397360311752614 ], [ 127.543965427850338, 36.395312345123394 ], [ 127.55036166986487, 36.396083764571316 ], [ 127.555871341855877, 36.391852779790447 ], [ 127.556967499175769, 36.394112525377906 ], [ 127.561414954066208, 36.394940332363014 ], [ 127.569587953243783, 36.400403322174625 ], [ 127.569572653408457, 36.396691243820143 ], [ 127.571709928332027, 36.393043936581641 ], [ 127.577248730874274, 36.388874937799734 ], [ 127.583356279981373, 36.38916519895961 ], [ 127.590115432365522, 36.392814829807044 ], [ 127.595526706165899, 36.387602745738235 ], [ 127.600716463923405, 36.387013017168421 ], [ 127.604882295802597, 36.388462252788209 ], [ 127.613066734803894, 36.384708795279622 ], [ 127.619756673990764, 36.383955381032258 ], [ 127.620678396408422, 36.385461183893852 ], [ 127.630021586591596, 36.388333899264943 ], [ 127.63780771219713, 36.383354152402006 ], [ 127.637111685975853, 36.381564635136272 ], [ 127.625830187582423, 36.379616492968196 ], [ 127.62029856987445, 36.376002446503826 ], [ 127.62258943727312, 36.371668365551336 ], [ 127.621562623276887, 36.363259116646709 ], [ 127.614662141833946, 36.355114621112726 ], [ 127.61146261932079, 36.354176786455028 ], [ 127.609056498827471, 36.350697665599505 ], [ 127.605717234126772, 36.350223581801593 ], [ 127.597691329484661, 36.341814169619603 ], [ 127.597509557302871, 36.338303186555621 ], [ 127.590493649277477, 36.336736774545052 ], [ 127.58991768291736, 36.333307209065808 ], [ 127.58465925597595, 36.335862933640612 ], [ 127.581618670488808, 36.334671226793688 ], [ 127.579824159104234, 36.330248514779107 ], [ 127.581206322908272, 36.329277438541723 ], [ 127.580992909537173, 36.325957629127167 ], [ 127.574903132795384, 36.325117959654989 ], [ 127.573267661981845, 36.323286038403296 ], [ 127.569353614093956, 36.324358005693384 ], [ 127.564690395268244, 36.321866843176593 ], [ 127.560553170158272, 36.329907610017713 ], [ 127.556425709987479, 36.333278393165045 ], [ 127.557485814417674, 36.330396002501267 ], [ 127.552058913853742, 36.32410409653945 ], [ 127.546782811235516, 36.321946764747381 ], [ 127.541944362502406, 36.317078329023609 ], [ 127.532859630997251, 36.31747088987467 ], [ 127.530944404247933, 36.315836522125849 ], [ 127.523615051685766, 36.31734558446734 ], [ 127.509783558045356, 36.311998017360658 ], [ 127.499111002494786, 36.305523019818466 ], [ 127.494141857070559, 36.311066686622013 ] ] ] ] } }
]
}
