{
"type": "FeatureCollection",
"name": "43740",
"crs": { "type": "name", "properties": { "name": "urn:ogc:def:crs:OGC:1.3:CRS84" } },
"features": [
{ "type": "Feature", "properties": { "emd_cd": "43740250", "emd_nm": "영동읍" }, "geometry": { "type": "MultiPolygon", "coordinates": [ [ [ [ 127.82331453636418, 36.09829385933871 ], [ 127.821246229483634, 36.114310970055008 ], [ 127.814817302240868, 36.121397588040971 ], [ 127.816412041630173, 36.129207747196112 ], [ 127.815512184415439, 36.133066473445226 ], [ 127.809486460684965, 36.137241155863833 ], [ 127.800918273079503, 36.138997771179078 ], [ 127.798613591654743, 36.142369665904248 ], [ 127.79520641645432, 36.143086058365135 ], [ 127.785962387856586, 36.149681607101712 ], [ 127.78306412316023, 36.150033551849923 ], [ 127.781645216203302, 36.148039147896128 ], [ 127.777158262101551, 36.158674848928797 ], [ 127.771828303058427, 36.164171802694298 ], [ 127.760996264995484, 36.163225570052411 ], [ 127.754813655821962, 36.160525599506769 ], [ 127.755675781010055, 36.161438871137939 ], [ 127.7517004511773, 36.164810481276589 ], [ 127.743562341567511, 36.164516762309638 ], [ 127.7351368165466, 36.168217695250256 ], [ 127.732801195438626, 36.174066579585492 ], [ 127.736731773080223, 36.180933681291052 ], [ 127.735525005582744, 36.18772976323114 ], [ 127.738503841829242, 36.193721845821436 ], [ 127.736711326008518, 36.197664328483313 ], [ 127.741040361138587, 36.199359390058518 ], [ 127.740704204741391, 36.204350466991826 ], [ 127.746343609221285, 36.204715273524783 ], [ 127.747527274233775, 36.207304154583511 ], [ 127.749798693029547, 36.206981556828055 ], [ 127.754116969379695, 36.210658956135298 ], [ 127.753590472574075, 36.212373150254756 ], [ 127.755566519261706, 36.215010502731396 ], [ 127.752308512798677, 36.218159962939588 ], [ 127.752661801904935, 36.223777203424383 ], [ 127.755597927948642, 36.224787214345916 ], [ 127.760472720949863, 36.221474206572246 ], [ 127.763726134035082, 36.224922435994038 ], [ 127.768808428426013, 36.221791138587996 ], [ 127.777461467331349, 36.223284431427032 ], [ 127.785834254382138, 36.220596142437749 ], [ 127.793195322550332, 36.222402001551238 ], [ 127.795937320757957, 36.220048821437693 ], [ 127.796914937585683, 36.215801825316277 ], [ 127.793678860227956, 36.206613680260467 ], [ 127.796281687514423, 36.204184468517361 ], [ 127.800624547176483, 36.204468337606677 ], [ 127.801450365252322, 36.208712070538134 ], [ 127.806647419543111, 36.214758062578603 ], [ 127.81015103621894, 36.21653676556673 ], [ 127.808012432418465, 36.221698323940089 ], [ 127.813344518214194, 36.227246209072334 ], [ 127.811022834055748, 36.231500076279453 ], [ 127.813442189854115, 36.238161214592502 ], [ 127.822111934346708, 36.23386027512921 ], [ 127.825608619210797, 36.228699640085232 ], [ 127.828727706613648, 36.227818793057224 ], [ 127.830057054375587, 36.225577932603834 ], [ 127.83247655677755, 36.227361780572323 ], [ 127.835395692626747, 36.225760586283691 ], [ 127.842274237471173, 36.225836154115399 ], [ 127.846970680614717, 36.219743858955638 ], [ 127.84668034443358, 36.216358863449493 ], [ 127.849264464775317, 36.213681831892551 ], [ 127.851495226056372, 36.201657644795844 ], [ 127.857208614346035, 36.200382974519918 ], [ 127.857239103345819, 36.19377199137206 ], [ 127.863966305890244, 36.190503386078163 ], [ 127.864382443833719, 36.188354643089944 ], [ 127.86724547824096, 36.186535663032053 ], [ 127.869039063882795, 36.187370604974163 ], [ 127.874790600365515, 36.185588106563387 ], [ 127.879831563117435, 36.180976709117182 ], [ 127.879600419125055, 36.176343019692737 ], [ 127.881801763801491, 36.173251686883241 ], [ 127.882748051642722, 36.164617215616893 ], [ 127.87236194278708, 36.158611245256672 ], [ 127.871459667528683, 36.155577744446106 ], [ 127.873463589411344, 36.154348289777829 ], [ 127.872465218310694, 36.145503051582992 ], [ 127.865591181131165, 36.146640779657119 ], [ 127.856060852961747, 36.141258540450011 ], [ 127.851392607752857, 36.141086155103579 ], [ 127.848122700837735, 36.133974733783674 ], [ 127.840607312309373, 36.128111852623675 ], [ 127.839557110663137, 36.120795140060771 ], [ 127.835491025536896, 36.11729277284104 ], [ 127.836752226741098, 36.110618553375971 ], [ 127.83313421316781, 36.10358819416502 ], [ 127.828584416330955, 36.098876370801712 ], [ 127.82331453636418, 36.09829385933871 ] ] ] ] } },
{ "type": "Feature", "properties": { "emd_cd": "43740310", "emd_nm": "용산면" }, "geometry": { "type": "MultiPolygon", "coordinates": [ [ [ [ 127.796281687514423, 36.204184468517361 ], [ 127.793743924845359, 36.207167901826359 ], [ 127.796914937585683, 36.215801825316277 ], [ 127.795937320757957, 36.220048821437693 ], [ 127.793195322550332, 36.222402001551238 ], [ 127.785834254382138, 36.220596142437749 ], [ 127.777461467331349, 36.223284431427032 ], [ 127.768808428426013, 36.221791138587996 ], [ 127.763726134035082, 36.224922435994038 ], [ 127.764545457380578, 36.234449470388434 ], [ 127.759574593931291, 36.237470594984238 ], [ 127.759338973150903, 36.24043566767326 ], [ 127.762497649319386, 36.24463638611001 ], [ 127.76310754994104, 36.250061238084989 ], [ 127.761988315911992, 36.255364237525256 ], [ 127.757693790766908, 36.258750529053223 ], [ 127.756391711067195, 36.263899347448039 ], [ 127.747251431771559, 36.265582792493149 ], [ 127.733127852149366, 36.262942363515215 ], [ 127.733391002842367, 36.267862323793501 ], [ 127.730460206090299, 36.27207290974799 ], [ 127.730373705396303, 36.276219648357547 ], [ 127.735747456797114, 36.272746980041887 ], [ 127.751995692853427, 36.270017356952287 ], [ 127.755823445249248, 36.267932649067028 ], [ 127.761597776634474, 36.271747571634549 ], [ 127.761866701982939, 36.280084872813632 ], [ 127.764504815634609, 36.282399472550679 ], [ 127.76450194370284, 36.284294199304533 ], [ 127.769282443954694, 36.285685839236841 ], [ 127.770157985247721, 36.290263070956257 ], [ 127.775810888034954, 36.291896166582468 ], [ 127.777569540303645, 36.289854499465079 ], [ 127.783776179252456, 36.290352759010219 ], [ 127.786770056376525, 36.288140355118379 ], [ 127.789199228982, 36.28944755754857 ], [ 127.789038121302895, 36.290956977205525 ], [ 127.794417876975103, 36.290474845835497 ], [ 127.794710491698396, 36.297227907409365 ], [ 127.801131183488238, 36.297737106170842 ], [ 127.800547109895021, 36.302997399002784 ], [ 127.805178963806284, 36.30495784214412 ], [ 127.808518401366058, 36.309451049034401 ], [ 127.814372377904192, 36.308157153319407 ], [ 127.819003060014083, 36.311643238096011 ], [ 127.820983691513973, 36.305157432096195 ], [ 127.825024343858402, 36.310117053981841 ], [ 127.83505751771834, 36.311185474101812 ], [ 127.835274142909242, 36.312713713658923 ], [ 127.840504290961292, 36.315636699272368 ], [ 127.845368903854009, 36.31640648188656 ], [ 127.841418802448274, 36.30863212511067 ], [ 127.846764983323425, 36.300595602461911 ], [ 127.845157620645779, 36.293563135648903 ], [ 127.849575908701297, 36.287730285936824 ], [ 127.849337109452918, 36.281187350909029 ], [ 127.852291600757511, 36.273299845298922 ], [ 127.850697432831254, 36.267355276399236 ], [ 127.852921448646285, 36.262918836554874 ], [ 127.851648387821101, 36.260591900943361 ], [ 127.848004214899532, 36.260933467746526 ], [ 127.84726483716976, 36.25862209848718 ], [ 127.849039135004375, 36.255231770308789 ], [ 127.851068665285155, 36.254543008610611 ], [ 127.843922629071102, 36.247346147448212 ], [ 127.837192953965399, 36.236215721648428 ], [ 127.840975622537314, 36.233426815598882 ], [ 127.845912352670695, 36.232483280421853 ], [ 127.845603459673185, 36.2309795355714 ], [ 127.8429409566629, 36.228999085362815 ], [ 127.842274237471173, 36.225836154115399 ], [ 127.835395692626747, 36.225760586283691 ], [ 127.83247655677755, 36.227361780572323 ], [ 127.830057054375587, 36.225577932603834 ], [ 127.828727706613648, 36.227818793057224 ], [ 127.825608619210797, 36.228699640085232 ], [ 127.822111934346708, 36.23386027512921 ], [ 127.813442189854115, 36.238161214592502 ], [ 127.811022834055748, 36.231500076279453 ], [ 127.813344518214194, 36.227246209072334 ], [ 127.808012432418465, 36.221698323940089 ], [ 127.810000394630649, 36.216215021187367 ], [ 127.806647419543111, 36.214758062578603 ], [ 127.801450365252322, 36.208712070538134 ], [ 127.800904421649747, 36.20464890145238 ], [ 127.796281687514423, 36.204184468517361 ] ] ] ] } },
{ "type": "Feature", "properties": { "emd_cd": "43740320", "emd_nm": "황간면" }, "geometry": { "type": "MultiPolygon", "coordinates": [ [ [ [ 127.887035388747762, 36.169469950484817 ], [ 127.882167167630911, 36.16975647293512 ], [ 127.879600419125055, 36.176343019692737 ], [ 127.879940095109575, 36.180691612272732 ], [ 127.877099551819583, 36.184211287947392 ], [ 127.869039063882795, 36.187370604974163 ], [ 127.86724547824096, 36.186535663032053 ], [ 127.864382443833719, 36.188354643089944 ], [ 127.863966305890244, 36.190503386078163 ], [ 127.857239103345819, 36.19377199137206 ], [ 127.857208614346035, 36.200382974519918 ], [ 127.851495226056372, 36.201657644795844 ], [ 127.849264464775317, 36.213681831892551 ], [ 127.84668034443358, 36.216358863449493 ], [ 127.846970680614717, 36.219743858955638 ], [ 127.842560628451096, 36.2248132215542 ], [ 127.8429409566629, 36.228999085362815 ], [ 127.845912352670695, 36.232483280421853 ], [ 127.840975622537314, 36.233426815598882 ], [ 127.837192953965399, 36.236215721648428 ], [ 127.843922629071102, 36.247346147448212 ], [ 127.851068665285155, 36.254543008610611 ], [ 127.849039135004375, 36.255231770308789 ], [ 127.84726483716976, 36.25862209848718 ], [ 127.848004214899532, 36.260933467746526 ], [ 127.851648387821101, 36.260591900943361 ], [ 127.852921448646285, 36.262918836554874 ], [ 127.850408575869238, 36.269784449684408 ], [ 127.852178620705061, 36.273747280081793 ], [ 127.86152960343972, 36.277130770982446 ], [ 127.864809055224526, 36.275688949021557 ], [ 127.876309816498832, 36.275920209944715 ], [ 127.881426243233932, 36.273972470354103 ], [ 127.881463437282605, 36.27755636507743 ], [ 127.892169483385501, 36.291828986315906 ], [ 127.9034168385774, 36.300497313564115 ], [ 127.905592081804286, 36.297992948075112 ], [ 127.905544683891719, 36.291196297577706 ], [ 127.909209707736039, 36.284085013662185 ], [ 127.918954946644533, 36.279708577725323 ], [ 127.93075044196226, 36.277876479467409 ], [ 127.938030244247983, 36.269126052981875 ], [ 127.94279283564731, 36.266739743286749 ], [ 127.947392010520559, 36.267136857277038 ], [ 127.94917788890568, 36.256638559991217 ], [ 127.954571576290803, 36.257144794684102 ], [ 127.960264553330944, 36.252309806466911 ], [ 127.964811795756589, 36.253168431597665 ], [ 127.96842728664646, 36.250022531406785 ], [ 127.956204581185233, 36.237710333569375 ], [ 127.955965613808104, 36.233641402543938 ], [ 127.953713448170134, 36.231262934190148 ], [ 127.952459095680197, 36.224389163096248 ], [ 127.949618713826567, 36.220254045852208 ], [ 127.940178817730398, 36.215567407951518 ], [ 127.93909066399091, 36.210662856724426 ], [ 127.936733161258488, 36.212254808577136 ], [ 127.932000565240472, 36.211428326140201 ], [ 127.92606984881823, 36.219836349331487 ], [ 127.925052384239336, 36.219425446885658 ], [ 127.925039035583652, 36.214642223242244 ], [ 127.917285411522968, 36.202282808731283 ], [ 127.917728225720055, 36.19305529798838 ], [ 127.91374973034911, 36.19222548848763 ], [ 127.911604515928701, 36.189010108200534 ], [ 127.910000085247191, 36.188971686571172 ], [ 127.908252684280754, 36.182550093481886 ], [ 127.895546305447624, 36.181926415206362 ], [ 127.89505785765958, 36.173002277196751 ], [ 127.887035388747762, 36.169469950484817 ] ] ] ] } },
{ "type": "Feature", "properties": { "emd_cd": "43740335", "emd_nm": "추풍령면" }, "geometry": { "type": "MultiPolygon", "coordinates": [ [ [ [ 127.975995833531243, 36.188821797134629 ], [ 127.967060714906253, 36.18642465577355 ], [ 127.961926696339177, 36.192752975585016 ], [ 127.958158612647708, 36.191737218860922 ], [ 127.956187185644751, 36.192858610622956 ], [ 127.956105416919783, 36.19636098207674 ], [ 127.951360886371447, 36.199650230673761 ], [ 127.949360083533875, 36.204392638856611 ], [ 127.939358942983688, 36.210369941504688 ], [ 127.938828585170342, 36.213208142635871 ], [ 127.940178817730398, 36.215567407951518 ], [ 127.949618713826567, 36.220254045852208 ], [ 127.958817397557667, 36.241290788248939 ], [ 127.966934691161242, 36.247270782807298 ], [ 127.968328486320786, 36.25036530778798 ], [ 127.978633145140719, 36.25443445486556 ], [ 127.976843844919586, 36.259170909522453 ], [ 127.980242046422688, 36.262747501698783 ], [ 127.990670724099871, 36.263406875958019 ], [ 127.993183252554786, 36.267004715122312 ], [ 127.99627223741804, 36.268128510340496 ], [ 127.998354541133011, 36.268465926507702 ], [ 128.000474007641742, 36.266453131938604 ], [ 128.01029869690899, 36.272231856341456 ], [ 128.019149942046312, 36.26730252050767 ], [ 128.026348727543962, 36.26793956281859 ], [ 128.026939973558626, 36.26541678035754 ], [ 128.030076973609653, 36.264428457874672 ], [ 128.031760949893311, 36.261543207808529 ], [ 128.048378179275744, 36.25635603832302 ], [ 128.046014874910497, 36.251825336494164 ], [ 128.04024266866989, 36.251566264546454 ], [ 128.0352631321947, 36.24573971759051 ], [ 128.035403933175331, 36.243131024944738 ], [ 128.029861618400901, 36.240353258253378 ], [ 128.033519652143042, 36.233434278239919 ], [ 128.039383735176443, 36.228642369184215 ], [ 128.040385390689011, 36.224620825960784 ], [ 128.038883892877493, 36.222200975951601 ], [ 128.041150318776488, 36.218410743314138 ], [ 128.050236895844222, 36.215782840307725 ], [ 128.049405924427049, 36.21061982785573 ], [ 128.050756377318208, 36.205689687933656 ], [ 128.057692787127962, 36.201111828176842 ], [ 128.051852186170606, 36.200718699111945 ], [ 128.045158803261785, 36.196430257088132 ], [ 128.042018224434599, 36.196639957888657 ], [ 128.038122462857615, 36.194305450138096 ], [ 128.036172174822553, 36.197764108951034 ], [ 128.028041719806737, 36.202526829344784 ], [ 128.026773061922029, 36.205267738100751 ], [ 128.009582916415127, 36.209435591521228 ], [ 128.006258756407846, 36.207400913086339 ], [ 127.998706417838278, 36.207369045299053 ], [ 127.994745650753941, 36.204325257945591 ], [ 127.992975059561616, 36.200232163363104 ], [ 127.985598369212227, 36.200602843694874 ], [ 127.980014652525412, 36.1980448919007 ], [ 127.981409205906573, 36.196085125485254 ], [ 127.976178267877344, 36.192459958507477 ], [ 127.975995833531243, 36.188821797134629 ] ] ] ] } },
{ "type": "Feature", "properties": { "emd_cd": "43740340", "emd_nm": "매곡면" }, "geometry": { "type": "MultiPolygon", "coordinates": [ [ [ [ 127.963404352630903, 36.116832921852364 ], [ 127.960133632554175, 36.120393343054907 ], [ 127.955885315009866, 36.120669715810465 ], [ 127.951017816990415, 36.123720507325466 ], [ 127.946541107180082, 36.131361700890182 ], [ 127.944857708767785, 36.140471423555731 ], [ 127.942024185852674, 36.144152301846894 ], [ 127.941633844120787, 36.148895855172668 ], [ 127.938799227508426, 36.153969544588847 ], [ 127.93346233589368, 36.155306258128029 ], [ 127.930782458763602, 36.157335346593108 ], [ 127.929863516147634, 36.160472022190838 ], [ 127.925808529920204, 36.160938350024978 ], [ 127.921519510395271, 36.164886648359683 ], [ 127.917864563212788, 36.164777545915641 ], [ 127.918056434952334, 36.171165739670975 ], [ 127.916487870069773, 36.172184142379265 ], [ 127.917971653549458, 36.174223947231177 ], [ 127.912365867509791, 36.177022044514331 ], [ 127.908080770200826, 36.181763578370784 ], [ 127.910000085247191, 36.188971686571172 ], [ 127.911604515928701, 36.189010108200534 ], [ 127.91374973034911, 36.19222548848763 ], [ 127.917728225720055, 36.19305529798838 ], [ 127.917285411522968, 36.202282808731283 ], [ 127.925039035583652, 36.214642223242244 ], [ 127.92606984881823, 36.219836349331487 ], [ 127.932000565240472, 36.211428326140201 ], [ 127.937322550368549, 36.212042105410866 ], [ 127.949360083533875, 36.204392638856611 ], [ 127.951360886371447, 36.199650230673761 ], [ 127.956105416919783, 36.19636098207674 ], [ 127.956187185644751, 36.192858610622956 ], [ 127.958158612647708, 36.191737218860922 ], [ 127.961926696339177, 36.192752975585016 ], [ 127.967060714906253, 36.18642465577355 ], [ 127.971337393600862, 36.188855350423218 ], [ 127.975995833531243, 36.188821797134629 ], [ 127.980189334018306, 36.180406654604184 ], [ 127.983219639624792, 36.17796012751117 ], [ 127.983336028339338, 36.170546862473238 ], [ 127.990046867259409, 36.165506704449854 ], [ 127.990089855460667, 36.159540529805881 ], [ 127.996789310116597, 36.155728463518216 ], [ 127.987700303971309, 36.147673146560479 ], [ 127.989343709583707, 36.144155801328232 ], [ 127.987303697242083, 36.140594687123766 ], [ 127.988731670260862, 36.133028323467499 ], [ 127.987553465960673, 36.128938052373606 ], [ 127.977991179876952, 36.12200748704857 ], [ 127.971541708491401, 36.120705798938054 ], [ 127.966649003968371, 36.116095296646414 ], [ 127.963404352630903, 36.116832921852364 ] ] ] ] } },
{ "type": "Feature", "properties": { "emd_cd": "43740350", "emd_nm": "상촌면" }, "geometry": { "type": "MultiPolygon", "coordinates": [ [ [ [ 127.877283419045227, 36.022490839813301 ], [ 127.866145245678794, 36.024345776999432 ], [ 127.860664130872976, 36.031597808163845 ], [ 127.855679478199065, 36.033073568969613 ], [ 127.852775447857809, 36.039221980357588 ], [ 127.848870952450554, 36.039397415103416 ], [ 127.850135683517721, 36.053958074205639 ], [ 127.846330749957005, 36.05907107871036 ], [ 127.845992670532823, 36.063088624187742 ], [ 127.829254640197433, 36.073072911509087 ], [ 127.822198203753288, 36.073819334837637 ], [ 127.819630416746833, 36.077321792847066 ], [ 127.819803281367641, 36.086854171037743 ], [ 127.818396454863802, 36.090975394614532 ], [ 127.821416659198974, 36.093180741117322 ], [ 127.822901007975489, 36.09811744923902 ], [ 127.828584416330955, 36.098876370801712 ], [ 127.83313421316781, 36.10358819416502 ], [ 127.836752226741098, 36.110618553375971 ], [ 127.835491025536896, 36.11729277284104 ], [ 127.839557110663137, 36.120795140060771 ], [ 127.840607312309373, 36.128111852623675 ], [ 127.848122700837735, 36.133974733783674 ], [ 127.851392607752857, 36.141086155103579 ], [ 127.856060852961747, 36.141258540450011 ], [ 127.865591181131165, 36.146640779657119 ], [ 127.872465218310694, 36.145503051582992 ], [ 127.873463589411344, 36.154348289777829 ], [ 127.871459667528683, 36.155577744446106 ], [ 127.874348097543162, 36.160874224924221 ], [ 127.882748051642722, 36.164617215616893 ], [ 127.882835393202072, 36.16886197538998 ], [ 127.89505785765958, 36.173002277196751 ], [ 127.895546305447624, 36.181926415206362 ], [ 127.907517437819038, 36.18268293197729 ], [ 127.912365867509791, 36.177022044514331 ], [ 127.917971653549458, 36.174223947231177 ], [ 127.916487870069773, 36.172184142379265 ], [ 127.918056434952334, 36.171165739670975 ], [ 127.917864563212788, 36.164777545915641 ], [ 127.921519510395271, 36.164886648359683 ], [ 127.925808529920204, 36.160938350024978 ], [ 127.929863516147634, 36.160472022190838 ], [ 127.930782458763602, 36.157335346593108 ], [ 127.93346233589368, 36.155306258128029 ], [ 127.939149539690717, 36.153557401670525 ], [ 127.941633844120787, 36.148895855172668 ], [ 127.942024185852674, 36.144152301846894 ], [ 127.944857708767785, 36.140471423555731 ], [ 127.946541107180082, 36.131361700890182 ], [ 127.951017816990415, 36.123720507325466 ], [ 127.955885315009866, 36.120669715810465 ], [ 127.960133632554175, 36.120393343054907 ], [ 127.96299823854946, 36.116819726654349 ], [ 127.966649003968371, 36.116095296646414 ], [ 127.966768607009882, 36.104731863837571 ], [ 127.960389787111453, 36.097524230222653 ], [ 127.959856622921961, 36.094728582836765 ], [ 127.958007728500007, 36.094253215841299 ], [ 127.95755582593128, 36.091596841793702 ], [ 127.961532212089423, 36.082779850079383 ], [ 127.961063988653223, 36.068255079910855 ], [ 127.954293688167056, 36.067134843740575 ], [ 127.946344699967085, 36.056867687483063 ], [ 127.942301816947577, 36.056073254063307 ], [ 127.934959918160516, 36.051213047706369 ], [ 127.931137199180739, 36.050658298185311 ], [ 127.916105045540732, 36.054562950108654 ], [ 127.905359423283713, 36.045779100865424 ], [ 127.90317181184048, 36.038962774650727 ], [ 127.887716032279187, 36.034879666247193 ], [ 127.884482650765193, 36.036199808704815 ], [ 127.883832597470786, 36.028504170660774 ], [ 127.881286274379306, 36.025002710917953 ], [ 127.877283419045227, 36.022490839813301 ] ] ] ] } },
{ "type": "Feature", "properties": { "emd_cd": "43740360", "emd_nm": "양강면" }, "geometry": { "type": "MultiPolygon", "coordinates": [ [ [ [ 127.795663794267853, 36.063944053936488 ], [ 127.79172744132768, 36.069858145267865 ], [ 127.788129417541995, 36.071001533017181 ], [ 127.787578209617109, 36.074961519989955 ], [ 127.779914948060096, 36.078304845571665 ], [ 127.7785154640314, 36.080309729733145 ], [ 127.77014451615517, 36.081694749293199 ], [ 127.762311541455134, 36.080853723121386 ], [ 127.756829546769893, 36.084556921966076 ], [ 127.752409312776408, 36.090033136499699 ], [ 127.75146239291081, 36.098977453234859 ], [ 127.748876193350725, 36.100607010809938 ], [ 127.747674075462385, 36.1062930094131 ], [ 127.736380473992213, 36.104007931852486 ], [ 127.733326433093779, 36.108640991785698 ], [ 127.728851206078545, 36.108421092508657 ], [ 127.725482491947304, 36.110824573206337 ], [ 127.722580743720059, 36.117394822164208 ], [ 127.719191226269828, 36.118001128460385 ], [ 127.713977642898215, 36.12602374851334 ], [ 127.710410389960742, 36.125414811348655 ], [ 127.710146680140539, 36.123809301601327 ], [ 127.706727436885501, 36.122158469724553 ], [ 127.706599677642245, 36.120007192687694 ], [ 127.701642602822332, 36.113828666674351 ], [ 127.699848831378958, 36.11359397637429 ], [ 127.692858495176893, 36.118148075772901 ], [ 127.697115444538099, 36.130825676786706 ], [ 127.694410197930907, 36.143921911172761 ], [ 127.689422594617497, 36.144550303637061 ], [ 127.687824860336491, 36.147312412903815 ], [ 127.691475351394558, 36.150025948502453 ], [ 127.692551251367647, 36.153345368931262 ], [ 127.688116189279754, 36.160140783230368 ], [ 127.682468967285715, 36.161317300780809 ], [ 127.681502564836691, 36.162647776314046 ], [ 127.683045415691552, 36.165658158288167 ], [ 127.692193234743399, 36.17265809324519 ], [ 127.694595430127862, 36.169757464839364 ], [ 127.699843670077868, 36.168191796915842 ], [ 127.70341556877878, 36.161698323157388 ], [ 127.706513566163508, 36.163959456129248 ], [ 127.712710037407646, 36.163353787190481 ], [ 127.715883576804984, 36.16563610731933 ], [ 127.719663114672855, 36.165098157394297 ], [ 127.72489416980784, 36.167266459116576 ], [ 127.730702167836725, 36.164274942112108 ], [ 127.7351368165466, 36.168217695250256 ], [ 127.743562341567511, 36.164516762309638 ], [ 127.7517004511773, 36.164810481276589 ], [ 127.755675781010055, 36.161438871137939 ], [ 127.754813655821962, 36.160525599506769 ], [ 127.760996264995484, 36.163225570052411 ], [ 127.771828303058427, 36.164171802694298 ], [ 127.777158262101551, 36.158674848928797 ], [ 127.781645216203302, 36.148039147896128 ], [ 127.78306412316023, 36.150033551849923 ], [ 127.785962387856586, 36.149681607101712 ], [ 127.79520641645432, 36.143086058365135 ], [ 127.798613591654743, 36.142369665904248 ], [ 127.800918273079503, 36.138997771179078 ], [ 127.809486460684965, 36.137241155863833 ], [ 127.815512184415439, 36.133066473445226 ], [ 127.816412041630173, 36.129207747196112 ], [ 127.814817302240868, 36.121397588040971 ], [ 127.821246229483634, 36.114310970055008 ], [ 127.823174940744963, 36.10388932164971 ], [ 127.823231132203489, 36.096917051975133 ], [ 127.818396454863802, 36.090975394614532 ], [ 127.819803281367641, 36.086854171037743 ], [ 127.819630416746833, 36.077321792847066 ], [ 127.822198203753288, 36.073819334837637 ], [ 127.820023027535228, 36.070220245156108 ], [ 127.814402478009498, 36.069097169159463 ], [ 127.809629894425996, 36.065102203922685 ], [ 127.800185068738429, 36.065491657137528 ], [ 127.795663794267853, 36.063944053936488 ] ] ] ] } },
{ "type": "Feature", "properties": { "emd_cd": "43740370", "emd_nm": "용화면" }, "geometry": { "type": "MultiPolygon", "coordinates": [ [ [ [ 127.766182623824051, 36.012208570027902 ], [ 127.759363850696715, 36.014985012924754 ], [ 127.762648461746394, 36.021573913396153 ], [ 127.760766376977344, 36.02575020627205 ], [ 127.754518756157324, 36.024442945640281 ], [ 127.747261510694059, 36.02971570622573 ], [ 127.743611348195728, 36.028482700243508 ], [ 127.741473096859735, 36.024804308372062 ], [ 127.734848769099187, 36.032312086792089 ], [ 127.730787559119506, 36.032302573439694 ], [ 127.727519914393341, 36.029683767704569 ], [ 127.726597969337831, 36.031686785364023 ], [ 127.721158981317515, 36.031743756914665 ], [ 127.71766987264445, 36.034668648798942 ], [ 127.714452159549992, 36.035679667260283 ], [ 127.716468847637032, 36.034517943635606 ], [ 127.710934737282727, 36.03603533472959 ], [ 127.7053737667582, 36.034558261480193 ], [ 127.701984752373576, 36.035340388536433 ], [ 127.696343595411918, 36.041255947006164 ], [ 127.695052317162393, 36.058961607715013 ], [ 127.709630952363952, 36.062538319700188 ], [ 127.712286536122292, 36.064780839563937 ], [ 127.715605778905527, 36.061533737380962 ], [ 127.716075871951048, 36.056640211103982 ], [ 127.721309080706504, 36.053849634854998 ], [ 127.739161082199942, 36.058355946098338 ], [ 127.758671006793847, 36.071446192008025 ], [ 127.763770703996499, 36.080204461464589 ], [ 127.762311541455134, 36.080853723121386 ], [ 127.766404650890209, 36.081721722848059 ], [ 127.777186306527341, 36.080876780194856 ], [ 127.787295429942759, 36.075158788380691 ], [ 127.788129417541995, 36.071001533017181 ], [ 127.792334908615189, 36.069274988580212 ], [ 127.795750917068219, 36.063634025602504 ], [ 127.800185068738429, 36.065491657137528 ], [ 127.809629894425996, 36.065102203922685 ], [ 127.814402478009498, 36.069097169159463 ], [ 127.820023027535228, 36.070220245156108 ], [ 127.822198203753288, 36.073819334837637 ], [ 127.829254640197433, 36.073072911509087 ], [ 127.845992670532823, 36.063088624187742 ], [ 127.846330749957005, 36.05907107871036 ], [ 127.850135683517721, 36.053958074205639 ], [ 127.850545132122946, 36.050381526977539 ], [ 127.848556302389099, 36.039761025107104 ], [ 127.839095912893384, 36.035906812997709 ], [ 127.830452639491966, 36.03525284480299 ], [ 127.818441648360277, 36.028136950490271 ], [ 127.814511387015855, 36.028973313046031 ], [ 127.805384845942996, 36.025944793799759 ], [ 127.799718011593242, 36.026092016665608 ], [ 127.787652030268319, 36.014495473008168 ], [ 127.781507102007311, 36.01650304782342 ], [ 127.766182623824051, 36.012208570027902 ] ] ] ] } },
{ "type": "Feature", "properties": { "emd_cd": "43740380", "emd_nm": "학산면" }, "geometry": { "type": "MultiPolygon", "coordinates": [ [ [ [ 127.664506471703561, 36.037530992087405 ], [ 127.659331468058951, 36.039796453269311 ], [ 127.659902840590576, 36.0423536893272 ], [ 127.654701866781849, 36.05254303202279 ], [ 127.654430205334123, 36.05675881801433 ], [ 127.64904236647493, 36.057968615459664 ], [ 127.648423019268506, 36.062571706727212 ], [ 127.644545763606232, 36.066875712858838 ], [ 127.638110971456086, 36.068644087077757 ], [ 127.634277448692316, 36.073589444040969 ], [ 127.634719583635714, 36.076707214596027 ], [ 127.632242455328296, 36.07968454534636 ], [ 127.632213694732783, 36.0824193660129 ], [ 127.624214430625273, 36.088446064228471 ], [ 127.623363172478619, 36.090753982311277 ], [ 127.618645595562512, 36.091338095316225 ], [ 127.617266456802795, 36.093596039373246 ], [ 127.618343149058106, 36.098712536862934 ], [ 127.616979081322953, 36.10489041203266 ], [ 127.619150675670909, 36.108935031459829 ], [ 127.616301859065814, 36.111612183596847 ], [ 127.613050439324368, 36.111784857199446 ], [ 127.610783938842332, 36.116123987652699 ], [ 127.617059452061113, 36.116053453702307 ], [ 127.6227079931502, 36.119527345563711 ], [ 127.630341294552338, 36.116382972516185 ], [ 127.633173887307208, 36.119070027936765 ], [ 127.639883766778709, 36.119499745825912 ], [ 127.642963579506315, 36.12205169198468 ], [ 127.653045241916686, 36.121675242679672 ], [ 127.662214110940596, 36.117375131883747 ], [ 127.665620746456014, 36.118682731879005 ], [ 127.670149730807296, 36.117745281563252 ], [ 127.671235143112085, 36.115614344892293 ], [ 127.676397945205636, 36.115938620803995 ], [ 127.676718823786018, 36.111917905108555 ], [ 127.680840269404897, 36.111574124635794 ], [ 127.685505930778191, 36.10739435643243 ], [ 127.690218479374295, 36.112199294693788 ], [ 127.689384534093577, 36.114047101832867 ], [ 127.690693645751338, 36.11686957688574 ], [ 127.692858495176893, 36.118148075772901 ], [ 127.699848831378958, 36.11359397637429 ], [ 127.701642602822332, 36.113828666674351 ], [ 127.706599677642245, 36.120007192687694 ], [ 127.706727436885501, 36.122158469724553 ], [ 127.710146680140539, 36.123809301601327 ], [ 127.710410389960742, 36.125414811348655 ], [ 127.713977642898215, 36.12602374851334 ], [ 127.719191226269828, 36.118001128460385 ], [ 127.722580743720059, 36.117394822164208 ], [ 127.725482491947304, 36.110824573206337 ], [ 127.728851206078545, 36.108421092508657 ], [ 127.733326433093779, 36.108640991785698 ], [ 127.736380473992213, 36.104007931852486 ], [ 127.747674075462385, 36.1062930094131 ], [ 127.748876193350725, 36.100607010809938 ], [ 127.75146239291081, 36.098977453234859 ], [ 127.752611242715005, 36.089693113565382 ], [ 127.755501880568531, 36.085602895555816 ], [ 127.763770703996499, 36.080204461464589 ], [ 127.760356631808818, 36.073047900344235 ], [ 127.748438643677758, 36.065103158660278 ], [ 127.746257619087615, 36.062034184165292 ], [ 127.740130522515926, 36.05866554851827 ], [ 127.726353775816349, 36.056002840069446 ], [ 127.724390213588066, 36.054435762919915 ], [ 127.721309080706504, 36.053849634854998 ], [ 127.716075871951048, 36.056640211103982 ], [ 127.715605778905527, 36.061533737380962 ], [ 127.712286536122292, 36.064780839563937 ], [ 127.709630952363952, 36.062538319700188 ], [ 127.693009686172218, 36.05794127417181 ], [ 127.69060518322226, 36.058039986081297 ], [ 127.688898715757389, 36.062721867150209 ], [ 127.685503806491781, 36.062188698999435 ], [ 127.669040196817477, 36.051173171829255 ], [ 127.671705982955359, 36.048513498943215 ], [ 127.670417115306677, 36.044983444227242 ], [ 127.672655898471476, 36.041590298569716 ], [ 127.669062197179642, 36.038672935450023 ], [ 127.664506471703561, 36.037530992087405 ] ] ] ] } },
{ "type": "Feature", "properties": { "emd_cd": "43740390", "emd_nm": "양산면" }, "geometry": { "type": "MultiPolygon", "coordinates": [ [ [ [ 127.685505930778191, 36.10739435643243 ], [ 127.680840269404897, 36.111574124635794 ], [ 127.676718823786018, 36.111917905108555 ], [ 127.676397945205636, 36.115938620803995 ], [ 127.671235143112085, 36.115614344892293 ], [ 127.670149730807296, 36.117745281563252 ], [ 127.665620746456014, 36.118682731879005 ], [ 127.662214110940596, 36.117375131883747 ], [ 127.653045241916686, 36.121675242679672 ], [ 127.642963579506315, 36.12205169198468 ], [ 127.639883766778709, 36.119499745825912 ], [ 127.633173887307208, 36.119070027936765 ], [ 127.630341294552338, 36.116382972516185 ], [ 127.6227079931502, 36.119527345563711 ], [ 127.617059452061113, 36.116053453702307 ], [ 127.610783938842332, 36.116123987652699 ], [ 127.610138962166914, 36.118552713610377 ], [ 127.606023778670547, 36.116786562434498 ], [ 127.603261359597141, 36.120680346578403 ], [ 127.599224985026467, 36.12292428697905 ], [ 127.598630151378941, 36.125349852065035 ], [ 127.59589535796276, 36.125158314466383 ], [ 127.595458666893649, 36.127870964885254 ], [ 127.589428774112264, 36.134441167843413 ], [ 127.590906678099984, 36.137290126171777 ], [ 127.590426490554236, 36.143332700023819 ], [ 127.593493661806789, 36.150679460052501 ], [ 127.601648316711263, 36.159157434346824 ], [ 127.601481957194252, 36.169035367432087 ], [ 127.598642621070496, 36.173819399474844 ], [ 127.593017597129517, 36.177396194860776 ], [ 127.594928051415692, 36.179673427806556 ], [ 127.594251261854836, 36.182195864844324 ], [ 127.597729677614993, 36.184925791143812 ], [ 127.60822362239297, 36.18570430012953 ], [ 127.611174895887132, 36.183273997015355 ], [ 127.61432511089518, 36.18406203896793 ], [ 127.623899073692513, 36.18100077217921 ], [ 127.627159996492324, 36.177972413487986 ], [ 127.633850080429568, 36.180923553214143 ], [ 127.635101433899834, 36.178031770125919 ], [ 127.643916934541906, 36.172122210964282 ], [ 127.649724894655193, 36.170682806531879 ], [ 127.652027173487042, 36.17196332065916 ], [ 127.655012385499347, 36.177636540920822 ], [ 127.65829302470361, 36.178597588061663 ], [ 127.676081849694413, 36.177978585580014 ], [ 127.678404974769805, 36.174173795293783 ], [ 127.682285263137388, 36.172442945498361 ], [ 127.680263772402327, 36.168369298853051 ], [ 127.682011806245612, 36.165727101971143 ], [ 127.684624520309441, 36.166563130381164 ], [ 127.681502564836691, 36.162647776314046 ], [ 127.684269845036155, 36.160307434588695 ], [ 127.688116189279754, 36.160140783230368 ], [ 127.692551251367647, 36.153345368931262 ], [ 127.691475351394558, 36.150025948502453 ], [ 127.687824860336491, 36.147312412903815 ], [ 127.689422594617497, 36.144550303637061 ], [ 127.694410197930907, 36.143921911172761 ], [ 127.697115444538099, 36.130825676786706 ], [ 127.692858495176893, 36.118148075772901 ], [ 127.689928463809949, 36.11578331099485 ], [ 127.690218479374295, 36.112199294693788 ], [ 127.685505930778191, 36.10739435643243 ] ] ] ] } },
{ "type": "Feature", "properties": { "emd_cd": "43740400", "emd_nm": "심천면" }, "geometry": { "type": "MultiPolygon", "coordinates": [ [ [ [ 127.703823646265832, 36.161714026093115 ], [ 127.701934660104484, 36.162667718713962 ], [ 127.699843670077868, 36.168191796915842 ], [ 127.694595430127862, 36.169757464839364 ], [ 127.692193234743399, 36.17265809324519 ], [ 127.682293095335382, 36.165538958029842 ], [ 127.680263772402327, 36.168369298853051 ], [ 127.682285263137388, 36.172442945498361 ], [ 127.678404974769805, 36.174173795293783 ], [ 127.676081849694413, 36.177978585580014 ], [ 127.671175589715361, 36.177571543997793 ], [ 127.667759090924392, 36.179097688837366 ], [ 127.655012385499347, 36.177636540920822 ], [ 127.65060108719311, 36.182602661946582 ], [ 127.649984841352804, 36.185279611297076 ], [ 127.653768075038613, 36.188818589704475 ], [ 127.654592743827052, 36.191801040040865 ], [ 127.654116934992132, 36.193708019263475 ], [ 127.651902334144552, 36.194290934908757 ], [ 127.652356717400465, 36.197018239697947 ], [ 127.654342781567109, 36.198132637196387 ], [ 127.650878517670989, 36.20141369908638 ], [ 127.648445581681983, 36.207080521940568 ], [ 127.652283047943598, 36.215720506750515 ], [ 127.650285529844467, 36.219792877334356 ], [ 127.650562443355284, 36.224974059799209 ], [ 127.65612408950723, 36.229357747387255 ], [ 127.663749532702383, 36.223307740760241 ], [ 127.67269988303326, 36.222153535402263 ], [ 127.681028628287933, 36.224832483102325 ], [ 127.685345052954546, 36.235245391722344 ], [ 127.691324729018262, 36.238155446537775 ], [ 127.69384873602867, 36.249914159655923 ], [ 127.696966314746476, 36.251636694012603 ], [ 127.70179340953689, 36.26075695313969 ], [ 127.703712829654833, 36.26024422728424 ], [ 127.708426323378418, 36.263048381371597 ], [ 127.714714223812052, 36.263134683857892 ], [ 127.712097288995494, 36.266011229683478 ], [ 127.713969141298776, 36.268606609127268 ], [ 127.721683098385043, 36.26947273931308 ], [ 127.726888632046325, 36.274758729200485 ], [ 127.730664165100634, 36.276244903655495 ], [ 127.730460206090299, 36.27207290974799 ], [ 127.733391002842367, 36.267862323793501 ], [ 127.733127852149366, 36.262942363515215 ], [ 127.747251431771559, 36.265582792493149 ], [ 127.75715289913299, 36.263065785264487 ], [ 127.757182356097289, 36.259551967922761 ], [ 127.761627556293504, 36.255979512009475 ], [ 127.76310754994104, 36.250061238084989 ], [ 127.762497649319386, 36.24463638611001 ], [ 127.759338973150903, 36.24043566767326 ], [ 127.759574593931291, 36.237470594984238 ], [ 127.764545457380578, 36.234449470388434 ], [ 127.763852577181808, 36.22515795315946 ], [ 127.761870402586553, 36.221645468375698 ], [ 127.755597927948642, 36.224787214345916 ], [ 127.752661801904935, 36.223777203424383 ], [ 127.752308512798677, 36.218159962939588 ], [ 127.755566519261706, 36.215010502731396 ], [ 127.753590472574075, 36.212373150254756 ], [ 127.754116969379695, 36.210658956135298 ], [ 127.749798693029547, 36.206981556828055 ], [ 127.747527274233775, 36.207304154583511 ], [ 127.746343609221285, 36.204715273524783 ], [ 127.740704204741391, 36.204350466991826 ], [ 127.741040361138587, 36.199359390058518 ], [ 127.736711326008518, 36.197664328483313 ], [ 127.738503841829242, 36.193721845821436 ], [ 127.735525005582744, 36.18772976323114 ], [ 127.736731773080223, 36.180933681291052 ], [ 127.732801195438626, 36.174066579585492 ], [ 127.7351368165466, 36.168217695250256 ], [ 127.732948406690113, 36.165582029439676 ], [ 127.730702167836725, 36.164274942112108 ], [ 127.72489416980784, 36.167266459116576 ], [ 127.719663114672855, 36.165098157394297 ], [ 127.715883576804984, 36.16563610731933 ], [ 127.712710037407646, 36.163353787190481 ], [ 127.706513566163508, 36.163959456129248 ], [ 127.703823646265832, 36.161714026093115 ] ] ] ] } }
]
}
