{
"type": "FeatureCollection",
"name": "43745",
"crs": { "type": "name", "properties": { "name": "urn:ogc:def:crs:OGC:1.3:CRS84" } },
"features": [
{ "type": "Feature", "properties": { "emd_cd": "43745250", "emd_nm": "증평읍" }, "geometry": { "type": "MultiPolygon", "coordinates": [ [ [ [ 127.537378304718146, 36.808597427710517 ], [ 127.544818620826945, 36.813505272930612 ], [ 127.54999531912209, 36.812849961382426 ], [ 127.560410518537665, 36.819713850131407 ], [ 127.562991248314702, 36.818058445186878 ], [ 127.569242672821673, 36.82052967789221 ], [ 127.572039624450738, 36.820036794243535 ], [ 127.579276688832181, 36.828265364709495 ], [ 127.58886883147666, 36.821105497154058 ], [ 127.587505861468813, 36.817607189557769 ], [ 127.588577920365324, 36.813143252770281 ], [ 127.596353201776409, 36.811186671401046 ], [ 127.599617264615475, 36.806142871110353 ], [ 127.604505920520182, 36.806851231907117 ], [ 127.607728866366713, 36.805187274749784 ], [ 127.608376125866201, 36.798129959198633 ], [ 127.616338476429661, 36.799027274141139 ], [ 127.616967141198202, 36.797443030485979 ], [ 127.623508640583282, 36.79510889343382 ], [ 127.626294558346331, 36.790340563465847 ], [ 127.620948192850875, 36.787877355050973 ], [ 127.620467713952223, 36.779335731247954 ], [ 127.627238372425367, 36.776595064283001 ], [ 127.629301552674846, 36.773439023365064 ], [ 127.623635595073935, 36.760784797900556 ], [ 127.632827680781929, 36.752330938136325 ], [ 127.635530041626112, 36.752116652831653 ], [ 127.636004305292516, 36.74135260358176 ], [ 127.638964202610296, 36.73811348160671 ], [ 127.638918489813278, 36.732557138231485 ], [ 127.649997043225071, 36.732655091971772 ], [ 127.652582666199962, 36.73550672464166 ], [ 127.656828129727245, 36.732576531884767 ], [ 127.662040174598047, 36.732454573653023 ], [ 127.664538577352019, 36.729920388098911 ], [ 127.661409236089568, 36.722294890226436 ], [ 127.662661323972458, 36.714993013350494 ], [ 127.654833067424292, 36.70439885656215 ], [ 127.64775029609477, 36.701280629291972 ], [ 127.642399560797401, 36.702618155247009 ], [ 127.641219437429385, 36.705657656271242 ], [ 127.635216487876292, 36.708752335598838 ], [ 127.627366637000392, 36.707468049014544 ], [ 127.623000745787152, 36.704621026888276 ], [ 127.617928592180633, 36.707445824929081 ], [ 127.618851029730692, 36.716327017276519 ], [ 127.615422402061796, 36.718677274236533 ], [ 127.613814528807964, 36.726483360189164 ], [ 127.609379853691678, 36.7303740731601 ], [ 127.610556837221495, 36.735263282697005 ], [ 127.608298188713519, 36.737034823741801 ], [ 127.60814628059515, 36.739747660023383 ], [ 127.606459491924909, 36.740217690929157 ], [ 127.60607156581024, 36.743431365092754 ], [ 127.603151481807089, 36.745964108205811 ], [ 127.598296303929288, 36.744218820959354 ], [ 127.590817602894219, 36.747598705147652 ], [ 127.590312724849056, 36.753120487380706 ], [ 127.587177581576753, 36.755421310089702 ], [ 127.588923241097618, 36.76060702740466 ], [ 127.583639334574926, 36.761919719818025 ], [ 127.582008900059392, 36.765050541456773 ], [ 127.575048278326619, 36.767381315259236 ], [ 127.571129971123426, 36.771663107921228 ], [ 127.567807737644685, 36.772724926104381 ], [ 127.564683983066402, 36.782664194303443 ], [ 127.560807880124813, 36.784822197694382 ], [ 127.561290926776579, 36.787692412264292 ], [ 127.555058218087694, 36.799279971834672 ], [ 127.54815157770345, 36.798353781141095 ], [ 127.537378304718146, 36.808597427710517 ] ] ] ] } },
{ "type": "Feature", "properties": { "emd_cd": "43745310", "emd_nm": "도안면" }, "geometry": { "type": "MultiPolygon", "coordinates": [ [ [ [ 127.568683860505317, 36.838510243459716 ], [ 127.572832750600384, 36.841214239762316 ], [ 127.57159424571789, 36.84388670864422 ], [ 127.573426882258147, 36.84723991427439 ], [ 127.571543809007309, 36.850061383268041 ], [ 127.578245601171176, 36.851818064624076 ], [ 127.577806347415532, 36.856763132405256 ], [ 127.581270146021851, 36.859425933325184 ], [ 127.585953328100146, 36.859457136537657 ], [ 127.58703413908357, 36.857219382098116 ], [ 127.591225352973268, 36.85778522382661 ], [ 127.596541770512033, 36.851561515400959 ], [ 127.603208062338609, 36.85189460273903 ], [ 127.613764856651585, 36.858359243922742 ], [ 127.616613304737129, 36.85862320705904 ], [ 127.61749669600762, 36.857698681304221 ], [ 127.615910134499259, 36.853542564368894 ], [ 127.611527826145576, 36.847799421786021 ], [ 127.613272180364405, 36.843942547571871 ], [ 127.613402031539437, 36.836436549433074 ], [ 127.615534931609332, 36.833901340798242 ], [ 127.620369780636068, 36.837010790906092 ], [ 127.623795507453096, 36.835631955575622 ], [ 127.626409480152645, 36.842529513359651 ], [ 127.635239362900734, 36.847155108566405 ], [ 127.637573606373735, 36.846918524901994 ], [ 127.639195684003681, 36.84357066317191 ], [ 127.630913556955605, 36.830414740463198 ], [ 127.629289930711479, 36.82158197729084 ], [ 127.630109190826161, 36.816214419448613 ], [ 127.635083096589625, 36.812564287935679 ], [ 127.634041600208093, 36.807283178855997 ], [ 127.635937026155702, 36.806533468653726 ], [ 127.635915371641204, 36.804756121919851 ], [ 127.64011370743431, 36.803435678628979 ], [ 127.641584170422519, 36.799996513868173 ], [ 127.634709776892592, 36.793499941301235 ], [ 127.627088919090752, 36.794267492435331 ], [ 127.627141546272554, 36.791828897004351 ], [ 127.625358744304179, 36.791378964972168 ], [ 127.622532083091542, 36.79597112366227 ], [ 127.619740138164886, 36.796053259044072 ], [ 127.616385682259391, 36.799016063828468 ], [ 127.608376125866201, 36.798129959198633 ], [ 127.607728866366713, 36.805187274749784 ], [ 127.604505920520182, 36.806851231907117 ], [ 127.599617264615475, 36.806142871110353 ], [ 127.596353201776409, 36.811186671401046 ], [ 127.588577920365324, 36.813143252770281 ], [ 127.587505861468813, 36.817607189557769 ], [ 127.588605909400258, 36.821457112087614 ], [ 127.583123370997129, 36.824153612783995 ], [ 127.578401283151905, 36.829703256366521 ], [ 127.572075803673613, 36.827907081280003 ], [ 127.569238765807995, 36.830107081710864 ], [ 127.570190291423785, 36.833741428011692 ], [ 127.568683860505317, 36.838510243459716 ] ] ] ] } }
]
}
