{
"type": "FeatureCollection",
"name": "43800",
"crs": { "type": "name", "properties": { "name": "urn:ogc:def:crs:OGC:1.3:CRS84" } },
"features": [
{ "type": "Feature", "properties": { "emd_cd": "43800250", "emd_nm": "단양읍" }, "geometry": { "type": "MultiPolygon", "coordinates": [ [ [ [ 128.347280167587144, 36.934358731048079 ], [ 128.341570580670577, 36.9370644860753 ], [ 128.337033096371044, 36.937301183468264 ], [ 128.335491843404213, 36.939834095702942 ], [ 128.328186611551246, 36.937353500142208 ], [ 128.32703199882323, 36.942481395454081 ], [ 128.324828883776007, 36.943392556916628 ], [ 128.324982381040428, 36.945632916099832 ], [ 128.323555696138129, 36.946383397794904 ], [ 128.325228117765676, 36.949099511112877 ], [ 128.32418377206659, 36.952040513954273 ], [ 128.335612899440093, 36.959334786555722 ], [ 128.335591795986403, 36.96803990737633 ], [ 128.338009268076092, 36.97261653516324 ], [ 128.340566503516641, 36.97315133296825 ], [ 128.341956609492627, 36.979151807962616 ], [ 128.327720487004427, 36.985181345931835 ], [ 128.327373901821375, 36.986699909523367 ], [ 128.336953126367916, 36.996784540840778 ], [ 128.343988790039134, 36.994518627934937 ], [ 128.345813823657323, 36.995850605184486 ], [ 128.347363388773147, 36.997090885595213 ], [ 128.345139175316291, 36.999652043909229 ], [ 128.346086664136067, 37.004615033844495 ], [ 128.354711385130258, 37.007957508599723 ], [ 128.359131598065716, 37.007925188159696 ], [ 128.37649818345227, 36.99887995337567 ], [ 128.38431487639599, 36.999731556048197 ], [ 128.385050402017299, 36.996218749901033 ], [ 128.388709444410722, 36.995067746739927 ], [ 128.389824441279785, 36.992831265872844 ], [ 128.406110296547496, 36.993243754532052 ], [ 128.413119731187834, 36.990281475822229 ], [ 128.415648699482858, 36.987328327094929 ], [ 128.420433251730344, 36.987201661191882 ], [ 128.420074373326997, 36.983346984503832 ], [ 128.421801245952736, 36.981273417146809 ], [ 128.425827747853162, 36.980890097372964 ], [ 128.430397474728352, 36.973992647988602 ], [ 128.436469745700464, 36.97183958376398 ], [ 128.444826180936047, 36.96511920875399 ], [ 128.44910031785011, 36.965504048229377 ], [ 128.459116522565949, 36.961563435676887 ], [ 128.463392463270196, 36.962334967816815 ], [ 128.474670422818889, 36.960584441226132 ], [ 128.477059765065405, 36.957491347694223 ], [ 128.462827992093366, 36.947446467318045 ], [ 128.463432461653468, 36.943725404925651 ], [ 128.460229918405616, 36.937702465374855 ], [ 128.46048917244778, 36.933959501175231 ], [ 128.445254092477285, 36.930838635463779 ], [ 128.441739662272568, 36.927709633382875 ], [ 128.429417352677831, 36.930226280069121 ], [ 128.423036746087774, 36.925107012698504 ], [ 128.414661443482089, 36.924297452039248 ], [ 128.398122070552034, 36.928574339446968 ], [ 128.387080150931183, 36.926972489420329 ], [ 128.378974681227049, 36.930923875495047 ], [ 128.375813389507243, 36.929888162634334 ], [ 128.373817378790591, 36.932064036922363 ], [ 128.369130414393993, 36.932106667303998 ], [ 128.367405605723917, 36.935541869134788 ], [ 128.361953430894658, 36.936481324089229 ], [ 128.35335386500256, 36.933197633517274 ], [ 128.352046418914284, 36.93005358706943 ], [ 128.347913013082945, 36.931930065306723 ], [ 128.347280167587144, 36.934358731048079 ] ] ] ] } },
{ "type": "Feature", "properties": { "emd_cd": "43800253", "emd_nm": "매포읍" }, "geometry": { "type": "MultiPolygon", "coordinates": [ [ [ [ 128.339216999921831, 36.99650496139504 ], [ 128.334144534314504, 36.994937713861901 ], [ 128.329000317311284, 36.98979677105212 ], [ 128.327720487004427, 36.985181345931835 ], [ 128.322046095716559, 36.981439364817071 ], [ 128.317942069811863, 36.981946270045633 ], [ 128.311550826908785, 36.978960884470943 ], [ 128.308456067716605, 36.979722619606008 ], [ 128.307074105814564, 36.983075310691525 ], [ 128.302146835327903, 36.983562334544914 ], [ 128.29893960801266, 36.989294606998577 ], [ 128.303588078066525, 36.997857653426436 ], [ 128.303773332318769, 37.003331710838658 ], [ 128.29575661459387, 37.012983929328939 ], [ 128.294181957204614, 37.019653180217823 ], [ 128.289573324622523, 37.023814395282137 ], [ 128.289534370077405, 37.025778988627124 ], [ 128.291630013382786, 37.026173904806853 ], [ 128.281389486561096, 37.027681072117431 ], [ 128.278131594489508, 37.033369049099427 ], [ 128.271012951302424, 37.037237620018033 ], [ 128.266074793676353, 37.036753104367236 ], [ 128.259871930373549, 37.040951600065441 ], [ 128.259466415951721, 37.044175305269896 ], [ 128.264474255435175, 37.047276724296744 ], [ 128.262714465351706, 37.050175785461128 ], [ 128.270996498296455, 37.054004324651558 ], [ 128.270795264304951, 37.057338906515746 ], [ 128.267038687980858, 37.060860011424381 ], [ 128.263668076550204, 37.061075286373587 ], [ 128.260156623173941, 37.064586231777035 ], [ 128.254713589656888, 37.066096923021796 ], [ 128.253161025083131, 37.069434230474734 ], [ 128.249582469150482, 37.069966327805552 ], [ 128.248893374816618, 37.07464668112182 ], [ 128.255251746772359, 37.081987051364202 ], [ 128.261524576024357, 37.082144615669591 ], [ 128.26964711544656, 37.087218472493646 ], [ 128.269120885716802, 37.088673101467229 ], [ 128.264390989493336, 37.088138926260811 ], [ 128.259585595772165, 37.099145361799515 ], [ 128.256308010061957, 37.101475614052546 ], [ 128.263200541599474, 37.107073005976957 ], [ 128.263239073532333, 37.108614482076689 ], [ 128.266923386475355, 37.108667422868187 ], [ 128.267352322973409, 37.113583317396611 ], [ 128.270185393628509, 37.112754768265617 ], [ 128.270804153894289, 37.115937185350084 ], [ 128.272982724833952, 37.117131366103209 ], [ 128.27755075601857, 37.115874727079344 ], [ 128.278686385651184, 37.113943458269453 ], [ 128.277742325750808, 37.110833412338884 ], [ 128.284639433034044, 37.106927215916556 ], [ 128.287075958546296, 37.102182182252214 ], [ 128.29312848862557, 37.099196444246594 ], [ 128.299053284404181, 37.091121437813477 ], [ 128.308824554010215, 37.083718182021897 ], [ 128.311341606050917, 37.07899234674953 ], [ 128.31906874166711, 37.072447639259515 ], [ 128.323099739803354, 37.065759314935839 ], [ 128.322497271611326, 37.060253738758831 ], [ 128.326228393669254, 37.058543732029534 ], [ 128.331516948917653, 37.059015231898528 ], [ 128.330992639199962, 37.056105634905101 ], [ 128.337213280012094, 37.047002085379923 ], [ 128.343310981963924, 37.044737709263941 ], [ 128.346039193155093, 37.041973171641558 ], [ 128.341739229694497, 37.03646132011604 ], [ 128.343072142973313, 37.03587008157966 ], [ 128.343565878057603, 37.03545756043313 ], [ 128.34414623160157, 37.030570663668342 ], [ 128.349340681536063, 37.022760436982878 ], [ 128.345468400567256, 37.015284039008741 ], [ 128.355072460815876, 37.009190934709792 ], [ 128.354739716438814, 37.007533642678069 ], [ 128.349536216911616, 37.006928460901655 ], [ 128.346086664136067, 37.004615033844495 ], [ 128.345139175316291, 36.999652043909229 ], [ 128.347363388773147, 36.997090885595213 ], [ 128.345813823657323, 36.995850605184486 ], [ 128.343988790039134, 36.994518627934937 ], [ 128.339216999921831, 36.99650496139504 ] ] ] ] } },
{ "type": "Feature", "properties": { "emd_cd": "43800310", "emd_nm": "대강면" }, "geometry": { "type": "MultiPolygon", "coordinates": [ [ [ [ 128.362882328167387, 36.80042766747875 ], [ 128.355228469959656, 36.804457756701375 ], [ 128.354820346034785, 36.809498330975757 ], [ 128.350759914593851, 36.811604463932206 ], [ 128.334286872831143, 36.8168374576559 ], [ 128.320835476775926, 36.815393044546553 ], [ 128.316453662817196, 36.816663366063821 ], [ 128.315744502987314, 36.822755625167368 ], [ 128.311595089354398, 36.825036669617404 ], [ 128.310518261244766, 36.828630616719614 ], [ 128.305854679846732, 36.828924561468668 ], [ 128.303701295723357, 36.831300859079633 ], [ 128.305518123202688, 36.83187512591298 ], [ 128.303148506258339, 36.837797994618747 ], [ 128.310738868956406, 36.839079467642506 ], [ 128.316143300756323, 36.842257467147583 ], [ 128.317844946504692, 36.848465245390742 ], [ 128.308843067636531, 36.859669262955457 ], [ 128.312314180740941, 36.864266098653381 ], [ 128.319738060810323, 36.868522823032954 ], [ 128.325847010001581, 36.868518825136313 ], [ 128.327892291131974, 36.872277351752395 ], [ 128.325361884936143, 36.87870188423009 ], [ 128.326984616824717, 36.882705280730335 ], [ 128.323864731000953, 36.887792459861771 ], [ 128.322159472811563, 36.895162742444242 ], [ 128.33457147770639, 36.905886579912668 ], [ 128.337945691698138, 36.914307768984067 ], [ 128.34408818208729, 36.917317231581542 ], [ 128.347699339915778, 36.922097036106756 ], [ 128.342667999500748, 36.925008352238592 ], [ 128.345943285985868, 36.931922589757704 ], [ 128.344966510726209, 36.934423601355 ], [ 128.347280167587144, 36.934358731048079 ], [ 128.347913013082945, 36.931930065306723 ], [ 128.352046418914284, 36.93005358706943 ], [ 128.35335386500256, 36.933197633517274 ], [ 128.361953430894658, 36.936481324089229 ], [ 128.367405605723917, 36.935541869134788 ], [ 128.369130414393993, 36.932106667303998 ], [ 128.373817378790591, 36.932064036922363 ], [ 128.375813389507243, 36.929888162634334 ], [ 128.378974681227049, 36.930923875495047 ], [ 128.387080150931183, 36.926972489420329 ], [ 128.398122070552034, 36.928574339446968 ], [ 128.417316655076519, 36.924134126856089 ], [ 128.423036746087774, 36.925107012698504 ], [ 128.429417352677831, 36.930226280069121 ], [ 128.440732228435451, 36.928740964844209 ], [ 128.444869498304342, 36.917508274666197 ], [ 128.444783216315045, 36.913706208332911 ], [ 128.44310380679434, 36.912323508037893 ], [ 128.440183901113556, 36.901326173330624 ], [ 128.42649875422336, 36.88928836492817 ], [ 128.427935815222781, 36.884940675489901 ], [ 128.42430963909635, 36.877663593218685 ], [ 128.439190435394408, 36.873120440208268 ], [ 128.449120001479514, 36.864098003837007 ], [ 128.446957557115297, 36.854044343804759 ], [ 128.449502771545525, 36.849151014746319 ], [ 128.447198442203558, 36.843529418533137 ], [ 128.442762975699111, 36.840340565636509 ], [ 128.440970862373263, 36.836881087239014 ], [ 128.434113460548218, 36.834100069333978 ], [ 128.432393114276351, 36.823829806585067 ], [ 128.426355207296496, 36.81836837908844 ], [ 128.425209447345935, 36.814221453112097 ], [ 128.4212332292376, 36.811607353396219 ], [ 128.405988729875503, 36.811793096367794 ], [ 128.394523127814495, 36.814717776162233 ], [ 128.381210616105278, 36.81367370987369 ], [ 128.367042725908135, 36.800562686250352 ], [ 128.362882328167387, 36.80042766747875 ] ] ] ] } },
{ "type": "Feature", "properties": { "emd_cd": "43800320", "emd_nm": "가곡면" }, "geometry": { "type": "MultiPolygon", "coordinates": [ [ [ [ 128.354711385130258, 37.007957508599723 ], [ 128.35511883835423, 37.009757854076433 ], [ 128.345468400567256, 37.015284039008741 ], [ 128.349340681536063, 37.022760436982878 ], [ 128.34414623160157, 37.030570663668342 ], [ 128.343565878057603, 37.03545756043313 ], [ 128.341739229694497, 37.03646132011604 ], [ 128.346039193155093, 37.041973171641558 ], [ 128.35045134354192, 37.040952015918251 ], [ 128.352877630450479, 37.04308415880066 ], [ 128.357835223325282, 37.042692202732383 ], [ 128.371012143626047, 37.045660915339901 ], [ 128.372404890808383, 37.044554073616915 ], [ 128.376410093684427, 37.048190983181335 ], [ 128.37840768215878, 37.04782162447421 ], [ 128.386814529461049, 37.052367521534769 ], [ 128.386506339661594, 37.05418187168889 ], [ 128.389082467596666, 37.056926831107333 ], [ 128.391952049875869, 37.055907011315199 ], [ 128.399530632773349, 37.061542357281134 ], [ 128.405327702330624, 37.059161215202153 ], [ 128.413702718779405, 37.06230417262222 ], [ 128.416565644124006, 37.066020643511955 ], [ 128.428143892842144, 37.070700456250854 ], [ 128.432020866810348, 37.068764378915404 ], [ 128.431580061360165, 37.065646274724131 ], [ 128.461683175491146, 37.071200230196567 ], [ 128.46305904837115, 37.067527622266979 ], [ 128.457784250970093, 37.062306763823742 ], [ 128.455882053467747, 37.054369261125657 ], [ 128.460474758023736, 37.051409336543415 ], [ 128.463021270292643, 37.046657633964607 ], [ 128.460270351908576, 37.043001337261977 ], [ 128.461518105019508, 37.040577470931197 ], [ 128.464068051944309, 37.037812515418764 ], [ 128.475086469989776, 37.03361556417066 ], [ 128.475841412137555, 37.02784347102827 ], [ 128.478225275447613, 37.023592948730681 ], [ 128.477681873828573, 37.021185129823138 ], [ 128.486381330409415, 37.012665737335702 ], [ 128.493506000375504, 37.008188193559569 ], [ 128.492021361402408, 37.003752517649879 ], [ 128.501795827381926, 36.995648832532652 ], [ 128.509260358595895, 36.992776626485323 ], [ 128.510669411296533, 36.989981012666618 ], [ 128.51488335114351, 36.987786543100384 ], [ 128.514718153589087, 36.977701913983161 ], [ 128.506439075641026, 36.973232540842645 ], [ 128.506735311048033, 36.970150851110951 ], [ 128.505249244235046, 36.969300183610777 ], [ 128.486002579854585, 36.961964806100092 ], [ 128.48492667040054, 36.957414988145658 ], [ 128.477059765065405, 36.957491347694223 ], [ 128.474670422818889, 36.960584441226132 ], [ 128.463392463270196, 36.962334967816815 ], [ 128.459116522565949, 36.961563435676887 ], [ 128.44910031785011, 36.965504048229377 ], [ 128.444826180936047, 36.96511920875399 ], [ 128.436469745700464, 36.97183958376398 ], [ 128.430397474728352, 36.973992647988602 ], [ 128.425827747853162, 36.980890097372964 ], [ 128.421801245952736, 36.981273417146809 ], [ 128.420074373326997, 36.983346984503832 ], [ 128.420433251730344, 36.987201661191882 ], [ 128.415648699482858, 36.987328327094929 ], [ 128.413119731187834, 36.990281475822229 ], [ 128.406110296547496, 36.993243754532052 ], [ 128.389824441279785, 36.992831265872844 ], [ 128.388709444410722, 36.995067746739927 ], [ 128.385050402017299, 36.996218749901033 ], [ 128.38431487639599, 36.999731556048197 ], [ 128.37649818345227, 36.99887995337567 ], [ 128.359131598065716, 37.007925188159696 ], [ 128.354711385130258, 37.007957508599723 ] ] ] ] } },
{ "type": "Feature", "properties": { "emd_cd": "43800330", "emd_nm": "영춘면" }, "geometry": { "type": "MultiPolygon", "coordinates": [ [ [ [ 128.514466002497727, 37.101351621479985 ], [ 128.515516684779612, 37.103251284958603 ], [ 128.518431334490572, 37.101887126232299 ], [ 128.521835323719102, 37.103091368568542 ], [ 128.529533283023056, 37.100804111187557 ], [ 128.534135585600552, 37.098112297022098 ], [ 128.536834027801433, 37.090136043483426 ], [ 128.544465153408851, 37.087585887328572 ], [ 128.553848673894151, 37.086589769711352 ], [ 128.561701863981995, 37.090236266092163 ], [ 128.570906437109983, 37.086217121373558 ], [ 128.57036814818872, 37.084474595913555 ], [ 128.574405941156016, 37.081317071248769 ], [ 128.581733954194135, 37.0816743166246 ], [ 128.591847161840434, 37.078155239555308 ], [ 128.595036393975022, 37.081536428382961 ], [ 128.601622749770172, 37.083056680575197 ], [ 128.60101448258763, 37.078871738320935 ], [ 128.604879456396475, 37.07936226805834 ], [ 128.607014413651854, 37.076774736489419 ], [ 128.622642042481203, 37.087401815448622 ], [ 128.62827822389599, 37.081332588660466 ], [ 128.628212640119415, 37.075156101124243 ], [ 128.634361981485313, 37.070700792812339 ], [ 128.637396574038377, 37.07225740174345 ], [ 128.639099683608322, 37.070662280222052 ], [ 128.642670512617542, 37.070762448904482 ], [ 128.652096322906772, 37.065439852619249 ], [ 128.644551623218319, 37.062155790971516 ], [ 128.641761439188713, 37.055189161770421 ], [ 128.638961211705237, 37.052494344006142 ], [ 128.636604707885652, 37.052796508747072 ], [ 128.637608439341193, 37.051143221238497 ], [ 128.634109230395296, 37.045765990740335 ], [ 128.63295571158389, 37.040502008504568 ], [ 128.622893505368694, 37.0453778934274 ], [ 128.621730378709202, 37.049156705365128 ], [ 128.60856838026271, 37.052879953220959 ], [ 128.6071527574112, 37.050051615254382 ], [ 128.607922077008965, 37.047440141582584 ], [ 128.606115621852325, 37.045701463268507 ], [ 128.606796719180863, 37.043510389506039 ], [ 128.599882891560696, 37.043610454346563 ], [ 128.596825356612044, 37.041792361403701 ], [ 128.583381202722336, 37.04379943268134 ], [ 128.577664134639832, 37.03554884601018 ], [ 128.56915122736217, 37.034901148947334 ], [ 128.565675390839402, 37.031536079905699 ], [ 128.566959642762725, 37.026012100930281 ], [ 128.572939231810523, 37.020886842032951 ], [ 128.568968422381602, 37.012841078522797 ], [ 128.563255908656373, 37.010108010486064 ], [ 128.562717597726873, 37.007839188377652 ], [ 128.555948200850025, 37.005676512335683 ], [ 128.554724119988265, 36.998299605517317 ], [ 128.54316353149602, 36.992141356167195 ], [ 128.53558311379652, 36.990257068231244 ], [ 128.529679248957137, 36.990845324296423 ], [ 128.515444998767066, 36.98684545170844 ], [ 128.509567631076976, 36.990964536692118 ], [ 128.509260358595895, 36.992776626485323 ], [ 128.501795827381926, 36.995648832532652 ], [ 128.492021361402408, 37.003752517649879 ], [ 128.493506000375504, 37.008188193559569 ], [ 128.486381330409415, 37.012665737335702 ], [ 128.477681873828573, 37.021185129823138 ], [ 128.478225275447613, 37.023592948730681 ], [ 128.475841412137555, 37.02784347102827 ], [ 128.475086469989776, 37.03361556417066 ], [ 128.464068051944309, 37.037812515418764 ], [ 128.461518105019508, 37.040577470931197 ], [ 128.460270351908576, 37.043001337261977 ], [ 128.463021270292643, 37.046657633964607 ], [ 128.460474758023736, 37.051409336543415 ], [ 128.455882053467747, 37.054369261125657 ], [ 128.457784250970093, 37.062306763823742 ], [ 128.46305904837115, 37.067527622266979 ], [ 128.461683175491146, 37.071200230196567 ], [ 128.431580061360165, 37.065646274724131 ], [ 128.432020866810348, 37.068764378915404 ], [ 128.428143892842144, 37.070700456250854 ], [ 128.416565644124006, 37.066020643511955 ], [ 128.413702718779405, 37.06230417262222 ], [ 128.406190095379912, 37.060090531408804 ], [ 128.403390419604392, 37.070613861933715 ], [ 128.399929606949229, 37.075316734087544 ], [ 128.394473459068962, 37.080848317234143 ], [ 128.387489943856878, 37.082793200948267 ], [ 128.386813671173371, 37.085944189002888 ], [ 128.383168656753611, 37.08798471361947 ], [ 128.383944891576562, 37.090151633784394 ], [ 128.380583558989031, 37.093757023484734 ], [ 128.380883800922106, 37.098210721580649 ], [ 128.377693254101558, 37.105049723478338 ], [ 128.378980129845928, 37.107729112497346 ], [ 128.370841653909906, 37.111210757380221 ], [ 128.371228750277567, 37.119946395175418 ], [ 128.369167743076332, 37.126253726916971 ], [ 128.372662233202504, 37.128346052515234 ], [ 128.370872782651787, 37.131939531548213 ], [ 128.37314137273728, 37.135100733478851 ], [ 128.361754210964989, 37.140669657601613 ], [ 128.359715071986301, 37.150220814087582 ], [ 128.364867852246448, 37.157721382814302 ], [ 128.367887828015284, 37.154430787349533 ], [ 128.375829139311804, 37.153313348755695 ], [ 128.376717059982781, 37.151704102288321 ], [ 128.383696972262271, 37.158206178836473 ], [ 128.388758451530862, 37.154615742466838 ], [ 128.392799562331192, 37.154803212752199 ], [ 128.393177327168445, 37.151734340187517 ], [ 128.396374434532561, 37.14856876672529 ], [ 128.400874010072783, 37.146876316398163 ], [ 128.403663134808824, 37.139618477554322 ], [ 128.401821943582632, 37.138516196311294 ], [ 128.400788259498228, 37.133331252175779 ], [ 128.396002193305264, 37.128594064572319 ], [ 128.405751231983089, 37.126987726772875 ], [ 128.411043835887114, 37.122134403356732 ], [ 128.418473031993386, 37.119814451379177 ], [ 128.421045987736278, 37.113703444460384 ], [ 128.423560305098647, 37.112244282146072 ], [ 128.422155009250616, 37.107785668248766 ], [ 128.42306235235273, 37.103248675304847 ], [ 128.424700172900117, 37.10246400152932 ], [ 128.430122896210747, 37.103670861569462 ], [ 128.430580408063008, 37.106753612078094 ], [ 128.435550963814279, 37.109508091250468 ], [ 128.43613980546175, 37.11199234794335 ], [ 128.442691590681648, 37.109241134439962 ], [ 128.444800985925042, 37.106265830891175 ], [ 128.450835962228837, 37.11235957661308 ], [ 128.458045382972898, 37.110275538854935 ], [ 128.477805644341771, 37.110154911198087 ], [ 128.481873656703783, 37.112700313416823 ], [ 128.482389408122202, 37.11495690583299 ], [ 128.490996262014164, 37.123817779323417 ], [ 128.496553643722677, 37.125790688569161 ], [ 128.506671833065155, 37.115442154962125 ], [ 128.510758126551622, 37.113954223396526 ], [ 128.514466002497727, 37.101351621479985 ] ] ] ] } },
{ "type": "Feature", "properties": { "emd_cd": "43800340", "emd_nm": "어상천면" }, "geometry": { "type": "MultiPolygon", "coordinates": [ [ [ [ 128.346039193155093, 37.041973171641558 ], [ 128.343310981963924, 37.044737709263941 ], [ 128.337213280012094, 37.047002085379923 ], [ 128.330992639199962, 37.056105634905101 ], [ 128.331516948917653, 37.059015231898528 ], [ 128.326228393669254, 37.058543732029534 ], [ 128.322497271611326, 37.060253738758831 ], [ 128.323099739803354, 37.065759314935839 ], [ 128.31906874166711, 37.072447639259515 ], [ 128.311341606050917, 37.07899234674953 ], [ 128.308824554010215, 37.083718182021897 ], [ 128.299053284404181, 37.091121437813477 ], [ 128.293984767098124, 37.098055944297954 ], [ 128.298834867098151, 37.099412206724168 ], [ 128.300732231705638, 37.098539989302608 ], [ 128.30387863150662, 37.100348128388546 ], [ 128.306477064667291, 37.108974606980624 ], [ 128.308931351831376, 37.111315879174356 ], [ 128.308459433367659, 37.114515969934544 ], [ 128.305036086987371, 37.116199525083772 ], [ 128.303864906072022, 37.118573375873197 ], [ 128.303483844043598, 37.12890171377552 ], [ 128.298313997193077, 37.134179415366724 ], [ 128.306360644647413, 37.137525922171747 ], [ 128.305882351301477, 37.139533365253939 ], [ 128.309317002731433, 37.142803401512232 ], [ 128.309514742155301, 37.144925324610846 ], [ 128.319784974234977, 37.14726422464156 ], [ 128.322018893519669, 37.149221947212325 ], [ 128.324732669457518, 37.148073442964417 ], [ 128.327465326250007, 37.152935740872394 ], [ 128.330672466193562, 37.150343157700497 ], [ 128.333472372744808, 37.15247604600129 ], [ 128.334746130296963, 37.156521543446118 ], [ 128.338476753563242, 37.158143837609018 ], [ 128.342588275012218, 37.155942119364447 ], [ 128.351513456663127, 37.157412616695147 ], [ 128.359478785394145, 37.150692606180961 ], [ 128.361754210964989, 37.140669657601613 ], [ 128.37314137273728, 37.135100733478851 ], [ 128.370872782651787, 37.131939531548213 ], [ 128.372662233202504, 37.128346052515234 ], [ 128.369167743076332, 37.126253726916971 ], [ 128.371228750277567, 37.119946395175418 ], [ 128.370841653909906, 37.111210757380221 ], [ 128.378980129845928, 37.107729112497346 ], [ 128.377693254101558, 37.105049723478338 ], [ 128.380883800922106, 37.098210721580649 ], [ 128.380583558989031, 37.093757023484734 ], [ 128.383944891576562, 37.090151633784394 ], [ 128.383168656753611, 37.08798471361947 ], [ 128.386813671173371, 37.085944189002888 ], [ 128.387489943856878, 37.082793200948267 ], [ 128.394473459068962, 37.080848317234143 ], [ 128.399929606949229, 37.075316734087544 ], [ 128.403390419604392, 37.070613861933715 ], [ 128.406190095379912, 37.060090531408804 ], [ 128.402927268980733, 37.059518496665952 ], [ 128.399530632773349, 37.061542357281134 ], [ 128.391952049875869, 37.055907011315199 ], [ 128.389082467596666, 37.056926831107333 ], [ 128.386506339661594, 37.05418187168889 ], [ 128.386814529461049, 37.052367521534769 ], [ 128.37840768215878, 37.04782162447421 ], [ 128.376410093684427, 37.048190983181335 ], [ 128.372404890808383, 37.044554073616915 ], [ 128.371012143626047, 37.045660915339901 ], [ 128.357835223325282, 37.042692202732383 ], [ 128.352877630450479, 37.04308415880066 ], [ 128.35045134354192, 37.040952015918251 ], [ 128.346039193155093, 37.041973171641558 ] ] ] ] } },
{ "type": "Feature", "properties": { "emd_cd": "43800350", "emd_nm": "적성면" }, "geometry": { "type": "MultiPolygon", "coordinates": [ [ [ [ 128.251044467484093, 36.942073161433058 ], [ 128.255911671468994, 36.943891462471129 ], [ 128.259906418427107, 36.948732754787912 ], [ 128.264676534523716, 36.950286827824421 ], [ 128.264604563807978, 36.952233865949232 ], [ 128.259632337503206, 36.95483994779709 ], [ 128.266611952049146, 36.960763962550601 ], [ 128.260034413016456, 36.968394855022346 ], [ 128.25936536688252, 36.978609603179784 ], [ 128.255791384910793, 36.986510125713792 ], [ 128.258594180614779, 36.993361337544066 ], [ 128.253915980087754, 36.997464523228132 ], [ 128.257107005889424, 36.998929698480559 ], [ 128.25726621983091, 37.002331710085357 ], [ 128.25398426844248, 37.009308193180168 ], [ 128.248336562402045, 37.013141032451969 ], [ 128.243952227676573, 37.02098089458967 ], [ 128.23852641197459, 37.025045923526903 ], [ 128.226551242370846, 37.025370374701197 ], [ 128.224074166528311, 37.030563712200831 ], [ 128.224383821362892, 37.034298908872685 ], [ 128.217067124233296, 37.037386949751877 ], [ 128.220769901423893, 37.042019720811282 ], [ 128.218914954331979, 37.04582879171339 ], [ 128.220978595307741, 37.050084174609104 ], [ 128.217813193086442, 37.054373256754332 ], [ 128.224995765628677, 37.05877525234439 ], [ 128.225351351829374, 37.06233472050414 ], [ 128.236731547131512, 37.06546620004157 ], [ 128.239357543474569, 37.073644688844354 ], [ 128.246847645395604, 37.076924404418513 ], [ 128.249260760397846, 37.075069465422359 ], [ 128.249582469150482, 37.069966327805552 ], [ 128.253161025083131, 37.069434230474734 ], [ 128.254713589656888, 37.066096923021796 ], [ 128.260156623173941, 37.064586231777035 ], [ 128.263668076550204, 37.061075286373587 ], [ 128.267038687980858, 37.060860011424381 ], [ 128.270795264304951, 37.057338906515746 ], [ 128.270996498296455, 37.054004324651558 ], [ 128.262714465351706, 37.050175785461128 ], [ 128.264474255435175, 37.047276724296744 ], [ 128.259466415951721, 37.044175305269896 ], [ 128.259871930373549, 37.040951600065441 ], [ 128.266074793676353, 37.036753104367236 ], [ 128.271012951302424, 37.037237620018033 ], [ 128.278131594489508, 37.033369049099427 ], [ 128.281389486561096, 37.027681072117431 ], [ 128.289950500999737, 37.027293450932405 ], [ 128.291630013382786, 37.026173904806853 ], [ 128.289534370077405, 37.025778988627124 ], [ 128.289573324622523, 37.023814395282137 ], [ 128.294181957204614, 37.019653180217823 ], [ 128.29575661459387, 37.012983929328939 ], [ 128.303773332318769, 37.003331710838658 ], [ 128.303588078066525, 36.997857653426436 ], [ 128.298860946124819, 36.990711200408924 ], [ 128.302146835327903, 36.983562334544914 ], [ 128.307074105814564, 36.983075310691525 ], [ 128.308163780349275, 36.97988677129625 ], [ 128.311550826908785, 36.978960884470943 ], [ 128.317942069811863, 36.981946270045633 ], [ 128.322046095716559, 36.981439364817071 ], [ 128.327720487004427, 36.985181345931835 ], [ 128.341956609492627, 36.979151807962616 ], [ 128.340566503516641, 36.97315133296825 ], [ 128.338009268076092, 36.97261653516324 ], [ 128.335591795986403, 36.96803990737633 ], [ 128.335569658288961, 36.9592794889857 ], [ 128.327572184279092, 36.953673545693412 ], [ 128.317469089757424, 36.949358896186411 ], [ 128.310142389820044, 36.941367301859543 ], [ 128.304618853011789, 36.940806464581968 ], [ 128.290584971485231, 36.925799544934826 ], [ 128.286074118901098, 36.926212598637385 ], [ 128.285161073368499, 36.930211402941104 ], [ 128.280347389345422, 36.932906253833707 ], [ 128.273455587746554, 36.933331576291025 ], [ 128.273280668093662, 36.934400438477248 ], [ 128.272460543359642, 36.933128229808666 ], [ 128.265461705505999, 36.93260295138677 ], [ 128.253274521178497, 36.93405033557498 ], [ 128.250246369460626, 36.936320222036628 ], [ 128.251044467484093, 36.942073161433058 ] ] ] ] } },
{ "type": "Feature", "properties": { "emd_cd": "43800360", "emd_nm": "단성면" }, "geometry": { "type": "MultiPolygon", "coordinates": [ [ [ [ 128.341570580670577, 36.9370644860753 ], [ 128.345943285985868, 36.931922589757704 ], [ 128.342667999500748, 36.925008352238592 ], [ 128.347699339915778, 36.922097036106756 ], [ 128.34408818208729, 36.917317231581542 ], [ 128.337945691698138, 36.914307768984067 ], [ 128.33457147770639, 36.905886579912668 ], [ 128.322159472811563, 36.895162742444242 ], [ 128.323864731000953, 36.887792459861771 ], [ 128.326984616824717, 36.882705280730335 ], [ 128.325361884936143, 36.87870188423009 ], [ 128.327892291131974, 36.872277351752395 ], [ 128.325847010001581, 36.868518825136313 ], [ 128.319738060810323, 36.868522823032954 ], [ 128.312314180740941, 36.864266098653381 ], [ 128.308843067636531, 36.859669262955457 ], [ 128.317844946504692, 36.848465245390742 ], [ 128.316143300756323, 36.842257467147583 ], [ 128.310738868956406, 36.839079467642506 ], [ 128.303148506258339, 36.837797994618747 ], [ 128.305493119872978, 36.831619648707843 ], [ 128.30333827766637, 36.831181190845122 ], [ 128.295128895674424, 36.835748073624806 ], [ 128.289462064099581, 36.843516243925322 ], [ 128.286357028083813, 36.845361634741366 ], [ 128.282459422038528, 36.856488550901517 ], [ 128.276188748718141, 36.857143356463098 ], [ 128.268571209481365, 36.860320541062464 ], [ 128.265021981058027, 36.864140890974056 ], [ 128.251967769885056, 36.867016877964147 ], [ 128.241880144823739, 36.872251329181097 ], [ 128.243098848194592, 36.879060778546318 ], [ 128.250926335838869, 36.884749328012589 ], [ 128.243773025111835, 36.89093440559337 ], [ 128.245985109932491, 36.906303498140979 ], [ 128.236679559901319, 36.916655293544459 ], [ 128.23612778601651, 36.931865457114547 ], [ 128.236635556800849, 36.933984885146643 ], [ 128.241466729058317, 36.937576296681407 ], [ 128.247039188178803, 36.937856760274244 ], [ 128.244845546264742, 36.941861836005607 ], [ 128.247527360708915, 36.944753470780988 ], [ 128.251044467484093, 36.942073161433058 ], [ 128.250246369460626, 36.936320222036628 ], [ 128.253274521178497, 36.93405033557498 ], [ 128.265461705505999, 36.93260295138677 ], [ 128.272460543359642, 36.933128229808666 ], [ 128.273280668093662, 36.934400438477248 ], [ 128.273455587746554, 36.933331576291025 ], [ 128.280347389345422, 36.932906253833707 ], [ 128.285161073368499, 36.930211402941104 ], [ 128.285702624641829, 36.926609019970648 ], [ 128.288470684974527, 36.925218965708808 ], [ 128.291873182425945, 36.926643105153474 ], [ 128.304618853011789, 36.940806464581968 ], [ 128.310142389820044, 36.941367301859543 ], [ 128.317469089757424, 36.949358896186411 ], [ 128.32418377206659, 36.952040513954273 ], [ 128.325228117765676, 36.949099511112877 ], [ 128.323555696138129, 36.946383397794904 ], [ 128.324982381040428, 36.945632916099832 ], [ 128.324828883776007, 36.943392556916628 ], [ 128.32703199882323, 36.942481395454081 ], [ 128.328186611551246, 36.937353500142208 ], [ 128.335491843404213, 36.939834095702942 ], [ 128.337033096371044, 36.937301183468264 ], [ 128.341570580670577, 36.9370644860753 ] ] ] ] } }
]
}
