{
"type": "FeatureCollection",
"name": "51110",
"crs": { "type": "name", "properties": { "name": "urn:ogc:def:crs:OGC:1.3:CRS84" } },
"features": [
{ "type": "Feature", "properties": { "emd_cd": "51110101", "emd_nm": "봉의동" }, "geometry": { "type": "MultiPolygon", "coordinates": [ [ [ [ 127.727908547491865, 37.885186085403554 ], [ 127.72782183818677, 37.88744180701385 ], [ 127.726854926309827, 37.886448313181816 ], [ 127.725922896902759, 37.886167721029182 ], [ 127.727665780278912, 37.887449607699139 ], [ 127.729466901018029, 37.888002497026655 ], [ 127.734351562642914, 37.888324496558013 ], [ 127.731968670760168, 37.883898313491777 ], [ 127.727908547491865, 37.885186085403554 ] ] ] ] } },
{ "type": "Feature", "properties": { "emd_cd": "51110102", "emd_nm": "요선동" }, "geometry": { "type": "MultiPolygon", "coordinates": [ [ [ [ 127.725669900410622, 37.882792883652471 ], [ 127.727815245914869, 37.88520819307346 ], [ 127.729523231853719, 37.884650937343586 ], [ 127.72778333532294, 37.880499198553608 ], [ 127.725669900410622, 37.882792883652471 ] ] ] ] } },
{ "type": "Feature", "properties": { "emd_cd": "51110103", "emd_nm": "낙원동" }, "geometry": { "type": "MultiPolygon", "coordinates": [ [ [ [ 127.723267659383467, 37.877043261689856 ], [ 127.72135227611723, 37.87865736964217 ], [ 127.724584728543306, 37.881372717831894 ], [ 127.726630848329805, 37.880646828226944 ], [ 127.726638711644938, 37.882001893051594 ], [ 127.726704905151323, 37.880261137661087 ], [ 127.723267659383467, 37.877043261689856 ] ] ] ] } },
{ "type": "Feature", "properties": { "emd_cd": "51110104", "emd_nm": "중앙로1가" }, "geometry": { "type": "MultiPolygon", "coordinates": [ [ [ [ 127.729523231853719, 37.884650937343586 ], [ 127.730074792855802, 37.881977598458519 ], [ 127.72778333532294, 37.880499198553608 ], [ 127.729523231853719, 37.884650937343586 ] ] ] ] } },
{ "type": "Feature", "properties": { "emd_cd": "51110105", "emd_nm": "중앙로2가" }, "geometry": { "type": "MultiPolygon", "coordinates": [ [ [ [ 127.728137456561456, 37.880078769322019 ], [ 127.72338986279857, 37.877379421683976 ], [ 127.726911353389994, 37.880864736126085 ], [ 127.728137456561456, 37.880078769322019 ] ] ] ] } },
{ "type": "Feature", "properties": { "emd_cd": "51110106", "emd_nm": "중앙로3가" }, "geometry": { "type": "MultiPolygon", "coordinates": [ [ [ [ 127.717676042051423, 37.875131862479037 ], [ 127.724295135728525, 37.8776234594161 ], [ 127.725073380515767, 37.87522334086951 ], [ 127.721429284361278, 37.873668270083385 ], [ 127.717676042051423, 37.875131862479037 ] ] ] ] } },
{ "type": "Feature", "properties": { "emd_cd": "51110107", "emd_nm": "옥천동" }, "geometry": { "type": "MultiPolygon", "coordinates": [ [ [ [ 127.728694206271868, 37.880404339711767 ], [ 127.729601555516695, 37.88333045848379 ], [ 127.732926040225763, 37.885016503401395 ], [ 127.733203856967265, 37.887502680030849 ], [ 127.734351562642914, 37.888324496558013 ], [ 127.737231253835347, 37.886788609802466 ], [ 127.728694206271868, 37.880404339711767 ] ] ] ] } },
{ "type": "Feature", "properties": { "emd_cd": "51110108", "emd_nm": "조양동" }, "geometry": { "type": "MultiPolygon", "coordinates": [ [ [ [ 127.733475948062278, 37.879300844912201 ], [ 127.729419782096784, 37.877713503261454 ], [ 127.726731481381094, 37.878958248965453 ], [ 127.732151737342747, 37.88186864400636 ], [ 127.733475948062278, 37.879300844912201 ] ] ] ] } },
{ "type": "Feature", "properties": { "emd_cd": "51110109", "emd_nm": "죽림동" }, "geometry": { "type": "MultiPolygon", "coordinates": [ [ [ [ 127.728872223948386, 37.878065481304326 ], [ 127.725073380515767, 37.87522334086951 ], [ 127.72396944441401, 37.876745346654438 ], [ 127.726731481381094, 37.878958248965453 ], [ 127.728872223948386, 37.878065481304326 ] ] ] ] } },
{ "type": "Feature", "properties": { "emd_cd": "51110110", "emd_nm": "운교동" }, "geometry": { "type": "MultiPolygon", "coordinates": [ [ [ [ 127.732354746566472, 37.874371429519464 ], [ 127.732113225037224, 37.874252691269049 ], [ 127.731830774867021, 37.874323724583277 ], [ 127.732354746566472, 37.874371429519464 ] ] ], [ [ [ 127.731696296607083, 37.874352487268155 ], [ 127.72896827964702, 37.874672084168246 ], [ 127.730622115149956, 37.875838459735853 ], [ 127.729409435570147, 37.878269895980658 ], [ 127.732602506370128, 37.879591449861209 ], [ 127.734886951935536, 37.878725744426312 ], [ 127.735775228958389, 37.876623572371443 ], [ 127.731696296607083, 37.874352487268155 ] ] ] ] } },
{ "type": "Feature", "properties": { "emd_cd": "51110111", "emd_nm": "약사동" }, "geometry": { "type": "MultiPolygon", "coordinates": [ [ [ [ 127.720496140303041, 37.874456460302916 ], [ 127.721429284361278, 37.873668270083385 ], [ 127.729320063536719, 37.877603414349061 ], [ 127.730622115149956, 37.875838459735853 ], [ 127.72896827964702, 37.874672084168246 ], [ 127.729986799801154, 37.875149582507817 ], [ 127.732316121199432, 37.874392786908281 ], [ 127.733307230530386, 37.875084846260449 ], [ 127.732694149254783, 37.874462513741378 ], [ 127.732516295340062, 37.874406859958157 ], [ 127.73169153723768, 37.874330894629765 ], [ 127.730020425255248, 37.875043966456175 ], [ 127.729238936821503, 37.874572210966555 ], [ 127.728027754941934, 37.874809426263468 ], [ 127.726341947139318, 37.872844091444392 ], [ 127.722062868662135, 37.870654146324938 ], [ 127.720496140303041, 37.874456460302916 ] ], [ [ 127.727501340870418, 37.874446871477716 ], [ 127.727410859974086, 37.874379788031931 ], [ 127.727406758907989, 37.874323226322893 ], [ 127.727501340870418, 37.874446871477716 ] ] ] ] } },
{ "type": "Feature", "properties": { "emd_cd": "51110112", "emd_nm": "효자동" }, "geometry": { "type": "MultiPolygon", "coordinates": [ [ [ [ 127.720449750751015, 37.871248823912396 ], [ 127.722965484250963, 37.870929464225057 ], [ 127.728095834084101, 37.874832430161405 ], [ 127.732694149254783, 37.874462513741378 ], [ 127.741309770095398, 37.88064622843828 ], [ 127.746115847643622, 37.876131078795304 ], [ 127.745287924027906, 37.873656676324963 ], [ 127.746404682231883, 37.872126606723377 ], [ 127.752533044148038, 37.868624619510236 ], [ 127.748419113485113, 37.864536360550382 ], [ 127.747756734444295, 37.866177277304473 ], [ 127.744656792137022, 37.866008004223204 ], [ 127.741538809695115, 37.861834208807956 ], [ 127.736730209801138, 37.863906375462591 ], [ 127.735854264457359, 37.862852011871233 ], [ 127.738304068279291, 37.859856197165428 ], [ 127.734570730271614, 37.863523369312936 ], [ 127.720449750751015, 37.871248823912396 ] ] ], [ [ [ 127.727406758907989, 37.874323226322893 ], [ 127.727428936577326, 37.874393064303433 ], [ 127.727501340870418, 37.874446871477716 ], [ 127.727406758907989, 37.874323226322893 ] ] ] ] } },
{ "type": "Feature", "properties": { "emd_cd": "51110113", "emd_nm": "소양로1가" }, "geometry": { "type": "MultiPolygon", "coordinates": [ [ [ [ 127.734351562642914, 37.888324496558013 ], [ 127.724253084383292, 37.890057702817067 ], [ 127.725712501748546, 37.895210531636693 ], [ 127.735049737621907, 37.894841937561942 ], [ 127.734351562642914, 37.888324496558013 ] ] ] ] } },
{ "type": "Feature", "properties": { "emd_cd": "51110114", "emd_nm": "소양로2가" }, "geometry": { "type": "MultiPolygon", "coordinates": [ [ [ [ 127.721570714704953, 37.884503300212508 ], [ 127.724253084383292, 37.890057702817067 ], [ 127.731742269261744, 37.888418532041953 ], [ 127.727665780278912, 37.887449607699139 ], [ 127.725922896902759, 37.886167721029182 ], [ 127.72782183818677, 37.88744180701385 ], [ 127.728714867630273, 37.885785283585513 ], [ 127.725669900410622, 37.882792883652471 ], [ 127.725533274512898, 37.884002040579794 ], [ 127.721570714704953, 37.884503300212508 ] ] ] ] } },
{ "type": "Feature", "properties": { "emd_cd": "51110115", "emd_nm": "소양로3가" }, "geometry": { "type": "MultiPolygon", "coordinates": [ [ [ [ 127.722828771697195, 37.879085433754639 ], [ 127.719327737088946, 37.880720131778531 ], [ 127.722350178895155, 37.883498506733574 ], [ 127.721570714704953, 37.884503300212508 ], [ 127.725689914362846, 37.883887227657993 ], [ 127.726630848329805, 37.880646828226944 ], [ 127.724584728543306, 37.881372717831894 ], [ 127.722828771697195, 37.879085433754639 ] ] ] ] } },
{ "type": "Feature", "properties": { "emd_cd": "51110116", "emd_nm": "소양로4가" }, "geometry": { "type": "MultiPolygon", "coordinates": [ [ [ [ 127.72042964193821, 37.880297109979303 ], [ 127.722932557555822, 37.879014309651524 ], [ 127.72135227611723, 37.87865736964217 ], [ 127.722486051006328, 37.876650292956612 ], [ 127.718110030180156, 37.875265441541934 ], [ 127.717772479912028, 37.877262365344485 ], [ 127.720638214620848, 37.878782781296138 ], [ 127.72042964193821, 37.880297109979303 ] ] ] ] } },
{ "type": "Feature", "properties": { "emd_cd": "51110117", "emd_nm": "근화동" }, "geometry": { "type": "MultiPolygon", "coordinates": [ [ [ [ 127.701862990491733, 37.880309728613078 ], [ 127.705920106570503, 37.882637592044475 ], [ 127.707100987987275, 37.888415263657144 ], [ 127.705745868790103, 37.888472793346146 ], [ 127.708424777651729, 37.892162805659794 ], [ 127.724478059262552, 37.899221735759546 ], [ 127.725649460619223, 37.893171226682426 ], [ 127.72436158972647, 37.893214313696312 ], [ 127.724991205501226, 37.891218870583877 ], [ 127.721235922980568, 37.883970154613543 ], [ 127.722350178895155, 37.883498506733574 ], [ 127.719327737088946, 37.880720131778531 ], [ 127.720638214620848, 37.878782781296138 ], [ 127.717747726765509, 37.877194505225773 ], [ 127.717676042051423, 37.875131862479037 ], [ 127.720699120910396, 37.874022867352352 ], [ 127.720370105363799, 37.871157749279497 ], [ 127.712782269542544, 37.871785431632404 ], [ 127.703675494541855, 37.877198223409145 ], [ 127.701862990491733, 37.880309728613078 ] ] ] ] } },
{ "type": "Feature", "properties": { "emd_cd": "51110118", "emd_nm": "우두동" }, "geometry": { "type": "MultiPolygon", "coordinates": [ [ [ [ 127.722780801395857, 37.902024556726573 ], [ 127.725855236445511, 37.902520643576217 ], [ 127.727800610633267, 37.905839551366995 ], [ 127.732271882695542, 37.906883060164731 ], [ 127.732105818735121, 37.914630558545021 ], [ 127.728527288184509, 37.914602752420713 ], [ 127.72934326537316, 37.917141150965314 ], [ 127.737298158942565, 37.917961073269751 ], [ 127.736803224333499, 37.920880999071962 ], [ 127.745506082542505, 37.923634520941221 ], [ 127.744420936463356, 37.917516105808168 ], [ 127.746757028728652, 37.900569933630607 ], [ 127.744164019351686, 37.894443243464735 ], [ 127.725712501748546, 37.895210531636693 ], [ 127.722780801395857, 37.902024556726573 ] ] ] ] } },
{ "type": "Feature", "properties": { "emd_cd": "51110119", "emd_nm": "사농동" }, "geometry": { "type": "MultiPolygon", "coordinates": [ [ [ [ 127.711467106036181, 37.907789760390742 ], [ 127.715357809997613, 37.918446080423379 ], [ 127.718641633522083, 37.922845798658493 ], [ 127.718615783079315, 37.928771982947673 ], [ 127.722577022539625, 37.92718257326392 ], [ 127.726667726523004, 37.929536566007322 ], [ 127.72934326537316, 37.917141150965314 ], [ 127.728527288184509, 37.914602752420713 ], [ 127.732105818735121, 37.914630558545021 ], [ 127.732271882695542, 37.906883060164731 ], [ 127.727800610633267, 37.905839551366995 ], [ 127.725855236445511, 37.902520643576217 ], [ 127.722780801395857, 37.902024556726573 ], [ 127.715550898443524, 37.908975883476536 ], [ 127.711467106036181, 37.907789760390742 ] ] ] ] } },
{ "type": "Feature", "properties": { "emd_cd": "51110120", "emd_nm": "후평동" }, "geometry": { "type": "MultiPolygon", "coordinates": [ [ [ [ 127.734351562642914, 37.888324496558013 ], [ 127.735049737621907, 37.894841937561942 ], [ 127.744164019351686, 37.894443243464735 ], [ 127.745459591014978, 37.89588752498755 ], [ 127.746416969470545, 37.893747373130331 ], [ 127.751032831331628, 37.894155173325323 ], [ 127.750931386468594, 37.892839450061864 ], [ 127.754796993798664, 37.891166185575173 ], [ 127.75607931954525, 37.885448736582532 ], [ 127.754627656935241, 37.886416475900063 ], [ 127.753115170633947, 37.882947102312109 ], [ 127.755575821625129, 37.882063627781868 ], [ 127.756289044005413, 37.879464089982335 ], [ 127.764689181621009, 37.872301931066083 ], [ 127.749521034061047, 37.869893462944034 ], [ 127.745287924027906, 37.873656676324963 ], [ 127.746115847643622, 37.876131078795304 ], [ 127.740723418822697, 37.880526214879744 ], [ 127.738809485545602, 37.88642241303247 ], [ 127.734351562642914, 37.888324496558013 ] ] ] ] } },
{ "type": "Feature", "properties": { "emd_cd": "51110121", "emd_nm": "온의동" }, "geometry": { "type": "MultiPolygon", "coordinates": [ [ [ [ 127.710052211244857, 37.853120462363506 ], [ 127.709829578660049, 37.859186733663265 ], [ 127.711233564315904, 37.861885572349657 ], [ 127.709660873078363, 37.867353632206566 ], [ 127.707540896474157, 37.868552196812438 ], [ 127.710887559776197, 37.869265362820009 ], [ 127.711048079709371, 37.871595637407793 ], [ 127.71560285096227, 37.872070556049806 ], [ 127.723695809759576, 37.869397533207987 ], [ 127.720910459127367, 37.863461029566764 ], [ 127.722770200333173, 37.859814148262778 ], [ 127.720145787636568, 37.857741081449163 ], [ 127.719814779944087, 37.855000708045992 ], [ 127.716642111276286, 37.853408196447489 ], [ 127.716990463205292, 37.847001377975545 ], [ 127.714927971700988, 37.844638619897978 ], [ 127.712783857019019, 37.844397689051583 ], [ 127.714424541032201, 37.849622512392756 ], [ 127.710052211244857, 37.853120462363506 ] ] ] ] } },
{ "type": "Feature", "properties": { "emd_cd": "51110122", "emd_nm": "교동" }, "geometry": { "type": "MultiPolygon", "coordinates": [ [ [ [ 127.732151737342747, 37.88186864400636 ], [ 127.735818924888605, 37.886720669040699 ], [ 127.738809485545602, 37.88642241303247 ], [ 127.740929973549527, 37.881877074993952 ], [ 127.738874534396714, 37.878854868776948 ], [ 127.735804240968349, 37.877602018475315 ], [ 127.732151737342747, 37.88186864400636 ] ] ] ] } },
{ "type": "Feature", "properties": { "emd_cd": "51110123", "emd_nm": "퇴계동" }, "geometry": { "type": "MultiPolygon", "coordinates": [ [ [ [ 127.716430086043388, 37.852365390388201 ], [ 127.722770200333173, 37.859814148262778 ], [ 127.720910459127367, 37.863461029566764 ], [ 127.723805367845074, 37.869509377613909 ], [ 127.738304068279291, 37.859856197165428 ], [ 127.738368317777599, 37.852192954881971 ], [ 127.748466478394434, 37.850120001384106 ], [ 127.743462533932103, 37.845862476143651 ], [ 127.74516511107106, 37.843378296642967 ], [ 127.749478595161875, 37.842160459653819 ], [ 127.745829955685167, 37.840360620934717 ], [ 127.743534156068435, 37.841622793283342 ], [ 127.738897513682929, 37.84106268113036 ], [ 127.734136202756687, 37.843290037952578 ], [ 127.732138739253173, 37.846681645669932 ], [ 127.727025872027781, 37.846977568741515 ], [ 127.724565039793532, 37.849571851046129 ], [ 127.716923530444092, 37.849172011582986 ], [ 127.716430086043388, 37.852365390388201 ] ] ] ] } },
{ "type": "Feature", "properties": { "emd_cd": "51110124", "emd_nm": "석사동" }, "geometry": { "type": "MultiPolygon", "coordinates": [ [ [ [ 127.769627037512677, 37.869144974184614 ], [ 127.765152923873586, 37.864689707578002 ], [ 127.755931874775271, 37.862044611691246 ], [ 127.756067906126944, 37.860702210429167 ], [ 127.749471234265172, 37.85530272971021 ], [ 127.753499595157237, 37.850396707980593 ], [ 127.756809658159355, 37.849086030093353 ], [ 127.75843589530605, 37.844957744884375 ], [ 127.754024478138618, 37.844508767438633 ], [ 127.752186786999687, 37.842253637511128 ], [ 127.746382535673405, 37.842729395214604 ], [ 127.743678857695755, 37.846679271707245 ], [ 127.746089906342775, 37.846910546221963 ], [ 127.748466478394434, 37.850120001384106 ], [ 127.737715710269072, 37.852768133603547 ], [ 127.738412779781882, 37.859901644262514 ], [ 127.735854264457359, 37.862852011871233 ], [ 127.736730209801138, 37.863906375462591 ], [ 127.741538809695115, 37.861834208807956 ], [ 127.744656792137022, 37.866008004223204 ], [ 127.747756734444295, 37.866177277304473 ], [ 127.748419113485113, 37.864536360550382 ], [ 127.752506592613287, 37.869948694308569 ], [ 127.76098802047288, 37.871464005173372 ], [ 127.769627037512677, 37.869144974184614 ] ] ] ] } },
{ "type": "Feature", "properties": { "emd_cd": "51110125", "emd_nm": "삼천동" }, "geometry": { "type": "MultiPolygon", "coordinates": [ [ [ [ 127.712782269542544, 37.871785431632404 ], [ 127.710901430521147, 37.871413876612486 ], [ 127.710887559776197, 37.869265362820009 ], [ 127.707540896474157, 37.868552196812438 ], [ 127.709660873078363, 37.867353632206566 ], [ 127.711313814136659, 37.860285809653284 ], [ 127.709829578660049, 37.859186733663265 ], [ 127.71057259398664, 37.855141758688667 ], [ 127.70742345558844, 37.853606515626559 ], [ 127.704986655879495, 37.854559927108838 ], [ 127.702665043618424, 37.86031174154278 ], [ 127.695503114759376, 37.862510185367213 ], [ 127.695182259319765, 37.861137883326307 ], [ 127.688682117919441, 37.859755557240362 ], [ 127.690467401878024, 37.861782302038833 ], [ 127.689799285004767, 37.865238083059388 ], [ 127.680222928089179, 37.865710493469237 ], [ 127.675858115656979, 37.863042681779078 ], [ 127.679084635877601, 37.872065409288183 ], [ 127.692007217146539, 37.87455892661594 ], [ 127.701862990491733, 37.880309728613078 ], [ 127.703675494541855, 37.877198223409145 ], [ 127.712782269542544, 37.871785431632404 ] ] ] ] } },
{ "type": "Feature", "properties": { "emd_cd": "51110126", "emd_nm": "칠전동" }, "geometry": { "type": "MultiPolygon", "coordinates": [ [ [ [ 127.675719832226008, 37.841081109068426 ], [ 127.677364466856332, 37.849331464267792 ], [ 127.689523148489386, 37.847314871812905 ], [ 127.690659794200542, 37.849091966380072 ], [ 127.697387601378665, 37.847864088341645 ], [ 127.699285655489746, 37.850297247880476 ], [ 127.706149384741806, 37.849290692529216 ], [ 127.706072217364564, 37.85367654652741 ], [ 127.710457962929411, 37.855013165820772 ], [ 127.710052211244857, 37.853120462363506 ], [ 127.714424541032201, 37.849622512392756 ], [ 127.712783857019019, 37.844397689051583 ], [ 127.715804138352283, 37.845175839145348 ], [ 127.716658027857221, 37.843755406717037 ], [ 127.715421257466744, 37.835719432838559 ], [ 127.71740142192381, 37.834731742759686 ], [ 127.714369673669239, 37.834560818761545 ], [ 127.714241073056726, 37.836485523719873 ], [ 127.705329202752196, 37.836727347269822 ], [ 127.704611923376333, 37.838320943983263 ], [ 127.698982236519441, 37.83998809165346 ], [ 127.693303044411792, 37.839258733368354 ], [ 127.680620740803832, 37.842511215755891 ], [ 127.675719832226008, 37.841081109068426 ] ] ] ] } },
{ "type": "Feature", "properties": { "emd_cd": "51110127", "emd_nm": "송암동" }, "geometry": { "type": "MultiPolygon", "coordinates": [ [ [ [ 127.703464354938731, 37.857230206175153 ], [ 127.706571708518482, 37.853939934256417 ], [ 127.706149384741806, 37.849290692529216 ], [ 127.699285655489746, 37.850297247880476 ], [ 127.697387601378665, 37.847864088341645 ], [ 127.690659794200542, 37.849091966380072 ], [ 127.688285337625018, 37.847414279776139 ], [ 127.677364466856332, 37.849331464267792 ], [ 127.675308387499484, 37.853052182770426 ], [ 127.675858115656979, 37.863042681779078 ], [ 127.680222928089179, 37.865710493469237 ], [ 127.689799285004767, 37.865238083059388 ], [ 127.690467401878024, 37.861782302038833 ], [ 127.688682117919441, 37.859755557240362 ], [ 127.695182259319765, 37.861137883326307 ], [ 127.695503114759376, 37.862510185367213 ], [ 127.703218262005308, 37.859971166276416 ], [ 127.703464354938731, 37.857230206175153 ] ] ] ] } },
{ "type": "Feature", "properties": { "emd_cd": "51110128", "emd_nm": "신동" }, "geometry": { "type": "MultiPolygon", "coordinates": [ [ [ [ 127.711314410991022, 37.937979562859461 ], [ 127.713633276249709, 37.939425772659561 ], [ 127.716345711960855, 37.938702577606065 ], [ 127.722050450482598, 37.943472698588707 ], [ 127.72237087807828, 37.945829001643929 ], [ 127.726672574087615, 37.945773281002943 ], [ 127.73021325329708, 37.941563848004435 ], [ 127.737926798362778, 37.937503026311965 ], [ 127.733359564844619, 37.93394746867385 ], [ 127.739325163379064, 37.930108342237638 ], [ 127.741353608113528, 37.922134268645891 ], [ 127.736803224333499, 37.920880999071962 ], [ 127.737298158942565, 37.917961073269751 ], [ 127.728616648011624, 37.917278473287077 ], [ 127.726667726523004, 37.929536566007322 ], [ 127.722577022539625, 37.92718257326392 ], [ 127.717231818028651, 37.928900004471764 ], [ 127.711314410991022, 37.937979562859461 ] ] ] ] } },
{ "type": "Feature", "properties": { "emd_cd": "51110129", "emd_nm": "중도동" }, "geometry": { "type": "MultiPolygon", "coordinates": [ [ [ [ 127.715550898443524, 37.908975883476536 ], [ 127.720787564218853, 37.905055535319782 ], [ 127.724478059262552, 37.899221735759546 ], [ 127.708424777651729, 37.892162805659794 ], [ 127.705745868790103, 37.888472793346146 ], [ 127.707100987987275, 37.888415263657144 ], [ 127.705920106570503, 37.882637592044475 ], [ 127.694108677035416, 37.875531627874878 ], [ 127.679084635877601, 37.872065409288183 ], [ 127.680387646539486, 37.878057643727601 ], [ 127.688064621052632, 37.884529340858215 ], [ 127.689393039489957, 37.887680980627792 ], [ 127.694092623011286, 37.889685494307543 ], [ 127.694914496635789, 37.892965689290371 ], [ 127.702911669318127, 37.898874978575911 ], [ 127.711055798508241, 37.907792925214963 ], [ 127.715550898443524, 37.908975883476536 ] ] ] ] } },
{ "type": "Feature", "properties": { "emd_cd": "51110250", "emd_nm": "신북읍" }, "geometry": { "type": "MultiPolygon", "coordinates": [ [ [ [ 127.712820549080092, 37.939186801734493 ], [ 127.694780727848737, 37.954730677612631 ], [ 127.67251042057795, 37.962886485005527 ], [ 127.669149737158804, 37.966289800119725 ], [ 127.668993361869781, 37.968486597162013 ], [ 127.67645283208978, 37.969348607019846 ], [ 127.682793406125782, 37.97414915665469 ], [ 127.689779470700429, 37.971915378401654 ], [ 127.700553761634623, 37.971901219147448 ], [ 127.712799393232402, 37.976770265190758 ], [ 127.72610298850077, 37.975104555480264 ], [ 127.733561974895864, 37.980962434838119 ], [ 127.745061435431523, 37.979028738542297 ], [ 127.751221462742222, 37.976322272325575 ], [ 127.759643576530394, 37.979168861334173 ], [ 127.760501260362204, 37.987569829279622 ], [ 127.75944219693244, 37.990472597196373 ], [ 127.762164958341629, 37.997717545337181 ], [ 127.765709551689568, 37.999742228996759 ], [ 127.766553357230023, 38.004646334532119 ], [ 127.77291333296256, 38.009695285661557 ], [ 127.773296681842268, 38.013018785963766 ], [ 127.775101065063524, 38.01394327131964 ], [ 127.779155859350411, 38.013656627223476 ], [ 127.787946662330526, 37.998187808230938 ], [ 127.788205374593375, 37.994293795160345 ], [ 127.79464134563456, 37.99570609483051 ], [ 127.792455557415423, 37.98988928444146 ], [ 127.793963600963764, 37.984585528200171 ], [ 127.792442081129593, 37.975019384638763 ], [ 127.795487029951602, 37.970023075283905 ], [ 127.794230305051556, 37.96511542481025 ], [ 127.795283843204757, 37.959043706692334 ], [ 127.804605669524094, 37.956162075487107 ], [ 127.817383854087112, 37.947146036731951 ], [ 127.808483582620539, 37.942232507535486 ], [ 127.802023582596703, 37.935974301448368 ], [ 127.787546597816331, 37.928046943628544 ], [ 127.768522185049534, 37.927175289324019 ], [ 127.745492735361466, 37.921723728399257 ], [ 127.745506082542505, 37.923634520941221 ], [ 127.741353608113528, 37.922134268645891 ], [ 127.739325163379064, 37.930108342237638 ], [ 127.733656366390051, 37.933309694312214 ], [ 127.73409396697302, 37.935161285987263 ], [ 127.737926798362778, 37.937503026311965 ], [ 127.73021325329708, 37.941563848004435 ], [ 127.726672574087615, 37.945773281002943 ], [ 127.723902389667614, 37.946546078103026 ], [ 127.721644229537489, 37.94533470572874 ], [ 127.722050450482598, 37.943472698588707 ], [ 127.716345711960855, 37.938702577606065 ], [ 127.712820549080092, 37.939186801734493 ] ] ] ] } },
{ "type": "Feature", "properties": { "emd_cd": "51110310", "emd_nm": "동면" }, "geometry": { "type": "MultiPolygon", "coordinates": [ [ [ [ 127.745959152370219, 37.893897155119021 ], [ 127.746823784455117, 37.906689914755603 ], [ 127.744420936463356, 37.917516105808168 ], [ 127.745492735361466, 37.921723728399257 ], [ 127.768522185049534, 37.927175289324019 ], [ 127.787546597816331, 37.928046943628544 ], [ 127.802023582596703, 37.935974301448368 ], [ 127.808483582620539, 37.942232507535486 ], [ 127.817383854087112, 37.947146036731951 ], [ 127.823531730150918, 37.944595562172509 ], [ 127.83402715117721, 37.933515479825651 ], [ 127.845741206298342, 37.939186572246989 ], [ 127.855513659648494, 37.940298764125309 ], [ 127.879821914676114, 37.935419250445946 ], [ 127.882383648916218, 37.933445163392854 ], [ 127.885380448587526, 37.925373157034436 ], [ 127.887574601394959, 37.924367749820561 ], [ 127.887781053388267, 37.918771235878005 ], [ 127.901402040572378, 37.912464910447838 ], [ 127.899911421480709, 37.906028099247258 ], [ 127.904422067619521, 37.894052945737371 ], [ 127.91130517801534, 37.890501975336548 ], [ 127.924948842278155, 37.886884144902069 ], [ 127.926479851790361, 37.885671049750691 ], [ 127.926433370362616, 37.882165611031802 ], [ 127.930360748134476, 37.878809238531019 ], [ 127.941102223890354, 37.878731146515712 ], [ 127.945756075746758, 37.87618789517785 ], [ 127.9468055894326, 37.872109833493667 ], [ 127.956453789729252, 37.871354128913758 ], [ 127.944706783504472, 37.853061748467105 ], [ 127.942961211630731, 37.847746266109695 ], [ 127.945609132614223, 37.845795802970784 ], [ 127.946153861563474, 37.841040438630465 ], [ 127.944166073598453, 37.838292175039669 ], [ 127.936770029749027, 37.835686741981512 ], [ 127.935388518307306, 37.830144798624282 ], [ 127.932840354579199, 37.826946578725696 ], [ 127.929320933942464, 37.827684008450667 ], [ 127.925361457995052, 37.837014926175073 ], [ 127.918434395632204, 37.844216112520314 ], [ 127.905649673852395, 37.849399486118848 ], [ 127.908300202193232, 37.855437599065063 ], [ 127.896065062717128, 37.859382410764304 ], [ 127.890740323456598, 37.863126328125944 ], [ 127.880818676665797, 37.860685505530789 ], [ 127.87650324678674, 37.85648773603814 ], [ 127.87881669245813, 37.852048970146861 ], [ 127.878198686675077, 37.849459215236081 ], [ 127.872725058406687, 37.844601564318658 ], [ 127.871620545351036, 37.837417393328437 ], [ 127.854614189470055, 37.834771453012543 ], [ 127.836313931494971, 37.839990765365926 ], [ 127.832246989735324, 37.843614150059906 ], [ 127.825176993244909, 37.843675575167595 ], [ 127.82209692064319, 37.845689512446512 ], [ 127.821762615742244, 37.849818633404624 ], [ 127.810780439855819, 37.858961899291209 ], [ 127.808281179633539, 37.859165008250542 ], [ 127.807445598196651, 37.868250200483338 ], [ 127.800797069899005, 37.865233858759758 ], [ 127.796682229772131, 37.866290786955567 ], [ 127.787679865763394, 37.865062145336381 ], [ 127.781053459764934, 37.870312771316286 ], [ 127.77009035894767, 37.868887980853366 ], [ 127.764094736936727, 37.871334318635064 ], [ 127.762913835203392, 37.874697453040824 ], [ 127.752927084389896, 37.883254994350764 ], [ 127.755045115872178, 37.884956241850837 ], [ 127.754627656935241, 37.886416475900063 ], [ 127.75607931954525, 37.885448736582532 ], [ 127.754796993798664, 37.891166185575173 ], [ 127.750296603795192, 37.894430819052502 ], [ 127.745959152370219, 37.893897155119021 ] ] ] ] } },
{ "type": "Feature", "properties": { "emd_cd": "51110320", "emd_nm": "동산면" }, "geometry": { "type": "MultiPolygon", "coordinates": [ [ [ [ 127.730639815475271, 37.734790137082207 ], [ 127.725170948802742, 37.738704608250394 ], [ 127.717316356117792, 37.741384718786932 ], [ 127.71512428884057, 37.745047949190422 ], [ 127.712845788546929, 37.74436069698281 ], [ 127.711950213290734, 37.749158324299358 ], [ 127.716292104792046, 37.750529022135801 ], [ 127.712973317462172, 37.755449381270509 ], [ 127.713155071027259, 37.759512954769548 ], [ 127.715689936107054, 37.762547325339185 ], [ 127.726161339213974, 37.766571601414732 ], [ 127.724601130933507, 37.773060289607578 ], [ 127.725869110788025, 37.774218227052096 ], [ 127.720363911062108, 37.781792448731508 ], [ 127.723598383811165, 37.790482984392426 ], [ 127.728514717680397, 37.79337815407532 ], [ 127.734209670230399, 37.793092128664945 ], [ 127.744759619528594, 37.800300175208967 ], [ 127.748825225149631, 37.801357135616541 ], [ 127.745377264126986, 37.811763250354346 ], [ 127.748365958700006, 37.812959084684373 ], [ 127.757708954169289, 37.808476835313613 ], [ 127.757451092958007, 37.80688159744502 ], [ 127.759798336799022, 37.804740321914018 ], [ 127.765919690070859, 37.808414655369106 ], [ 127.766670915857702, 37.813796201138835 ], [ 127.776116818354325, 37.81543736068739 ], [ 127.779669933853683, 37.817782063042756 ], [ 127.785541123602584, 37.81627731154375 ], [ 127.786777423918522, 37.8144418660969 ], [ 127.792863581274162, 37.81578391976285 ], [ 127.799091190611037, 37.814589397241136 ], [ 127.798719344723438, 37.809956742654201 ], [ 127.80260937405842, 37.804959376052686 ], [ 127.816391907336751, 37.811156593026233 ], [ 127.825418067610585, 37.810988392856459 ], [ 127.827148697252099, 37.808633521599326 ], [ 127.824886397637883, 37.798266987631571 ], [ 127.83729701751092, 37.790399190878333 ], [ 127.843258112923905, 37.789656417189455 ], [ 127.846654230774362, 37.780792231253457 ], [ 127.851886585252856, 37.777183116158994 ], [ 127.857380782344194, 37.768547505476739 ], [ 127.854900877202326, 37.763395973497637 ], [ 127.848143997421843, 37.758425190200761 ], [ 127.840439725095422, 37.756377211909296 ], [ 127.841758067725962, 37.753852139129663 ], [ 127.845213704428986, 37.752257807450974 ], [ 127.844829712063728, 37.749506007804229 ], [ 127.835981726712603, 37.745641132038017 ], [ 127.832318295372758, 37.741334717327781 ], [ 127.825706073815056, 37.741784125604106 ], [ 127.824437341702918, 37.743970683284104 ], [ 127.816307953403211, 37.748571110884455 ], [ 127.806760197052355, 37.746339513031593 ], [ 127.806302926137064, 37.742643291112969 ], [ 127.801173073977708, 37.741145255079559 ], [ 127.801038338796218, 37.737196943908771 ], [ 127.794885194343891, 37.734993697189203 ], [ 127.787464651514128, 37.736720399113864 ], [ 127.787756738360557, 37.738852924374321 ], [ 127.781805494990365, 37.742302709516963 ], [ 127.771535097205032, 37.737729868682123 ], [ 127.759348478566878, 37.736313721505539 ], [ 127.75494088779692, 37.732446512588886 ], [ 127.751299230407568, 37.734195965438886 ], [ 127.7504311385904, 37.738439231517752 ], [ 127.746481027898824, 37.741938629627874 ], [ 127.743060902341327, 37.7416275488522 ], [ 127.730639815475271, 37.734790137082207 ] ] ] ] } },
{ "type": "Feature", "properties": { "emd_cd": "51110330", "emd_nm": "신동면" }, "geometry": { "type": "MultiPolygon", "coordinates": [ [ [ [ 127.6473016718396, 37.808946533687688 ], [ 127.649436974321389, 37.8107178622692 ], [ 127.656944243863336, 37.81083645729565 ], [ 127.668733444461807, 37.814756753850929 ], [ 127.664706479389693, 37.82388651010065 ], [ 127.67298458970302, 37.826976076300049 ], [ 127.675694365430402, 37.830384997965076 ], [ 127.675719832226008, 37.841081109068426 ], [ 127.680620740803832, 37.842511215755891 ], [ 127.693303044411792, 37.839258733368354 ], [ 127.698982236519441, 37.83998809165346 ], [ 127.704611923376333, 37.838320943983263 ], [ 127.705329202752196, 37.836727347269822 ], [ 127.714241073056726, 37.836485523719873 ], [ 127.714369673669239, 37.834560818761545 ], [ 127.716169232604528, 37.834079754057335 ], [ 127.71740142192381, 37.834731742759686 ], [ 127.715421257466744, 37.835719432838559 ], [ 127.717070688866272, 37.841196397997606 ], [ 127.715804138352283, 37.845175839145348 ], [ 127.716923530444092, 37.849172011582986 ], [ 127.722283382831137, 37.849696922158728 ], [ 127.724565039793532, 37.849571851046129 ], [ 127.727025872027781, 37.846977568741515 ], [ 127.732138739253173, 37.846681645669932 ], [ 127.734136202756687, 37.843290037952578 ], [ 127.738897513682929, 37.84106268113036 ], [ 127.749198803572995, 37.84141985426924 ], [ 127.744934180750931, 37.832226536511357 ], [ 127.746322926638555, 37.828006901415996 ], [ 127.745377264126986, 37.811763250354346 ], [ 127.749344518346035, 37.802307532380254 ], [ 127.740770395458426, 37.797790649096477 ], [ 127.738499341636881, 37.79502651194386 ], [ 127.733668282702709, 37.792974705696771 ], [ 127.73200076045265, 37.794132955620576 ], [ 127.728514717680397, 37.79337815407532 ], [ 127.723598383811165, 37.790482984392426 ], [ 127.720363911062108, 37.781792448731508 ], [ 127.725869110788025, 37.774218227052096 ], [ 127.724601130933507, 37.773060289607578 ], [ 127.726161339213974, 37.766571601414732 ], [ 127.718637485182953, 37.762691037752944 ], [ 127.715689936107054, 37.762547325339185 ], [ 127.71648513479974, 37.764236578745816 ], [ 127.713466479926851, 37.765005156449178 ], [ 127.711620140467858, 37.767416932818833 ], [ 127.701526262464711, 37.765415598816055 ], [ 127.700371809111346, 37.766901056733658 ], [ 127.701299271051923, 37.767887074636576 ], [ 127.69710063065385, 37.770009744660761 ], [ 127.695936842531466, 37.772788369439198 ], [ 127.691962401546064, 37.773098969352567 ], [ 127.68931542819422, 37.776856962911602 ], [ 127.681077706841791, 37.778136440439788 ], [ 127.681826559754384, 37.780493465090302 ], [ 127.677909127934072, 37.781053229006673 ], [ 127.672265488482125, 37.794677794601235 ], [ 127.669492687160968, 37.795226839525178 ], [ 127.668142046036621, 37.798726506294862 ], [ 127.662927292074357, 37.798919822062651 ], [ 127.662017229590717, 37.801058537165815 ], [ 127.65785558553965, 37.80164012382442 ], [ 127.655429709949189, 37.804555298725724 ], [ 127.651356813767094, 37.805595164296193 ], [ 127.6473016718396, 37.808946533687688 ] ] ] ] } },
{ "type": "Feature", "properties": { "emd_cd": "51110340", "emd_nm": "남면" }, "geometry": { "type": "MultiPolygon", "coordinates": [ [ [ [ 127.641365405347983, 37.695073773189471 ], [ 127.638322092164472, 37.698553623385457 ], [ 127.633228637348395, 37.697997200373187 ], [ 127.626009564171852, 37.69463738414219 ], [ 127.623340012957556, 37.69109001274667 ], [ 127.623017224668118, 37.681062227575758 ], [ 127.61589406391488, 37.676363526389558 ], [ 127.609456082162311, 37.675654099074698 ], [ 127.607928420414197, 37.676713859765776 ], [ 127.607917808107118, 37.687537285063108 ], [ 127.610312900607425, 37.692086498623993 ], [ 127.610482905405988, 37.698479749933284 ], [ 127.605703259484258, 37.704472766917078 ], [ 127.59436684557518, 37.704023394025491 ], [ 127.591583407209313, 37.713051965289878 ], [ 127.594649526794754, 37.719795082721696 ], [ 127.58929788826174, 37.725429746354273 ], [ 127.573664035604438, 37.732672602730148 ], [ 127.56765648590563, 37.732446870857004 ], [ 127.564260351345936, 37.727826046037094 ], [ 127.553748275614723, 37.728794375562821 ], [ 127.551228833777955, 37.727564086969764 ], [ 127.54927474876429, 37.723931419182236 ], [ 127.54017167690958, 37.719457866146385 ], [ 127.533886838209185, 37.721929144129987 ], [ 127.529622660410666, 37.726422958025701 ], [ 127.524704513760724, 37.726468256675417 ], [ 127.511861837165057, 37.715682339132798 ], [ 127.507066902363093, 37.720593990842289 ], [ 127.507111708110287, 37.731359312539034 ], [ 127.514004662561362, 37.73860306496136 ], [ 127.537619564687546, 37.751146138757065 ], [ 127.543958794413584, 37.748771241646878 ], [ 127.548231680075645, 37.7436921312826 ], [ 127.553963500807271, 37.749315690969752 ], [ 127.554556550788746, 37.753189669109709 ], [ 127.552380678630911, 37.759651787707519 ], [ 127.553363681805905, 37.763006905835013 ], [ 127.563234704630261, 37.765081445411987 ], [ 127.564500249528678, 37.778627735200267 ], [ 127.572673555392498, 37.78274230722019 ], [ 127.585056434839331, 37.779756893306597 ], [ 127.586611131412141, 37.782666142879137 ], [ 127.592930359849007, 37.787273885115582 ], [ 127.60383410721721, 37.782414052584279 ], [ 127.611876880960537, 37.780702923480426 ], [ 127.612686235347795, 37.77796109607965 ], [ 127.610561549660432, 37.767026769381346 ], [ 127.616991769491904, 37.767893479146053 ], [ 127.619113307559815, 37.765752060723194 ], [ 127.630970787305841, 37.761169233085106 ], [ 127.63134309476024, 37.758535376014152 ], [ 127.637803858803281, 37.755094163305394 ], [ 127.656249039134337, 37.763123381426773 ], [ 127.666234198908725, 37.763192573908547 ], [ 127.671364695127366, 37.75996428558873 ], [ 127.664702051600869, 37.753312507968381 ], [ 127.662285589940325, 37.752921915886731 ], [ 127.661251603501611, 37.750032637984724 ], [ 127.663444268094992, 37.744656429790197 ], [ 127.659896377724067, 37.739317252950833 ], [ 127.661100322263977, 37.736376524971973 ], [ 127.659273798529696, 37.731310177604783 ], [ 127.653928548165936, 37.730606895414226 ], [ 127.650298324073418, 37.72709322717656 ], [ 127.642646791382319, 37.724394108466093 ], [ 127.642934256832973, 37.720498655436707 ], [ 127.645756402191452, 37.71809370368257 ], [ 127.643492739729993, 37.714814749960503 ], [ 127.650720403640889, 37.710751823212426 ], [ 127.649074609926018, 37.707022219245815 ], [ 127.646287396995305, 37.706156325334895 ], [ 127.644677431817087, 37.703291402135477 ], [ 127.644217842713672, 37.699679633962177 ], [ 127.645998469843065, 37.697656292899005 ], [ 127.641365405347983, 37.695073773189471 ] ] ] ] } },
{ "type": "Feature", "properties": { "emd_cd": "51110350", "emd_nm": "서면" }, "geometry": { "type": "MultiPolygon", "coordinates": [ [ [ [ 127.712820549080092, 37.939186801734493 ], [ 127.711314410991022, 37.937979562859461 ], [ 127.717231818028651, 37.928900004471764 ], [ 127.718615783079315, 37.928771982947673 ], [ 127.718641633522083, 37.922845798658493 ], [ 127.715357809997613, 37.918446080423379 ], [ 127.711467106036181, 37.907789760390742 ], [ 127.694914496635789, 37.892965689290371 ], [ 127.694092623011286, 37.889685494307543 ], [ 127.689393039489957, 37.887680980627792 ], [ 127.688064621052632, 37.884529340858215 ], [ 127.680387646539486, 37.878057643727601 ], [ 127.675306332490464, 37.860293118869798 ], [ 127.675308387499484, 37.853052182770426 ], [ 127.677364466856332, 37.849331464267792 ], [ 127.675479809319881, 37.839784178296512 ], [ 127.675694365430402, 37.830384997965076 ], [ 127.67298458970302, 37.826976076300049 ], [ 127.664934605419589, 37.823895640287539 ], [ 127.648216572631995, 37.82175351838216 ], [ 127.634236806210467, 37.816985177869768 ], [ 127.614180543329496, 37.829144623653718 ], [ 127.580123849930345, 37.834805797611899 ], [ 127.549640870404602, 37.846500340680329 ], [ 127.550457080193596, 37.852050477805157 ], [ 127.557452184895851, 37.856277981378206 ], [ 127.563238807646812, 37.855879471806986 ], [ 127.563876977798344, 37.858029998511142 ], [ 127.566837441921166, 37.859222758083888 ], [ 127.565886759889679, 37.861236505889217 ], [ 127.568595169643629, 37.866972754627767 ], [ 127.574576912856443, 37.87235053258776 ], [ 127.584563977644379, 37.87629944038224 ], [ 127.603211768151411, 37.874200701735269 ], [ 127.605849104513581, 37.876492220556543 ], [ 127.609060981142136, 37.883567380055126 ], [ 127.607368247913939, 37.889709766343024 ], [ 127.617141026792325, 37.906361833049843 ], [ 127.616583547337129, 37.911904919663677 ], [ 127.612070174143909, 37.922794231061303 ], [ 127.616583729680542, 37.928265569977569 ], [ 127.612671532648875, 37.940475867913882 ], [ 127.60252049330056, 37.946333434789615 ], [ 127.602444420600591, 37.954998467499976 ], [ 127.60508762983801, 37.964726558432162 ], [ 127.60730194054085, 37.966267931370496 ], [ 127.617353702314603, 37.971054174388016 ], [ 127.637999910150398, 37.974797089719935 ], [ 127.6430652769848, 37.979325799682442 ], [ 127.62705743124863, 37.987619171136792 ], [ 127.630063400232373, 37.99219454542655 ], [ 127.644986002047688, 37.990766806400472 ], [ 127.651739072868651, 37.984051045641124 ], [ 127.668921694058284, 37.980132078504013 ], [ 127.674398127290132, 37.977406185980222 ], [ 127.676092587804206, 37.972913028594675 ], [ 127.668242451005341, 37.968400755008858 ], [ 127.67251042057795, 37.962886485005527 ], [ 127.694780727848737, 37.954730677612631 ], [ 127.712820549080092, 37.939186801734493 ] ] ] ] } },
{ "type": "Feature", "properties": { "emd_cd": "51110360", "emd_nm": "사북면" }, "geometry": { "type": "MultiPolygon", "coordinates": [ [ [ [ 127.540081986996668, 38.000589190145035 ], [ 127.544760315988029, 38.019527514861167 ], [ 127.563854595271167, 38.021990894179872 ], [ 127.566870155491429, 38.031933944007363 ], [ 127.578564095832789, 38.03977994911012 ], [ 127.573896218349972, 38.047129342738849 ], [ 127.574027146310328, 38.05092362560422 ], [ 127.579569111821087, 38.055767947875083 ], [ 127.576904999844388, 38.057658407386178 ], [ 127.576536968072901, 38.061994283770282 ], [ 127.569734748559767, 38.066698218128202 ], [ 127.566595700184507, 38.066441845614733 ], [ 127.564172078438517, 38.071681109885496 ], [ 127.564267111539181, 38.075164885759904 ], [ 127.566696372802042, 38.079288439036219 ], [ 127.566108017441181, 38.083858543860764 ], [ 127.573494252214203, 38.085024555848761 ], [ 127.585655445667925, 38.080200938697828 ], [ 127.596837323493844, 38.079896068505839 ], [ 127.598167330201889, 38.076856748689423 ], [ 127.607761143858724, 38.071673995978493 ], [ 127.608196400099899, 38.068348784879788 ], [ 127.605401983445077, 38.061050706040234 ], [ 127.609600492619577, 38.059158118024321 ], [ 127.611671937231449, 38.055419448763431 ], [ 127.614042996876933, 38.057450748623893 ], [ 127.617253422375597, 38.057521129973175 ], [ 127.623670396064057, 38.051551210891986 ], [ 127.632892722039259, 38.050045403887687 ], [ 127.641198269108003, 38.051982621320647 ], [ 127.64537517335944, 38.056446912660157 ], [ 127.651993696896341, 38.054505831467509 ], [ 127.653319526640104, 38.050931970485983 ], [ 127.648896517016979, 38.044572691704623 ], [ 127.648104792315877, 38.033399783686519 ], [ 127.650759309798488, 38.027013563646889 ], [ 127.654122442345226, 38.023826476811493 ], [ 127.655519317244014, 38.024102257493951 ], [ 127.654911782307138, 38.027260887794888 ], [ 127.665377741491682, 38.030365938171627 ], [ 127.670936543720032, 38.03483791361873 ], [ 127.678438771191153, 38.035893438616142 ], [ 127.681584965769787, 38.0341531024741 ], [ 127.687228321070336, 38.034330929625568 ], [ 127.700219024137965, 38.0382003563711 ], [ 127.709428701529674, 38.032328579312356 ], [ 127.713577902184511, 38.023865788751436 ], [ 127.72325822613044, 38.024675508901204 ], [ 127.725388894051193, 38.025096051124692 ], [ 127.728921701791478, 38.032467186549745 ], [ 127.73208617859153, 38.033018808874395 ], [ 127.732757241575555, 38.035644036471005 ], [ 127.738024899372235, 38.038297067738604 ], [ 127.744732957914522, 38.037697010401246 ], [ 127.746738117670162, 38.039548436992995 ], [ 127.750221191229954, 38.035443648157781 ], [ 127.758295162155108, 38.034752986420102 ], [ 127.760933688769924, 38.029850964387514 ], [ 127.769582014766442, 38.028237002149055 ], [ 127.775482290924899, 38.018439142626626 ], [ 127.773344258733957, 38.014973705584829 ], [ 127.77291333296256, 38.009695285661557 ], [ 127.766553357230023, 38.004646334532119 ], [ 127.765709551689568, 37.999742228996759 ], [ 127.762164958341629, 37.997717545337181 ], [ 127.75944219693244, 37.990472597196373 ], [ 127.75987623213905, 37.979764058554025 ], [ 127.757673214480121, 37.978388061735835 ], [ 127.751221462742222, 37.976322272325575 ], [ 127.745061435431523, 37.979028738542297 ], [ 127.733561974895864, 37.980962434838119 ], [ 127.72610298850077, 37.975104555480264 ], [ 127.712799393232402, 37.976770265190758 ], [ 127.700553761634623, 37.971901219147448 ], [ 127.689779470700429, 37.971915378401654 ], [ 127.682793406125782, 37.97414915665469 ], [ 127.67645283208978, 37.969348607019846 ], [ 127.668242451005341, 37.968400755008858 ], [ 127.676092587804206, 37.972913028594675 ], [ 127.675870940585611, 37.976210424629969 ], [ 127.668921694058284, 37.980132078504013 ], [ 127.651739072868651, 37.984051045641124 ], [ 127.644986002047688, 37.990766806400472 ], [ 127.630063400232373, 37.99219454542655 ], [ 127.62705743124863, 37.987619171136792 ], [ 127.6430652769848, 37.979325799682442 ], [ 127.637999910150398, 37.974797089719935 ], [ 127.617353702314603, 37.971054174388016 ], [ 127.60730194054085, 37.966267931370496 ], [ 127.60508762983801, 37.964726558432162 ], [ 127.602444420600591, 37.954998467499976 ], [ 127.584722230817889, 37.961752241491077 ], [ 127.579341322969313, 37.961142753546085 ], [ 127.571330279904004, 37.963999387877095 ], [ 127.559839717362593, 37.962882592735227 ], [ 127.545224972575866, 37.96773167616243 ], [ 127.544244887593877, 37.974110752894127 ], [ 127.54716549850626, 37.978281310523684 ], [ 127.540081986996668, 38.000589190145035 ] ] ] ] } },
{ "type": "Feature", "properties": { "emd_cd": "51110380", "emd_nm": "북산면" }, "geometry": { "type": "MultiPolygon", "coordinates": [ [ [ [ 127.977564610089999, 37.957111370509004 ], [ 127.987284325552551, 37.951815322651562 ], [ 127.989640645069315, 37.945207450465197 ], [ 127.996351641282573, 37.940690683049858 ], [ 127.99604041811223, 37.935830158269319 ], [ 127.988507036110448, 37.925808619793749 ], [ 127.983831065696918, 37.923413285007015 ], [ 127.985594645567545, 37.916273357110008 ], [ 127.984841833819218, 37.913690681517942 ], [ 127.987328253502824, 37.911791166262887 ], [ 127.982728476736909, 37.910314960957578 ], [ 127.971209780368397, 37.898629096932822 ], [ 127.970089035682136, 37.892677659099 ], [ 127.973143322843569, 37.887028073119815 ], [ 127.9727561560467, 37.882505693866889 ], [ 127.957532196291481, 37.873780096690083 ], [ 127.956453789729252, 37.871354128913758 ], [ 127.948721455942191, 37.87146198707061 ], [ 127.9468055894326, 37.872109833493667 ], [ 127.945756075746758, 37.87618789517785 ], [ 127.941102223890354, 37.878731146515712 ], [ 127.930360748134476, 37.878809238531019 ], [ 127.926433370362616, 37.882165611031802 ], [ 127.926479851790361, 37.885671049750691 ], [ 127.923187218523992, 37.887905204085442 ], [ 127.91130517801534, 37.890501975336548 ], [ 127.904422067619521, 37.894052945737371 ], [ 127.899911421480709, 37.906028099247258 ], [ 127.901402040572378, 37.912464910447838 ], [ 127.887781053388267, 37.918771235878005 ], [ 127.887574601394959, 37.924367749820561 ], [ 127.885380448587526, 37.925373157034436 ], [ 127.882383648916218, 37.933445163392854 ], [ 127.879821914676114, 37.935419250445946 ], [ 127.855513659648494, 37.940298764125309 ], [ 127.845741206298342, 37.939186572246989 ], [ 127.835128121601471, 37.933471667438766 ], [ 127.832692300375015, 37.93387711704451 ], [ 127.823531730150918, 37.944595562172509 ], [ 127.811101003929451, 37.950490521811979 ], [ 127.804605669524094, 37.956162075487107 ], [ 127.795283843204757, 37.959043706692334 ], [ 127.794230305051556, 37.96511542481025 ], [ 127.795487029951602, 37.970023075283905 ], [ 127.792442081129593, 37.975019384638763 ], [ 127.793963600963764, 37.984585528200171 ], [ 127.792455557415423, 37.98988928444146 ], [ 127.79464134563456, 37.99570609483051 ], [ 127.803165457426488, 38.000502023464726 ], [ 127.808108791110726, 38.000738269550389 ], [ 127.81323490343452, 38.00366669067779 ], [ 127.820311733149396, 38.003884758793419 ], [ 127.827197153664656, 38.000752095333695 ], [ 127.831844770086306, 38.004356932031257 ], [ 127.832165352964651, 38.006992911721142 ], [ 127.837090437153051, 38.013069139312286 ], [ 127.839777579588301, 38.014505521237396 ], [ 127.84740055712706, 38.014316466684754 ], [ 127.84984785838644, 38.01670856136154 ], [ 127.858070778566187, 38.018801369527168 ], [ 127.854150112326792, 38.025261536382395 ], [ 127.855593330953681, 38.028623106279333 ], [ 127.850814419948577, 38.030849595501209 ], [ 127.849237519433885, 38.036257602248448 ], [ 127.851803963997924, 38.042165694197294 ], [ 127.851252278052058, 38.0455398984734 ], [ 127.855211105735663, 38.052302775966204 ], [ 127.859183973570111, 38.049971193127206 ], [ 127.867297263395741, 38.050239041295669 ], [ 127.879048358201999, 38.047337425820643 ], [ 127.888273771929576, 38.050170511101598 ], [ 127.902669004168843, 38.050650701431756 ], [ 127.90403609661638, 38.046165046935684 ], [ 127.901861010780664, 38.038225051640367 ], [ 127.904066109961761, 38.030330721803985 ], [ 127.913379330486279, 38.022860897292567 ], [ 127.931366353111528, 38.017893974223831 ], [ 127.934412916274241, 38.015568060023298 ], [ 127.934339276695397, 38.013853006258792 ], [ 127.940428764410385, 38.015050879315424 ], [ 127.944926603031377, 38.0183748920185 ], [ 127.947143471925571, 38.022579470270301 ], [ 127.947011980266893, 38.031329554770259 ], [ 127.951751100915644, 38.038200688547008 ], [ 127.955426801187031, 38.038680841779055 ], [ 127.966108030271556, 38.032052993174545 ], [ 127.977783675536472, 38.029570692799915 ], [ 127.986857174047472, 38.025512594283981 ], [ 127.987130048737555, 38.020097757330902 ], [ 127.983973473440926, 38.014518656716071 ], [ 127.983820363955772, 38.010296826358072 ], [ 127.989380226960634, 38.003796784401509 ], [ 127.993313769867356, 38.001601967306293 ], [ 127.997973758462734, 38.002734234778217 ], [ 128.007735192933495, 38.015737858555696 ], [ 128.012957028579308, 38.019008892491144 ], [ 128.024941897878051, 38.019525566583575 ], [ 128.029607920342158, 38.014650907994437 ], [ 128.024416319634213, 38.011085058580477 ], [ 128.024225986601493, 38.008583135463901 ], [ 128.019587545006999, 38.007365890962085 ], [ 128.018781806492115, 38.000569547771676 ], [ 128.015300213085283, 37.996641408477728 ], [ 128.006635606914472, 37.996445719008463 ], [ 128.003430305960535, 37.995633170144636 ], [ 127.997321801113884, 37.990504078003063 ], [ 127.991564296537589, 37.991041254924518 ], [ 127.988057922478589, 37.988802572639642 ], [ 127.983635069036183, 37.989078864090395 ], [ 127.984165206690164, 37.986713398011737 ], [ 127.981792543060052, 37.983500237633756 ], [ 127.984754159915965, 37.980039397649463 ], [ 127.984863800640639, 37.975303514274863 ], [ 127.982367002321951, 37.971985792422004 ], [ 127.984025550013953, 37.970405441112753 ], [ 127.984499134502613, 37.965995048426713 ], [ 127.981628473173231, 37.960638556622527 ], [ 127.977564610089999, 37.957111370509004 ] ] ] ] } },
{ "type": "Feature", "properties": { "emd_cd": "51110390", "emd_nm": "동내면" }, "geometry": { "type": "MultiPolygon", "coordinates": [ [ [ [ 127.749478595161875, 37.842160459653819 ], [ 127.758988664768452, 37.845330516700237 ], [ 127.756809658159355, 37.849086030093353 ], [ 127.753499595157237, 37.850396707980593 ], [ 127.749471234265172, 37.85530272971021 ], [ 127.756067906126944, 37.860702210429167 ], [ 127.755931874775271, 37.862044611691246 ], [ 127.765152923873586, 37.864689707578002 ], [ 127.768750010422536, 37.868794810067399 ], [ 127.781053459764934, 37.870312771316286 ], [ 127.787679865763394, 37.865062145336381 ], [ 127.796682229772131, 37.866290786955567 ], [ 127.800797069899005, 37.865233858759758 ], [ 127.807445598196651, 37.868250200483338 ], [ 127.808281179633539, 37.859165008250542 ], [ 127.810780439855819, 37.858961899291209 ], [ 127.821762615742244, 37.849818633404624 ], [ 127.82209692064319, 37.845689512446512 ], [ 127.819270980081612, 37.84369875067955 ], [ 127.819371964528244, 37.842150227271993 ], [ 127.815441903614499, 37.841004685656991 ], [ 127.813560916855081, 37.833672721898409 ], [ 127.818400828634381, 37.829378490299462 ], [ 127.817199924794394, 37.828223015493634 ], [ 127.821995276829739, 37.824624602355527 ], [ 127.825537633404466, 37.824352858247515 ], [ 127.827588834726726, 37.82046945547939 ], [ 127.82500395052918, 37.815695336634306 ], [ 127.825418067610585, 37.810988392856459 ], [ 127.816391907336751, 37.811156593026233 ], [ 127.80260937405842, 37.804959376052686 ], [ 127.798719344723438, 37.809956742654201 ], [ 127.799091190611037, 37.814589397241136 ], [ 127.792863581274162, 37.81578391976285 ], [ 127.786777423918522, 37.8144418660969 ], [ 127.785541123602584, 37.81627731154375 ], [ 127.779669933853683, 37.817782063042756 ], [ 127.776116818354325, 37.81543736068739 ], [ 127.766670915857702, 37.813796201138835 ], [ 127.765919690070859, 37.808414655369106 ], [ 127.759798336799022, 37.804740321914018 ], [ 127.757451092958007, 37.80688159744502 ], [ 127.757708954169289, 37.808476835313613 ], [ 127.753510215169314, 37.809860091939491 ], [ 127.751034833698782, 37.812728721460616 ], [ 127.745505475832658, 37.812177698214548 ], [ 127.746322926638555, 37.828006901415996 ], [ 127.745069267803331, 37.834257494146939 ], [ 127.749478595161875, 37.842160459653819 ] ] ] ] } },
{ "type": "Feature", "properties": { "emd_cd": "51110400", "emd_nm": "남산면" }, "geometry": { "type": "MultiPolygon", "coordinates": [ [ [ [ 127.52070221175758, 37.792745161207208 ], [ 127.5372422825467, 37.810742396073948 ], [ 127.534828066226623, 37.817912639238514 ], [ 127.525638681257931, 37.822872439784433 ], [ 127.5248022998435, 37.82967181689591 ], [ 127.529442673529999, 37.839723081350989 ], [ 127.540458380524981, 37.846552395476735 ], [ 127.549640870404602, 37.846500340680329 ], [ 127.575398023987105, 37.836415989183848 ], [ 127.591482541995305, 37.831945441164926 ], [ 127.614180543329496, 37.829144623653718 ], [ 127.634236806210467, 37.816985177869768 ], [ 127.653849786501809, 37.823142429104081 ], [ 127.664624803499137, 37.824078076028187 ], [ 127.668733444461807, 37.814756753850929 ], [ 127.656944243863336, 37.81083645729565 ], [ 127.649436974321389, 37.8107178622692 ], [ 127.647722968143867, 37.808235267160605 ], [ 127.654942551251935, 37.804875302784609 ], [ 127.65785558553965, 37.80164012382442 ], [ 127.662017229590717, 37.801058537165815 ], [ 127.662927292074357, 37.798919822062651 ], [ 127.668142046036621, 37.798726506294862 ], [ 127.669492687160968, 37.795226839525178 ], [ 127.672265488482125, 37.794677794601235 ], [ 127.677909127934072, 37.781053229006673 ], [ 127.681826559754384, 37.780493465090302 ], [ 127.681077706841791, 37.778136440439788 ], [ 127.68931542819422, 37.776856962911602 ], [ 127.691962401546064, 37.773098969352567 ], [ 127.695936842531466, 37.772788369439198 ], [ 127.69710063065385, 37.770009744660761 ], [ 127.701299271051923, 37.767887074636576 ], [ 127.700371809111346, 37.766901056733658 ], [ 127.701526262464711, 37.765415598816055 ], [ 127.711620140467858, 37.767416932818833 ], [ 127.713466479926851, 37.765005156449178 ], [ 127.71648513479974, 37.764236578745816 ], [ 127.713155071027259, 37.759512954769548 ], [ 127.712973317462172, 37.755449381270509 ], [ 127.716292104792046, 37.750529022135801 ], [ 127.711950213290734, 37.749158324299358 ], [ 127.712845788546929, 37.74436069698281 ], [ 127.71512428884057, 37.745047949190422 ], [ 127.717316356117792, 37.741384718786932 ], [ 127.725170948802742, 37.738704608250394 ], [ 127.730639815475271, 37.734790137082207 ], [ 127.727310218814111, 37.732100732457397 ], [ 127.721714738022655, 37.733350090987997 ], [ 127.715094193562862, 37.727813750247947 ], [ 127.711756660832847, 37.727550034404125 ], [ 127.707543941854297, 37.721213823755704 ], [ 127.7009964427059, 37.719095702454645 ], [ 127.700985294766525, 37.716544381946676 ], [ 127.687295745399254, 37.716246186332235 ], [ 127.683212005081458, 37.712477933115714 ], [ 127.679429476604795, 37.711378220539665 ], [ 127.680429197804642, 37.707969947508026 ], [ 127.684098683304939, 37.707356972933823 ], [ 127.682631432872242, 37.705272620433199 ], [ 127.684054788778582, 37.701840585841779 ], [ 127.682293241191701, 37.698444972324232 ], [ 127.677834467293621, 37.695136482373968 ], [ 127.671414373883323, 37.696959374982804 ], [ 127.670288304164046, 37.695397063005473 ], [ 127.658326111479838, 37.69980401662113 ], [ 127.652695891539977, 37.69928757929523 ], [ 127.650949374549171, 37.698022874986613 ], [ 127.651507115682762, 37.683608174445737 ], [ 127.649478127827052, 37.680002774761299 ], [ 127.645224607953281, 37.678628069653342 ], [ 127.64258456331406, 37.680091061348591 ], [ 127.641279907397234, 37.683723901133497 ], [ 127.641365405347983, 37.695073773189471 ], [ 127.645998469843065, 37.697656292899005 ], [ 127.644217842713672, 37.699679633962177 ], [ 127.644677431817087, 37.703291402135477 ], [ 127.646287396995305, 37.706156325334895 ], [ 127.649074609926018, 37.707022219245815 ], [ 127.650720403640889, 37.710751823212426 ], [ 127.643492739729993, 37.714814749960503 ], [ 127.645756402191452, 37.71809370368257 ], [ 127.642934256832973, 37.720498655436707 ], [ 127.642646791382319, 37.724394108466093 ], [ 127.650298324073418, 37.72709322717656 ], [ 127.653928548165936, 37.730606895414226 ], [ 127.659273798529696, 37.731310177604783 ], [ 127.661100322263977, 37.736376524971973 ], [ 127.659896377724067, 37.739317252950833 ], [ 127.663444268094992, 37.744656429790197 ], [ 127.661251603501611, 37.750032637984724 ], [ 127.662285589940325, 37.752921915886731 ], [ 127.664702051600869, 37.753312507968381 ], [ 127.671364695127366, 37.75996428558873 ], [ 127.669367697012845, 37.76187418544685 ], [ 127.666234198908725, 37.763192573908547 ], [ 127.656249039134337, 37.763123381426773 ], [ 127.637803858803281, 37.755094163305394 ], [ 127.63134309476024, 37.758535376014152 ], [ 127.630970787305841, 37.761169233085106 ], [ 127.619113307559815, 37.765752060723194 ], [ 127.616991769491904, 37.767893479146053 ], [ 127.610561549660432, 37.767026769381346 ], [ 127.612686235347795, 37.77796109607965 ], [ 127.611876880960537, 37.780702923480426 ], [ 127.60383410721721, 37.782414052584279 ], [ 127.592930359849007, 37.787273885115582 ], [ 127.586611131412141, 37.782666142879137 ], [ 127.585056434839331, 37.779756893306597 ], [ 127.572673555392498, 37.78274230722019 ], [ 127.564500249528678, 37.778627735200267 ], [ 127.563234704630261, 37.765081445411987 ], [ 127.553363681805905, 37.763006905835013 ], [ 127.552380678630911, 37.759651787707519 ], [ 127.554556550788746, 37.753189669109709 ], [ 127.553963500807271, 37.749315690969752 ], [ 127.548231680075645, 37.7436921312826 ], [ 127.543958794413584, 37.748771241646878 ], [ 127.537619564687546, 37.751146138757065 ], [ 127.541973565818438, 37.754866530388249 ], [ 127.544767870076029, 37.760276667741785 ], [ 127.542989715922928, 37.767403998314727 ], [ 127.537473031973107, 37.774721464366813 ], [ 127.522145864583862, 37.789149652484966 ], [ 127.52070221175758, 37.792745161207208 ] ] ] ] } }
]
}
