{
"type": "FeatureCollection",
"name": "51130",
"crs": { "type": "name", "properties": { "name": "urn:ogc:def:crs:OGC:1.3:CRS84" } },
"features": [
{ "type": "Feature", "properties": { "emd_cd": "51130101", "emd_nm": "중앙동" }, "geometry": { "type": "MultiPolygon", "coordinates": [ [ [ [ 127.947139683710873, 37.351811996124418 ], [ 127.949098483419405, 37.352793490837982 ], [ 127.954267587875904, 37.347414035247837 ], [ 127.952746290577565, 37.346614612465068 ], [ 127.947139683710873, 37.351811996124418 ] ] ] ] } },
{ "type": "Feature", "properties": { "emd_cd": "51130102", "emd_nm": "평원동" }, "geometry": { "type": "MultiPolygon", "coordinates": [ [ [ [ 127.949098483419405, 37.352793490837982 ], [ 127.954083247296268, 37.352097148071813 ], [ 127.955366083608766, 37.347511833115576 ], [ 127.954267587875904, 37.347414035247837 ], [ 127.949098483419405, 37.352793490837982 ] ] ] ] } },
{ "type": "Feature", "properties": { "emd_cd": "51130103", "emd_nm": "원동" }, "geometry": { "type": "MultiPolygon", "coordinates": [ [ [ [ 127.941157648300219, 37.342218141802235 ], [ 127.944468846542605, 37.34519632873387 ], [ 127.951394288505156, 37.347858191817039 ], [ 127.954509386260455, 37.344405314696807 ], [ 127.949923533595452, 37.343691940524899 ], [ 127.947284775190468, 37.340727696717451 ], [ 127.941157648300219, 37.342218141802235 ] ] ] ] } },
{ "type": "Feature", "properties": { "emd_cd": "51130104", "emd_nm": "인동" }, "geometry": { "type": "MultiPolygon", "coordinates": [ [ [ [ 127.952746290577565, 37.346614612465068 ], [ 127.955366083608766, 37.347511833115576 ], [ 127.956335001734516, 37.345572358841252 ], [ 127.954815014872494, 37.344176370494175 ], [ 127.952746290577565, 37.346614612465068 ] ] ] ] } },
{ "type": "Feature", "properties": { "emd_cd": "51130105", "emd_nm": "개운동" }, "geometry": { "type": "MultiPolygon", "coordinates": [ [ [ [ 127.947266882247604, 37.332417762555131 ], [ 127.954249607287039, 37.341212271652559 ], [ 127.955255621778235, 37.345736405376378 ], [ 127.965570791758267, 37.339811230974696 ], [ 127.964383077090773, 37.339985424202126 ], [ 127.9649879296107, 37.337671641571639 ], [ 127.962372270795697, 37.338146364172559 ], [ 127.96123856506486, 37.336559840534953 ], [ 127.959150227944349, 37.33790970580695 ], [ 127.956083029985876, 37.337379437953594 ], [ 127.950836864160124, 37.32995667406626 ], [ 127.947266882247604, 37.332417762555131 ] ] ] ] } },
{ "type": "Feature", "properties": { "emd_cd": "51130106", "emd_nm": "명륜동" }, "geometry": { "type": "MultiPolygon", "coordinates": [ [ [ [ 127.935455767691451, 37.326357801882459 ], [ 127.937987670033877, 37.32877749957126 ], [ 127.937832815923699, 37.336707855904557 ], [ 127.939447758002572, 37.338662109137587 ], [ 127.937959085146986, 37.339936335134482 ], [ 127.94133692341461, 37.342146125116699 ], [ 127.947284775190468, 37.340727696717451 ], [ 127.949923533595452, 37.343691940524899 ], [ 127.954785689823908, 37.34429994327229 ], [ 127.954249607287039, 37.341212271652566 ], [ 127.939858868977083, 37.322204883592271 ], [ 127.935455767691451, 37.326357801882459 ] ] ] ] } },
{ "type": "Feature", "properties": { "emd_cd": "51130107", "emd_nm": "단구동" }, "geometry": { "type": "MultiPolygon", "coordinates": [ [ [ [ 127.9649879296107, 37.337671641571646 ], [ 127.961700645894027, 37.333509022318289 ], [ 127.963850503789487, 37.326741996541351 ], [ 127.967162903894334, 37.324613924199035 ], [ 127.969026368738497, 37.319588952013802 ], [ 127.973059140523617, 37.31581343953183 ], [ 127.970708628389445, 37.315530413439198 ], [ 127.961328494697327, 37.323613379543801 ], [ 127.957457396914521, 37.315140333000272 ], [ 127.960444202727132, 37.313874228099081 ], [ 127.959060774674498, 37.31213840322922 ], [ 127.954107647668934, 37.309782570783298 ], [ 127.948794813241562, 37.311234698589558 ], [ 127.948604055889604, 37.315012222246324 ], [ 127.94600427736404, 37.316144936436558 ], [ 127.947112812378464, 37.318895864531477 ], [ 127.949030811863878, 37.317892266684382 ], [ 127.952751468025809, 37.319064602430103 ], [ 127.93994222911833, 37.32263940257738 ], [ 127.940824226356909, 37.324786229682722 ], [ 127.947163168051844, 37.332190172069069 ], [ 127.950836864160124, 37.32995667406626 ], [ 127.956083029985876, 37.337379437953579 ], [ 127.9649879296107, 37.337671641571646 ] ], [ [ 127.963637356138932, 37.336310586807997 ], [ 127.963508519084954, 37.336239969705339 ], [ 127.9635355749854, 37.336180473559502 ], [ 127.963637356138932, 37.336310586807997 ] ] ] ] } },
{ "type": "Feature", "properties": { "emd_cd": "51130108", "emd_nm": "일산동" }, "geometry": { "type": "MultiPolygon", "coordinates": [ [ [ [ 127.937008226851034, 37.350362950726982 ], [ 127.938223275191774, 37.352366660337381 ], [ 127.942160150571453, 37.351339421696196 ], [ 127.946311171128272, 37.352784269299264 ], [ 127.951394288505156, 37.347858191817039 ], [ 127.944468846542605, 37.34519632873387 ], [ 127.941157648300219, 37.342218141802235 ], [ 127.937008226851034, 37.350362950726982 ] ] ] ] } },
{ "type": "Feature", "properties": { "emd_cd": "51130109", "emd_nm": "학성동" }, "geometry": { "type": "MultiPolygon", "coordinates": [ [ [ [ 127.935192934819199, 37.355607519541969 ], [ 127.941004643335859, 37.360652278304492 ], [ 127.9405311714156, 37.365441193365477 ], [ 127.943486664667432, 37.367616821951195 ], [ 127.945250439990716, 37.378249650560754 ], [ 127.948598024972682, 37.375217230018897 ], [ 127.948441797612944, 37.368126513867985 ], [ 127.954083247296239, 37.352097148071799 ], [ 127.950120859788228, 37.353313041724093 ], [ 127.942160150571453, 37.351339421696196 ], [ 127.93555248407678, 37.352227925409181 ], [ 127.935192934819199, 37.355607519541969 ] ] ] ] } },
{ "type": "Feature", "properties": { "emd_cd": "51130110", "emd_nm": "단계동" }, "geometry": { "type": "MultiPolygon", "coordinates": [ [ [ [ 127.912971241930805, 37.353065974944144 ], [ 127.916271056437608, 37.354833628402865 ], [ 127.919385509008592, 37.362158130026728 ], [ 127.922096424721147, 37.363126474453239 ], [ 127.92843074894364, 37.360796349825534 ], [ 127.936529857038011, 37.362241408833448 ], [ 127.94021485489634, 37.359246691024609 ], [ 127.935475377303248, 37.356658897602429 ], [ 127.935249596902921, 37.352755719781889 ], [ 127.938341208237077, 37.352508551283748 ], [ 127.937309704279713, 37.347569208625423 ], [ 127.94133692341461, 37.342146125116706 ], [ 127.937959085146986, 37.33993633513446 ], [ 127.938893219700503, 37.337809760211883 ], [ 127.936403620516174, 37.338207830992303 ], [ 127.934473682597442, 37.336306124091756 ], [ 127.930581692911076, 37.33802421061322 ], [ 127.929218498181413, 37.342059729302839 ], [ 127.926123133836086, 37.341997042929869 ], [ 127.924112234606625, 37.345990846003758 ], [ 127.916682334921589, 37.346614938416195 ], [ 127.915855731165024, 37.35057281825619 ], [ 127.912971241930805, 37.353065974944144 ] ] ] ] } },
{ "type": "Feature", "properties": { "emd_cd": "51130111", "emd_nm": "우산동" }, "geometry": { "type": "MultiPolygon", "coordinates": [ [ [ [ 127.921652671468678, 37.374210028745843 ], [ 127.928964295600892, 37.380072525393366 ], [ 127.930798903248373, 37.379695557820675 ], [ 127.938414519809044, 37.390025356013354 ], [ 127.941871295309994, 37.389353578990402 ], [ 127.941360177134698, 37.3837330228938 ], [ 127.944104886383286, 37.383169749029378 ], [ 127.941619027311972, 37.381678540026343 ], [ 127.945415742334788, 37.378438177939316 ], [ 127.945402176267834, 37.37676019204482 ], [ 127.943486664667432, 37.367616821951195 ], [ 127.9405311714156, 37.365441193365498 ], [ 127.940976656125557, 37.360602946246431 ], [ 127.935440829928964, 37.362592532256748 ], [ 127.92843074894364, 37.360796349825534 ], [ 127.922874517027552, 37.362386452289272 ], [ 127.92191145081226, 37.365983174694144 ], [ 127.924057620864829, 37.366333255913965 ], [ 127.924638007316446, 37.369271913636879 ], [ 127.922813748326078, 37.370238887581401 ], [ 127.921652671468678, 37.374210028745843 ] ] ] ] } },
{ "type": "Feature", "properties": { "emd_cd": "51130112", "emd_nm": "태장동" }, "geometry": { "type": "MultiPolygon", "coordinates": [ [ [ [ 127.936109379109865, 37.407677478843993 ], [ 127.939862765098866, 37.406514098849954 ], [ 127.949659513989275, 37.407467312076001 ], [ 127.955144778738315, 37.4048647093325 ], [ 127.957361088341386, 37.405487283594979 ], [ 127.960743577087371, 37.40194972438227 ], [ 127.96006380148431, 37.395238719957248 ], [ 127.964531873957711, 37.390406390325907 ], [ 127.965277153958553, 37.382487411563865 ], [ 127.976703863096503, 37.374038542000385 ], [ 127.973170806027682, 37.37055016115815 ], [ 127.970603857343548, 37.364566904305512 ], [ 127.968872150432063, 37.364142993738014 ], [ 127.972382332073039, 37.358879883889088 ], [ 127.971626994291313, 37.354508574667584 ], [ 127.968276667577825, 37.354875054267616 ], [ 127.961043415288472, 37.35137929998173 ], [ 127.957336863904743, 37.354459467693026 ], [ 127.953711647140125, 37.353337314139367 ], [ 127.948441797612944, 37.368126513867985 ], [ 127.948598024972682, 37.375217230018897 ], [ 127.941578117733556, 37.381876343111387 ], [ 127.94717883482987, 37.383367642886618 ], [ 127.950643427611681, 37.393096302724665 ], [ 127.949212650779415, 37.394528880293628 ], [ 127.943846399998748, 37.394108040223081 ], [ 127.941623113742963, 37.397655932135592 ], [ 127.93863648457237, 37.398332996796327 ], [ 127.939614782181096, 37.399535538118194 ], [ 127.936109379109865, 37.407677478843993 ] ] ] ] } },
{ "type": "Feature", "properties": { "emd_cd": "51130113", "emd_nm": "봉산동" }, "geometry": { "type": "MultiPolygon", "coordinates": [ [ [ [ 127.953711647140125, 37.353337314139345 ], [ 127.957336863904743, 37.35445946769304 ], [ 127.961043415288486, 37.351379299981758 ], [ 127.968276667577825, 37.354875054267616 ], [ 127.971626994291313, 37.354508574667584 ], [ 127.972382332073039, 37.358879883889088 ], [ 127.968872150432063, 37.364142993738014 ], [ 127.970603857343548, 37.364566904305512 ], [ 127.973170806027682, 37.370550161158164 ], [ 127.976703863096503, 37.37403854200037 ], [ 127.979729840467584, 37.37396085375574 ], [ 127.989034348322065, 37.364717796246289 ], [ 127.993846350374099, 37.367570400429031 ], [ 127.997650949566832, 37.365312584182675 ], [ 127.999703299152031, 37.358602629382233 ], [ 127.997716468124395, 37.357131583515439 ], [ 127.997406031254044, 37.35449954656368 ], [ 127.993714888358568, 37.351394666831922 ], [ 127.988733171178708, 37.350026862056268 ], [ 127.986573678882166, 37.346836513426737 ], [ 127.972706970453942, 37.34579455150088 ], [ 127.970458525177364, 37.341561205616344 ], [ 127.96558251469348, 37.339774915665522 ], [ 127.956199077299345, 37.345702117113262 ], [ 127.953711647140125, 37.353337314139345 ] ] ] ] } },
{ "type": "Feature", "properties": { "emd_cd": "51130114", "emd_nm": "행구동" }, "geometry": { "type": "MultiPolygon", "coordinates": [ [ [ [ 127.966919675090608, 37.340426905646254 ], [ 127.970458525177364, 37.341561205616372 ], [ 127.97270697045397, 37.345794551500894 ], [ 127.986573678882138, 37.346836513426709 ], [ 127.988733171178708, 37.350026862056261 ], [ 127.993714888358568, 37.351394666831936 ], [ 127.997406031254044, 37.354499546563673 ], [ 127.999725173876683, 37.359043242332945 ], [ 128.009842485816137, 37.358854500150748 ], [ 128.015297673457098, 37.360957012552269 ], [ 128.024380801189693, 37.356090496137476 ], [ 128.026775550838238, 37.349417858777812 ], [ 128.039391307130188, 37.344694684838686 ], [ 128.037746176154542, 37.337595828282325 ], [ 128.033684721666503, 37.332912223637521 ], [ 128.034358803861807, 37.331003197827854 ], [ 128.031635380236395, 37.328125828329142 ], [ 128.026541264585404, 37.328159258246721 ], [ 128.023477641210121, 37.326357026029335 ], [ 128.013655347227626, 37.330187880778475 ], [ 128.003644638768861, 37.327072423094577 ], [ 127.99881660399555, 37.331750524465981 ], [ 127.991152101799912, 37.333855883114659 ], [ 127.989356136162016, 37.335948977219282 ], [ 127.966919675090608, 37.340426905646254 ] ] ] ] } },
{ "type": "Feature", "properties": { "emd_cd": "51130115", "emd_nm": "무실동" }, "geometry": { "type": "MultiPolygon", "coordinates": [ [ [ [ 127.901671425682153, 37.317163704591856 ], [ 127.903994850188141, 37.320875602952249 ], [ 127.907131842737442, 37.321034141664924 ], [ 127.90912780468355, 37.323968953080566 ], [ 127.90608437637205, 37.328184402231742 ], [ 127.910742173454722, 37.336685839600165 ], [ 127.909238834726523, 37.340952172222238 ], [ 127.912221827284469, 37.34380029676462 ], [ 127.915538393525296, 37.344199581959423 ], [ 127.916682334921589, 37.346614938416188 ], [ 127.924112234606596, 37.345990846003765 ], [ 127.926123133836086, 37.341997042929847 ], [ 127.929218498181399, 37.342059729302839 ], [ 127.930581692911076, 37.338024210613234 ], [ 127.934473682597442, 37.336306124091728 ], [ 127.936403620516174, 37.338207830992303 ], [ 127.938893219700503, 37.337809760211897 ], [ 127.937743260799778, 37.328020797501694 ], [ 127.936065450180763, 37.328178220538277 ], [ 127.936167896075418, 37.324555633260843 ], [ 127.933643983847304, 37.320240787017482 ], [ 127.930049013547119, 37.31866441548631 ], [ 127.931368679188793, 37.315805988604382 ], [ 127.926826777050223, 37.314166567708803 ], [ 127.925818641122973, 37.310450574193567 ], [ 127.927997012857531, 37.30931766444975 ], [ 127.92652923042472, 37.30775960084398 ], [ 127.920109724392574, 37.308444005443917 ], [ 127.916918837499622, 37.311979728075016 ], [ 127.910005031838551, 37.3107175151967 ], [ 127.906632484884284, 37.315971927870201 ], [ 127.901671425682153, 37.317163704591856 ] ] ] ] } },
{ "type": "Feature", "properties": { "emd_cd": "51130116", "emd_nm": "관설동" }, "geometry": { "type": "MultiPolygon", "coordinates": [ [ [ [ 127.955754423334895, 37.309731686850419 ], [ 127.960444202727132, 37.313874228099081 ], [ 127.957457396914521, 37.315140333000265 ], [ 127.958480732035497, 37.319087152636413 ], [ 127.960638712681245, 37.322974042515568 ], [ 127.961328494697355, 37.323613379543836 ], [ 127.970708628389445, 37.315530413439198 ], [ 127.973421444722632, 37.315672306154561 ], [ 127.977024477414332, 37.312565525467917 ], [ 127.982540981671946, 37.313193890665275 ], [ 127.989493315989165, 37.311404929157533 ], [ 128.00432950548705, 37.315396382255933 ], [ 128.017278865786551, 37.310939099300924 ], [ 128.015139720701683, 37.308409945159042 ], [ 128.015373368873441, 37.302714229766892 ], [ 128.011320796622357, 37.30246627316405 ], [ 128.01296039979897, 37.296119197756681 ], [ 128.010799707985626, 37.293343033183639 ], [ 128.008344366047083, 37.295224640779423 ], [ 128.005696597333838, 37.294228192944004 ], [ 127.999772420111626, 37.296755463856698 ], [ 127.990014064582596, 37.295419789413998 ], [ 127.985659188906695, 37.298150658435837 ], [ 127.979811779665852, 37.290747671998695 ], [ 127.972732756401186, 37.295764080038246 ], [ 127.975143818907142, 37.302000284024707 ], [ 127.969786302128313, 37.300459144592786 ], [ 127.965347326195598, 37.302201494205214 ], [ 127.960716470433027, 37.299708833267104 ], [ 127.955754423334895, 37.309731686850419 ] ] ] ] } },
{ "type": "Feature", "properties": { "emd_cd": "51130117", "emd_nm": "반곡동" }, "geometry": { "type": "MultiPolygon", "coordinates": [ [ [ [ 127.961700645894027, 37.333509022318289 ], [ 127.965111818877958, 37.337962355091882 ], [ 127.964383077090773, 37.339985424202126 ], [ 127.966919675090608, 37.340426905646254 ], [ 127.989356136162016, 37.335948977219282 ], [ 127.991152101799912, 37.333855883114659 ], [ 127.99881660399555, 37.331750524465981 ], [ 128.003644638768861, 37.327072423094577 ], [ 128.013655347227626, 37.330187880778475 ], [ 128.017391705446641, 37.329449034273985 ], [ 128.021132935765593, 37.326387760230809 ], [ 128.025720190783886, 37.327127314391376 ], [ 128.021720343620728, 37.321361004902656 ], [ 128.02141879555532, 37.314513152621089 ], [ 128.015864525854312, 37.310936995397768 ], [ 128.00432950548705, 37.315396382255933 ], [ 127.989493315989165, 37.311404929157526 ], [ 127.982540981671946, 37.313193890665254 ], [ 127.977024477414332, 37.312565525467882 ], [ 127.969026368738497, 37.319588952013802 ], [ 127.967162903894334, 37.324613924199035 ], [ 127.963850503789487, 37.326741996541351 ], [ 127.961700645894027, 37.333509022318289 ] ] ], [ [ [ 127.963637356138932, 37.336310586807997 ], [ 127.963610127467703, 37.33684752808486 ], [ 127.963678995114051, 37.336841471991491 ], [ 127.963637356138932, 37.336310586807997 ] ] ] ] } },
{ "type": "Feature", "properties": { "emd_cd": "51130118", "emd_nm": "가현동" }, "geometry": { "type": "MultiPolygon", "coordinates": [ [ [ [ 127.911512736266502, 37.391466706831288 ], [ 127.92577116359486, 37.390251774794599 ], [ 127.929374413862249, 37.393595084868998 ], [ 127.930915998284377, 37.398482716095231 ], [ 127.933797378308697, 37.397913595627678 ], [ 127.933672486314038, 37.399317645024581 ], [ 127.938866396935111, 37.40030558750415 ], [ 127.93863648457237, 37.398332996796327 ], [ 127.941623113742963, 37.397655932135592 ], [ 127.943846399998748, 37.394108040223081 ], [ 127.949212650779415, 37.394528880293628 ], [ 127.950643427611681, 37.393096302724665 ], [ 127.94700284137835, 37.383176861132185 ], [ 127.941593517927899, 37.383424716283272 ], [ 127.941871295309994, 37.389353578990395 ], [ 127.938613304481052, 37.390137962571522 ], [ 127.935604989356221, 37.387816889528239 ], [ 127.936166888409289, 37.385743491806437 ], [ 127.930798903248373, 37.379695557820668 ], [ 127.928964295600892, 37.380072525393359 ], [ 127.922750252254943, 37.375072892299563 ], [ 127.921066537277994, 37.378026402957659 ], [ 127.913929220520927, 37.38165447515788 ], [ 127.914408183653222, 37.385623958162 ], [ 127.911512736266502, 37.391466706831288 ] ] ] ] } },
{ "type": "Feature", "properties": { "emd_cd": "51130250", "emd_nm": "문막읍" }, "geometry": { "type": "MultiPolygon", "coordinates": [ [ [ [ 127.761216547294495, 37.363597363107303 ], [ 127.76930899562268, 37.363145806393582 ], [ 127.773505691991687, 37.35892391877627 ], [ 127.777153727921629, 37.346524094134878 ], [ 127.787868347538307, 37.348655466207639 ], [ 127.791198888888317, 37.347833995138494 ], [ 127.79354748668537, 37.344086749928778 ], [ 127.796137533633882, 37.344666176887387 ], [ 127.801145483090949, 37.342235017647333 ], [ 127.798999815230289, 37.335625993833958 ], [ 127.800030692317193, 37.332910108861959 ], [ 127.813208976525686, 37.332328065706392 ], [ 127.837415609809398, 37.34665301650822 ], [ 127.843272628605334, 37.343432598283528 ], [ 127.847650152318323, 37.336834577168226 ], [ 127.850343341515966, 37.337606154267455 ], [ 127.852523424332901, 37.343777351154323 ], [ 127.863548427414045, 37.342662556158999 ], [ 127.860532014725237, 37.334717892185175 ], [ 127.863261117963035, 37.331958203013883 ], [ 127.860822135627714, 37.329153016013635 ], [ 127.86365736443625, 37.32604145341368 ], [ 127.860391216973099, 37.323687993004356 ], [ 127.865887584568938, 37.317297421091794 ], [ 127.864007378378275, 37.313329629840737 ], [ 127.865695195520516, 37.304635406506833 ], [ 127.860086219282223, 37.298076766262781 ], [ 127.864135054450841, 37.289670049557429 ], [ 127.861117574057218, 37.286218567053531 ], [ 127.861821041236468, 37.28375969595055 ], [ 127.859625900102529, 37.278779896654349 ], [ 127.861191474283387, 37.276655453378375 ], [ 127.863828579134662, 37.276332048527316 ], [ 127.865087089995953, 37.272590888958071 ], [ 127.862731454559096, 37.270191467954788 ], [ 127.861757135733129, 37.263710901429903 ], [ 127.864868295549684, 37.262983802049007 ], [ 127.865912485277988, 37.25907027683273 ], [ 127.871761057515528, 37.255158278530445 ], [ 127.882048017675174, 37.252311317442242 ], [ 127.884466705223048, 37.249540590143887 ], [ 127.882786896210803, 37.248024596740741 ], [ 127.885098194169245, 37.244491995325745 ], [ 127.880187400525301, 37.243376001023599 ], [ 127.869715965792508, 37.245898976614868 ], [ 127.866144094927421, 37.242470204289262 ], [ 127.863007449693455, 37.232920472537849 ], [ 127.855610772969882, 37.233915714332625 ], [ 127.850896025940372, 37.232538447205556 ], [ 127.849098375893945, 37.230065898357076 ], [ 127.850266846901405, 37.225070444077687 ], [ 127.847307713471793, 37.224881991906507 ], [ 127.848864707473979, 37.224094990063556 ], [ 127.847557822270957, 37.22346349494314 ], [ 127.847515605620345, 37.220214357454232 ], [ 127.849190949064251, 37.215680920572737 ], [ 127.841173519773193, 37.210609825617183 ], [ 127.840530965160866, 37.207642057058337 ], [ 127.838098161518943, 37.206858798925538 ], [ 127.834219326316315, 37.208560085191174 ], [ 127.836287628384312, 37.212969172329935 ], [ 127.833541959064277, 37.215626100839472 ], [ 127.834524270356496, 37.223060140890141 ], [ 127.822014399448548, 37.227080976714021 ], [ 127.819490180068101, 37.242992330745558 ], [ 127.810947007476969, 37.243524761027309 ], [ 127.806768031632757, 37.24946729150949 ], [ 127.807857832162483, 37.253888805134714 ], [ 127.803427177558234, 37.254325603231848 ], [ 127.797625917660184, 37.251317252709654 ], [ 127.795775595819975, 37.252367268165344 ], [ 127.793904451531631, 37.256991597064875 ], [ 127.79516581270984, 37.261192076649621 ], [ 127.785964714126195, 37.269111629638267 ], [ 127.787549784232056, 37.276037694689514 ], [ 127.782308060182899, 37.271669933912804 ], [ 127.771494272674744, 37.268712826945944 ], [ 127.770586197865583, 37.267067235960106 ], [ 127.764052047602249, 37.266310879253979 ], [ 127.758400885231779, 37.258706567844939 ], [ 127.757221331346997, 37.258922615205449 ], [ 127.759857133875542, 37.265266815346685 ], [ 127.760408050355821, 37.273289384526542 ], [ 127.759083952604243, 37.277045553945158 ], [ 127.756538045275136, 37.277204007679813 ], [ 127.757674553800499, 37.278802609331436 ], [ 127.753977133926355, 37.284225508922745 ], [ 127.75556478447146, 37.284977093796797 ], [ 127.750037572665647, 37.291962112324768 ], [ 127.749575426107114, 37.295302888989404 ], [ 127.750656156994097, 37.297976917553484 ], [ 127.754613558268986, 37.297741985031621 ], [ 127.76214369406064, 37.302241176435608 ], [ 127.768194954426193, 37.301519212469536 ], [ 127.768281512098909, 37.309338034442483 ], [ 127.765546697857403, 37.313016214406602 ], [ 127.765402884672582, 37.317368722358879 ], [ 127.762111400543304, 37.321240695576037 ], [ 127.762772128003846, 37.323410508879341 ], [ 127.760441060875692, 37.329303987834813 ], [ 127.758394354928001, 37.330846390166862 ], [ 127.762965906918382, 37.334427433255158 ], [ 127.757883903448786, 37.346407135570061 ], [ 127.758350912860166, 37.350788979919948 ], [ 127.760757851627929, 37.352634807824664 ], [ 127.759354184897376, 37.359727543551607 ], [ 127.761216547294495, 37.363597363107303 ] ] ] ] } },
{ "type": "Feature", "properties": { "emd_cd": "51130310", "emd_nm": "소초면" }, "geometry": { "type": "MultiPolygon", "coordinates": [ [ [ [ 127.982709798245949, 37.460190935201553 ], [ 127.994235094608555, 37.456157871664253 ], [ 128.002623400222546, 37.4568415546644 ], [ 128.007119712370553, 37.45287452150405 ], [ 128.006966586940308, 37.449791740761626 ], [ 128.012019897050834, 37.449770625139422 ], [ 128.01423937378172, 37.445245650340652 ], [ 128.027413935204237, 37.448585694046891 ], [ 128.033577861917991, 37.446371135040728 ], [ 128.038520660812338, 37.447102800729589 ], [ 128.041777281877756, 37.445576546584391 ], [ 128.042722377033414, 37.443316505876773 ], [ 128.054103335010012, 37.443362103172689 ], [ 128.05893200290015, 37.445130728727264 ], [ 128.059189546702498, 37.443116924714921 ], [ 128.062614446517614, 37.440773109304423 ], [ 128.062166711208476, 37.435765088741427 ], [ 128.067846593893165, 37.434037570478587 ], [ 128.071178699927685, 37.430848119363425 ], [ 128.084236093193795, 37.426727066344149 ], [ 128.083609482728349, 37.424422154267141 ], [ 128.086046691135891, 37.422033434655155 ], [ 128.088578198744017, 37.414292564394174 ], [ 128.091252573783294, 37.411621426180865 ], [ 128.096045665792047, 37.410242722488618 ], [ 128.097448380840547, 37.406316447414383 ], [ 128.088407009598939, 37.401278476984999 ], [ 128.0787150685386, 37.399998570508785 ], [ 128.071804192950026, 37.391853606562862 ], [ 128.076481130089292, 37.382776687957829 ], [ 128.074468190227549, 37.37965161878288 ], [ 128.074874587073566, 37.375549130170405 ], [ 128.07678615984031, 37.373740480469358 ], [ 128.072789256501864, 37.369859863643313 ], [ 128.072679660959579, 37.367414909840832 ], [ 128.065477176655065, 37.364411873843729 ], [ 128.06004293667317, 37.366013911637886 ], [ 128.055558626568484, 37.36399852898402 ], [ 128.049650464083413, 37.366006699463505 ], [ 128.046160169770957, 37.363408897099518 ], [ 128.045797542887868, 37.359255083091966 ], [ 128.039189685414755, 37.355963612946972 ], [ 128.036891312343073, 37.350511600333633 ], [ 128.037211091526643, 37.346284928956194 ], [ 128.035291835051424, 37.345747359328477 ], [ 128.02677588821868, 37.349417452062546 ], [ 128.02468607852532, 37.355737114492356 ], [ 128.019344624205047, 37.359610897469722 ], [ 128.015298009846333, 37.360956606860391 ], [ 128.00984282173539, 37.358854094251988 ], [ 127.999600606153166, 37.358979046582455 ], [ 127.997651284432735, 37.365312178842629 ], [ 127.993846684911702, 37.367569995285393 ], [ 127.989034682444156, 37.364717390828446 ], [ 127.979730173785157, 37.373960449158375 ], [ 127.977586535095227, 37.373496818610796 ], [ 127.967454914994732, 37.379675653475481 ], [ 127.964540057055842, 37.38429469327852 ], [ 127.963930851195457, 37.391839462244953 ], [ 127.960064133098527, 37.395238317257466 ], [ 127.960743908759468, 37.401949322300325 ], [ 127.957361419721039, 37.405486881828523 ], [ 127.955145075704962, 37.404864280750033 ], [ 127.94965984470133, 37.40746691047061 ], [ 127.93813282034246, 37.407103927756054 ], [ 127.937789320668429, 37.409287563864126 ], [ 127.943009628003082, 37.411920876663764 ], [ 127.947293692529328, 37.420425346954197 ], [ 127.95546397450947, 37.428030200629522 ], [ 127.953838329999542, 37.432287324447188 ], [ 127.954429514989982, 37.435772167575948 ], [ 127.964161807628855, 37.450217021893522 ], [ 127.968840747862899, 37.452308753529891 ], [ 127.974270057643608, 37.457633468210211 ], [ 127.982709798245949, 37.460190935201553 ] ] ] ] } },
{ "type": "Feature", "properties": { "emd_cd": "51130320", "emd_nm": "호저면" }, "geometry": { "type": "MultiPolygon", "coordinates": [ [ [ [ 127.884326228850213, 37.364800845248688 ], [ 127.886636935091559, 37.366541301517231 ], [ 127.889891561048785, 37.361197089373164 ], [ 127.893017201477477, 37.359315332083959 ], [ 127.899930629598998, 37.358618095161852 ], [ 127.902125280982915, 37.362696913433233 ], [ 127.901573615826038, 37.36584170330724 ], [ 127.903305437319887, 37.366711220819965 ], [ 127.902666405363064, 37.369123409466241 ], [ 127.905192051508735, 37.371024255263393 ], [ 127.903210083722385, 37.374533263790731 ], [ 127.906060147897165, 37.375900743134366 ], [ 127.90603145490681, 37.378736633123353 ], [ 127.908814117640247, 37.381656537101073 ], [ 127.913854402797668, 37.38274347140775 ], [ 127.921066537277994, 37.378026402957659 ], [ 127.92275058595564, 37.375072484255988 ], [ 127.922281676084751, 37.371465509401226 ], [ 127.924638340981772, 37.369271505588046 ], [ 127.924057954520663, 37.366332847866687 ], [ 127.921911784478326, 37.365982766652778 ], [ 127.921969898709719, 37.36276700042837 ], [ 127.919385842671957, 37.362157721992254 ], [ 127.917699091616171, 37.359637126056057 ], [ 127.919004863494223, 37.359086438042077 ], [ 127.916271378800801, 37.354833220464187 ], [ 127.913189792409852, 37.353702480814135 ], [ 127.915856053512783, 37.350572410318549 ], [ 127.916640580258715, 37.346080378549352 ], [ 127.909239157070374, 37.340951764302069 ], [ 127.91074249577261, 37.336685431675932 ], [ 127.908550776040713, 37.334445345810359 ], [ 127.89677282488563, 37.33755895457368 ], [ 127.895071372872749, 37.336099627864222 ], [ 127.897078995609832, 37.344433456296109 ], [ 127.892237787767257, 37.346851809515357 ], [ 127.888150449295736, 37.351898884569124 ], [ 127.88475480842024, 37.352539529893896 ], [ 127.884326228850213, 37.364800845248688 ] ] ], [ [ [ 127.863654380822368, 37.436527039965718 ], [ 127.865947636141712, 37.440143363555151 ], [ 127.865652893505384, 37.446950067071576 ], [ 127.870925915387915, 37.453412925988061 ], [ 127.874651755276204, 37.455005615645831 ], [ 127.876987253065167, 37.466920448917314 ], [ 127.884519391468459, 37.470197727145212 ], [ 127.884230047038159, 37.467765029251495 ], [ 127.887261817306168, 37.468565311903504 ], [ 127.888949681526839, 37.466193398255996 ], [ 127.894358170944912, 37.469605022874667 ], [ 127.897082419894076, 37.468649096223743 ], [ 127.895870185943025, 37.472346093034481 ], [ 127.905350524634471, 37.472680196737414 ], [ 127.909693216029524, 37.486441805168006 ], [ 127.919125840856537, 37.492873322720044 ], [ 127.918753910537788, 37.497967166095393 ], [ 127.921423886794301, 37.498653953863773 ], [ 127.922617723846173, 37.501713872605166 ], [ 127.92915340431297, 37.50690955927513 ], [ 127.939667392579182, 37.501151513543839 ], [ 127.935735050696508, 37.492415843252481 ], [ 127.932463499650439, 37.490464482967752 ], [ 127.932885534962054, 37.487050338153445 ], [ 127.938462517820213, 37.482505879368645 ], [ 127.936968636497312, 37.476290378600169 ], [ 127.939011207588536, 37.475553800284708 ], [ 127.941622972917941, 37.466887929134749 ], [ 127.948577898669313, 37.458379784712498 ], [ 127.949309948855031, 37.454353007151923 ], [ 127.954728977315554, 37.455468479522111 ], [ 127.958133048562388, 37.452978190987672 ], [ 127.962290286154683, 37.453734827488439 ], [ 127.964768639640255, 37.452564083947166 ], [ 127.956924225508629, 37.437713561305173 ], [ 127.954429517766727, 37.435772167449038 ], [ 127.953838332816417, 37.432287324643418 ], [ 127.955463977158203, 37.428030201208173 ], [ 127.947293695897613, 37.420425348274222 ], [ 127.943009631728842, 37.411920878787441 ], [ 127.936109712990074, 37.407677079772931 ], [ 127.938866510419786, 37.400305631653616 ], [ 127.933672152456936, 37.399318044089021 ], [ 127.933797044458331, 37.397913994692495 ], [ 127.930915664416077, 37.398483115152111 ], [ 127.929374080006852, 37.393595483921665 ], [ 127.923764502935725, 37.389703569529587 ], [ 127.920412206780668, 37.391181730320753 ], [ 127.905584325794237, 37.392190100344038 ], [ 127.900575335610981, 37.387433753724444 ], [ 127.896638928483455, 37.388648071266225 ], [ 127.892680353132661, 37.392456177047755 ], [ 127.890515494170856, 37.391033857605699 ], [ 127.888108733670293, 37.393837210830242 ], [ 127.881781046925241, 37.392815797076423 ], [ 127.880701486657983, 37.390558475729051 ], [ 127.875226687061101, 37.392870146466457 ], [ 127.877266158783044, 37.393618042984514 ], [ 127.878064315789018, 37.396128811555307 ], [ 127.87691553723154, 37.397524337193701 ], [ 127.882852713045182, 37.402997457427986 ], [ 127.876131771366602, 37.406814763927599 ], [ 127.869960669355606, 37.406480288910309 ], [ 127.869264128028902, 37.408842255806519 ], [ 127.871260650770424, 37.41565396163503 ], [ 127.870441599320316, 37.418418879486893 ], [ 127.863944048662418, 37.425325586243403 ], [ 127.865086620556895, 37.431956435121066 ], [ 127.863654380822368, 37.436527039965718 ] ] ] ] } },
{ "type": "Feature", "properties": { "emd_cd": "51130330", "emd_nm": "지정면" }, "geometry": { "type": "MultiPolygon", "coordinates": [ [ [ [ 127.759482476091151, 37.367290552640512 ], [ 127.762872706279538, 37.369976989265993 ], [ 127.778973394891466, 37.370715224325671 ], [ 127.775826032531683, 37.378941532714407 ], [ 127.776658433399518, 37.383325503867027 ], [ 127.78410737714826, 37.388825929611563 ], [ 127.781695906111935, 37.393038394357092 ], [ 127.784541073766107, 37.395509013971129 ], [ 127.783740898626235, 37.398613940444712 ], [ 127.787828583993701, 37.401130688869344 ], [ 127.787822703860314, 37.405324725617234 ], [ 127.790242771546218, 37.408590942769173 ], [ 127.79455847874307, 37.424401307237957 ], [ 127.804006012938729, 37.428848856111706 ], [ 127.803354686656974, 37.434329893486158 ], [ 127.800466584143777, 37.438640240421236 ], [ 127.810504614212405, 37.441385162043481 ], [ 127.813436657126275, 37.445268750244885 ], [ 127.819833581730464, 37.446575036064914 ], [ 127.834501842886525, 37.433995402544994 ], [ 127.840022508309218, 37.433823420399115 ], [ 127.840816751469731, 37.429254344778705 ], [ 127.844905126210435, 37.42381205927105 ], [ 127.84566553707451, 37.419274838451237 ], [ 127.8512664269293, 37.408582112070732 ], [ 127.84763697198909, 37.400786226862451 ], [ 127.85099373641097, 37.395330721130478 ], [ 127.856502441001609, 37.398652029014272 ], [ 127.867162362814128, 37.399050046277786 ], [ 127.86878437054618, 37.40569022599113 ], [ 127.873859908160654, 37.407311917367835 ], [ 127.882852713045182, 37.402997457427972 ], [ 127.87691553723154, 37.39752433719368 ], [ 127.878064315789047, 37.396128811555315 ], [ 127.877266158783044, 37.393618042984514 ], [ 127.875226687061101, 37.392870146466457 ], [ 127.880701486657983, 37.390558475729065 ], [ 127.881781046925241, 37.392815797076402 ], [ 127.888108733670308, 37.393837210830235 ], [ 127.890515494170856, 37.391033857605699 ], [ 127.892680353132675, 37.392456177047755 ], [ 127.896638928483455, 37.388648071266196 ], [ 127.900575335610981, 37.387433753724437 ], [ 127.903678511532675, 37.391548107318769 ], [ 127.911005333776075, 37.391587279100833 ], [ 127.914543477140001, 37.384933118596386 ], [ 127.913854402797668, 37.3827434714077 ], [ 127.907316844551161, 37.380500857684332 ], [ 127.90653669133799, 37.376533041877593 ], [ 127.903210083722414, 37.374533263790717 ], [ 127.905192051508735, 37.371024255263386 ], [ 127.902580038677556, 37.368874565467472 ], [ 127.903305437319887, 37.366711220819951 ], [ 127.901573615826038, 37.36584170330724 ], [ 127.901154867111515, 37.35938112899548 ], [ 127.897977133087281, 37.358326804503207 ], [ 127.896711135053351, 37.359630522288555 ], [ 127.893017201477477, 37.359315332083973 ], [ 127.889891561048813, 37.36119708937315 ], [ 127.887982686379246, 37.36587236450066 ], [ 127.884954149557856, 37.366167384384831 ], [ 127.88475480842024, 37.352539529893896 ], [ 127.888150449295736, 37.351898884569124 ], [ 127.892237787767286, 37.346851809515336 ], [ 127.876788259922293, 37.346084205198963 ], [ 127.875720118911303, 37.337180304511662 ], [ 127.866402835488117, 37.337738997639185 ], [ 127.865534595114156, 37.33343856753406 ], [ 127.863378078006221, 37.331965938582861 ], [ 127.860532014292573, 37.334717892935259 ], [ 127.863118606997787, 37.343182057046796 ], [ 127.852523424682332, 37.343777351117588 ], [ 127.850343342036638, 37.337606154810615 ], [ 127.847650153083663, 37.336834577797049 ], [ 127.843272629806592, 37.343432598330821 ], [ 127.837415611566442, 37.346653016293104 ], [ 127.813208980446518, 37.332328066949003 ], [ 127.800030697457814, 37.332910110127415 ], [ 127.79899982047904, 37.335625994855434 ], [ 127.801145488175635, 37.342235018047262 ], [ 127.796137539192884, 37.3446661770924 ], [ 127.793547481196541, 37.344086750278151 ], [ 127.791198883635033, 37.347833995155518 ], [ 127.787868342596937, 37.348655466168402 ], [ 127.777153723960353, 37.346524094353718 ], [ 127.773505688429154, 37.358923917871479 ], [ 127.769308992468282, 37.363145805123828 ], [ 127.761216544892036, 37.363597361841506 ], [ 127.759482476091151, 37.367290552640512 ] ] ] ] } },
{ "type": "Feature", "properties": { "emd_cd": "51130350", "emd_nm": "부론면" }, "geometry": { "type": "MultiPolygon", "coordinates": [ [ [ [ 127.787549784232056, 37.276037694689514 ], [ 127.785964714126195, 37.269111629638267 ], [ 127.788211130343342, 37.266291801575726 ], [ 127.79516581270984, 37.261192076649621 ], [ 127.793904451531631, 37.256991597064875 ], [ 127.795775595819975, 37.252367268165344 ], [ 127.797625917660184, 37.251317252709654 ], [ 127.803427177558234, 37.254325603231848 ], [ 127.807857832162483, 37.253888805134714 ], [ 127.806768031632757, 37.24946729150949 ], [ 127.810947007476969, 37.243524761027309 ], [ 127.819490180068101, 37.242992330745558 ], [ 127.822014399448548, 37.227080976714021 ], [ 127.834524270356496, 37.223060140890141 ], [ 127.833541959064277, 37.215626100839472 ], [ 127.836287628384312, 37.212969172329935 ], [ 127.834219326316315, 37.208560085191174 ], [ 127.838340321076018, 37.20673564027377 ], [ 127.83875229884633, 37.200678930666797 ], [ 127.835929632570114, 37.195395886910177 ], [ 127.826432800680337, 37.19366371374511 ], [ 127.828557267178482, 37.188986308327145 ], [ 127.828092262947578, 37.18211184676133 ], [ 127.830468584255257, 37.177735639077156 ], [ 127.82411398144238, 37.169242994038562 ], [ 127.827293559956388, 37.166137817116194 ], [ 127.824016251349477, 37.156136707048574 ], [ 127.823969160851831, 37.154556867483961 ], [ 127.826103954007166, 37.154755865547372 ], [ 127.826016016608946, 37.153621877572888 ], [ 127.816852093811136, 37.147004053708116 ], [ 127.806936330213773, 37.147065280052374 ], [ 127.801647330707524, 37.144260949331269 ], [ 127.793347658800371, 37.145734077366498 ], [ 127.789522285885724, 37.143407629732692 ], [ 127.765499108534044, 37.159136010083387 ], [ 127.755529098473858, 37.171440395462646 ], [ 127.751040951679727, 37.182466919539245 ], [ 127.744281800236621, 37.207552471544183 ], [ 127.744321836681024, 37.211637080638624 ], [ 127.748935398307935, 37.218335468674411 ], [ 127.746882830387563, 37.239972882277762 ], [ 127.752671362846101, 37.252608922883134 ], [ 127.764052047602249, 37.266310879253979 ], [ 127.770586197865583, 37.267067235960106 ], [ 127.771494272674744, 37.268712826945944 ], [ 127.782308060182899, 37.271669933912804 ], [ 127.787549784232056, 37.276037694689514 ] ] ] ] } },
{ "type": "Feature", "properties": { "emd_cd": "51130360", "emd_nm": "귀래면" }, "geometry": { "type": "MultiPolygon", "coordinates": [ [ [ [ 127.884870201067244, 37.161219131973702 ], [ 127.884658208223257, 37.161230091589267 ], [ 127.884568313984218, 37.161403298125578 ], [ 127.884870201067244, 37.161219131973702 ] ] ], [ [ [ 127.871434436356736, 37.245806652067422 ], [ 127.873262469528882, 37.244254139105443 ], [ 127.880187400525301, 37.243376001023599 ], [ 127.885098194169245, 37.244491995325745 ], [ 127.890979693560368, 37.239321832379183 ], [ 127.897750732738444, 37.240131434093641 ], [ 127.903690204684438, 37.238636168560447 ], [ 127.908749653407426, 37.235014149149087 ], [ 127.910365032423996, 37.236281195759759 ], [ 127.915775611957514, 37.234536641897101 ], [ 127.917205178383171, 37.227885159019159 ], [ 127.9216983982827, 37.225389838491601 ], [ 127.923587447254221, 37.221646145777065 ], [ 127.927145335268079, 37.220440593311963 ], [ 127.932373595217555, 37.207217317499612 ], [ 127.930708502934095, 37.201292962731202 ], [ 127.931656144628107, 37.196366066715996 ], [ 127.93586301960714, 37.189409834679608 ], [ 127.932704892013845, 37.18223747271692 ], [ 127.934057135896566, 37.180355878805493 ], [ 127.933829913992298, 37.175695269526791 ], [ 127.927409404673057, 37.169741351507398 ], [ 127.926359573730778, 37.165521765727711 ], [ 127.92386088285842, 37.163634396151288 ], [ 127.915038152514398, 37.168875243120503 ], [ 127.908648079292661, 37.167098263556646 ], [ 127.906190250504565, 37.161732215243703 ], [ 127.903457488413395, 37.160033681589645 ], [ 127.903877206576482, 37.156961086511657 ], [ 127.901903588190109, 37.15217135395968 ], [ 127.898903378858407, 37.149877156352268 ], [ 127.895434826766433, 37.156128666245415 ], [ 127.890571268544463, 37.159206659326017 ], [ 127.886571776153218, 37.161074977357615 ], [ 127.880153958490311, 37.162245947385152 ], [ 127.878929376882596, 37.161765458937886 ], [ 127.872040842806854, 37.164343789874152 ], [ 127.861961924200727, 37.161044977904588 ], [ 127.861300312689252, 37.155346091742317 ], [ 127.855453969547611, 37.156764449794814 ], [ 127.854079831894268, 37.160392045249068 ], [ 127.852077202210054, 37.159764059045813 ], [ 127.849566088204895, 37.153432442906777 ], [ 127.837382054435665, 37.151630339184926 ], [ 127.825527683001994, 37.152177539836231 ], [ 127.826103954007166, 37.154755865547372 ], [ 127.823969160851831, 37.154556867483961 ], [ 127.824016251349477, 37.156136707048574 ], [ 127.827293559956388, 37.166137817116194 ], [ 127.82411398144238, 37.169242994038562 ], [ 127.830468584255257, 37.177735639077156 ], [ 127.828092262947578, 37.18211184676133 ], [ 127.828557267178482, 37.188986308327145 ], [ 127.826432800680337, 37.19366371374511 ], [ 127.835929632570114, 37.195395886910177 ], [ 127.838961603869905, 37.201608969519945 ], [ 127.838098161518943, 37.206858798925538 ], [ 127.840530965160866, 37.207642057058337 ], [ 127.841173519773193, 37.210609825617183 ], [ 127.849190949064251, 37.215680920572737 ], [ 127.847515605620345, 37.220214357454232 ], [ 127.847557822270957, 37.22346349494314 ], [ 127.848864707473979, 37.224094990063556 ], [ 127.847307713471793, 37.224881991906507 ], [ 127.850266846901405, 37.225070444077687 ], [ 127.849098375893945, 37.230065898357076 ], [ 127.850896025940372, 37.232538447205556 ], [ 127.855610772969882, 37.233915714332625 ], [ 127.863007449693455, 37.232920472537849 ], [ 127.866144094927421, 37.242470204289262 ], [ 127.871434436356736, 37.245806652067422 ] ] ] ] } },
{ "type": "Feature", "properties": { "emd_cd": "51130370", "emd_nm": "흥업면" }, "geometry": { "type": "MultiPolygon", "coordinates": [ [ [ [ 127.859625899370343, 37.278779893538569 ], [ 127.861821040328508, 37.283759692364832 ], [ 127.86111757322567, 37.286218563246514 ], [ 127.864135053359277, 37.289670045415349 ], [ 127.86008621870873, 37.298076770381812 ], [ 127.865695194464038, 37.304635409991498 ], [ 127.864007377520167, 37.313329632536487 ], [ 127.865971602115522, 37.316256920904017 ], [ 127.860391216499039, 37.323687994769266 ], [ 127.863657363672985, 37.326041454943727 ], [ 127.860822135141092, 37.329153017274074 ], [ 127.865534595114156, 37.333438567534088 ], [ 127.866402835488117, 37.337738997639185 ], [ 127.875720118911303, 37.337180304511676 ], [ 127.876788259922293, 37.346084205198949 ], [ 127.893003589281562, 37.346817551623651 ], [ 127.897287379751816, 37.343802985120448 ], [ 127.895071372872749, 37.336099627864222 ], [ 127.89677282488563, 37.33755895457368 ], [ 127.908550776040713, 37.334445345810359 ], [ 127.908313410410287, 37.33086668508394 ], [ 127.906084698680019, 37.328183994319765 ], [ 127.909128126957413, 37.323968545160454 ], [ 127.907132165009941, 37.321033733750092 ], [ 127.904645883281233, 37.321326711222376 ], [ 127.902205761926808, 37.319129020170173 ], [ 127.901910022239889, 37.316345829024094 ], [ 127.906632807138493, 37.315971519956619 ], [ 127.910005354052473, 37.310717107274094 ], [ 127.917106678758145, 37.31194364055542 ], [ 127.920110057820565, 37.308443597406956 ], [ 127.927126232095802, 37.307081834073898 ], [ 127.926250658823946, 37.303461029111325 ], [ 127.928894184219573, 37.298145539389907 ], [ 127.9269161399111, 37.295082958393785 ], [ 127.929725376268081, 37.290731993327796 ], [ 127.930109418211345, 37.285738388600628 ], [ 127.933911196598359, 37.284038156698259 ], [ 127.93532481824414, 37.279516686586113 ], [ 127.932201920645781, 37.274330096680053 ], [ 127.934144866700549, 37.272094566232738 ], [ 127.930184756911629, 37.267558012092962 ], [ 127.928893648388694, 37.257276040198036 ], [ 127.93189671542082, 37.25002691754559 ], [ 127.937776334029479, 37.245804431555719 ], [ 127.938881389960642, 37.240742821214099 ], [ 127.924884860894508, 37.231510660076957 ], [ 127.921698402834991, 37.225389839813126 ], [ 127.917205183361261, 37.227885160139394 ], [ 127.915775617102355, 37.234536642417815 ], [ 127.913538145615846, 37.235887387847534 ], [ 127.908749647932396, 37.235014149754171 ], [ 127.903690199692363, 37.238636168864275 ], [ 127.897750728299485, 37.240131434295726 ], [ 127.890979689739268, 37.239321832696227 ], [ 127.884572852008873, 37.244803987086385 ], [ 127.882786893188594, 37.248024596309136 ], [ 127.884466702053615, 37.249540589562955 ], [ 127.882048014742978, 37.252311316621608 ], [ 127.871761055543601, 37.255158277510581 ], [ 127.865912483864889, 37.259070275488838 ], [ 127.864868294253057, 37.262983800351947 ], [ 127.861757134726886, 37.263710899684746 ], [ 127.862731453497432, 37.270191465609081 ], [ 127.865087088729695, 37.272590886377813 ], [ 127.86382857800325, 37.276332045611774 ], [ 127.861191473396573, 37.276655450448438 ], [ 127.859625899370343, 37.278779893538569 ] ] ] ] } },
{ "type": "Feature", "properties": { "emd_cd": "51130380", "emd_nm": "판부면" }, "geometry": { "type": "MultiPolygon", "coordinates": [ [ [ [ 127.925818495930386, 37.310450692457181 ], [ 127.927894474926759, 37.315371864638642 ], [ 127.931369012586927, 37.31580558053659 ], [ 127.930261040983325, 37.319026258012734 ], [ 127.933644317252075, 37.320240378943488 ], [ 127.93630731261068, 37.325013101733092 ], [ 127.93852917541868, 37.322475582806284 ], [ 127.952751801321071, 37.319064194303678 ], [ 127.949031145174402, 37.317891858568153 ], [ 127.947113145703824, 37.318895456420549 ], [ 127.946004610683659, 37.316144528328628 ], [ 127.948604389190081, 37.315011814131218 ], [ 127.948795146524773, 37.311234290473919 ], [ 127.956133053661659, 37.310577289008791 ], [ 127.956179654064258, 37.307613856526679 ], [ 127.959113562351291, 37.304579918911777 ], [ 127.960716803601557, 37.299708425118716 ], [ 127.965347659349518, 37.302201086044143 ], [ 127.9697866352505, 37.300458736419571 ], [ 127.975144152006663, 37.301999875836842 ], [ 127.972733089487136, 37.295763671856939 ], [ 127.974369722383997, 37.295717217912696 ], [ 127.978111536439116, 37.291260369167432 ], [ 127.98014135942293, 37.290898062664873 ], [ 127.985659521932192, 37.298150250219145 ], [ 127.99001439757258, 37.29541938118539 ], [ 127.999772753053946, 37.296755055601395 ], [ 128.005696930232972, 37.294227784672515 ], [ 128.008344698935929, 37.295224232500686 ], [ 128.010218215131488, 37.293076404010733 ], [ 128.012960732666443, 37.296118789465332 ], [ 128.011321129525953, 37.302465864877206 ], [ 128.015373701755948, 37.302713821468977 ], [ 128.015140053609883, 37.308409536861774 ], [ 128.021419128455278, 37.314512744306676 ], [ 128.023207979818949, 37.324391147612126 ], [ 128.026541597515745, 37.328158849918339 ], [ 128.031635713138741, 37.328125419986833 ], [ 128.034831058584103, 37.330920328098387 ], [ 128.040053596239488, 37.319101286659951 ], [ 128.051977297341381, 37.308455692139212 ], [ 128.047760975128824, 37.286965740523819 ], [ 128.05313431285856, 37.275205913044182 ], [ 128.051028153320033, 37.271153413128339 ], [ 128.048651846190893, 37.269966773575703 ], [ 128.047584143201505, 37.263569485242385 ], [ 128.043324748740474, 37.261877988823841 ], [ 128.038335275426505, 37.249766442898739 ], [ 128.031753074819704, 37.245964353422472 ], [ 128.019213126852833, 37.244396700799456 ], [ 128.012238024212735, 37.247464405247726 ], [ 128.007893107707218, 37.25163260609694 ], [ 127.998822281280908, 37.254829465493103 ], [ 127.993997242343113, 37.253636080372502 ], [ 127.986717790754497, 37.258037760699011 ], [ 127.981378501223716, 37.256766671419157 ], [ 127.979699171362157, 37.258439624414699 ], [ 127.969486834836275, 37.255896867301459 ], [ 127.964030559082516, 37.251172784075415 ], [ 127.956656871429104, 37.25024976148076 ], [ 127.948131445382273, 37.246915168349993 ], [ 127.947068288715883, 37.241694283248904 ], [ 127.945365119803583, 37.240678976318485 ], [ 127.938881389960642, 37.240742821214099 ], [ 127.937776334029479, 37.245804431555719 ], [ 127.93189671542082, 37.25002691754559 ], [ 127.928893648388694, 37.257276040198036 ], [ 127.930184756911629, 37.267558012092962 ], [ 127.934144866700549, 37.272094566232738 ], [ 127.932201920645781, 37.274330096680053 ], [ 127.93532481824414, 37.279516686586113 ], [ 127.933911196598359, 37.284038156698259 ], [ 127.929186633330559, 37.287678620679714 ], [ 127.929725376268081, 37.290731993327796 ], [ 127.9269161399111, 37.295082958393785 ], [ 127.928887956120391, 37.298465929125477 ], [ 127.925948691397693, 37.307477737196471 ], [ 127.927997012857531, 37.30931766444975 ], [ 127.925818495930386, 37.310450692457181 ] ] ] ] } },
{ "type": "Feature", "properties": { "emd_cd": "51130390", "emd_nm": "신림면" }, "geometry": { "type": "MultiPolygon", "coordinates": [ [ [ [ 128.05197729291379, 37.308455690251307 ], [ 128.068114744082806, 37.308496855425538 ], [ 128.073649659107502, 37.304387507288162 ], [ 128.08685781286411, 37.300949508337844 ], [ 128.098135536637983, 37.30125789823547 ], [ 128.1016817897208, 37.299536781688197 ], [ 128.104519116389639, 37.300912520665634 ], [ 128.108560109538899, 37.298803992718312 ], [ 128.107162343750161, 37.292763202938048 ], [ 128.109885560055631, 37.280657718454847 ], [ 128.11420296367433, 37.278302116967858 ], [ 128.115448799041729, 37.276513985622678 ], [ 128.114593045461731, 37.273485724214645 ], [ 128.116618558007218, 37.272258120967471 ], [ 128.121408512109241, 37.272221426749887 ], [ 128.125554634194259, 37.275220547663324 ], [ 128.142560281915365, 37.271041603083539 ], [ 128.16341465979221, 37.273916387783345 ], [ 128.17327785050685, 37.279207132441726 ], [ 128.177829371578838, 37.27951803826992 ], [ 128.178821368163, 37.291859290973008 ], [ 128.189640429317535, 37.293262216790509 ], [ 128.191993884614362, 37.296128437737622 ], [ 128.195740665370948, 37.297432533705326 ], [ 128.206570792102013, 37.287825134963583 ], [ 128.214120330829445, 37.288153045380128 ], [ 128.218455361344866, 37.278558314019371 ], [ 128.210736654764418, 37.275073882362022 ], [ 128.213065323625017, 37.262056843134673 ], [ 128.208586418148656, 37.248902828099531 ], [ 128.201503431412505, 37.248997629019875 ], [ 128.200468415864492, 37.247149455183774 ], [ 128.193172265931196, 37.245231878806592 ], [ 128.173885452352152, 37.232692899607123 ], [ 128.176095132818375, 37.228334694936407 ], [ 128.172320562136775, 37.224895619372234 ], [ 128.172723030603635, 37.219047813401055 ], [ 128.164432982747172, 37.213521104426874 ], [ 128.158089782519397, 37.216391979285511 ], [ 128.153967623440764, 37.216512889653877 ], [ 128.150979601920881, 37.220844114513369 ], [ 128.14490618140448, 37.222423320986643 ], [ 128.142761257183906, 37.224184628985242 ], [ 128.141439527560664, 37.229239953642669 ], [ 128.132920540029204, 37.229853305776615 ], [ 128.129615368831281, 37.233804480428802 ], [ 128.125362343683946, 37.234589283505009 ], [ 128.120899535007425, 37.227363145079295 ], [ 128.122419643519777, 37.225308159028209 ], [ 128.114573981722771, 37.218687495751226 ], [ 128.115145095433547, 37.216368332508644 ], [ 128.114209591584114, 37.213042310200805 ], [ 128.111171691157921, 37.210200024391845 ], [ 128.111682246543523, 37.207866115671749 ], [ 128.105008862344761, 37.20374771199333 ], [ 128.092152987566834, 37.199299251722032 ], [ 128.091689387776398, 37.197993526569661 ], [ 128.087143182866583, 37.198436780834335 ], [ 128.085648351012424, 37.196421063246341 ], [ 128.077153138777845, 37.193523869151299 ], [ 128.069951964608691, 37.194607933424784 ], [ 128.062886963652574, 37.192885110145639 ], [ 128.05986991130888, 37.194271717181245 ], [ 128.049337302256561, 37.189700055096104 ], [ 128.044218305968087, 37.19049293672218 ], [ 128.041056446717874, 37.188373858687378 ], [ 128.037153380260264, 37.18898278451163 ], [ 128.033011831254612, 37.193215174238318 ], [ 128.032241810863383, 37.199331877832307 ], [ 128.028748328713249, 37.202058941664305 ], [ 128.033551344931738, 37.210640528457631 ], [ 128.037314054651631, 37.212526993270323 ], [ 128.03925869616458, 37.215494363836349 ], [ 128.033479828186671, 37.21928716952926 ], [ 128.032370733817174, 37.223414660934189 ], [ 128.022927198773914, 37.225409894655805 ], [ 128.019213131134165, 37.244396701792475 ], [ 128.031753080240264, 37.245964354630402 ], [ 128.038335270160275, 37.249766444590101 ], [ 128.04332474387013, 37.261877991648049 ], [ 128.047584138712438, 37.26356948824543 ], [ 128.048651841768276, 37.269966777168349 ], [ 128.051028149108873, 37.271153416842644 ], [ 128.053134308820574, 37.275205917139935 ], [ 128.047760970418068, 37.286965736651538 ], [ 128.05197729291379, 37.308455690251307 ] ] ] ] } }
]
}
