{
"type": "FeatureCollection",
"name": "51150",
"crs": { "type": "name", "properties": { "name": "urn:ogc:def:crs:OGC:1.3:CRS84" } },
"features": [
{ "type": "Feature", "properties": { "emd_cd": "51150101", "emd_nm": "홍제동" }, "geometry": { "type": "MultiPolygon", "coordinates": [ [ [ [ 128.890311541921477, 37.756439702570056 ], [ 128.8880319583659, 37.752290176639036 ], [ 128.889552399144321, 37.75116012379339 ], [ 128.884680332870403, 37.749788502358136 ], [ 128.885861803381289, 37.747405419043879 ], [ 128.873016483731647, 37.743218988057606 ], [ 128.853002582208148, 37.745674626273981 ], [ 128.853828743322993, 37.748584974683155 ], [ 128.85655637483697, 37.748165116748133 ], [ 128.854236639747654, 37.751717529320693 ], [ 128.855552443854066, 37.75413290076856 ], [ 128.859397887197701, 37.755300964706933 ], [ 128.858888599199702, 37.758206727049377 ], [ 128.860199166687948, 37.758819696664503 ], [ 128.873214509379437, 37.758171028590887 ], [ 128.875641763831965, 37.756298182028637 ], [ 128.875839971441536, 37.757963997216677 ], [ 128.878123233960167, 37.75819273997633 ], [ 128.882122446712032, 37.75486870586618 ], [ 128.890311541921477, 37.756439702570056 ] ] ] ] } },
{ "type": "Feature", "properties": { "emd_cd": "51150102", "emd_nm": "남문동" }, "geometry": { "type": "MultiPolygon", "coordinates": [ [ [ [ 128.895331420505642, 37.749436654956853 ], [ 128.885861803378134, 37.747405419043957 ], [ 128.885854985981211, 37.748986184236273 ], [ 128.884387815425384, 37.748894323875014 ], [ 128.889146499688906, 37.751126825401279 ], [ 128.890380681619376, 37.74946223668298 ], [ 128.893767870882016, 37.751513706892716 ], [ 128.895331420505642, 37.749436654956853 ] ] ] ] } },
{ "type": "Feature", "properties": { "emd_cd": "51150103", "emd_nm": "명주동" }, "geometry": { "type": "MultiPolygon", "coordinates": [ [ [ [ 128.893767870882016, 37.751513706892716 ], [ 128.890251109640161, 37.749434391868398 ], [ 128.889340046051899, 37.750600119077816 ], [ 128.89198552080552, 37.752762146336565 ], [ 128.893767870882016, 37.751513706892716 ] ] ] ] } },
{ "type": "Feature", "properties": { "emd_cd": "51150104", "emd_nm": "성내동" }, "geometry": { "type": "MultiPolygon", "coordinates": [ [ [ [ 128.89494789000895, 37.751794167640305 ], [ 128.89270461301183, 37.751820011564789 ], [ 128.891922618030549, 37.752850201767423 ], [ 128.893344275833556, 37.753617106105416 ], [ 128.89494789000895, 37.751794167640305 ] ] ] ] } },
{ "type": "Feature", "properties": { "emd_cd": "51150105", "emd_nm": "임당동" }, "geometry": { "type": "MultiPolygon", "coordinates": [ [ [ [ 128.898210085630382, 37.755523902869896 ], [ 128.892470272745584, 37.753134485196611 ], [ 128.891523340269401, 37.757059465699967 ], [ 128.895596738922109, 37.758742468466579 ], [ 128.898210085630382, 37.755523902869896 ] ] ] ] } },
{ "type": "Feature", "properties": { "emd_cd": "51150106", "emd_nm": "금학동" }, "geometry": { "type": "MultiPolygon", "coordinates": [ [ [ [ 128.893793536490932, 37.753119079432032 ], [ 128.898210085630382, 37.755523902869896 ], [ 128.899183668719644, 37.754337818657945 ], [ 128.894942722081367, 37.751797658693313 ], [ 128.893793536490932, 37.753119079432032 ] ] ] ] } },
{ "type": "Feature", "properties": { "emd_cd": "51150107", "emd_nm": "용강동" }, "geometry": { "type": "MultiPolygon", "coordinates": [ [ [ [ 128.889552399144321, 37.75116012379339 ], [ 128.8880319583659, 37.752290176639036 ], [ 128.891523340269401, 37.757059465699982 ], [ 128.892470272745584, 37.75313448519659 ], [ 128.889552399144321, 37.75116012379339 ] ] ] ] } },
{ "type": "Feature", "properties": { "emd_cd": "51150108", "emd_nm": "성남동" }, "geometry": { "type": "MultiPolygon", "coordinates": [ [ [ [ 128.894942722078071, 37.751797658693405 ], [ 128.900206153823916, 37.755462406348094 ], [ 128.90308929548371, 37.754760064685414 ], [ 128.906932154591004, 37.756566266532836 ], [ 128.896950050401074, 37.749600094918819 ], [ 128.895331420505642, 37.749436654956853 ], [ 128.894942722078071, 37.751797658693405 ] ] ] ] } },
{ "type": "Feature", "properties": { "emd_cd": "51150109", "emd_nm": "옥천동" }, "geometry": { "type": "MultiPolygon", "coordinates": [ [ [ [ 128.895720890153626, 37.758318408323056 ], [ 128.903041176204766, 37.763880606535025 ], [ 128.905006746821016, 37.761397388373261 ], [ 128.903928678800696, 37.760413464112894 ], [ 128.907679325134353, 37.757494401828346 ], [ 128.903089295487035, 37.754760064685357 ], [ 128.899015350124102, 37.754585661624326 ], [ 128.895720890153626, 37.758318408323056 ] ] ] ] } },
{ "type": "Feature", "properties": { "emd_cd": "51150110", "emd_nm": "교동" }, "geometry": { "type": "MultiPolygon", "coordinates": [ [ [ [ 128.872127871362096, 37.759919872494237 ], [ 128.875520132625326, 37.771774714414846 ], [ 128.87965252520226, 37.771476564180048 ], [ 128.883539310544364, 37.774124198064634 ], [ 128.885545165793872, 37.778631692717944 ], [ 128.890478854635234, 37.783473596291174 ], [ 128.892129070679601, 37.784168100809552 ], [ 128.8998869341861, 37.776708149900024 ], [ 128.898926960532748, 37.774248462802674 ], [ 128.903118128683786, 37.767455817544814 ], [ 128.900044498199264, 37.760843400720745 ], [ 128.888781901722012, 37.756695950728236 ], [ 128.88825380754912, 37.755192526476847 ], [ 128.882309336408895, 37.754871507835418 ], [ 128.878123233960167, 37.75819273997633 ], [ 128.875839971441536, 37.757963997216692 ], [ 128.876146415595969, 37.756476731537148 ], [ 128.875511963764154, 37.756347533027757 ], [ 128.872127871362096, 37.759919872494237 ] ] ] ] } },
{ "type": "Feature", "properties": { "emd_cd": "51150111", "emd_nm": "포남동" }, "geometry": { "type": "MultiPolygon", "coordinates": [ [ [ [ 128.896070859026338, 37.780612883577234 ], [ 128.899549706007008, 37.782288939556494 ], [ 128.898754604759006, 37.784741902038782 ], [ 128.907487880739524, 37.788326338877773 ], [ 128.913500578740582, 37.780740434477707 ], [ 128.916401041170758, 37.782835161795525 ], [ 128.919747137223766, 37.7829516016604 ], [ 128.914130728424709, 37.775115286137805 ], [ 128.920526660011433, 37.768873085708911 ], [ 128.913422891085986, 37.765491459034536 ], [ 128.907679325134353, 37.757494401828346 ], [ 128.903928678800696, 37.760413464112894 ], [ 128.905006746821016, 37.761397388373261 ], [ 128.903041176204766, 37.763880606535025 ], [ 128.900759267568276, 37.76419975211514 ], [ 128.903118128683786, 37.767455817544814 ], [ 128.898926960532748, 37.774248462802674 ], [ 128.8998869341861, 37.776708149900024 ], [ 128.896070859026338, 37.780612883577234 ] ] ] ] } },
{ "type": "Feature", "properties": { "emd_cd": "51150112", "emd_nm": "초당동" }, "geometry": { "type": "MultiPolygon", "coordinates": [ [ [ [ 128.92027566965271, 37.783893646184978 ], [ 128.913500578737057, 37.780740434477863 ], [ 128.909780852095196, 37.786789081279181 ], [ 128.907791294863472, 37.787497341744427 ], [ 128.906083116777637, 37.792206854848189 ], [ 128.90410444150487, 37.790620375574072 ], [ 128.906447129363698, 37.793443861894971 ], [ 128.901373544218245, 37.7973042362378 ], [ 128.906934800460846, 37.800909726168314 ], [ 128.908018054138665, 37.798619854642517 ], [ 128.914075347990234, 37.796724648036296 ], [ 128.913954282303393, 37.793953224186168 ], [ 128.917639024632905, 37.79047936593188 ], [ 128.92027566965271, 37.783893646184978 ] ] ] ] } },
{ "type": "Feature", "properties": { "emd_cd": "51150113", "emd_nm": "강문동" }, "geometry": { "type": "MultiPolygon", "coordinates": [ [ [ [ 128.90670020502165, 37.804220998052195 ], [ 128.907921248705378, 37.805619000212261 ], [ 128.916862394810749, 37.79695092216798 ], [ 128.917592979622071, 37.797331368021943 ], [ 128.91791503532022, 37.79738339283994 ], [ 128.917637435172622, 37.79620290122584 ], [ 128.92698626410683, 37.788323773213733 ], [ 128.925304102629326, 37.786634946832841 ], [ 128.927972011509866, 37.786106781727156 ], [ 128.922232989195095, 37.782503840918388 ], [ 128.92027566965271, 37.783893646184978 ], [ 128.917639024632905, 37.79047936593188 ], [ 128.913954282303393, 37.793953224186168 ], [ 128.914075347990234, 37.796724648036296 ], [ 128.908018054138665, 37.798619854642517 ], [ 128.90670020502165, 37.804220998052195 ] ] ] ] } },
{ "type": "Feature", "properties": { "emd_cd": "51150114", "emd_nm": "송정동" }, "geometry": { "type": "MultiPolygon", "coordinates": [ [ [ [ 128.928715230473586, 37.770652433587692 ], [ 128.919419455046437, 37.767617807513552 ], [ 128.920526660007965, 37.768873085709032 ], [ 128.914130728421242, 37.775115286137883 ], [ 128.92027566965271, 37.783893646184978 ], [ 128.922232989195095, 37.782503840918388 ], [ 128.927972011509866, 37.786106781727156 ], [ 128.925304102629326, 37.786634946832841 ], [ 128.92698626410683, 37.788323773213733 ], [ 128.940212111421687, 37.778131064774492 ], [ 128.934276237779926, 37.773272092003168 ], [ 128.9370271830457, 37.769899057133728 ], [ 128.928715230473586, 37.770652433587692 ] ] ] ] } },
{ "type": "Feature", "properties": { "emd_cd": "51150115", "emd_nm": "견소동" }, "geometry": { "type": "MultiPolygon", "coordinates": [ [ [ [ 128.934276237779926, 37.773272092003168 ], [ 128.940212111421687, 37.778131064774492 ], [ 128.949427599383824, 37.771132404630954 ], [ 128.951326800795812, 37.772964091951543 ], [ 128.954583109429677, 37.773030924798483 ], [ 128.957049413289383, 37.771077199942724 ], [ 128.951937231377428, 37.772846829532632 ], [ 128.951137274426031, 37.772142662154359 ], [ 128.953354692468963, 37.769853814376816 ], [ 128.955214921414012, 37.771018003058977 ], [ 128.954476772808675, 37.769405437503877 ], [ 128.9500207487811, 37.768503544020227 ], [ 128.942737255327927, 37.770564923871191 ], [ 128.937736873247303, 37.769706458260522 ], [ 128.934276237779926, 37.773272092003168 ] ] ] ] } },
{ "type": "Feature", "properties": { "emd_cd": "51150116", "emd_nm": "내곡동" }, "geometry": { "type": "MultiPolygon", "coordinates": [ [ [ [ 128.895331420508967, 37.749436654956746 ], [ 128.893167050105063, 37.748335359694273 ], [ 128.893510999467821, 37.744821413245596 ], [ 128.888820351794209, 37.738976635371635 ], [ 128.889424152557694, 37.733738707541598 ], [ 128.884911770564202, 37.727998462973439 ], [ 128.881881804651016, 37.727120257476919 ], [ 128.869073994042878, 37.730867186023424 ], [ 128.867899842061291, 37.735426508781352 ], [ 128.879315654646064, 37.742088754687451 ], [ 128.879422697876066, 37.745377852606104 ], [ 128.895331420508967, 37.749436654956746 ] ] ] ] } },
{ "type": "Feature", "properties": { "emd_cd": "51150117", "emd_nm": "회산동" }, "geometry": { "type": "MultiPolygon", "coordinates": [ [ [ [ 128.879422697872883, 37.745377852606168 ], [ 128.879315654642909, 37.742088754687501 ], [ 128.867899842058222, 37.735426508781444 ], [ 128.868952850962785, 37.733476932979855 ], [ 128.867072510569471, 37.730090271939439 ], [ 128.859465791803871, 37.730117831047288 ], [ 128.858987703732879, 37.732777591074367 ], [ 128.855467920878823, 37.734517033197854 ], [ 128.858597906514916, 37.737717124142385 ], [ 128.860093156707762, 37.744747852420218 ], [ 128.863658408290235, 37.745336989321189 ], [ 128.873016483728463, 37.743218988057713 ], [ 128.879422697872883, 37.745377852606168 ] ] ] ] } },
{ "type": "Feature", "properties": { "emd_cd": "51150118", "emd_nm": "장현동" }, "geometry": { "type": "MultiPolygon", "coordinates": [ [ [ [ 128.889698557423571, 37.73473642435814 ], [ 128.900594075284715, 37.734080039466605 ], [ 128.904720618131222, 37.730027038368185 ], [ 128.902228759602082, 37.72863980588977 ], [ 128.902916818912331, 37.726437435908053 ], [ 128.89943839129711, 37.72668283493185 ], [ 128.892923848128817, 37.721648576986205 ], [ 128.8875792612927, 37.724911953357847 ], [ 128.888326938943351, 37.726250200286152 ], [ 128.886798111147669, 37.727870926352438 ], [ 128.883559146789423, 37.727095189180424 ], [ 128.889698557423571, 37.73473642435814 ] ] ] ] } },
{ "type": "Feature", "properties": { "emd_cd": "51150119", "emd_nm": "박월동" }, "geometry": { "type": "MultiPolygon", "coordinates": [ [ [ [ 128.905810626017995, 37.712248993166995 ], [ 128.907954650506582, 37.71918536865401 ], [ 128.905796907456306, 37.723502115566546 ], [ 128.906221895873813, 37.726974173647356 ], [ 128.902522504906443, 37.729216201378392 ], [ 128.904720618134547, 37.730027038368121 ], [ 128.903366024525496, 37.733190111266651 ], [ 128.905171523350361, 37.734726697993878 ], [ 128.912589829790591, 37.734411154568328 ], [ 128.913611705851594, 37.732114978041395 ], [ 128.917169445079423, 37.731627939904023 ], [ 128.917094506579815, 37.729729609604611 ], [ 128.918927866618247, 37.730138576562474 ], [ 128.917189707722258, 37.725604234498654 ], [ 128.918456106030533, 37.721796403738452 ], [ 128.917579776841876, 37.718354932983154 ], [ 128.912211017610986, 37.717691039757561 ], [ 128.908487432768226, 37.711377639603988 ], [ 128.905810626017995, 37.712248993166995 ] ] ] ] } },
{ "type": "Feature", "properties": { "emd_cd": "51150120", "emd_nm": "담산동" }, "geometry": { "type": "MultiPolygon", "coordinates": [ [ [ [ 128.905810626014613, 37.712248993167016 ], [ 128.901290042940133, 37.711907842819727 ], [ 128.898177683084299, 37.713519219203654 ], [ 128.898578762420641, 37.716686087389519 ], [ 128.896642745286613, 37.716433435045161 ], [ 128.895031100257938, 37.720277914917148 ], [ 128.893127344463267, 37.720760655950798 ], [ 128.89943839129711, 37.72668283493185 ], [ 128.902916818912331, 37.726437435908053 ], [ 128.902574112986628, 37.729186215580192 ], [ 128.906221895870402, 37.726974173647406 ], [ 128.905796907452981, 37.723502115566589 ], [ 128.907954650503115, 37.719185368654109 ], [ 128.905810626014613, 37.712248993167016 ] ] ] ] } },
{ "type": "Feature", "properties": { "emd_cd": "51150121", "emd_nm": "노암동" }, "geometry": { "type": "MultiPolygon", "coordinates": [ [ [ [ 128.889698557426811, 37.734736424358104 ], [ 128.888820351794209, 37.738976635371635 ], [ 128.893510999467821, 37.744821413245596 ], [ 128.893167050105063, 37.748335359694273 ], [ 128.904152398820003, 37.75406035224151 ], [ 128.908006103303933, 37.748576091709054 ], [ 128.915172020470607, 37.744456895479985 ], [ 128.913607813213531, 37.740769795767093 ], [ 128.900508874799101, 37.739735786997208 ], [ 128.895176240729057, 37.733815798847587 ], [ 128.889698557426811, 37.734736424358104 ] ] ] ] } },
{ "type": "Feature", "properties": { "emd_cd": "51150122", "emd_nm": "유산동" }, "geometry": { "type": "MultiPolygon", "coordinates": [ [ [ [ 128.915172020467082, 37.744456895480035 ], [ 128.920448731940667, 37.741047429887239 ], [ 128.93008697652229, 37.739791669294696 ], [ 128.930254378487263, 37.738084797890394 ], [ 128.924217176792212, 37.73360864856452 ], [ 128.922233399691208, 37.735233776769405 ], [ 128.920344295638216, 37.730534281761201 ], [ 128.917484299524176, 37.729659279587189 ], [ 128.917169445075814, 37.731627939904136 ], [ 128.913611705848211, 37.732114978041508 ], [ 128.912589829787066, 37.734411154568477 ], [ 128.905171523347008, 37.734726697993928 ], [ 128.903238589372904, 37.732653391311402 ], [ 128.896812055843213, 37.734528042065442 ], [ 128.900508874795747, 37.739735786997301 ], [ 128.91360781321012, 37.740769795767186 ], [ 128.915172020467082, 37.744456895480035 ] ] ] ] } },
{ "type": "Feature", "properties": { "emd_cd": "51150123", "emd_nm": "월호평동" }, "geometry": { "type": "MultiPolygon", "coordinates": [ [ [ [ 128.941354125739394, 37.753545928450954 ], [ 128.943142136894295, 37.747859800732876 ], [ 128.946203450012433, 37.750714233705274 ], [ 128.947227465341314, 37.749346546638478 ], [ 128.95199121593177, 37.749240484641454 ], [ 128.948400486052179, 37.746033021093808 ], [ 128.948308944895302, 37.741390043614309 ], [ 128.933453756093002, 37.73410927941417 ], [ 128.934471918594852, 37.736382002025444 ], [ 128.930113428660576, 37.739702390932955 ], [ 128.936737458839531, 37.744131077328497 ], [ 128.934201330322054, 37.747110127048842 ], [ 128.937670812613703, 37.748140306841542 ], [ 128.938345202227396, 37.751853539278279 ], [ 128.941354125739394, 37.753545928450954 ] ] ] ] } },
{ "type": "Feature", "properties": { "emd_cd": "51150124", "emd_nm": "신석동" }, "geometry": { "type": "MultiPolygon", "coordinates": [ [ [ [ 128.929596373329701, 37.73751728719342 ], [ 128.927667661754811, 37.734774319910201 ], [ 128.926804115400387, 37.734112117277938 ], [ 128.929230635601328, 37.732722750078537 ], [ 128.926690298939434, 37.729364885446145 ], [ 128.92447208465893, 37.728889116871258 ], [ 128.922151786526513, 37.725403494182693 ], [ 128.917227667337073, 37.72482863020435 ], [ 128.922233399691208, 37.735233776769405 ], [ 128.924217176792212, 37.73360864856452 ], [ 128.929596373329701, 37.73751728719342 ] ] ] ] } },
{ "type": "Feature", "properties": { "emd_cd": "51150125", "emd_nm": "입암동" }, "geometry": { "type": "MultiPolygon", "coordinates": [ [ [ [ 128.925262546796461, 37.753719806825849 ], [ 128.917064072499215, 37.746684470218391 ], [ 128.910197233952204, 37.747457969296896 ], [ 128.904152398816649, 37.754060352241581 ], [ 128.91342289108249, 37.7654914590346 ], [ 128.928241440156938, 37.771040641849829 ], [ 128.930030848923451, 37.76992341829115 ], [ 128.929555126035723, 37.767668445296884 ], [ 128.921773465680303, 37.764987463546177 ], [ 128.920307190057514, 37.76180649211711 ], [ 128.921345786900503, 37.760192783614549 ], [ 128.927522472672052, 37.759343327165006 ], [ 128.925262546796461, 37.753719806825849 ] ] ] ] } },
{ "type": "Feature", "properties": { "emd_cd": "51150126", "emd_nm": "청량동" }, "geometry": { "type": "MultiPolygon", "coordinates": [ [ [ [ 128.922330821807662, 37.75033828028419 ], [ 128.931696202257683, 37.748760780115376 ], [ 128.935429365040392, 37.750152908334094 ], [ 128.933648790912429, 37.747625060911922 ], [ 128.93699135841581, 37.74452236917886 ], [ 128.930176492554608, 37.739352261035769 ], [ 128.916850367485125, 37.742469429090185 ], [ 128.910197233952204, 37.747457969296896 ], [ 128.917064072499215, 37.746684470218391 ], [ 128.922330821807662, 37.75033828028419 ] ] ] ] } },
{ "type": "Feature", "properties": { "emd_cd": "51150127", "emd_nm": "두산동" }, "geometry": { "type": "MultiPolygon", "coordinates": [ [ [ [ 128.920307190061038, 37.761806492116996 ], [ 128.921773465683827, 37.764987463546078 ], [ 128.929555126039361, 37.767668445296806 ], [ 128.929101331418195, 37.769432909802973 ], [ 128.937295451927184, 37.769396126790951 ], [ 128.937685016945579, 37.767381751136817 ], [ 128.93355223265678, 37.760586408978213 ], [ 128.927522472675605, 37.759343327164906 ], [ 128.921345786903998, 37.760192783614507 ], [ 128.920307190061038, 37.761806492116996 ] ] ] ] } },
{ "type": "Feature", "properties": { "emd_cd": "51150128", "emd_nm": "학동" }, "geometry": { "type": "MultiPolygon", "coordinates": [ [ [ [ 128.934209113705094, 37.761237729062785 ], [ 128.938815802091966, 37.758223930288224 ], [ 128.937802107065465, 37.756220048332416 ], [ 128.939883120962833, 37.756201261955553 ], [ 128.937670812613703, 37.748140306841542 ], [ 128.934201330322054, 37.747110127048842 ], [ 128.935518304782619, 37.749714956022643 ], [ 128.934501263536532, 37.750327161608361 ], [ 128.931696202257683, 37.748760780115376 ], [ 128.921738832709167, 37.749979424758095 ], [ 128.925262546796461, 37.753719806825849 ], [ 128.927356788948543, 37.759217719360663 ], [ 128.934209113705094, 37.761237729062785 ] ] ] ] } },
{ "type": "Feature", "properties": { "emd_cd": "51150129", "emd_nm": "병산동" }, "geometry": { "type": "MultiPolygon", "coordinates": [ [ [ [ 128.961061380397012, 37.752346487631677 ], [ 128.95905249546874, 37.750150229353544 ], [ 128.953371202894914, 37.751864555602381 ], [ 128.953413763110177, 37.749888567612985 ], [ 128.951787946418278, 37.748993310447794 ], [ 128.947227465345122, 37.749346546638421 ], [ 128.946203450016242, 37.750714233705111 ], [ 128.943142136897933, 37.747859800732805 ], [ 128.941354125743061, 37.75354592845089 ], [ 128.938441511829694, 37.753315687638171 ], [ 128.939883120966641, 37.756201261955454 ], [ 128.937802107069132, 37.756220048332295 ], [ 128.93910083288759, 37.757817226228802 ], [ 128.93404987729545, 37.761643204758741 ], [ 128.937685016945579, 37.767381751136817 ], [ 128.937295451927184, 37.769396126790951 ], [ 128.93006987483389, 37.769576077663977 ], [ 128.92871523047711, 37.770652433587635 ], [ 128.937736873250941, 37.769706458260444 ], [ 128.940427435598082, 37.77077378917032 ], [ 128.949322562886266, 37.76907056108449 ], [ 128.951354643594073, 37.766899476794372 ], [ 128.948081692260473, 37.765812995590792 ], [ 128.946573074003027, 37.76121036593635 ], [ 128.947894680869382, 37.761426439192334 ], [ 128.947721762588912, 37.759092425072275 ], [ 128.949316951677048, 37.760908035242302 ], [ 128.949678956267434, 37.756892906399479 ], [ 128.961061380397012, 37.752346487631677 ] ] ] ] } },
{ "type": "Feature", "properties": { "emd_cd": "51150130", "emd_nm": "남항진동" }, "geometry": { "type": "MultiPolygon", "coordinates": [ [ [ [ 128.951354643594073, 37.766899476794372 ], [ 128.958263865871857, 37.761922832907807 ], [ 128.967223524219719, 37.753196768782395 ], [ 128.961061380397012, 37.752346487631677 ], [ 128.949678956267434, 37.756892906399479 ], [ 128.949316951677048, 37.760908035242302 ], [ 128.948012606256896, 37.758808079505386 ], [ 128.947894680869382, 37.761426439192334 ], [ 128.946579309037048, 37.76129606808572 ], [ 128.948081692260473, 37.765812995590792 ], [ 128.951354643594073, 37.766899476794372 ] ] ] ] } },
{ "type": "Feature", "properties": { "emd_cd": "51150131", "emd_nm": "유천동" }, "geometry": { "type": "MultiPolygon", "coordinates": [ [ [ [ 128.875462330688975, 37.770054004382224 ], [ 128.872298309597227, 37.762497846624775 ], [ 128.873214509376339, 37.758171028590979 ], [ 128.85924668229859, 37.758446310443901 ], [ 128.850900431596585, 37.763790363023141 ], [ 128.84751820066586, 37.773282884262535 ], [ 128.852972993734028, 37.776214850994812 ], [ 128.862379051993969, 37.774868249465335 ], [ 128.867284259892244, 37.765772144506819 ], [ 128.873725558623988, 37.770510973268017 ], [ 128.875462330688975, 37.770054004382224 ] ] ] ] } },
{ "type": "Feature", "properties": { "emd_cd": "51150132", "emd_nm": "지변동" }, "geometry": { "type": "MultiPolygon", "coordinates": [ [ [ [ 128.875462330688975, 37.770054004382224 ], [ 128.873725558623988, 37.770510973268017 ], [ 128.868816117521874, 37.766040526988654 ], [ 128.866661705957114, 37.766149349549316 ], [ 128.866419285719786, 37.768900398541795 ], [ 128.86414645288923, 37.769507647037166 ], [ 128.863974668539129, 37.772151341553489 ], [ 128.862059744428677, 37.773419971581326 ], [ 128.862627001464574, 37.774682584548295 ], [ 128.859299465346766, 37.77482518303237 ], [ 128.860296806149705, 37.780196450400005 ], [ 128.864700408068444, 37.781810031939678 ], [ 128.86731308477809, 37.780793272131632 ], [ 128.872586799288769, 37.781874694672815 ], [ 128.875743668864516, 37.777773847194005 ], [ 128.883804211437393, 37.774523163419843 ], [ 128.879652525199049, 37.771476564180105 ], [ 128.875549134804373, 37.771806639305161 ], [ 128.875462330688975, 37.770054004382224 ] ] ] ] } },
{ "type": "Feature", "properties": { "emd_cd": "51150133", "emd_nm": "죽헌동" }, "geometry": { "type": "MultiPolygon", "coordinates": [ [ [ [ 128.859359808934784, 37.775931675402191 ], [ 128.852972993734028, 37.776214850994812 ], [ 128.846657290994671, 37.772998026739877 ], [ 128.843956886183634, 37.774904528791346 ], [ 128.843764458308442, 37.777800151533377 ], [ 128.845725701363591, 37.780451795958854 ], [ 128.850228962702232, 37.780718292461039 ], [ 128.854269262128412, 37.785693376911347 ], [ 128.858821429416992, 37.785952371551609 ], [ 128.862404203785104, 37.783409061703765 ], [ 128.864658596773694, 37.784138718639575 ], [ 128.866879806070102, 37.787139935071338 ], [ 128.866883047672218, 37.791247335759373 ], [ 128.877457204548563, 37.784135294217847 ], [ 128.88960664648468, 37.783575227723105 ], [ 128.883804211437393, 37.774523163419843 ], [ 128.875743668864516, 37.777773847194005 ], [ 128.872586799288769, 37.781874694672815 ], [ 128.860394561500215, 37.780293600450754 ], [ 128.859359808934784, 37.775931675402191 ] ] ] ] } },
{ "type": "Feature", "properties": { "emd_cd": "51150134", "emd_nm": "대전동" }, "geometry": { "type": "MultiPolygon", "coordinates": [ [ [ [ 128.838758124187876, 37.787417408228556 ], [ 128.840552457422973, 37.790427159102968 ], [ 128.839303244143849, 37.793547691714899 ], [ 128.842912652756297, 37.795880975646824 ], [ 128.844437488828333, 37.800290461575585 ], [ 128.854991661000639, 37.803675659038774 ], [ 128.858290347140297, 37.806586907220229 ], [ 128.862934948631079, 37.802064304986104 ], [ 128.864392730908691, 37.794189933929026 ], [ 128.866883047675259, 37.791247335759358 ], [ 128.866879806073115, 37.787139935071252 ], [ 128.864658596776707, 37.784138718639475 ], [ 128.862404203788145, 37.783409061703658 ], [ 128.858821429419947, 37.785952371551495 ], [ 128.854269262131396, 37.785693376911262 ], [ 128.850228962705188, 37.780718292460996 ], [ 128.84572570136649, 37.780451795958818 ], [ 128.843910272673241, 37.778672192609768 ], [ 128.840701970279412, 37.779884102684306 ], [ 128.838758124187876, 37.787417408228556 ] ] ] ] } },
{ "type": "Feature", "properties": { "emd_cd": "51150135", "emd_nm": "운정동" }, "geometry": { "type": "MultiPolygon", "coordinates": [ [ [ [ 128.889080538612063, 37.782025596807166 ], [ 128.889580385270193, 37.783675839499303 ], [ 128.883769536130103, 37.783932569834143 ], [ 128.880176614607024, 37.786809313874542 ], [ 128.886731331438568, 37.789097333874203 ], [ 128.885514174829694, 37.794638829616709 ], [ 128.888744576524573, 37.791264199551783 ], [ 128.887889068202981, 37.789496065413147 ], [ 128.896353442299301, 37.79178815071063 ], [ 128.901373544218245, 37.7973042362378 ], [ 128.906447129363698, 37.793443861894971 ], [ 128.90410444150487, 37.790620375574072 ], [ 128.906083116777637, 37.792206854848189 ], [ 128.90748788073617, 37.788326338877823 ], [ 128.898754604755737, 37.784741902038846 ], [ 128.899549706003683, 37.782288939556572 ], [ 128.895152087626229, 37.780497302979931 ], [ 128.892129070676333, 37.78416810080963 ], [ 128.889080538612063, 37.782025596807166 ] ] ] ] } },
{ "type": "Feature", "properties": { "emd_cd": "51150136", "emd_nm": "난곡동" }, "geometry": { "type": "MultiPolygon", "coordinates": [ [ [ [ 128.885514174829694, 37.794638829616758 ], [ 128.886731331438568, 37.789097333874153 ], [ 128.880299231932895, 37.78723343845099 ], [ 128.883769536130075, 37.783932569834143 ], [ 128.880892076751365, 37.783276772731554 ], [ 128.868103948169733, 37.789474106089536 ], [ 128.864392730905621, 37.794189933929069 ], [ 128.864422747719232, 37.798270395265206 ], [ 128.872344858116065, 37.794560807250491 ], [ 128.875483003566927, 37.794237087963545 ], [ 128.881290508348712, 37.796559356112198 ], [ 128.885514174829694, 37.794638829616758 ] ] ] ] } },
{ "type": "Feature", "properties": { "emd_cd": "51150137", "emd_nm": "저동" }, "geometry": { "type": "MultiPolygon", "coordinates": [ [ [ [ 128.880146062693399, 37.796214802248407 ], [ 128.886224361196128, 37.803320813037487 ], [ 128.885929319206411, 37.806056616534256 ], [ 128.889671232105286, 37.806675957402391 ], [ 128.897108479705508, 37.80605410891711 ], [ 128.904910956206606, 37.800274389561679 ], [ 128.896353442299386, 37.791788150710651 ], [ 128.887889068202981, 37.789496065413147 ], [ 128.888744576524545, 37.791264199551847 ], [ 128.885347376487431, 37.794799692713134 ], [ 128.880146062693399, 37.796214802248407 ] ] ] ] } },
{ "type": "Feature", "properties": { "emd_cd": "51150138", "emd_nm": "안현동" }, "geometry": { "type": "MultiPolygon", "coordinates": [ [ [ [ 128.861930017366973, 37.803035813634786 ], [ 128.866995722243502, 37.806138270220075 ], [ 128.87094496241761, 37.803974699057918 ], [ 128.874121729950701, 37.804327152184904 ], [ 128.879270242496062, 37.810787241513516 ], [ 128.878542549228911, 37.811920222877625 ], [ 128.886508625742948, 37.812506221159452 ], [ 128.891158847315637, 37.8189645116015 ], [ 128.907921248708817, 37.805619000212147 ], [ 128.906934800464313, 37.800909726168207 ], [ 128.904910956210017, 37.800274389561594 ], [ 128.896824172967428, 37.806168169372071 ], [ 128.885929319209566, 37.806056616534107 ], [ 128.886247173913546, 37.803371567990567 ], [ 128.882766635356319, 37.798195795167267 ], [ 128.874938987344507, 37.794183006092467 ], [ 128.867588631939981, 37.795775747763727 ], [ 128.861930017366973, 37.803035813634786 ] ] ], [ [ [ 128.910287569513571, 37.807300483590531 ], [ 128.910208141158932, 37.807564752331601 ], [ 128.910416474526841, 37.807497387296316 ], [ 128.910287569513571, 37.807300483590531 ] ] ], [ [ [ 128.912592857816605, 37.809748871105562 ], [ 128.913059238179045, 37.810146181530072 ], [ 128.913236058772299, 37.810044488645829 ], [ 128.912592857816605, 37.809748871105562 ] ] ], [ [ [ 128.912330461216243, 37.810509120849922 ], [ 128.912897307548889, 37.810511629888765 ], [ 128.912910122490558, 37.810364667315021 ], [ 128.912330461216243, 37.810509120849922 ] ] ] ] } },
{ "type": "Feature", "properties": { "emd_cd": "51150139", "emd_nm": "운산동" }, "geometry": { "type": "MultiPolygon", "coordinates": [ [ [ [ 128.921131672671521, 37.719168151426466 ], [ 128.917117849096911, 37.724704804126659 ], [ 128.923164364205661, 37.725979716775768 ], [ 128.924472084662483, 37.728889116871102 ], [ 128.92917862424801, 37.732406209667182 ], [ 128.926804115403854, 37.734112117277832 ], [ 128.930445277078093, 37.739310735886669 ], [ 128.934471918598518, 37.73638200202533 ], [ 128.933453756096611, 37.734109279414099 ], [ 128.937372832806773, 37.736726892403631 ], [ 128.943220653269464, 37.735928748552858 ], [ 128.947805591483927, 37.730131325521889 ], [ 128.944741654702995, 37.725352742015424 ], [ 128.941920297398042, 37.724630496353356 ], [ 128.939657015366265, 37.719614368635305 ], [ 128.930202996554186, 37.715658788553085 ], [ 128.92341052139156, 37.71935920144486 ], [ 128.921131672671521, 37.719168151426466 ] ] ] ] } },
{ "type": "Feature", "properties": { "emd_cd": "51150250", "emd_nm": "주문진읍" }, "geometry": { "type": "MultiPolygon", "coordinates": [ [ [ [ 128.661283190714272, 37.873209544017712 ], [ 128.667079363830283, 37.882039617244878 ], [ 128.666815887093009, 37.885877560813874 ], [ 128.671332504736284, 37.886467338088345 ], [ 128.676339775973446, 37.889819180990443 ], [ 128.682828389181964, 37.889905937432218 ], [ 128.702164857200557, 37.898405176753926 ], [ 128.708811795290956, 37.897285921839945 ], [ 128.713369134834124, 37.898754744377854 ], [ 128.718607997924892, 37.903483027157378 ], [ 128.72331051865882, 37.901890995418782 ], [ 128.727047987601452, 37.902673447774369 ], [ 128.73241054760453, 37.899876984478894 ], [ 128.736380226301833, 37.903414560070701 ], [ 128.744660274595816, 37.90420858030182 ], [ 128.746943804222781, 37.909513307373238 ], [ 128.753699243793108, 37.912251825650543 ], [ 128.762424794867542, 37.90982208147684 ], [ 128.773142812241389, 37.911063213707727 ], [ 128.775534711936359, 37.91011552480748 ], [ 128.778317750444415, 37.913410678522972 ], [ 128.783011946946544, 37.914690606232469 ], [ 128.793148855708409, 37.912205482566428 ], [ 128.803428629118343, 37.913009208771115 ], [ 128.809589047716202, 37.91736315394585 ], [ 128.823489423065098, 37.907421617131746 ], [ 128.830459707107025, 37.90614249857596 ], [ 128.831869715009248, 37.903818655551646 ], [ 128.829516194858513, 37.904560998749247 ], [ 128.830789166678983, 37.903832778431457 ], [ 128.829249403464416, 37.903704962363548 ], [ 128.82978050089369, 37.902418552579157 ], [ 128.834446777251912, 37.899543739338654 ], [ 128.834381193141496, 37.8948291849604 ], [ 128.832476033647112, 37.891418621332541 ], [ 128.834768723184339, 37.885950328443585 ], [ 128.832974985195335, 37.887767995003124 ], [ 128.832360798418705, 37.891400671270816 ], [ 128.833003624267604, 37.894489621469226 ], [ 128.829797382204561, 37.893322840951768 ], [ 128.830758246682507, 37.891566094126603 ], [ 128.828455732597462, 37.888805986072775 ], [ 128.831420575443389, 37.887894656502326 ], [ 128.83024559597996, 37.885883246352044 ], [ 128.831976790844493, 37.887099101022272 ], [ 128.831606895813167, 37.885737789396394 ], [ 128.829540103953093, 37.885631738708447 ], [ 128.83156798004984, 37.884834622755051 ], [ 128.830112675847886, 37.884431036200176 ], [ 128.831114977416888, 37.882969095388667 ], [ 128.836103876855503, 37.886660548467276 ], [ 128.83713459926858, 37.884559830828465 ], [ 128.831215861961709, 37.882963772673243 ], [ 128.836462506280128, 37.876642538004226 ], [ 128.829880000872095, 37.87496142992822 ], [ 128.836286471720655, 37.870523775093808 ], [ 128.832036576026894, 37.869657397879848 ], [ 128.83000561236986, 37.866565469602861 ], [ 128.826833865951357, 37.865172986280186 ], [ 128.827467468061286, 37.863964787905495 ], [ 128.826849997261434, 37.86493969319433 ], [ 128.824678077460931, 37.862890365874769 ], [ 128.821158175887916, 37.865511165456198 ], [ 128.815605951356162, 37.863476193305871 ], [ 128.813348039686048, 37.866907646357646 ], [ 128.804771406150337, 37.863761889736161 ], [ 128.801139777840433, 37.86451718755341 ], [ 128.794797095574239, 37.862702194216659 ], [ 128.792817823672664, 37.860818418014951 ], [ 128.790186486137657, 37.861232798073395 ], [ 128.787478680406622, 37.858360017683168 ], [ 128.781411642393522, 37.858379843520567 ], [ 128.774602215739776, 37.864420356967635 ], [ 128.770949291348671, 37.86440292661144 ], [ 128.766231031329937, 37.866855937382702 ], [ 128.765071475130924, 37.86931535445477 ], [ 128.755680988862736, 37.866719611424308 ], [ 128.749648065702218, 37.869314984698029 ], [ 128.744558615809893, 37.867912818082026 ], [ 128.739317106497339, 37.869083034854206 ], [ 128.73068819555877, 37.866523544504432 ], [ 128.725321812835006, 37.871688925206598 ], [ 128.7142355198757, 37.870734536831314 ], [ 128.711381787398238, 37.873378760327199 ], [ 128.705530457997384, 37.87387499192144 ], [ 128.694439596688142, 37.869993487333424 ], [ 128.678322059216526, 37.872146863757465 ], [ 128.671137091569591, 37.870481942801597 ], [ 128.665862756173254, 37.867224879259169 ], [ 128.663225261100308, 37.867412582416222 ], [ 128.661283190714272, 37.873209544017712 ] ] ] ] } },
{ "type": "Feature", "properties": { "emd_cd": "51150310", "emd_nm": "성산면" }, "geometry": { "type": "MultiPolygon", "coordinates": [ [ [ [ 128.859246682301603, 37.758446310443809 ], [ 128.859397887197701, 37.755300964706933 ], [ 128.855552443854066, 37.75413290076856 ], [ 128.854236639747654, 37.751717529320693 ], [ 128.856515261240531, 37.748173562233475 ], [ 128.852773149207394, 37.747478655125157 ], [ 128.853918928012376, 37.746470217623454 ], [ 128.853002582208148, 37.74567462627396 ], [ 128.860093156710775, 37.744747852420204 ], [ 128.858597906517872, 37.737717124142335 ], [ 128.853918091692321, 37.733663945270322 ], [ 128.845942324273466, 37.731376595189204 ], [ 128.83818965822914, 37.725694336720892 ], [ 128.835230563709644, 37.721548629945424 ], [ 128.838875783875608, 37.716982273513764 ], [ 128.847832387562391, 37.714847000037679 ], [ 128.852314848989153, 37.709866856653548 ], [ 128.850425766932773, 37.70561418535079 ], [ 128.853711967595444, 37.702310629037974 ], [ 128.852699672638607, 37.700814974647066 ], [ 128.853815316141493, 37.694229172427178 ], [ 128.851813645774598, 37.689602216575061 ], [ 128.846137543462191, 37.687255803924117 ], [ 128.84576063472457, 37.683510694594389 ], [ 128.838664663318809, 37.685843541752739 ], [ 128.834279562681843, 37.690280085927839 ], [ 128.827262215551372, 37.692021202130391 ], [ 128.824450834097973, 37.696659488852731 ], [ 128.819531399928763, 37.695627409331216 ], [ 128.822033915605715, 37.69473187120731 ], [ 128.817977072949901, 37.692172389935308 ], [ 128.816021074413214, 37.686848232618473 ], [ 128.812993770391643, 37.685516177686651 ], [ 128.813986380489837, 37.691373294795682 ], [ 128.804438441613939, 37.696500235738981 ], [ 128.803760433152405, 37.698243103971095 ], [ 128.800345082163915, 37.698332955506331 ], [ 128.797211624415553, 37.697524670891731 ], [ 128.790179373849696, 37.689678133999351 ], [ 128.78516435259786, 37.68707268201787 ], [ 128.7735597946957, 37.68564776991132 ], [ 128.763954486490007, 37.68070128498433 ], [ 128.760711409851382, 37.682836249380465 ], [ 128.7611936137165, 37.685902681247732 ], [ 128.759271779839622, 37.686542185184344 ], [ 128.758584618526015, 37.694173404401958 ], [ 128.754560237026737, 37.699645231514438 ], [ 128.754935030898849, 37.707551956842735 ], [ 128.75318237965422, 37.71070752192211 ], [ 128.747825410331444, 37.714096646046904 ], [ 128.746908528738942, 37.718346913213168 ], [ 128.748479949223821, 37.719953137455619 ], [ 128.744554393018007, 37.723439428616665 ], [ 128.745671319371212, 37.726767815187166 ], [ 128.744026764385012, 37.728792732922535 ], [ 128.744995589990054, 37.731763478021861 ], [ 128.743799055409312, 37.741432087513623 ], [ 128.749490238585224, 37.742751650146282 ], [ 128.752164856815568, 37.746032507243221 ], [ 128.752768977415428, 37.750214261242107 ], [ 128.759288473210631, 37.75290206574202 ], [ 128.761017682070417, 37.755253099030305 ], [ 128.760110536666417, 37.761045411834047 ], [ 128.762391379321002, 37.765228691393013 ], [ 128.768016081675682, 37.768780377917238 ], [ 128.785489218000862, 37.768003041611934 ], [ 128.789519819287648, 37.770399166491366 ], [ 128.797414974177968, 37.764044961506514 ], [ 128.802009578025064, 37.766222316526282 ], [ 128.804911007724485, 37.763380410596476 ], [ 128.810432404457202, 37.764336353930481 ], [ 128.81010852633662, 37.765468340883636 ], [ 128.813936767589837, 37.766529328440861 ], [ 128.819814744874236, 37.783979884096198 ], [ 128.828003805257907, 37.788610060807926 ], [ 128.836989747164978, 37.788275219310528 ], [ 128.839882497251665, 37.785917902820898 ], [ 128.840701970279412, 37.779884102684306 ], [ 128.843910272673241, 37.778672192609768 ], [ 128.843956886186504, 37.774904528791289 ], [ 128.848072930382386, 37.772572735071222 ], [ 128.850900431599484, 37.763790363023098 ], [ 128.859246682301603, 37.758446310443809 ] ] ] ] } },
{ "type": "Feature", "properties": { "emd_cd": "51150320", "emd_nm": "왕산면" }, "geometry": { "type": "MultiPolygon", "coordinates": [ [ [ [ 128.678877866051323, 37.567060862205622 ], [ 128.681434885005416, 37.573825137641471 ], [ 128.683955699009488, 37.593847075519321 ], [ 128.691971298109422, 37.592037654735826 ], [ 128.698922688760092, 37.593516036419835 ], [ 128.703442113634765, 37.589999577868006 ], [ 128.712077210975679, 37.58863655447194 ], [ 128.712071134588598, 37.590866489796817 ], [ 128.71634577245888, 37.593382157199898 ], [ 128.716652113518677, 37.604268446210661 ], [ 128.72302447903644, 37.611316453663015 ], [ 128.736560033493816, 37.609749892849003 ], [ 128.735834509200089, 37.62870397877132 ], [ 128.728697375180019, 37.636804337324335 ], [ 128.733769371924268, 37.64683518723897 ], [ 128.731767508978777, 37.649784137299996 ], [ 128.733469948776559, 37.65489681689531 ], [ 128.743667445584663, 37.658828121106168 ], [ 128.745759036826598, 37.665027804926943 ], [ 128.751886143300453, 37.667576562563092 ], [ 128.752466064412459, 37.669779708413877 ], [ 128.765027931673444, 37.672917166582351 ], [ 128.763299939694519, 37.678954840204568 ], [ 128.76560661015165, 37.68256133742409 ], [ 128.7735597946957, 37.68564776991132 ], [ 128.78516435259786, 37.687072682017877 ], [ 128.790179373849696, 37.689678133999344 ], [ 128.798212906291326, 37.698239517298646 ], [ 128.803760433152405, 37.698243103971116 ], [ 128.804438441613939, 37.696500235738981 ], [ 128.813986380489837, 37.691373294795689 ], [ 128.812993770391643, 37.685516177686665 ], [ 128.816021074413243, 37.686848232618473 ], [ 128.817977072949901, 37.692172389935308 ], [ 128.822033915605715, 37.694731871207317 ], [ 128.819531399928763, 37.695627409331223 ], [ 128.824450834097973, 37.696659488852731 ], [ 128.827262215551372, 37.692021202130377 ], [ 128.834279562681843, 37.690280085927839 ], [ 128.838664663318809, 37.685843541752739 ], [ 128.846063034153701, 37.683372443246974 ], [ 128.851580609196645, 37.67647559015419 ], [ 128.854495543953334, 37.676574997087947 ], [ 128.861734435777038, 37.671752309143812 ], [ 128.869162608781522, 37.672994111711176 ], [ 128.873776586980426, 37.669137396234277 ], [ 128.873293203759431, 37.666720398764959 ], [ 128.881292718265371, 37.663301384960135 ], [ 128.882469554820148, 37.659745334301391 ], [ 128.886564266477478, 37.65946007486928 ], [ 128.893483718837501, 37.655205733598663 ], [ 128.895383168804244, 37.642419748912808 ], [ 128.887249280557654, 37.63067965971328 ], [ 128.904626186921689, 37.617249963697283 ], [ 128.89652322669167, 37.613315446996971 ], [ 128.891164720676414, 37.607720134988227 ], [ 128.88555256655161, 37.599559306867697 ], [ 128.884479556058352, 37.592915741368344 ], [ 128.877709118621652, 37.588493790827407 ], [ 128.873538721160543, 37.589674444763119 ], [ 128.869376059530936, 37.580108668277191 ], [ 128.86379315477717, 37.575215694150614 ], [ 128.861946399641653, 37.570463320205661 ], [ 128.86254971441295, 37.564652980794605 ], [ 128.858792440664416, 37.561221442210993 ], [ 128.859183671349456, 37.555903569954943 ], [ 128.861978273999569, 37.553071227453337 ], [ 128.859157009311531, 37.547775348162602 ], [ 128.859500333562977, 37.540727490382423 ], [ 128.855271868686032, 37.536392491304419 ], [ 128.855893748099163, 37.533013462247602 ], [ 128.853591602697747, 37.529302605576092 ], [ 128.85453059199213, 37.524910402226844 ], [ 128.848383286222713, 37.521800177457074 ], [ 128.850117880265685, 37.519779615681138 ], [ 128.84907518862704, 37.51554737766525 ], [ 128.84311273157698, 37.512566009557595 ], [ 128.833963735214326, 37.513138907847534 ], [ 128.830490469724168, 37.510089318075792 ], [ 128.813753736380448, 37.503295798357669 ], [ 128.814497152160698, 37.506317445655753 ], [ 128.811685491865688, 37.509933166660417 ], [ 128.797617163435945, 37.518449737639187 ], [ 128.79814954065796, 37.527449896622237 ], [ 128.793696351600033, 37.529780700535369 ], [ 128.792028296587034, 37.53276298707349 ], [ 128.792101286412901, 37.538244015949033 ], [ 128.777362063490301, 37.544171674321873 ], [ 128.774144486981498, 37.542772969257527 ], [ 128.767030961295632, 37.543631533002447 ], [ 128.762006709389851, 37.541503237994689 ], [ 128.748686398908177, 37.546903352399859 ], [ 128.742366075565599, 37.545893885830083 ], [ 128.737648473692786, 37.547514455253896 ], [ 128.722892309582051, 37.534887678347822 ], [ 128.720856219891488, 37.529181759801254 ], [ 128.707096441284051, 37.532191899968367 ], [ 128.694053670223951, 37.541245207785323 ], [ 128.689044928701975, 37.552548624128619 ], [ 128.683496494659238, 37.557148749783238 ], [ 128.683576447648704, 37.563414660222001 ], [ 128.678877866051323, 37.567060862205622 ] ] ] ] } },
{ "type": "Feature", "properties": { "emd_cd": "51150330", "emd_nm": "구정면" }, "geometry": { "type": "MultiPolygon", "coordinates": [ [ [ [ 128.938506530904533, 37.718947251909775 ], [ 128.939509868333232, 37.716967145631024 ], [ 128.938474075144256, 37.715796088105606 ], [ 128.943286594711083, 37.711511143056065 ], [ 128.941541475959127, 37.708074592133258 ], [ 128.93584360628077, 37.70474732756896 ], [ 128.930231207641725, 37.697742290878686 ], [ 128.923469148413062, 37.694673740596933 ], [ 128.920415015396628, 37.690702124270253 ], [ 128.921491755265066, 37.688504934250176 ], [ 128.91770730733765, 37.685633696225011 ], [ 128.91443921941169, 37.680149243281221 ], [ 128.90385887116625, 37.674873550347471 ], [ 128.902862945138764, 37.671818001155707 ], [ 128.904468480540118, 37.667959294295137 ], [ 128.900365503642206, 37.661864029652335 ], [ 128.901603544813781, 37.659687105256282 ], [ 128.893483718837501, 37.655205733598685 ], [ 128.886564266477478, 37.659460074869294 ], [ 128.882469554820148, 37.659745334301384 ], [ 128.881292718265343, 37.663301384960121 ], [ 128.873293203759431, 37.666720398764959 ], [ 128.873776586980426, 37.669137396234269 ], [ 128.869162608781522, 37.672994111711191 ], [ 128.861734435777038, 37.671752309143827 ], [ 128.849552503247878, 37.678347114071485 ], [ 128.84576063472457, 37.683510694594389 ], [ 128.846137543462191, 37.687255803924117 ], [ 128.851813645774598, 37.689602216575061 ], [ 128.853815316141493, 37.694229172427178 ], [ 128.852699672638607, 37.700814974647066 ], [ 128.853711967595444, 37.702310629037974 ], [ 128.850425766932773, 37.70561418535079 ], [ 128.852314848989153, 37.709866856653548 ], [ 128.847832387562391, 37.714847000037679 ], [ 128.838875783875608, 37.716982273513764 ], [ 128.835230563709644, 37.721548629945424 ], [ 128.83818965822914, 37.725694336720892 ], [ 128.845942324273466, 37.731376595189204 ], [ 128.855467920881779, 37.734517033197747 ], [ 128.858987703735892, 37.732777591074296 ], [ 128.859376427596914, 37.73015831172841 ], [ 128.862135338071909, 37.729340531042652 ], [ 128.867072510572541, 37.730090271939332 ], [ 128.868656972414584, 37.732694311676092 ], [ 128.869073994042878, 37.730867186023424 ], [ 128.876017731223726, 37.728255060069763 ], [ 128.886798111150853, 37.727870926352331 ], [ 128.888326938946619, 37.72625020028611 ], [ 128.887579261295969, 37.724911953357797 ], [ 128.892774991497674, 37.722593651099736 ], [ 128.896642745289938, 37.716433435045126 ], [ 128.898578762423995, 37.716686087389419 ], [ 128.898177683087624, 37.713519219203548 ], [ 128.901290042943515, 37.711907842819635 ], [ 128.908487432768226, 37.711377639603988 ], [ 128.912211017610986, 37.717691039757561 ], [ 128.917439533755726, 37.717983148646809 ], [ 128.918456106030533, 37.721796403738452 ], [ 128.929022260448619, 37.715622660401877 ], [ 128.938506530904533, 37.718947251909775 ] ] ] ] } },
{ "type": "Feature", "properties": { "emd_cd": "51150340", "emd_nm": "강동면" }, "geometry": { "type": "MultiPolygon", "coordinates": [ [ [ [ 128.948400486055846, 37.746033021093744 ], [ 128.953371202894914, 37.751864555602396 ], [ 128.959052495468768, 37.75015022935353 ], [ 128.961188495925427, 37.75240091319241 ], [ 128.967586760662073, 37.75325101266791 ], [ 128.973313903147613, 37.75063348402356 ], [ 128.984877121571969, 37.741265602267696 ], [ 128.986356241276013, 37.742387833413112 ], [ 128.985276773348318, 37.740454512521822 ], [ 128.989276587568384, 37.740199185878744 ], [ 128.988806158009567, 37.736993429191145 ], [ 128.989653500801296, 37.737009671877182 ], [ 128.991876391802293, 37.735993759624051 ], [ 128.988926225380652, 37.736829917288937 ], [ 128.990754352038834, 37.735798513753217 ], [ 128.989447343877856, 37.734906964897519 ], [ 128.995541546941297, 37.725901800317359 ], [ 128.999170128025213, 37.724415228587247 ], [ 128.998979469236303, 37.722969220620101 ], [ 129.004037790904448, 37.719695148966586 ], [ 129.008972376291894, 37.713744158046353 ], [ 129.011589615111205, 37.713066499901721 ], [ 129.015411067239427, 37.705503085664894 ], [ 129.034437023595075, 37.690716102850971 ], [ 129.035069757573808, 37.691309907185513 ], [ 129.035542624888421, 37.691555700546878 ], [ 129.034494143627512, 37.690665578510007 ], [ 129.040569208697917, 37.686024491529281 ], [ 129.043612935545013, 37.686682468866813 ], [ 129.042355564275567, 37.685564490627598 ], [ 129.043616966897162, 37.684487143580945 ], [ 129.045509847968475, 37.685416966802869 ], [ 129.050047357473346, 37.678820824116997 ], [ 129.055268382034569, 37.676724935920831 ], [ 129.055303860778508, 37.673188170007421 ], [ 129.057917411371648, 37.673012611298532 ], [ 129.056763001916636, 37.672967622351905 ], [ 129.057077688440614, 37.67024842796571 ], [ 129.054670000890383, 37.666653751760947 ], [ 129.055658698184772, 37.665030188618012 ], [ 129.053150504746128, 37.665476394081821 ], [ 129.055009688160936, 37.664921394703669 ], [ 129.055051246410926, 37.66130225187247 ], [ 129.056414333035463, 37.661343592949692 ], [ 129.056879374532116, 37.65876622722466 ], [ 129.052136768656936, 37.659941219295455 ], [ 129.044877556954674, 37.658729839120561 ], [ 129.041711508441495, 37.661723584082004 ], [ 129.030160436335763, 37.663250113735202 ], [ 129.028794460863992, 37.664600340166984 ], [ 129.025698295539399, 37.657199083803178 ], [ 129.027930472022831, 37.651697688710925 ], [ 129.024807722288188, 37.643275239719863 ], [ 129.013366937381875, 37.643218775302671 ], [ 128.999247897528903, 37.634358055380872 ], [ 128.981886446051249, 37.638678986360681 ], [ 128.979095600655313, 37.641974121962555 ], [ 128.976756124987645, 37.642260417150879 ], [ 128.966956132669623, 37.640924865974952 ], [ 128.965676723389947, 37.639467954214069 ], [ 128.958014290320364, 37.640922366602538 ], [ 128.94736283729344, 37.636967060671637 ], [ 128.937288020493099, 37.640152278980096 ], [ 128.929427138714459, 37.628671683440061 ], [ 128.925141265515151, 37.628725307122458 ], [ 128.917455025880599, 37.621803690095817 ], [ 128.904626186921689, 37.617249963697283 ], [ 128.887249280557654, 37.63067965971328 ], [ 128.895383168804244, 37.642419748912808 ], [ 128.893215634147282, 37.654741827873409 ], [ 128.901603544813781, 37.659687105256282 ], [ 128.900365503642206, 37.661864029652335 ], [ 128.904468480540118, 37.667959294295159 ], [ 128.902862945138764, 37.671818001155692 ], [ 128.90385887116625, 37.674873550347456 ], [ 128.91443921941169, 37.680149243281221 ], [ 128.91770730733765, 37.685633696225018 ], [ 128.921491755265095, 37.688504934250162 ], [ 128.920415015396657, 37.690702124270246 ], [ 128.923469148413062, 37.694673740596919 ], [ 128.930231207641725, 37.697742290878686 ], [ 128.93584360628077, 37.70474732756896 ], [ 128.941541475959127, 37.708074592133251 ], [ 128.943286594711083, 37.711511143056086 ], [ 128.938474075144285, 37.715796088105606 ], [ 128.939509868333232, 37.716967145631024 ], [ 128.938506530904533, 37.718947251909775 ], [ 128.940798971919634, 37.720638396163139 ], [ 128.941920297398042, 37.724630496353356 ], [ 128.944741654702995, 37.725352742015438 ], [ 128.947805591483927, 37.730131325521889 ], [ 128.944273161912776, 37.735447960922521 ], [ 128.938954284595383, 37.736309389313952 ], [ 128.940519804022671, 37.738364216113631 ], [ 128.948308944899111, 37.741390043614189 ], [ 128.948400486055846, 37.746033021093744 ] ] ] ] } },
{ "type": "Feature", "properties": { "emd_cd": "51150350", "emd_nm": "옥계면" }, "geometry": { "type": "MultiPolygon", "coordinates": [ [ [ [ 128.884346147362464, 37.593393707536258 ], [ 128.886810801258719, 37.602001048646628 ], [ 128.89652322669167, 37.613315446996964 ], [ 128.906060877084911, 37.618362177831855 ], [ 128.917455025880571, 37.621803690095824 ], [ 128.925141265515123, 37.628725307122451 ], [ 128.929427138714459, 37.628671683440047 ], [ 128.937288020493099, 37.640152278980096 ], [ 128.94736283729344, 37.636967060671623 ], [ 128.958014290320364, 37.640922366602538 ], [ 128.965676723389947, 37.639467954214069 ], [ 128.966956132669623, 37.640924865974959 ], [ 128.976756124987645, 37.642260417150901 ], [ 128.984579794446347, 37.637774713654608 ], [ 129.000351676668743, 37.63455440385043 ], [ 129.013366937381875, 37.643218775302671 ], [ 129.024807722288188, 37.643275239719884 ], [ 129.027930472022831, 37.651697688710932 ], [ 129.025698295539399, 37.657199083803164 ], [ 129.028794460863992, 37.664600340166984 ], [ 129.030160436335734, 37.663250113735202 ], [ 129.041711508441495, 37.661723584082004 ], [ 129.044877556954674, 37.658729839120561 ], [ 129.052136768656908, 37.659941219295455 ], [ 129.056424773406491, 37.658391561938657 ], [ 129.055202293936645, 37.653143293435114 ], [ 129.052609535622963, 37.652887450167746 ], [ 129.052510796469562, 37.65019726813744 ], [ 129.050669177548343, 37.647764638016739 ], [ 129.052212151244532, 37.652030694248381 ], [ 129.048023035658758, 37.65052503228182 ], [ 129.049792284977912, 37.64869038414426 ], [ 129.047752722719764, 37.649617152495317 ], [ 129.04636218601496, 37.647770056350332 ], [ 129.043421596766109, 37.642452416560538 ], [ 129.043750296592208, 37.639095634323795 ], [ 129.050247885916804, 37.626080352299212 ], [ 129.057737771562159, 37.626068318780163 ], [ 129.064348576703054, 37.622885244963662 ], [ 129.057989416461282, 37.625836376466275 ], [ 129.053928774260044, 37.625782568939712 ], [ 129.053921389459504, 37.621232350510041 ], [ 129.059789741514891, 37.620294462087742 ], [ 129.059783258192482, 37.622873072202751 ], [ 129.059987377837558, 37.622871439593013 ], [ 129.059853492191564, 37.618237851116888 ], [ 129.062278029437465, 37.617874082052388 ], [ 129.064441803667449, 37.612589942972541 ], [ 129.074451262552316, 37.604537037609084 ], [ 129.068637727321601, 37.598917005200988 ], [ 129.055722706508334, 37.597094012821991 ], [ 129.055000513134758, 37.594689271609205 ], [ 129.058669746808107, 37.591621833288123 ], [ 129.059595566879239, 37.588481455647241 ], [ 129.057005910344003, 37.586120685179068 ], [ 129.055990806968964, 37.581233963315292 ], [ 129.051000205687785, 37.576393650546684 ], [ 129.051372605031787, 37.570809826975328 ], [ 129.0487754763559, 37.564736363556015 ], [ 129.048227797920362, 37.558294989255202 ], [ 129.050323295813484, 37.553947987192096 ], [ 129.047130746086168, 37.546639535231968 ], [ 129.040911467202648, 37.547127912738532 ], [ 129.037988377543911, 37.549733250185824 ], [ 129.026202590198466, 37.545699856251048 ], [ 129.022437356151357, 37.540437279715313 ], [ 129.018748572701242, 37.538336416114056 ], [ 128.998550253826608, 37.542831410944935 ], [ 128.991215807267906, 37.53886812371794 ], [ 128.987643974044971, 37.53388968523609 ], [ 128.980561553481692, 37.533145518361366 ], [ 128.973345886737008, 37.53377851547485 ], [ 128.972161482124392, 37.536349078547538 ], [ 128.962781802149664, 37.543155424322883 ], [ 128.961234309633767, 37.548747006085513 ], [ 128.959542997693035, 37.548400571128397 ], [ 128.959729830966324, 37.546023648721125 ], [ 128.955125908306599, 37.54143875063987 ], [ 128.949247060550647, 37.539674537497731 ], [ 128.945632662037553, 37.541220482232347 ], [ 128.937259042056297, 37.537770706747388 ], [ 128.931975038115382, 37.53938406838018 ], [ 128.931407069379702, 37.542306779345317 ], [ 128.928058274992281, 37.543087508063088 ], [ 128.924763698415489, 37.547238482884957 ], [ 128.916215222041785, 37.548013830835153 ], [ 128.912920122650661, 37.552852981357312 ], [ 128.905739942606658, 37.55262020846228 ], [ 128.904170594586162, 37.563563542083429 ], [ 128.905729193253535, 37.567100028093179 ], [ 128.904065336151973, 37.571441169866858 ], [ 128.901017237706355, 37.571892162764371 ], [ 128.897762995645309, 37.586690599073847 ], [ 128.890246483998396, 37.588545621510896 ], [ 128.888789901444113, 37.592229494043139 ], [ 128.884346147362464, 37.593393707536258 ] ] ] ] } },
{ "type": "Feature", "properties": { "emd_cd": "51150360", "emd_nm": "사천면" }, "geometry": { "type": "MultiPolygon", "coordinates": [ [ [ [ 128.713892537545945, 37.76284182239872 ], [ 128.718954764618871, 37.766010819988999 ], [ 128.735044719187499, 37.781919547887853 ], [ 128.744770290529829, 37.78470227508042 ], [ 128.746015562936662, 37.787005737206144 ], [ 128.749179629238483, 37.786343381928063 ], [ 128.766102892996372, 37.791275702373881 ], [ 128.775351803859536, 37.797527202756832 ], [ 128.784692109874726, 37.798846935834696 ], [ 128.786899420470519, 37.809976209501379 ], [ 128.791608870585094, 37.816788983199885 ], [ 128.791480933868058, 37.82036827035089 ], [ 128.788595044213594, 37.82291906170618 ], [ 128.789293294069466, 37.824930985725103 ], [ 128.792069390803817, 37.825617431976269 ], [ 128.796182931060116, 37.829951890264233 ], [ 128.799899857836891, 37.830126257234404 ], [ 128.801489002526893, 37.835473257729511 ], [ 128.80445055469292, 37.837685839316045 ], [ 128.818117757714106, 37.843563586747351 ], [ 128.834802884743141, 37.842754771401687 ], [ 128.861220887879597, 37.850096064978224 ], [ 128.859659684865932, 37.851365697993273 ], [ 128.860680030851768, 37.853200354074694 ], [ 128.875757344926939, 37.841125589114235 ], [ 128.876374784492555, 37.840739200255605 ], [ 128.877482480944934, 37.841278282274473 ], [ 128.877866524788658, 37.841078477826031 ], [ 128.876591903244673, 37.838008697241982 ], [ 128.877969668288756, 37.838102750051661 ], [ 128.876697248473135, 37.837926975933208 ], [ 128.878863731362657, 37.836320926551267 ], [ 128.87923088219668, 37.834280148979822 ], [ 128.875878811976406, 37.837490290531825 ], [ 128.87558683733215, 37.834620650897719 ], [ 128.876846926655759, 37.834561673143448 ], [ 128.877560883516736, 37.834054454541409 ], [ 128.874381123865334, 37.833952320944682 ], [ 128.891135575258204, 37.818926938197642 ], [ 128.886508625742948, 37.812506221159452 ], [ 128.878542549228911, 37.811920222877625 ], [ 128.879270242496062, 37.810787241513516 ], [ 128.874121729950701, 37.804327152184904 ], [ 128.87094496241761, 37.803974699057918 ], [ 128.866995722243502, 37.806138270220075 ], [ 128.860974204142281, 37.8027911317986 ], [ 128.859550084770973, 37.806333363709562 ], [ 128.857317541522832, 37.806274756965095 ], [ 128.854991661000639, 37.803675659038774 ], [ 128.844437488828333, 37.800290461575578 ], [ 128.842912652756326, 37.795880975646831 ], [ 128.839303244143849, 37.793547691714899 ], [ 128.840552457422973, 37.790427159102968 ], [ 128.839471911875563, 37.787771908555506 ], [ 128.828003805257907, 37.788610060807919 ], [ 128.819814744874293, 37.783979884096183 ], [ 128.813936767589837, 37.766529328440832 ], [ 128.81010852633662, 37.765468340883636 ], [ 128.810432404457202, 37.764336353930481 ], [ 128.804911007724485, 37.763380410596469 ], [ 128.802009578025064, 37.766222316526282 ], [ 128.797414974177997, 37.764044961506492 ], [ 128.791058385008512, 37.770345091980907 ], [ 128.78548921800089, 37.768003041611919 ], [ 128.768016081675682, 37.768780377917246 ], [ 128.762391379321031, 37.765228691393013 ], [ 128.760110536666417, 37.76104541183404 ], [ 128.761017682070417, 37.755253099030305 ], [ 128.759288473210631, 37.752902065742042 ], [ 128.752768977415428, 37.750214261242093 ], [ 128.752164856815568, 37.746032507243221 ], [ 128.749490238585253, 37.742751650146296 ], [ 128.73966294120757, 37.74162729155529 ], [ 128.73188328964315, 37.747698985235168 ], [ 128.725362853402089, 37.74949585167213 ], [ 128.723133665926213, 37.751322940602648 ], [ 128.722363242349161, 37.75513388178527 ], [ 128.718055620526741, 37.756072596822321 ], [ 128.713892537545945, 37.76284182239872 ] ] ], [ [ [ 128.87698708850462, 37.831895998296737 ], [ 128.878867980615041, 37.832423440955523 ], [ 128.87891832422801, 37.83240365450267 ], [ 128.87698708850462, 37.831895998296737 ] ] ] ] } },
{ "type": "Feature", "properties": { "emd_cd": "51150370", "emd_nm": "연곡면" }, "geometry": { "type": "MultiPolygon", "coordinates": [ [ [ [ 128.580345474322996, 37.827993207970692 ], [ 128.582324455789063, 37.832405300361351 ], [ 128.581628109590952, 37.837689717682423 ], [ 128.583005047001961, 37.842131960873068 ], [ 128.586071866699427, 37.845227423797368 ], [ 128.584933782543288, 37.848139467376647 ], [ 128.587292248991247, 37.851985483441354 ], [ 128.587897522469461, 37.862043545572917 ], [ 128.591971449551011, 37.865597416743455 ], [ 128.597698261751134, 37.865958399758405 ], [ 128.60117511507471, 37.870708058494849 ], [ 128.620766004649312, 37.872351421176198 ], [ 128.623511433983168, 37.874955344654602 ], [ 128.624355769379633, 37.881645414751063 ], [ 128.634795740655505, 37.887616744110936 ], [ 128.638825658561359, 37.891789079926951 ], [ 128.637425455533617, 37.89199529694298 ], [ 128.642937909486164, 37.894885820160638 ], [ 128.647772622112484, 37.890928974959259 ], [ 128.659764734968689, 37.891772953821018 ], [ 128.664831413694316, 37.890503703217817 ], [ 128.667079363830283, 37.882039617244878 ], [ 128.661283190714272, 37.873209544017712 ], [ 128.663225261100308, 37.867412582416222 ], [ 128.678322059216526, 37.872146863757465 ], [ 128.694439596688142, 37.869993487333424 ], [ 128.700299590208857, 37.872757922030424 ], [ 128.709957290402713, 37.873670776380152 ], [ 128.7142355198757, 37.870734536831314 ], [ 128.725321812835006, 37.871688925206598 ], [ 128.73068819555877, 37.866523544504432 ], [ 128.739317106497339, 37.869083034854206 ], [ 128.744558615809893, 37.867912818082026 ], [ 128.749648065702218, 37.869314984698029 ], [ 128.755680988862736, 37.866719611424308 ], [ 128.765071475130924, 37.86931535445477 ], [ 128.766231031329937, 37.866855937382702 ], [ 128.770949291348671, 37.86440292661144 ], [ 128.774602215739776, 37.864420356967635 ], [ 128.781411642393522, 37.858379843520567 ], [ 128.787478680406622, 37.858360017683168 ], [ 128.790186486137657, 37.861232798073395 ], [ 128.792817823672664, 37.860818418014951 ], [ 128.794797095574239, 37.862702194216659 ], [ 128.801139777840433, 37.86451718755341 ], [ 128.804771406150337, 37.863761889736161 ], [ 128.813348039686048, 37.866907646357646 ], [ 128.815605951356162, 37.863476193305871 ], [ 128.821158175887916, 37.865511165456198 ], [ 128.824678077460931, 37.862890365874769 ], [ 128.826849997261434, 37.86493969319433 ], [ 128.826946575266135, 37.8643313039411 ], [ 128.827467468061286, 37.863964787905495 ], [ 128.826833865951357, 37.865172986280186 ], [ 128.833630590114211, 37.870780101601319 ], [ 128.836286471720655, 37.870523775093808 ], [ 128.829880000872095, 37.87496142992822 ], [ 128.836462506280128, 37.876642538004226 ], [ 128.845058551794295, 37.869155120125413 ], [ 128.848440979929336, 37.868311383694575 ], [ 128.849546924428978, 37.867331447222035 ], [ 128.850233669995873, 37.865972007904617 ], [ 128.848584080977133, 37.867555535117688 ], [ 128.849317982553771, 37.866330700171851 ], [ 128.846848016686295, 37.865717480308106 ], [ 128.847327073844212, 37.86240829762081 ], [ 128.850616767436634, 37.861882426857953 ], [ 128.860680030851768, 37.853200354074694 ], [ 128.859659684865932, 37.851365697993273 ], [ 128.861220887879597, 37.850096064978224 ], [ 128.834802884743141, 37.842754771401687 ], [ 128.818117757714106, 37.843563586747351 ], [ 128.806981977836614, 37.839254694030849 ], [ 128.801489002526893, 37.835473257729511 ], [ 128.799899857836891, 37.830126257234404 ], [ 128.796182931060116, 37.829951890264233 ], [ 128.788697964056979, 37.82411166158564 ], [ 128.791480933868058, 37.82036827035089 ], [ 128.791608870585094, 37.816788983199885 ], [ 128.786899420470519, 37.809976209501379 ], [ 128.784692109874726, 37.798846935834696 ], [ 128.775351803859536, 37.797527202756832 ], [ 128.766102892996372, 37.791275702373881 ], [ 128.749179629238483, 37.786343381928063 ], [ 128.746015562936662, 37.787005737206144 ], [ 128.744770290529829, 37.78470227508042 ], [ 128.735044719187499, 37.781919547887853 ], [ 128.718954764618871, 37.766010819988999 ], [ 128.713580413370579, 37.762525590423429 ], [ 128.710098132077121, 37.763726870912876 ], [ 128.711532393721853, 37.765045966532981 ], [ 128.708900022878737, 37.768049795420559 ], [ 128.704072113759963, 37.768378224692754 ], [ 128.698371819284461, 37.771333723697659 ], [ 128.696756477225762, 37.769838909823065 ], [ 128.695968969122674, 37.770824091655747 ], [ 128.69097226081945, 37.769720541829493 ], [ 128.684853291463668, 37.773051285300021 ], [ 128.67926269401292, 37.772904797632393 ], [ 128.670847323503722, 37.766876543746903 ], [ 128.667375241157202, 37.769794986966623 ], [ 128.655695061775361, 37.77142515312584 ], [ 128.643331816782592, 37.777185791956761 ], [ 128.639472124903705, 37.780205988555231 ], [ 128.638983815232621, 37.782436441697797 ], [ 128.633864213524447, 37.780271043955238 ], [ 128.63047090438647, 37.772945865706497 ], [ 128.627061284766995, 37.772736889070927 ], [ 128.623624840959792, 37.769586333144794 ], [ 128.614025705042849, 37.770539046393502 ], [ 128.610400988983486, 37.76620639046601 ], [ 128.602444530813585, 37.769348222779698 ], [ 128.598792793800584, 37.774501327155548 ], [ 128.601410217193006, 37.781333263322118 ], [ 128.599786091820476, 37.791610223205481 ], [ 128.601586865619964, 37.793768968544818 ], [ 128.600939090432121, 37.801738933228087 ], [ 128.598149297952773, 37.804377865903014 ], [ 128.599963798530041, 37.808816046672497 ], [ 128.5919184049705, 37.816037905855474 ], [ 128.584836166446649, 37.819171589428912 ], [ 128.581704707240505, 37.822832601165665 ], [ 128.580345474322996, 37.827993207970692 ] ] ] ] } }
]
}
