{
"type": "FeatureCollection",
"name": "51230",
"crs": { "type": "name", "properties": { "name": "urn:ogc:def:crs:OGC:1.3:CRS84" } },
"features": [
{ "type": "Feature", "properties": { "emd_cd": "51230101", "emd_nm": "성내동" }, "geometry": { "type": "MultiPolygon", "coordinates": [ [ [ [ 129.162203317424797, 37.441015195339681 ], [ 129.160410237365767, 37.439733358615129 ], [ 129.159331877080632, 37.440988015025908 ], [ 129.161811910578479, 37.444290186164892 ], [ 129.162203317424797, 37.441015195339681 ] ] ] ] } },
{ "type": "Feature", "properties": { "emd_cd": "51230102", "emd_nm": "성북동" }, "geometry": { "type": "MultiPolygon", "coordinates": [ [ [ [ 129.15860449285924, 37.446143097486505 ], [ 129.160123352788361, 37.440046718000247 ], [ 129.154753940612522, 37.440862184697103 ], [ 129.153728242359279, 37.446502320626763 ], [ 129.15860449285924, 37.446143097486505 ] ] ] ] } },
{ "type": "Feature", "properties": { "emd_cd": "51230103", "emd_nm": "읍상동" }, "geometry": { "type": "MultiPolygon", "coordinates": [ [ [ [ 129.162285912811029, 37.438761355929209 ], [ 129.160410237365767, 37.439733358615129 ], [ 129.162203317424797, 37.441015195339681 ], [ 129.163397377797935, 37.440559737569252 ], [ 129.162285912811029, 37.438761355929209 ] ] ] ] } },
{ "type": "Feature", "properties": { "emd_cd": "51230104", "emd_nm": "읍중동" }, "geometry": { "type": "MultiPolygon", "coordinates": [ [ [ [ 129.16385798747595, 37.441450148459403 ], [ 129.162127696802571, 37.441083414294368 ], [ 129.162988376859857, 37.442305638898155 ], [ 129.16385798747595, 37.441450148459403 ] ] ] ] } },
{ "type": "Feature", "properties": { "emd_cd": "51230105", "emd_nm": "당저동" }, "geometry": { "type": "MultiPolygon", "coordinates": [ [ [ [ 129.171122257475332, 37.447342104015995 ], [ 129.163994982006585, 37.445032140280453 ], [ 129.163335382013571, 37.442174067781885 ], [ 129.162110023686324, 37.444261480887057 ], [ 129.159268526492497, 37.443602877603851 ], [ 129.158060738273775, 37.449865913598508 ], [ 129.160657624972856, 37.450512377639711 ], [ 129.16327617120794, 37.446542664233689 ], [ 129.169985478405891, 37.449511470248957 ], [ 129.171122257475332, 37.447342104015995 ] ] ] ] } },
{ "type": "Feature", "properties": { "emd_cd": "51230106", "emd_nm": "교동" }, "geometry": { "type": "MultiPolygon", "coordinates": [ [ [ [ 129.189808997534868, 37.450507096542339 ], [ 129.189983940298191, 37.450695082909753 ], [ 129.190047441628508, 37.450667482938954 ], [ 129.189808997534868, 37.450507096542339 ] ] ], [ [ [ 129.158498147461529, 37.451197840722578 ], [ 129.157887544904213, 37.455164769999691 ], [ 129.164354953633136, 37.4553677008279 ], [ 129.169394957195948, 37.460284597226973 ], [ 129.166174907551209, 37.465581806814342 ], [ 129.171472707728867, 37.466436504404584 ], [ 129.1757681737827, 37.464008873252062 ], [ 129.176739642842847, 37.463972622114127 ], [ 129.178652764403466, 37.464850879941558 ], [ 129.17890561531749, 37.46475575112121 ], [ 129.177327972319034, 37.463710547298717 ], [ 129.186672072028216, 37.456278244248374 ], [ 129.187841679087569, 37.453599924960812 ], [ 129.186601089942485, 37.452520009718071 ], [ 129.189321524421246, 37.452044942974702 ], [ 129.189746801400787, 37.450212116155917 ], [ 129.18524320888676, 37.446488018009198 ], [ 129.182096594717478, 37.447261290512017 ], [ 129.181334534588814, 37.449119669736305 ], [ 129.172055030669924, 37.446662240800514 ], [ 129.174888334754996, 37.442760344683606 ], [ 129.170590880159239, 37.441633390533305 ], [ 129.173136736558263, 37.443674296628281 ], [ 129.170284868315804, 37.449444657003681 ], [ 129.16327617120794, 37.446542664233689 ], [ 129.161066916596099, 37.450144981144888 ], [ 129.158498147461529, 37.451197840722578 ] ] ], [ [ [ 129.186041660947865, 37.457256604356878 ], [ 129.186024074059105, 37.457385304327943 ], [ 129.186223738954766, 37.457337671682808 ], [ 129.186041660947865, 37.457256604356878 ] ] ], [ [ [ 129.175303961659665, 37.464730729385195 ], [ 129.175265772871597, 37.465075239329593 ], [ 129.175540636859637, 37.46494593729453 ], [ 129.175303961659665, 37.464730729385195 ] ] ] ] } },
{ "type": "Feature", "properties": { "emd_cd": "51230107", "emd_nm": "갈천동" }, "geometry": { "type": "MultiPolygon", "coordinates": [ [ [ [ 129.163176005911509, 37.455583803580801 ], [ 129.16045796114841, 37.461268867566652 ], [ 129.158665120040155, 37.460621154099066 ], [ 129.159573621906418, 37.462755927155065 ], [ 129.157893539640213, 37.4625877280968 ], [ 129.154552521580769, 37.465855971413724 ], [ 129.165637798231899, 37.473548810705125 ], [ 129.165038904970885, 37.471496228392382 ], [ 129.171472707728867, 37.466436504404584 ], [ 129.166174907551209, 37.465581806814342 ], [ 129.169394957195948, 37.460284597226973 ], [ 129.163176005911509, 37.455583803580801 ] ] ] ] } },
{ "type": "Feature", "properties": { "emd_cd": "51230108", "emd_nm": "증산동" }, "geometry": { "type": "MultiPolygon", "coordinates": [ [ [ [ 129.151015603034466, 37.46711931813617 ], [ 129.155206896110087, 37.474217163156403 ], [ 129.158166991039792, 37.476377502375755 ], [ 129.164928174499266, 37.473458252235631 ], [ 129.154552521580769, 37.465855971413724 ], [ 129.151015603034466, 37.46711931813617 ] ] ] ] } },
{ "type": "Feature", "properties": { "emd_cd": "51230109", "emd_nm": "우지동" }, "geometry": { "type": "MultiPolygon", "coordinates": [ [ [ [ 129.134674674275885, 37.45327459912972 ], [ 129.138195430656907, 37.462981057346468 ], [ 129.141298854795366, 37.466279779609614 ], [ 129.149106080047062, 37.464837474799317 ], [ 129.151015603034466, 37.46711931813617 ], [ 129.155903794849934, 37.465621187236671 ], [ 129.158140100146056, 37.462204420633746 ], [ 129.154273002397673, 37.456597923944138 ], [ 129.154485350388939, 37.454300166117889 ], [ 129.148824923528508, 37.450901571343543 ], [ 129.14812426960836, 37.447967179249922 ], [ 129.140650339875293, 37.449430987571631 ], [ 129.13955043562072, 37.451074289512171 ], [ 129.136821390120076, 37.449603830771458 ], [ 129.134674674275885, 37.45327459912972 ] ] ] ] } },
{ "type": "Feature", "properties": { "emd_cd": "51230110", "emd_nm": "마달동" }, "geometry": { "type": "MultiPolygon", "coordinates": [ [ [ [ 129.157893539640213, 37.4625877280968 ], [ 129.159573621906418, 37.462755927155065 ], [ 129.158665120040155, 37.460621154099066 ], [ 129.16045796114841, 37.461268867566652 ], [ 129.163176005911509, 37.455583803580801 ], [ 129.15783007467644, 37.455078367500548 ], [ 129.15860449285924, 37.446143097486505 ], [ 129.154591833829926, 37.446893521854662 ], [ 129.15441138124396, 37.445571608703531 ], [ 129.152025401252899, 37.445621892632637 ], [ 129.148637672493948, 37.448231076944403 ], [ 129.148824923528508, 37.450901571343543 ], [ 129.154485350388939, 37.454300166117889 ], [ 129.154273002397673, 37.456597923944138 ], [ 129.157893539640213, 37.4625877280968 ] ] ] ] } },
{ "type": "Feature", "properties": { "emd_cd": "51230111", "emd_nm": "자원동" }, "geometry": { "type": "MultiPolygon", "coordinates": [ [ [ [ 129.145664805630958, 37.448616586456126 ], [ 129.14462555186546, 37.445423572243179 ], [ 129.147904056660082, 37.440953452294714 ], [ 129.144555689413352, 37.436338820776697 ], [ 129.137274332820311, 37.43789965555537 ], [ 129.131950783009984, 37.437056286582013 ], [ 129.131508942120945, 37.44008741420474 ], [ 129.134481366420829, 37.444403972164253 ], [ 129.137336793205208, 37.4451070434557 ], [ 129.140650339875293, 37.449430987571631 ], [ 129.145664805630958, 37.448616586456126 ] ] ] ] } },
{ "type": "Feature", "properties": { "emd_cd": "51230112", "emd_nm": "평전동" }, "geometry": { "type": "MultiPolygon", "coordinates": [ [ [ [ 129.140650339875293, 37.449430987571631 ], [ 129.136510412483858, 37.444452101746521 ], [ 129.133772507757101, 37.444056753246244 ], [ 129.128902552539444, 37.444987436447505 ], [ 129.124571135076536, 37.450464174255217 ], [ 129.130441958318556, 37.456048074152768 ], [ 129.131117704565241, 37.454316322634099 ], [ 129.136110428529776, 37.452241825375879 ], [ 129.136821390120076, 37.449603830771458 ], [ 129.13955043562072, 37.451074289512171 ], [ 129.140650339875293, 37.449430987571631 ] ] ] ] } },
{ "type": "Feature", "properties": { "emd_cd": "51230113", "emd_nm": "등봉동" }, "geometry": { "type": "MultiPolygon", "coordinates": [ [ [ [ 129.108714046806625, 37.455868799331832 ], [ 129.113258079277671, 37.457544146619007 ], [ 129.116265496691085, 37.460686431652732 ], [ 129.123156636468224, 37.456967641280073 ], [ 129.127927642583757, 37.456830646504429 ], [ 129.128785574113834, 37.455331254121141 ], [ 129.124673718192838, 37.449478420111561 ], [ 129.128902552539444, 37.444987436447505 ], [ 129.134358546553983, 37.444087334030705 ], [ 129.131508942120945, 37.44008741420474 ], [ 129.132320913181985, 37.438988793118149 ], [ 129.128476341852036, 37.437436888975384 ], [ 129.124535187412732, 37.441181457118049 ], [ 129.12113959928206, 37.442054144534914 ], [ 129.114264221737983, 37.44754107377512 ], [ 129.112702738380335, 37.4528067751897 ], [ 129.108908342872894, 37.453417724072033 ], [ 129.108714046806625, 37.455868799331832 ] ] ] ] } },
{ "type": "Feature", "properties": { "emd_cd": "51230114", "emd_nm": "도경동" }, "geometry": { "type": "MultiPolygon", "coordinates": [ [ [ [ 129.1209683217796, 37.430776552222888 ], [ 129.118953150264872, 37.429494974584294 ], [ 129.116096912382204, 37.431264423311035 ], [ 129.106609383421187, 37.432139234435674 ], [ 129.105387521684548, 37.435089732523629 ], [ 129.092967590113943, 37.441885913039762 ], [ 129.092157651915556, 37.444039387470596 ], [ 129.084987372176442, 37.446127284486614 ], [ 129.082141049735753, 37.452531447389362 ], [ 129.078227243204225, 37.453122382493532 ], [ 129.076858550521962, 37.456347757259088 ], [ 129.083445777410219, 37.460447879374385 ], [ 129.088259135020792, 37.460505199578634 ], [ 129.095737308439254, 37.463405180058508 ], [ 129.098506605824213, 37.462702003109548 ], [ 129.098869625043704, 37.460594866314707 ], [ 129.108714046806625, 37.455868799331832 ], [ 129.108908342872894, 37.453417724072033 ], [ 129.112702738380335, 37.4528067751897 ], [ 129.11305524018627, 37.449655145345794 ], [ 129.116265078456422, 37.445807277135721 ], [ 129.124535187412732, 37.441181457118049 ], [ 129.124797929163691, 37.435831751829397 ], [ 129.11952998660243, 37.434888302582159 ], [ 129.1209683217796, 37.430776552222888 ] ] ] ] } },
{ "type": "Feature", "properties": { "emd_cd": "51230115", "emd_nm": "마평동" }, "geometry": { "type": "MultiPolygon", "coordinates": [ [ [ [ 129.139740897383092, 37.421314686382821 ], [ 129.135769687312944, 37.411258015073265 ], [ 129.136017139726874, 37.407973199725198 ], [ 129.130635111047042, 37.405659891807105 ], [ 129.128013972656049, 37.41317494718362 ], [ 129.12875250075848, 37.421360503950467 ], [ 129.130962562022717, 37.425219251409395 ], [ 129.122151246660337, 37.429558023761494 ], [ 129.119852339647451, 37.435542626479645 ], [ 129.124797929163691, 37.435831751829397 ], [ 129.125169828739786, 37.440102261157939 ], [ 129.128476341852036, 37.437436888975384 ], [ 129.131536398078083, 37.438028309637822 ], [ 129.140843422118792, 37.43337626806057 ], [ 129.144739520239341, 37.43475095769724 ], [ 129.141653591772155, 37.430538248280037 ], [ 129.14216721758109, 37.429263853946289 ], [ 129.13976867922247, 37.427626926279366 ], [ 129.138410883856892, 37.423938283392708 ], [ 129.139740897383092, 37.421314686382821 ] ] ] ] } },
{ "type": "Feature", "properties": { "emd_cd": "51230116", "emd_nm": "오사동" }, "geometry": { "type": "MultiPolygon", "coordinates": [ [ [ [ 129.134483404204474, 37.436831177174817 ], [ 129.137274332820311, 37.43789965555537 ], [ 129.144555689413352, 37.436338820776697 ], [ 129.141844916161347, 37.433266583973356 ], [ 129.134483404204474, 37.436831177174817 ] ] ] ] } },
{ "type": "Feature", "properties": { "emd_cd": "51230117", "emd_nm": "건지동" }, "geometry": { "type": "MultiPolygon", "coordinates": [ [ [ [ 129.152142326969681, 37.43654342305728 ], [ 129.150635400890707, 37.434433945792065 ], [ 129.153324181940064, 37.425930427045323 ], [ 129.155468886892379, 37.424248404826443 ], [ 129.154563646568931, 37.419942208300455 ], [ 129.152104738617282, 37.418995997295163 ], [ 129.146787353736187, 37.428894952849348 ], [ 129.141607196372036, 37.424829909389686 ], [ 129.141133812438085, 37.422101118905708 ], [ 129.138995715378115, 37.42153314037617 ], [ 129.13976867922247, 37.427626926279366 ], [ 129.144114704262137, 37.432647676707866 ], [ 129.144870781915927, 37.437210056762495 ], [ 129.147484915159765, 37.438060464117498 ], [ 129.152142326969681, 37.43654342305728 ] ] ] ] } },
{ "type": "Feature", "properties": { "emd_cd": "51230118", "emd_nm": "원당동" }, "geometry": { "type": "MultiPolygon", "coordinates": [ [ [ [ 129.145664805630958, 37.448616586456126 ], [ 129.154170978393296, 37.445458572719588 ], [ 129.153959843882461, 37.441284099217654 ], [ 129.157587743212133, 37.440333117540682 ], [ 129.153805653005747, 37.437044820558263 ], [ 129.14597599507232, 37.437930365025643 ], [ 129.147904056660082, 37.440953452294714 ], [ 129.144487119153325, 37.446540303871124 ], [ 129.145664805630958, 37.448616586456126 ] ] ] ] } },
{ "type": "Feature", "properties": { "emd_cd": "51230119", "emd_nm": "성남동" }, "geometry": { "type": "MultiPolygon", "coordinates": [ [ [ [ 129.150635400890707, 37.434433945792065 ], [ 129.157847965773271, 37.440473159720661 ], [ 129.162285912811029, 37.438761355929209 ], [ 129.163080305407476, 37.437806844077208 ], [ 129.160212154894737, 37.430935996293563 ], [ 129.161850741183997, 37.426884242767933 ], [ 129.155990062518583, 37.424281810236728 ], [ 129.153533120891723, 37.425521928882112 ], [ 129.150635400890707, 37.434433945792065 ] ] ] ] } },
{ "type": "Feature", "properties": { "emd_cd": "51230120", "emd_nm": "남양동" }, "geometry": { "type": "MultiPolygon", "coordinates": [ [ [ [ 129.154563646568931, 37.419942208300455 ], [ 129.154321088662954, 37.423192981577465 ], [ 129.161850741183997, 37.426884242767933 ], [ 129.160226707467388, 37.431251834569089 ], [ 129.163080305407476, 37.437806844077208 ], [ 129.163421193432185, 37.439807516574511 ], [ 129.162154383925184, 37.439892281744847 ], [ 129.163840499704719, 37.441159354230415 ], [ 129.163501787004407, 37.44446444385084 ], [ 129.171122257475332, 37.447342104015995 ], [ 129.173144631555658, 37.443182722650583 ], [ 129.168174163042266, 37.43835028836024 ], [ 129.169934037955784, 37.43611053666573 ], [ 129.166684487640907, 37.434480719102382 ], [ 129.166219359399435, 37.427072585189279 ], [ 129.162078605455036, 37.42414241203565 ], [ 129.160180890460111, 37.418679091386373 ], [ 129.156753117604552, 37.418223711446913 ], [ 129.154563646568931, 37.419942208300455 ] ] ] ] } },
{ "type": "Feature", "properties": { "emd_cd": "51230121", "emd_nm": "사직동" }, "geometry": { "type": "MultiPolygon", "coordinates": [ [ [ [ 129.177426726253202, 37.424496689372354 ], [ 129.166748947037888, 37.416860395729017 ], [ 129.162334193556518, 37.415924412306275 ], [ 129.160156059937492, 37.418453889925985 ], [ 129.162078605455036, 37.42414241203565 ], [ 129.166219359399435, 37.427072585189279 ], [ 129.166805974371101, 37.434711883275654 ], [ 129.169979375387555, 37.436430321025824 ], [ 129.174239521135831, 37.433457881995601 ], [ 129.18274651383976, 37.431442240042372 ], [ 129.177426726253202, 37.424496689372354 ] ] ] ] } },
{ "type": "Feature", "properties": { "emd_cd": "51230122", "emd_nm": "오분동" }, "geometry": { "type": "MultiPolygon", "coordinates": [ [ [ [ 129.177229579064885, 37.425224277842467 ], [ 129.18033060664547, 37.427011772782031 ], [ 129.18274651383976, 37.431442240042372 ], [ 129.190203183256301, 37.432312282907986 ], [ 129.192530292910305, 37.429293130145304 ], [ 129.192072943847705, 37.424582156072908 ], [ 129.195058595988172, 37.42334073302937 ], [ 129.195789461187417, 37.419836217103331 ], [ 129.197416386751087, 37.419695317581926 ], [ 129.190701005999841, 37.412181188209644 ], [ 129.187988245398657, 37.413093744437887 ], [ 129.191493536320479, 37.417729444712471 ], [ 129.189135485861556, 37.422393849687751 ], [ 129.185608265720845, 37.421322371734604 ], [ 129.177229579064885, 37.425224277842467 ] ] ] ] } },
{ "type": "Feature", "properties": { "emd_cd": "51230123", "emd_nm": "적노동" }, "geometry": { "type": "MultiPolygon", "coordinates": [ [ [ [ 129.163424164782697, 37.415787628864791 ], [ 129.177426726253202, 37.424496689372354 ], [ 129.185608265720845, 37.421322371734604 ], [ 129.189135485861556, 37.422393849687751 ], [ 129.191493536320479, 37.417729444712471 ], [ 129.18706770801839, 37.410538814610561 ], [ 129.182788088310673, 37.409842663480013 ], [ 129.182712837014009, 37.408425387244705 ], [ 129.172069732551336, 37.402274882396881 ], [ 129.170043054770275, 37.403194542340103 ], [ 129.168906528650041, 37.411286459007279 ], [ 129.164596345495113, 37.412592138244271 ], [ 129.163424164782697, 37.415787628864791 ] ] ] ] } },
{ "type": "Feature", "properties": { "emd_cd": "51230124", "emd_nm": "조비동" }, "geometry": { "type": "MultiPolygon", "coordinates": [ [ [ [ 129.138203043416297, 37.389011221415146 ], [ 129.139427681896706, 37.394603475253263 ], [ 129.135621607575757, 37.403896419208102 ], [ 129.136017139726874, 37.407973199725198 ], [ 129.141832048967501, 37.407842093619237 ], [ 129.144869403879682, 37.413653630458271 ], [ 129.150325841277805, 37.414394756140936 ], [ 129.152104738617282, 37.418995997295163 ], [ 129.154563646568931, 37.419942208300455 ], [ 129.156753117604552, 37.418223711446913 ], [ 129.160051004726682, 37.4188948595692 ], [ 129.164292235401632, 37.415193976781694 ], [ 129.164596345495113, 37.412592138244271 ], [ 129.168640566935551, 37.411674072241432 ], [ 129.170801526345116, 37.402377266862992 ], [ 129.168779057642269, 37.399049970720192 ], [ 129.169920285797332, 37.394643823122856 ], [ 129.167215564674194, 37.391612781928934 ], [ 129.168457138992608, 37.388751338893108 ], [ 129.164117221848926, 37.383606384345995 ], [ 129.154018337111268, 37.377367165999701 ], [ 129.146085204403818, 37.382631987424283 ], [ 129.147821908631784, 37.389531231372942 ], [ 129.144407639394814, 37.391792981691488 ], [ 129.138203043416297, 37.389011221415146 ] ] ] ] } },
{ "type": "Feature", "properties": { "emd_cd": "51230125", "emd_nm": "정상동" }, "geometry": { "type": "MultiPolygon", "coordinates": [ [ [ [ 129.177029057343788, 37.432421073126029 ], [ 129.168152586296372, 37.438021468843139 ], [ 129.170232691237572, 37.441341885762341 ], [ 129.174888334754996, 37.442760344683606 ], [ 129.172055030669924, 37.446662240800514 ], [ 129.181334534588814, 37.449119669736305 ], [ 129.182232292571655, 37.443749787550054 ], [ 129.185811283030063, 37.441615208745169 ], [ 129.18471056490003, 37.437229462731892 ], [ 129.187056536582048, 37.431323558762848 ], [ 129.177029057343788, 37.432421073126029 ] ] ] ] } },
{ "type": "Feature", "properties": { "emd_cd": "51230126", "emd_nm": "정하동" }, "geometry": { "type": "MultiPolygon", "coordinates": [ [ [ [ 129.182232292571655, 37.443749787550054 ], [ 129.182096594717478, 37.447261290512017 ], [ 129.185959263004293, 37.446792317045862 ], [ 129.189746801400787, 37.450212116155917 ], [ 129.189499409869399, 37.445481082283358 ], [ 129.193362270779915, 37.440887849234109 ], [ 129.194464202828101, 37.434568936650159 ], [ 129.197247837592585, 37.432277186573366 ], [ 129.194203173283029, 37.434498507114021 ], [ 129.192561886460055, 37.437688523182622 ], [ 129.188290331004481, 37.438734049254904 ], [ 129.1872341749052, 37.437507945894673 ], [ 129.191158499948074, 37.437660815386543 ], [ 129.189439412484091, 37.437142633992131 ], [ 129.189228145047025, 37.434399669987371 ], [ 129.192238248050529, 37.434073029798633 ], [ 129.193865838718523, 37.432391057001595 ], [ 129.190632846330999, 37.433932492773451 ], [ 129.190203183256301, 37.432312282907986 ], [ 129.187056536582048, 37.431323558762848 ], [ 129.18471056490003, 37.437229462731892 ], [ 129.185811283030063, 37.441615208745169 ], [ 129.182232292571655, 37.443749787550054 ] ] ], [ [ [ 129.190498246436675, 37.448444278384642 ], [ 129.190510447185886, 37.448626712637576 ], [ 129.190647977681692, 37.448656460121541 ], [ 129.190498246436675, 37.448444278384642 ] ] ] ] } },
{ "type": "Feature", "properties": { "emd_cd": "51230127", "emd_nm": "근산동" }, "geometry": { "type": "MultiPolygon", "coordinates": [ [ [ [ 129.136017139726874, 37.407973199725198 ], [ 129.136026445178118, 37.412129542967037 ], [ 129.13937164969397, 37.417712928492968 ], [ 129.138433106348458, 37.420072641591382 ], [ 129.141133812438085, 37.422101118905708 ], [ 129.141607196372036, 37.424829909389686 ], [ 129.146997017914686, 37.428786123352275 ], [ 129.152104738617282, 37.418995997295163 ], [ 129.151588808037104, 37.416629380965745 ], [ 129.150325841277805, 37.414394756140936 ], [ 129.144869403879682, 37.413653630458271 ], [ 129.141832048967501, 37.407842093619237 ], [ 129.136017139726874, 37.407973199725198 ] ] ] ] } },
{ "type": "Feature", "properties": { "emd_cd": "51230250", "emd_nm": "도계읍" }, "geometry": { "type": "MultiPolygon", "coordinates": [ [ [ [ 128.989987586898422, 37.241404897845406 ], [ 128.99289691320871, 37.244293362837006 ], [ 128.998591286476909, 37.243113162195719 ], [ 129.001859119498903, 37.244634773124979 ], [ 129.000451940257506, 37.246907269283959 ], [ 129.002555140060451, 37.249012139902575 ], [ 129.001674158801876, 37.250610441565208 ], [ 129.006529900219249, 37.250615876855889 ], [ 129.007944426676005, 37.253508112256974 ], [ 129.007020309396324, 37.255691002633981 ], [ 129.008369342729566, 37.25672015074376 ], [ 129.010419971098884, 37.255441253547282 ], [ 129.009928348921449, 37.25953665491064 ], [ 129.005180594540064, 37.263769144997219 ], [ 129.007932431862997, 37.270365921935365 ], [ 129.010210080709726, 37.269941398173835 ], [ 129.015111399598368, 37.274175664050844 ], [ 129.013306756149433, 37.277439672938634 ], [ 129.014182894658433, 37.278707291709686 ], [ 129.005909469751884, 37.282793713138815 ], [ 129.005721946998193, 37.286479168673409 ], [ 129.00377239466826, 37.288397186064699 ], [ 129.008296487102683, 37.295165012644532 ], [ 129.01830049459349, 37.303531210112993 ], [ 129.033464519843989, 37.300370591098101 ], [ 129.045362316824537, 37.307149435456566 ], [ 129.046408305389519, 37.311191193709064 ], [ 129.049725244018987, 37.313590120342198 ], [ 129.057167988116277, 37.314481377128978 ], [ 129.059511235160102, 37.316297805329825 ], [ 129.068811919021329, 37.314697756619054 ], [ 129.068699372187922, 37.310189309636243 ], [ 129.065420546872275, 37.308603359719157 ], [ 129.062367586988699, 37.303384207161258 ], [ 129.072077030366557, 37.295573832248905 ], [ 129.071759383270546, 37.29339419302439 ], [ 129.087353562234227, 37.295712454979046 ], [ 129.098635815258831, 37.293897565455168 ], [ 129.102994274704855, 37.295109724058975 ], [ 129.105065091307466, 37.286175790677163 ], [ 129.109099873102195, 37.283228078783118 ], [ 129.10839987955174, 37.27789153480375 ], [ 129.11151287286603, 37.274475072852418 ], [ 129.111519317958908, 37.270829735382762 ], [ 129.118830830706713, 37.262081650200322 ], [ 129.122617461426302, 37.260071447530514 ], [ 129.12631512272165, 37.260660002978319 ], [ 129.130313145715775, 37.256302996574881 ], [ 129.128012936056791, 37.248361744565145 ], [ 129.121998061025153, 37.242487004107453 ], [ 129.119941209477929, 37.242255475536055 ], [ 129.118879431394276, 37.239495614314428 ], [ 129.119033433426608, 37.236293690462325 ], [ 129.123468362301082, 37.228278545442954 ], [ 129.12643685155291, 37.228491530336711 ], [ 129.131360766611465, 37.225489778204071 ], [ 129.136447070804451, 37.229268554493615 ], [ 129.143187438412298, 37.228080879455348 ], [ 129.144315309804881, 37.224099654430148 ], [ 129.148410529429725, 37.220506654411722 ], [ 129.151522918539314, 37.211396522233784 ], [ 129.160950366276097, 37.208048078581157 ], [ 129.165641821331178, 37.208381419150925 ], [ 129.165094396180848, 37.204308485739048 ], [ 129.169081693287893, 37.203131231458627 ], [ 129.167093264693079, 37.197242493038623 ], [ 129.168601546172454, 37.190746639493163 ], [ 129.164859596145533, 37.18469618481128 ], [ 129.160183587822985, 37.183744644404783 ], [ 129.151942204712384, 37.174043555378546 ], [ 129.146736906423854, 37.177063389448783 ], [ 129.137608144142462, 37.17552146616714 ], [ 129.131068627609721, 37.172190796876748 ], [ 129.12528988471098, 37.174674435151509 ], [ 129.120935812805243, 37.172307756038961 ], [ 129.109177024976162, 37.169882385924353 ], [ 129.099967101064209, 37.171615599077079 ], [ 129.095534139469862, 37.16838350177801 ], [ 129.095101288552002, 37.166420852242702 ], [ 129.088979921032774, 37.164551757291079 ], [ 129.089107748487152, 37.162157894852008 ], [ 129.086167765388097, 37.159473069074622 ], [ 129.071901446526851, 37.160165073114612 ], [ 129.074703336020093, 37.164643961133827 ], [ 129.072489937285127, 37.16957917148401 ], [ 129.058282119658941, 37.171197681327214 ], [ 129.051330904176467, 37.169864910549236 ], [ 129.048197401010952, 37.172635644482824 ], [ 129.045101668057924, 37.171713040293348 ], [ 129.036468850208422, 37.175905250145782 ], [ 129.027276867531128, 37.17508371264374 ], [ 129.025690188876069, 37.177684141637634 ], [ 129.016575326612781, 37.181316309598614 ], [ 129.0155130836838, 37.184386130996877 ], [ 129.012325685281155, 37.185407162812282 ], [ 129.007152455622361, 37.194564044170306 ], [ 129.008938251413213, 37.198685871329843 ], [ 129.007085910041781, 37.201115119866607 ], [ 129.000538796794132, 37.202935295363538 ], [ 129.001198866812103, 37.206112626615003 ], [ 128.998632004158907, 37.207928773400056 ], [ 129.000118411134167, 37.208941384820456 ], [ 129.001170156692012, 37.215168884420635 ], [ 129.000157588749829, 37.217930781418453 ], [ 129.010723018003119, 37.220919793295579 ], [ 129.004561794091529, 37.227098232219895 ], [ 129.008071696987201, 37.229166394155754 ], [ 129.005429881581392, 37.230813037266934 ], [ 129.007872440115079, 37.232529450007554 ], [ 129.004082075928125, 37.235243905010464 ], [ 128.993187644739493, 37.235312065143006 ], [ 128.989987586898422, 37.241404897845406 ] ] ] ] } },
{ "type": "Feature", "properties": { "emd_cd": "51230253", "emd_nm": "원덕읍" }, "geometry": { "type": "MultiPolygon", "coordinates": [ [ [ [ 129.169304133514231, 37.203472907914637 ], [ 129.181893019259093, 37.2052761938264 ], [ 129.184383971331044, 37.210636753623412 ], [ 129.184154644351224, 37.216383513976652 ], [ 129.182027120932418, 37.219542277228733 ], [ 129.184745906195758, 37.220879510043176 ], [ 129.184318614721377, 37.223919237310014 ], [ 129.192867421551853, 37.223315949990344 ], [ 129.194874924969128, 37.221659820580705 ], [ 129.199017287942922, 37.222929031042653 ], [ 129.206810413144154, 37.218408305079492 ], [ 129.213930899711897, 37.219848832224365 ], [ 129.214041933679084, 37.225301964586514 ], [ 129.217406858776883, 37.227425495916812 ], [ 129.217254666833924, 37.230963605555019 ], [ 129.220315601742044, 37.234196747732184 ], [ 129.219551054950273, 37.238114268636544 ], [ 129.222911027230225, 37.238388717507377 ], [ 129.231378666203909, 37.228417757850877 ], [ 129.236028281101881, 37.226723681278578 ], [ 129.248301558656692, 37.230786299395817 ], [ 129.252703058016635, 37.234968820736043 ], [ 129.257734831921539, 37.236919979556816 ], [ 129.260099984440473, 37.240427947381384 ], [ 129.267504273750433, 37.240045106230369 ], [ 129.26745352355303, 37.244946219245307 ], [ 129.270519601894733, 37.245366385304806 ], [ 129.27094703542619, 37.248052230348321 ], [ 129.280689794418748, 37.250999645864226 ], [ 129.281719676731882, 37.249676314006685 ], [ 129.288067980148554, 37.24976225448296 ], [ 129.298054752261152, 37.25919135257341 ], [ 129.303575521726742, 37.256173496249033 ], [ 129.312778805625101, 37.257329880058172 ], [ 129.313421755654588, 37.261497204710103 ], [ 129.31097509968194, 37.263064402181755 ], [ 129.312304816561863, 37.267537940638825 ], [ 129.316175223983009, 37.268663495077334 ], [ 129.321859385314269, 37.273277100607743 ], [ 129.321822011713522, 37.274885189842806 ], [ 129.319650873999819, 37.275826178405872 ], [ 129.318807261179245, 37.280758238620592 ], [ 129.319968223576979, 37.282088852144817 ], [ 129.324490830696448, 37.280796462250365 ], [ 129.325786650940358, 37.28167932551942 ], [ 129.326651446054314, 37.279752102404885 ], [ 129.327871067062404, 37.280320711006262 ], [ 129.327835342289575, 37.281299561650052 ], [ 129.329207375077829, 37.27818328242644 ], [ 129.327340303545355, 37.275036948086971 ], [ 129.329177072020514, 37.272070768361267 ], [ 129.328645598103265, 37.271417098616389 ], [ 129.328683421716391, 37.270111003892417 ], [ 129.327527763194666, 37.268180398674538 ], [ 129.329105361180183, 37.264850237691917 ], [ 129.328419549874241, 37.266259941152391 ], [ 129.326791581969104, 37.265651984596666 ], [ 129.328243718137173, 37.264938135467204 ], [ 129.327137386639521, 37.263642462864496 ], [ 129.333756702406816, 37.260004474575872 ], [ 129.336933250757426, 37.255663083389564 ], [ 129.340551704955715, 37.254596001725801 ], [ 129.341404939358284, 37.248984370001125 ], [ 129.348439176086202, 37.247659166022373 ], [ 129.349877746856265, 37.238805711125721 ], [ 129.355658259663954, 37.235354928107427 ], [ 129.346508065046379, 37.229842833217049 ], [ 129.345241283165535, 37.224789436486013 ], [ 129.346096505696437, 37.229418228359748 ], [ 129.343422130228589, 37.229587174265141 ], [ 129.342447916100497, 37.226403221627741 ], [ 129.343639883741503, 37.225432539033619 ], [ 129.342491658813941, 37.225099429705907 ], [ 129.341361892827194, 37.225168965979911 ], [ 129.342592416033114, 37.225184918378616 ], [ 129.342063428393232, 37.229007982666637 ], [ 129.340875169170232, 37.226012678380599 ], [ 129.339993769990571, 37.221113698831545 ], [ 129.343535699940816, 37.219702473217247 ], [ 129.347782797862379, 37.210635972284138 ], [ 129.345218282357564, 37.206193861851602 ], [ 129.345518978943602, 37.204099953082498 ], [ 129.345883327097994, 37.203464534865553 ], [ 129.346338273198398, 37.203033252920221 ], [ 129.346483892398112, 37.202690226234672 ], [ 129.344721020084478, 37.201477201992958 ], [ 129.345289211684673, 37.199836605740899 ], [ 129.344604665200137, 37.201298817506597 ], [ 129.342979689708415, 37.200787963467704 ], [ 129.342765908297423, 37.195940452996823 ], [ 129.341137145741698, 37.193253026173181 ], [ 129.340475390932795, 37.194771907070283 ], [ 129.339401658880604, 37.193208683118783 ], [ 129.340840701550349, 37.188283371976638 ], [ 129.342549202550487, 37.18844241161856 ], [ 129.342229536205139, 37.192543616728337 ], [ 129.345236280881551, 37.192698020883419 ], [ 129.347506659374261, 37.176579401856166 ], [ 129.345831382925695, 37.175360085699701 ], [ 129.34277388121879, 37.176130592476007 ], [ 129.345090472617869, 37.174967965858862 ], [ 129.344113080665323, 37.171420027907757 ], [ 129.344404794516976, 37.171250157050714 ], [ 129.345019192247833, 37.171216120305914 ], [ 129.352166795262008, 37.175305574616537 ], [ 129.349865970714603, 37.173854649827817 ], [ 129.351156399905051, 37.171759253030793 ], [ 129.356340082437981, 37.165868036062484 ], [ 129.357668424476429, 37.166616785508538 ], [ 129.358453701556073, 37.166585319188385 ], [ 129.355652902652508, 37.165591397872539 ], [ 129.353563479855922, 37.165248737883879 ], [ 129.347269713762955, 37.165872571689924 ], [ 129.347827348339905, 37.163791102694283 ], [ 129.358509054694792, 37.15749103182155 ], [ 129.36188211191012, 37.148756066156082 ], [ 129.3637425137413, 37.148176265262983 ], [ 129.363397006630152, 37.146000900068877 ], [ 129.356637349476642, 37.144830039904903 ], [ 129.34783556080626, 37.146447624143072 ], [ 129.340994524154723, 37.144603016067336 ], [ 129.339505723709749, 37.146829682644615 ], [ 129.338345635790802, 37.143457003392335 ], [ 129.336435065806484, 37.141976359812865 ], [ 129.334079170161232, 37.142603546110394 ], [ 129.333241062943159, 37.140707345024452 ], [ 129.32482956507036, 37.142286213406031 ], [ 129.318146974143474, 37.132952319467947 ], [ 129.314453337031182, 37.131339602089795 ], [ 129.31180089450217, 37.132212845897342 ], [ 129.308885245687918, 37.127939971644942 ], [ 129.303865412678874, 37.128240577194738 ], [ 129.299781800621986, 37.124401620141384 ], [ 129.297775671144279, 37.124432005745568 ], [ 129.295230288535294, 37.120297949177044 ], [ 129.2945913335748, 37.114365109221772 ], [ 129.285385171399582, 37.117248430430543 ], [ 129.281996517418378, 37.11609832329917 ], [ 129.276738543478388, 37.118553505276203 ], [ 129.272018852513071, 37.117008126939311 ], [ 129.26919200212896, 37.11021210866857 ], [ 129.270242867873719, 37.106922793078837 ], [ 129.266895197875215, 37.103185690300869 ], [ 129.249029883878961, 37.096151365862148 ], [ 129.240459150773177, 37.085035119089561 ], [ 129.237252423169764, 37.083812497527276 ], [ 129.230498441524702, 37.076590876840037 ], [ 129.218186152320186, 37.093851727070721 ], [ 129.219178927668622, 37.101707319516976 ], [ 129.214246698166647, 37.107386226255329 ], [ 129.213600075331755, 37.113105695079881 ], [ 129.216621904294328, 37.118497059341657 ], [ 129.214807458247037, 37.124090948330839 ], [ 129.216078011366392, 37.126602564216199 ], [ 129.221798591193334, 37.127714580476351 ], [ 129.224958784374991, 37.133155477627589 ], [ 129.236648862461067, 37.141674905957629 ], [ 129.237246421009303, 37.147914693952487 ], [ 129.239661905351767, 37.15069357350103 ], [ 129.238398615707467, 37.156098543685097 ], [ 129.236900174865156, 37.15900801929741 ], [ 129.227887441926612, 37.158818947373881 ], [ 129.224219764155919, 37.160911421011022 ], [ 129.224768154423401, 37.168864265785523 ], [ 129.228674638537655, 37.172672357908041 ], [ 129.224842861293126, 37.17916802093287 ], [ 129.222997088307721, 37.186128113785607 ], [ 129.219458275601511, 37.186998346279964 ], [ 129.213874931999214, 37.185347487100564 ], [ 129.210436733633031, 37.187408128506917 ], [ 129.198488917233448, 37.186725308242643 ], [ 129.192636351367184, 37.192274054569985 ], [ 129.187933906891345, 37.200224014466947 ], [ 129.181716813487469, 37.202493669142108 ], [ 129.175478567888263, 37.200852956309987 ], [ 129.169174861645416, 37.202194256959146 ], [ 129.169304133514231, 37.203472907914637 ] ] ], [ [ [ 129.331386794894541, 37.261859541469562 ], [ 129.331665759547036, 37.261864656702166 ], [ 129.331372609491297, 37.261825062445936 ], [ 129.331386794894541, 37.261859541469562 ] ] ], [ [ [ 129.327546649851143, 37.263826714949879 ], [ 129.327930312471636, 37.264057853809526 ], [ 129.328022014691811, 37.263956910646598 ], [ 129.327546649851143, 37.263826714949879 ] ] ], [ [ [ 129.328821061909139, 37.266860793026233 ], [ 129.329055215583423, 37.267031503654628 ], [ 129.329120927011786, 37.266882201144568 ], [ 129.328821061909139, 37.266860793026233 ] ] ], [ [ [ 129.329220767678663, 37.267051129542949 ], [ 129.329506458288733, 37.26712359231351 ], [ 129.329552174572314, 37.267009359039427 ], [ 129.329220767678663, 37.267051129542949 ] ] ], [ [ [ 129.329044666421794, 37.271056547068611 ], [ 129.329292141414726, 37.271248944078899 ], [ 129.329392093482056, 37.271124910735097 ], [ 129.329044666421794, 37.271056547068611 ] ] ], [ [ [ 129.328844293295759, 37.271425766984812 ], [ 129.329006741008726, 37.271450096091712 ], [ 129.329033726051733, 37.271378371477041 ], [ 129.328844293295759, 37.271425766984812 ] ] ], [ [ [ 129.32847264964397, 37.273999146146991 ], [ 129.328683718081436, 37.273949997516588 ], [ 129.328510497339096, 37.273896945862539 ], [ 129.32847264964397, 37.273999146146991 ] ] ], [ [ [ 129.327260486833381, 37.280335854037858 ], [ 129.327419445011316, 37.280553393581989 ], [ 129.327552888551281, 37.280407996445867 ], [ 129.327260486833381, 37.280335854037858 ] ] ], [ [ [ 129.328414388828776, 37.280707663745105 ], [ 129.328560725934437, 37.280728037301778 ], [ 129.328691297799736, 37.280656873624011 ], [ 129.328414388828776, 37.280707663745105 ] ] ], [ [ [ 129.323972218203977, 37.281309849934665 ], [ 129.324182880745269, 37.281469208645888 ], [ 129.323975650614358, 37.281228964187022 ], [ 129.323972218203977, 37.281309849934665 ] ] ], [ [ [ 129.32204676016255, 37.282228055955144 ], [ 129.322264897985804, 37.282161698993292 ], [ 129.322201232268725, 37.281994135859172 ], [ 129.32204676016255, 37.282228055955144 ] ] ], [ [ [ 129.32241512553145, 37.282165896122898 ], [ 129.32242212416935, 37.282374807819764 ], [ 129.322531318032333, 37.282349787525021 ], [ 129.32241512553145, 37.282165896122898 ] ] ], [ [ [ 129.327443972034274, 37.282755720866213 ], [ 129.327758505128543, 37.282984103292627 ], [ 129.327779464593874, 37.282902394276817 ], [ 129.327443972034274, 37.282755720866213 ] ] ], [ [ [ 129.328046958590676, 37.283113434608758 ], [ 129.328408305386631, 37.283105093959598 ], [ 129.327991977682586, 37.282957338807549 ], [ 129.328046958590676, 37.283113434608758 ] ] ], [ [ [ 129.326224133881198, 37.283386540693733 ], [ 129.327156857976462, 37.284410232533958 ], [ 129.327249840100649, 37.283799700847325 ], [ 129.326224133881198, 37.283386540693733 ] ] ], [ [ [ 129.325160561024376, 37.284632224426808 ], [ 129.325653282191354, 37.285109196461597 ], [ 129.326217638064151, 37.284869399795575 ], [ 129.325160561024376, 37.284632224426808 ] ] ], [ [ [ 129.326086007531416, 37.285384239180992 ], [ 129.326363150340967, 37.285281185191913 ], [ 129.326049861985553, 37.28534393615228 ], [ 129.326086007531416, 37.285384239180992 ] ] ], [ [ [ 129.339947400513751, 37.19281689301733 ], [ 129.340104708036819, 37.192804108306845 ], [ 129.339922483743209, 37.192760621997749 ], [ 129.339947400513751, 37.19281689301733 ] ] ], [ [ [ 129.340171381892304, 37.255169228006906 ], [ 129.340284484618337, 37.255418049106481 ], [ 129.34050733542631, 37.255402967773279 ], [ 129.340171381892304, 37.255169228006906 ] ] ], [ [ [ 129.337597865099497, 37.255895161119312 ], [ 129.337745277469253, 37.256063758387093 ], [ 129.337810354412454, 37.25598816613676 ], [ 129.337597865099497, 37.255895161119312 ] ] ], [ [ [ 129.339591426112037, 37.255990554921766 ], [ 129.339816631181719, 37.256095701990276 ], [ 129.339876513181935, 37.256041081475338 ], [ 129.339591426112037, 37.255990554921766 ] ] ], [ [ [ 129.338519695542942, 37.255965569840484 ], [ 129.338738862051514, 37.256084467889679 ], [ 129.338736709613642, 37.255978377396261 ], [ 129.338519695542942, 37.255965569840484 ] ] ], [ [ [ 129.336447914788977, 37.257409820933113 ], [ 129.33619754409645, 37.257863838425109 ], [ 129.336705275636234, 37.257765829550742 ], [ 129.336447914788977, 37.257409820933113 ] ] ], [ [ [ 129.334990894771551, 37.258425630835042 ], [ 129.335366835504061, 37.258698710632416 ], [ 129.335613174757725, 37.258621653310385 ], [ 129.334990894771551, 37.258425630835042 ] ] ], [ [ [ 129.335236236842235, 37.25946674947599 ], [ 129.334931867148811, 37.259516803300428 ], [ 129.335206855532391, 37.259550069659149 ], [ 129.335236236842235, 37.25946674947599 ] ] ], [ [ [ 129.335751636487316, 37.259708502410739 ], [ 129.335857319112591, 37.259805434450151 ], [ 129.335844572949213, 37.259699076535114 ], [ 129.335751636487316, 37.259708502410739 ] ] ], [ [ [ 129.334923002456065, 37.259930176886222 ], [ 129.334769695766283, 37.260128105754298 ], [ 129.335141969966685, 37.260112523750358 ], [ 129.334923002456065, 37.259930176886222 ] ] ], [ [ [ 129.334196522099433, 37.260247545569079 ], [ 129.334535138367784, 37.260562783951436 ], [ 129.334599743349003, 37.260508972787157 ], [ 129.334196522099433, 37.260247545569079 ] ] ], [ [ [ 129.333507165183448, 37.26047935180025 ], [ 129.333768056004971, 37.260536168949315 ], [ 129.333539169589443, 37.260384455436586 ], [ 129.333507165183448, 37.26047935180025 ] ] ], [ [ [ 129.334179709633503, 37.2605694866077 ], [ 129.334384533120499, 37.260842284168319 ], [ 129.334517237285382, 37.26082917944089 ], [ 129.334179709633503, 37.2605694866077 ] ] ], [ [ [ 129.333810609289202, 37.260733303528546 ], [ 129.333624149257929, 37.260824542597987 ], [ 129.333707745433912, 37.260985304540597 ], [ 129.333810609289202, 37.260733303528546 ] ] ], [ [ [ 129.332820694641441, 37.26066848206046 ], [ 129.333199982137415, 37.261143588716848 ], [ 129.333316415228552, 37.261160219925628 ], [ 129.332820694641441, 37.26066848206046 ] ] ], [ [ [ 129.332615492023933, 37.260778981995088 ], [ 129.332799175935236, 37.26132259259159 ], [ 129.333006400551994, 37.261333662964766 ], [ 129.332615492023933, 37.260778981995088 ] ] ], [ [ [ 129.332060268506922, 37.261453216949057 ], [ 129.332141621065659, 37.261230227611172 ], [ 129.331865227914591, 37.261312632593985 ], [ 129.332060268506922, 37.261453216949057 ] ] ], [ [ [ 129.33141646129377, 37.274124025812533 ], [ 129.331765237801989, 37.274249810356388 ], [ 129.331886753572093, 37.274132337388622 ], [ 129.33141646129377, 37.274124025812533 ] ] ], [ [ [ 129.364147541854322, 37.148559594409214 ], [ 129.364299753739203, 37.148659505458816 ], [ 129.364488489687744, 37.148605675679832 ], [ 129.364147541854322, 37.148559594409214 ] ] ], [ [ [ 129.361673422974405, 37.153295154794307 ], [ 129.361614887919984, 37.153497203436039 ], [ 129.361695433562517, 37.15347857732128 ], [ 129.361673422974405, 37.153295154794307 ] ] ], [ [ [ 129.344904429678138, 37.171944281530585 ], [ 129.34501958077368, 37.171287031475465 ], [ 129.34424267953554, 37.171764086883165 ], [ 129.344904429678138, 37.171944281530585 ] ] ], [ [ [ 129.365448435630725, 37.170505849752068 ], [ 129.357702772731983, 37.179308803549951 ], [ 129.3656527113246, 37.170558564127866 ], [ 129.365671618564676, 37.165159350296349 ], [ 129.365448435630725, 37.170505849752068 ] ] ], [ [ [ 129.344134359793173, 37.199116658164975 ], [ 129.34441067687348, 37.199321990005359 ], [ 129.344534139327919, 37.199279608037379 ], [ 129.344134359793173, 37.199116658164975 ] ] ], [ [ [ 129.343970929522413, 37.199482340792443 ], [ 129.344225610096913, 37.19947349497965 ], [ 129.344180432361497, 37.199416517652331 ], [ 129.343970929522413, 37.199482340792443 ] ] ], [ [ [ 129.343910160359286, 37.199694171055434 ], [ 129.344075354124982, 37.19985570976997 ], [ 129.344171009383246, 37.199751534071872 ], [ 129.343910160359286, 37.199694171055434 ] ] ], [ [ [ 129.345706524407461, 37.20379036941835 ], [ 129.345900424995364, 37.203932801073904 ], [ 129.345872700096322, 37.203748663896619 ], [ 129.345706524407461, 37.20379036941835 ] ] ], [ [ [ 129.348262881153829, 37.210213368028988 ], [ 129.348246832862458, 37.210448361088268 ], [ 129.348355867837313, 37.210450051216924 ], [ 129.348262881153829, 37.210213368028988 ] ] ], [ [ [ 129.34393632343631, 37.219584622293794 ], [ 129.344154085077008, 37.219613699819838 ], [ 129.344014190319626, 37.219467892912405 ], [ 129.34393632343631, 37.219584622293794 ] ] ], [ [ [ 129.343782365235171, 37.219754876940307 ], [ 129.343966706564714, 37.219932785763746 ], [ 129.34391675202167, 37.219686622345719 ], [ 129.343782365235171, 37.219754876940307 ] ] ], [ [ [ 129.342302257263498, 37.221071524715711 ], [ 129.342390492567745, 37.221259984251326 ], [ 129.342547925452863, 37.221121879491442 ], [ 129.342302257263498, 37.221071524715711 ] ] ], [ [ [ 129.349328170100364, 37.243081187415534 ], [ 129.349553036942694, 37.243289810074735 ], [ 129.349594226646161, 37.243073386653002 ], [ 129.349328170100364, 37.243081187415534 ] ] ], [ [ [ 129.34889336900676, 37.248291333439148 ], [ 129.349105220089143, 37.248394276619265 ], [ 129.349114779529998, 37.248065785688631 ], [ 129.34889336900676, 37.248291333439148 ] ] ], [ [ [ 129.342170115663095, 37.2536781507985 ], [ 129.342378634125765, 37.253783115787385 ], [ 129.34241595990008, 37.253734064215138 ], [ 129.342170115663095, 37.2536781507985 ] ] ], [ [ [ 129.341276604171156, 37.254454101674959 ], [ 129.341278564970196, 37.254735119247165 ], [ 129.341747778560404, 37.254713138333408 ], [ 129.341276604171156, 37.254454101674959 ] ] ], [ [ [ 129.340516588686938, 37.255141065061025 ], [ 129.341050330797145, 37.255268203312696 ], [ 129.341223551849112, 37.255185802593601 ], [ 129.340516588686938, 37.255141065061025 ] ] ] ] } },
{ "type": "Feature", "properties": { "emd_cd": "51230310", "emd_nm": "근덕면" }, "geometry": { "type": "MultiPolygon", "coordinates": [ [ [ [ 129.164117221848926, 37.383606384345995 ], [ 129.168724539173667, 37.389342252641107 ], [ 129.167215564674194, 37.391612781928934 ], [ 129.169920285797332, 37.394643823122856 ], [ 129.168555596303463, 37.396116619988561 ], [ 129.169869974414382, 37.401480124006554 ], [ 129.177848439543453, 37.405187122118775 ], [ 129.182788088310673, 37.409842663480013 ], [ 129.18706770801839, 37.410538814610561 ], [ 129.187988245398657, 37.413093744437887 ], [ 129.191454957704593, 37.412150246082845 ], [ 129.197416386751087, 37.419695317581926 ], [ 129.197780093116791, 37.415087133834298 ], [ 129.217740164064566, 37.398556557633555 ], [ 129.238893354606347, 37.385580343643461 ], [ 129.240556496683723, 37.386340009421069 ], [ 129.25106831197715, 37.380158234490644 ], [ 129.256763125989607, 37.380128259480223 ], [ 129.254653887530395, 37.375525906553179 ], [ 129.254820729438478, 37.378415585805165 ], [ 129.253646043665185, 37.378536002688506 ], [ 129.253653057113866, 37.376226088693237 ], [ 129.251826561510171, 37.376312897738302 ], [ 129.250676769334376, 37.36236931462053 ], [ 129.256084661745888, 37.357838065075406 ], [ 129.25630136957696, 37.354885706087529 ], [ 129.260586297436248, 37.352354527114741 ], [ 129.259975034439861, 37.349141123490533 ], [ 129.260614840438734, 37.349332623459063 ], [ 129.26359539680945, 37.3469109991997 ], [ 129.260700352723177, 37.34838273363745 ], [ 129.261808794986251, 37.345499908278967 ], [ 129.265800011653738, 37.343256735253568 ], [ 129.267714870239757, 37.338039014862659 ], [ 129.266068505905764, 37.331398045321698 ], [ 129.26947665932002, 37.329204999015246 ], [ 129.26953902253473, 37.328315818091959 ], [ 129.271387398137421, 37.327087090146946 ], [ 129.271797801524542, 37.326330978576877 ], [ 129.27005036527035, 37.327794182614554 ], [ 129.268610255761871, 37.32633272903378 ], [ 129.270563150270107, 37.325663151235965 ], [ 129.26755286660773, 37.326082617114132 ], [ 129.26743445338866, 37.322937922124794 ], [ 129.286552409531055, 37.309921371431379 ], [ 129.290126224681302, 37.308651634486495 ], [ 129.292535211541463, 37.310800934991811 ], [ 129.294413516370668, 37.309861153929191 ], [ 129.292320868630327, 37.311711002064385 ], [ 129.297662759573114, 37.310683011655875 ], [ 129.302024800512896, 37.301048471410709 ], [ 129.300028977110372, 37.297556157825767 ], [ 129.300597660711759, 37.291858478138508 ], [ 129.303439268161327, 37.289546595767838 ], [ 129.309377374384098, 37.291023205790395 ], [ 129.309849274288155, 37.286596701882097 ], [ 129.312973276293008, 37.285495377321375 ], [ 129.314626278462811, 37.285819693989723 ], [ 129.315126104697356, 37.286916941260387 ], [ 129.31462602347662, 37.287078233694885 ], [ 129.315034729654229, 37.288515590042032 ], [ 129.314825583325643, 37.287242377687093 ], [ 129.317592705663657, 37.286706550161391 ], [ 129.317421065656731, 37.288350574579511 ], [ 129.314658465086723, 37.289480767502987 ], [ 129.317816502352827, 37.288518984049098 ], [ 129.318576451007829, 37.289638704230853 ], [ 129.320134754000236, 37.287525185651134 ], [ 129.318816641535648, 37.278490709005261 ], [ 129.321859385314269, 37.273277100607743 ], [ 129.316175223983009, 37.268663495077334 ], [ 129.312304816561863, 37.267537940638825 ], [ 129.31097509968194, 37.263064402181755 ], [ 129.313421755654588, 37.261497204710103 ], [ 129.312778805625101, 37.257329880058172 ], [ 129.303575521726742, 37.256173496249033 ], [ 129.298054752261152, 37.25919135257341 ], [ 129.288067980148554, 37.24976225448296 ], [ 129.281719676731882, 37.249676314006685 ], [ 129.280689794418748, 37.250999645864226 ], [ 129.27094703542619, 37.248052230348321 ], [ 129.270519601894733, 37.245366385304806 ], [ 129.26745352355303, 37.244946219245307 ], [ 129.267504273750433, 37.240045106230369 ], [ 129.260099984440473, 37.240427947381384 ], [ 129.257734831921539, 37.236919979556816 ], [ 129.244906300319911, 37.229087262192614 ], [ 129.241713452713469, 37.229611463257534 ], [ 129.23522749350974, 37.226621806726797 ], [ 129.231378666203909, 37.228417757850877 ], [ 129.222911027230225, 37.238388717507377 ], [ 129.228371589258984, 37.246479519469823 ], [ 129.225551303330349, 37.252163813695795 ], [ 129.22567448919051, 37.257002510297333 ], [ 129.22330291497525, 37.259082429013482 ], [ 129.227521701121702, 37.271395151551097 ], [ 129.219280862169711, 37.279705247258583 ], [ 129.216399336868619, 37.285583083193274 ], [ 129.217644766367982, 37.288732710966073 ], [ 129.199890383360412, 37.2924294751651 ], [ 129.190734175776498, 37.297295123525224 ], [ 129.189716084430103, 37.296123750388233 ], [ 129.17697794964667, 37.301577002879988 ], [ 129.177844179873063, 37.306285851450987 ], [ 129.187762480554738, 37.31759129148638 ], [ 129.189617151669381, 37.322872821048222 ], [ 129.193199110429617, 37.325994108260787 ], [ 129.197781790424727, 37.325835503388468 ], [ 129.198785049001884, 37.330436358806651 ], [ 129.201808334433679, 37.332166400019339 ], [ 129.19908134766473, 37.338828872074529 ], [ 129.190927358680483, 37.343690501209807 ], [ 129.189713964936914, 37.347095570815874 ], [ 129.181684793956975, 37.350519185212384 ], [ 129.174922347563381, 37.359576043519674 ], [ 129.173592233069513, 37.362078631376107 ], [ 129.175844742515295, 37.363120885485195 ], [ 129.176387263049918, 37.367579165538721 ], [ 129.181145762188038, 37.3733318218069 ], [ 129.180702573557767, 37.378232128172939 ], [ 129.172360831412703, 37.37988711587257 ], [ 129.169883910342634, 37.38299839179313 ], [ 129.165109676565265, 37.383008632880397 ], [ 129.164117221848926, 37.383606384345995 ] ] ], [ [ [ 129.257014839407191, 37.357348040762467 ], [ 129.257141652986974, 37.357394484647763 ], [ 129.257153054274539, 37.357368150251723 ], [ 129.257014839407191, 37.357348040762467 ] ] ], [ [ [ 129.257485731930757, 37.35741906829147 ], [ 129.257489896087066, 37.357914070160945 ], [ 129.257570459875126, 37.35790886812277 ], [ 129.257485731930757, 37.35741906829147 ] ] ], [ [ [ 129.257750073456378, 37.357665177035543 ], [ 129.257818193702434, 37.357735011619546 ], [ 129.257888289096769, 37.357685285661852 ], [ 129.257750073456378, 37.357665177035543 ] ] ], [ [ [ 129.256402798182933, 37.357607313823337 ], [ 129.256548879959098, 37.357914111342737 ], [ 129.256558087875987, 37.35757303774222 ], [ 129.256402798182933, 37.357607313823337 ] ] ], [ [ [ 129.257087220766437, 37.357812702153076 ], [ 129.256995283592289, 37.358215494070144 ], [ 129.257273458084285, 37.358103635159907 ], [ 129.257087220766437, 37.357812702153076 ] ] ], [ [ [ 129.256104713967858, 37.358571631622326 ], [ 129.256128148485459, 37.358802638488974 ], [ 129.256210632084702, 37.358770672981343 ], [ 129.256104713967858, 37.358571631622326 ] ] ], [ [ [ 129.254217426078611, 37.360315239331243 ], [ 129.254028229360841, 37.360338556247001 ], [ 129.254428083038903, 37.360511220233249 ], [ 129.254217426078611, 37.360315239331243 ] ] ], [ [ [ 129.253724060212193, 37.360427730224608 ], [ 129.25387721505794, 37.360687599781023 ], [ 129.254355665383429, 37.360660899092153 ], [ 129.253724060212193, 37.360427730224608 ] ] ], [ [ [ 129.253601868327308, 37.361409659524448 ], [ 129.253734032737412, 37.361643669666094 ], [ 129.253856133688629, 37.361585762100844 ], [ 129.253601868327308, 37.361409659524448 ] ] ], [ [ [ 129.25225952650996, 37.361547611179688 ], [ 129.252634662981649, 37.362425335509634 ], [ 129.252825584881748, 37.362362507498062 ], [ 129.25225952650996, 37.361547611179688 ] ] ], [ [ [ 129.252209889518269, 37.368740525408562 ], [ 129.252207645978132, 37.36890090226489 ], [ 129.252333934754859, 37.36899498909316 ], [ 129.252209889518269, 37.368740525408562 ] ] ], [ [ [ 129.251918734686342, 37.371601619695362 ], [ 129.252032252781561, 37.371524027010352 ], [ 129.251914067436104, 37.371539071960925 ], [ 129.251918734686342, 37.371601619695362 ] ] ], [ [ [ 129.2576189814408, 37.378324981460828 ], [ 129.25796587607303, 37.378521678443647 ], [ 129.25793987014049, 37.378305013472115 ], [ 129.2576189814408, 37.378324981460828 ] ] ], [ [ [ 129.258418534741082, 37.380036754238162 ], [ 129.258925240983444, 37.379054689696012 ], [ 129.257722592115073, 37.378802151323995 ], [ 129.258418534741082, 37.380036754238162 ] ] ], [ [ [ 129.239774763661302, 37.388743935681305 ], [ 129.239100477645934, 37.38741640354786 ], [ 129.237338557249046, 37.388210831756311 ], [ 129.238012446196166, 37.388772422062353 ], [ 129.239774763661302, 37.388743935681305 ] ] ], [ [ [ 129.240274622887739, 37.388748153479057 ], [ 129.240203469988558, 37.388950809151503 ], [ 129.240287469056682, 37.388960460649116 ], [ 129.240274622887739, 37.388748153479057 ] ] ], [ [ [ 129.239114061713337, 37.389058908098455 ], [ 129.239277257957468, 37.389098810418858 ], [ 129.239146225184925, 37.388970526023634 ], [ 129.239114061713337, 37.389058908098455 ] ] ], [ [ [ 129.298447637389785, 37.310097099428162 ], [ 129.29895657502604, 37.310401323164697 ], [ 129.29885519886642, 37.309639490483193 ], [ 129.298447637389785, 37.310097099428162 ] ] ], [ [ [ 129.297674028116404, 37.310740378781205 ], [ 129.297771216499825, 37.310687650803239 ], [ 129.297699271169989, 37.310676459934477 ], [ 129.297674028116404, 37.310740378781205 ] ] ], [ [ [ 129.29822887029718, 37.310746827966547 ], [ 129.298398614987263, 37.310763206405127 ], [ 129.298332900342444, 37.310652608172802 ], [ 129.29822887029718, 37.310746827966547 ] ] ], [ [ [ 129.295755425051169, 37.311972424033698 ], [ 129.295941023488439, 37.311995163852743 ], [ 129.295877998035166, 37.311887945441001 ], [ 129.295755425051169, 37.311972424033698 ] ] ], [ [ [ 129.295405149788479, 37.312554744015856 ], [ 129.295549364209791, 37.312772478961151 ], [ 129.295504338800868, 37.31252809762163 ], [ 129.295405149788479, 37.312554744015856 ] ] ], [ [ [ 129.283829523253132, 37.31266716916678 ], [ 129.283945780266919, 37.312847538376992 ], [ 129.284018048956824, 37.312806450324359 ], [ 129.283829523253132, 37.31266716916678 ] ] ], [ [ [ 129.270135269288517, 37.328161724588149 ], [ 129.270256008450417, 37.328500523545003 ], [ 129.27041347708635, 37.328266710667272 ], [ 129.270135269288517, 37.328161724588149 ] ] ], [ [ [ 129.271520540708025, 37.328315025503706 ], [ 129.271706901778487, 37.328308347019458 ], [ 129.271532411983571, 37.32825553087585 ], [ 129.271520540708025, 37.328315025503706 ] ] ], [ [ [ 129.272360731715253, 37.329961500264723 ], [ 129.272480698704783, 37.329930861132219 ], [ 129.272337672636439, 37.329937468696535 ], [ 129.272360731715253, 37.329961500264723 ] ] ], [ [ [ 129.26878266444831, 37.329893346445402 ], [ 129.268970239493257, 37.330011524298413 ], [ 129.269034472647746, 37.329940720864137 ], [ 129.26878266444831, 37.329893346445402 ] ] ], [ [ [ 129.272586338278842, 37.330111346378999 ], [ 129.272508936527032, 37.330426052778236 ], [ 129.272913756408911, 37.330383795050729 ], [ 129.272586338278842, 37.330111346378999 ] ] ], [ [ [ 129.266573753773287, 37.332665041212884 ], [ 129.266802609564138, 37.332799654718869 ], [ 129.266665015028508, 37.33253940536774 ], [ 129.266573753773287, 37.332665041212884 ] ] ], [ [ [ 129.268141485672572, 37.335236983766315 ], [ 129.268354595951109, 37.335479076582665 ], [ 129.268436701525957, 37.335470124444633 ], [ 129.268141485672572, 37.335236983766315 ] ] ], [ [ [ 129.261717395471862, 37.350956184667048 ], [ 129.261886231982544, 37.351172589614727 ], [ 129.261895327773232, 37.350904272862628 ], [ 129.261717395471862, 37.350956184667048 ] ] ], [ [ [ 129.262027277580927, 37.351279905951422 ], [ 129.2617436705942, 37.351741077462698 ], [ 129.26206399865859, 37.351712783193015 ], [ 129.262027277580927, 37.351279905951422 ] ] ], [ [ [ 129.260706850813705, 37.352659997104041 ], [ 129.260739498853468, 37.353039498170126 ], [ 129.260883824283468, 37.352662645678357 ], [ 129.260706850813705, 37.352659997104041 ] ] ], [ [ [ 129.260404824490138, 37.353056197097487 ], [ 129.260533968011231, 37.353085846291791 ], [ 129.260463496974467, 37.353017883470216 ], [ 129.260404824490138, 37.353056197097487 ] ] ], [ [ [ 129.25949101595441, 37.353380136662338 ], [ 129.259657793459951, 37.353621777743577 ], [ 129.259536658261993, 37.353313713063102 ], [ 129.25949101595441, 37.353380136662338 ] ] ], [ [ [ 129.320786639347659, 37.283264419110978 ], [ 129.320618592054927, 37.283358795493967 ], [ 129.320698110600517, 37.283441052316256 ], [ 129.320786639347659, 37.283264419110978 ] ] ], [ [ [ 129.321167256663074, 37.286087072500003 ], [ 129.321364649347373, 37.286293307385641 ], [ 129.321407046272981, 37.286145892652364 ], [ 129.321167256663074, 37.286087072500003 ] ] ], [ [ [ 129.312263093130127, 37.287239220876181 ], [ 129.312227271234747, 37.286968871120798 ], [ 129.312056956547366, 37.287067674339688 ], [ 129.312263093130127, 37.287239220876181 ] ] ], [ [ [ 129.320563523465239, 37.287692721356393 ], [ 129.320800300554964, 37.287760750332914 ], [ 129.320763576126183, 37.287623064105361 ], [ 129.320563523465239, 37.287692721356393 ] ] ], [ [ [ 129.320488342316366, 37.28804063985725 ], [ 129.320803466914782, 37.28829664647337 ], [ 129.320868658894966, 37.288171038451772 ], [ 129.320488342316366, 37.28804063985725 ] ] ], [ [ [ 129.320857713544228, 37.288569764027237 ], [ 129.321343835009316, 37.288857249199928 ], [ 129.321306445808631, 37.288690750079972 ], [ 129.320857713544228, 37.288569764027237 ] ] ], [ [ [ 129.319786449177712, 37.288854851242142 ], [ 129.320016555838237, 37.289027869499371 ], [ 129.320157398535912, 37.288731466615715 ], [ 129.319786449177712, 37.288854851242142 ] ] ], [ [ [ 129.317738462337815, 37.289337650675762 ], [ 129.317796287391417, 37.289837702028585 ], [ 129.318110066139411, 37.289764780969442 ], [ 129.318295689777727, 37.289837258639949 ], [ 129.317738462337815, 37.289337650675762 ] ] ], [ [ [ 129.319033405167005, 37.28938079447672 ], [ 129.319212144310541, 37.289567350346537 ], [ 129.319661808767478, 37.289480391801973 ], [ 129.319033405167005, 37.28938079447672 ] ] ], [ [ [ 129.318124203736119, 37.289828391790643 ], [ 129.318114059601214, 37.290166142310078 ], [ 129.31832797719531, 37.290203187900026 ], [ 129.318124203736119, 37.289828391790643 ] ] ], [ [ [ 129.317518922608258, 37.289967280819923 ], [ 129.317658978886527, 37.290148635225165 ], [ 129.317722590931282, 37.290010355715367 ], [ 129.317518922608258, 37.289967280819923 ] ] ], [ [ [ 129.319014400369156, 37.290247093964986 ], [ 129.319157092883557, 37.29029001456086 ], [ 129.31914559996369, 37.290222639486082 ], [ 129.319014400369156, 37.290247093964986 ] ] ], [ [ [ 129.307788863449218, 37.290901263672467 ], [ 129.307994347198701, 37.290967254747038 ], [ 129.307785550641739, 37.290804564876751 ], [ 129.307788863449218, 37.290901263672467 ] ] ], [ [ [ 129.309217290810096, 37.291333458600882 ], [ 129.309829022157942, 37.29186237419583 ], [ 129.309872518686205, 37.291256878106466 ], [ 129.309217290810096, 37.291333458600882 ] ] ], [ [ [ 129.300800482471971, 37.298251298424901 ], [ 129.300938428998535, 37.298367551488063 ], [ 129.301020255276285, 37.298307849632259 ], [ 129.300800482471971, 37.298251298424901 ] ] ], [ [ [ 129.298909120161454, 37.309416495321067 ], [ 129.299282118213142, 37.309560992010397 ], [ 129.299025684619238, 37.309249044079408 ], [ 129.298909120161454, 37.309416495321067 ] ] ] ] } },
{ "type": "Feature", "properties": { "emd_cd": "51230320", "emd_nm": "하장면" }, "geometry": { "type": "MultiPolygon", "coordinates": [ [ [ [ 128.846002017526558, 37.339732409481677 ], [ 128.849397177994263, 37.351450718100359 ], [ 128.849144857096064, 37.356051692084975 ], [ 128.851988665570332, 37.358748867865984 ], [ 128.851575206454328, 37.365531141062171 ], [ 128.854504027986252, 37.366681832977228 ], [ 128.85368683782454, 37.368541923435316 ], [ 128.858370326379429, 37.376998082619295 ], [ 128.857894040398463, 37.380889008237496 ], [ 128.861609438571804, 37.382289956986135 ], [ 128.865408276218091, 37.390472428321353 ], [ 128.868788134279868, 37.391274371668544 ], [ 128.868064855607599, 37.394359922663405 ], [ 128.87063354207973, 37.395180662966567 ], [ 128.870730346226168, 37.400282936525329 ], [ 128.875111580108694, 37.400933908570934 ], [ 128.884728425247289, 37.406271213415678 ], [ 128.889052128887045, 37.40465600422278 ], [ 128.895388096581456, 37.409535595484286 ], [ 128.897846734423325, 37.415119045358296 ], [ 128.897747140647994, 37.430253573493111 ], [ 128.90413498249373, 37.438059199045171 ], [ 128.910744216042445, 37.436485161919059 ], [ 128.918745598264991, 37.441246289115384 ], [ 128.922466317337893, 37.44626998220761 ], [ 128.92752491242203, 37.448505710412313 ], [ 128.934208346868417, 37.447576829577294 ], [ 128.937009269857981, 37.451107528485231 ], [ 128.943819157077712, 37.44933979547779 ], [ 128.954981761344243, 37.44946888565304 ], [ 128.958587892319599, 37.444310765438956 ], [ 128.969156609282578, 37.4398796926938 ], [ 128.972953493858171, 37.436026010379514 ], [ 128.97273585127175, 37.434482501328951 ], [ 128.976129991976023, 37.432823348868723 ], [ 128.984882171445236, 37.433705876069126 ], [ 128.999530226079003, 37.429739693808315 ], [ 129.004447530114987, 37.426546348605527 ], [ 129.000537828468339, 37.42218090949936 ], [ 129.001314530544931, 37.418341251570197 ], [ 129.008182129855129, 37.413438429897582 ], [ 129.00897473738334, 37.411272617572571 ], [ 129.004334704566844, 37.40345556934254 ], [ 129.004500453153355, 37.400987983673986 ], [ 129.009822203881015, 37.390665848653903 ], [ 129.012320011780588, 37.391766959100195 ], [ 129.016853040047039, 37.390865423954381 ], [ 129.012731247090301, 37.386029949742856 ], [ 129.012212663323282, 37.383013716218407 ], [ 129.015354425042943, 37.380093795569032 ], [ 129.016539786917633, 37.375806380617739 ], [ 129.015275072864938, 37.372550774810044 ], [ 129.015980133036521, 37.367169657807672 ], [ 129.012551329438111, 37.361240051527098 ], [ 129.015144542569487, 37.353391550824313 ], [ 129.011152549818291, 37.350455989129259 ], [ 129.009500816024797, 37.345540356382152 ], [ 129.002369071850126, 37.343719014567796 ], [ 128.999314107860215, 37.338488354760379 ], [ 128.990339350755789, 37.334122806069871 ], [ 128.987878468596222, 37.335782668355598 ], [ 128.978115601739688, 37.336473595715326 ], [ 128.971027372037895, 37.334424952251609 ], [ 128.968991437286348, 37.336740755567725 ], [ 128.967768156808376, 37.331947068338401 ], [ 128.957951345650542, 37.32232718331062 ], [ 128.950857322102735, 37.307835002196057 ], [ 128.943308077082833, 37.305524102673431 ], [ 128.942298914274915, 37.297643492004674 ], [ 128.946449910502906, 37.29026915097468 ], [ 128.94154690127354, 37.288913355881682 ], [ 128.941625936791695, 37.286317459553132 ], [ 128.939554662868915, 37.283859188058173 ], [ 128.941031424348949, 37.279325881916513 ], [ 128.937403664084798, 37.276657102988089 ], [ 128.936603866565179, 37.274070853101264 ], [ 128.9262155878817, 37.274108464892869 ], [ 128.924343250077584, 37.272616795623584 ], [ 128.929029205150641, 37.267701802144764 ], [ 128.932115927608834, 37.257256672771064 ], [ 128.934984684561329, 37.257117748632389 ], [ 128.933191287007503, 37.253751750971816 ], [ 128.935390121252539, 37.245418696675479 ], [ 128.929643800159766, 37.240584447141686 ], [ 128.923856394111993, 37.242757694730543 ], [ 128.918096379945894, 37.2400440199415 ], [ 128.917086459021533, 37.225520670135452 ], [ 128.909510059222498, 37.21705065683814 ], [ 128.90552967628264, 37.217944594446202 ], [ 128.903596977256854, 37.224916212266194 ], [ 128.904430121156167, 37.227851634281301 ], [ 128.898665644073873, 37.235903150669962 ], [ 128.900834718038226, 37.242892347916623 ], [ 128.897937735220864, 37.248695734106697 ], [ 128.886812496866412, 37.261759486186662 ], [ 128.883488030428509, 37.261962393978195 ], [ 128.879953500487517, 37.264776679790415 ], [ 128.882112960511222, 37.271852584288929 ], [ 128.887673416527662, 37.273091171593848 ], [ 128.888705246540297, 37.275848655599468 ], [ 128.87710377150546, 37.278617521655043 ], [ 128.873131838186538, 37.281790835718553 ], [ 128.871746670096684, 37.284389037632693 ], [ 128.872239660560979, 37.290419145053143 ], [ 128.865906585723479, 37.29321382356769 ], [ 128.85883703415584, 37.300182684098857 ], [ 128.859728734143602, 37.307295153452166 ], [ 128.867485314022503, 37.312606957972086 ], [ 128.867062122122491, 37.314846468271412 ], [ 128.870143803314875, 37.319004528802523 ], [ 128.878501981215749, 37.323936251929517 ], [ 128.86992497639261, 37.329484712412246 ], [ 128.866824760052964, 37.338916669740691 ], [ 128.84917902811361, 37.341485870102566 ], [ 128.846002017526558, 37.339732409481677 ] ] ] ] } },
{ "type": "Feature", "properties": { "emd_cd": "51230330", "emd_nm": "노곡면" }, "geometry": { "type": "MultiPolygon", "coordinates": [ [ [ [ 129.164117221848926, 37.383606384345995 ], [ 129.166824757097885, 37.382048188124649 ], [ 129.169883910342634, 37.38299839179313 ], [ 129.172360831412703, 37.37988711587257 ], [ 129.180702573557767, 37.378232128172939 ], [ 129.181145762188038, 37.3733318218069 ], [ 129.176387263049918, 37.367579165538721 ], [ 129.175844742515295, 37.363120885485195 ], [ 129.173592233069513, 37.362078631376107 ], [ 129.181684793956975, 37.350519185212384 ], [ 129.189713964936914, 37.347095570815874 ], [ 129.190927358680483, 37.343690501209807 ], [ 129.19908134766473, 37.338828872074529 ], [ 129.201808334433679, 37.332166400019339 ], [ 129.198785049001884, 37.330436358806651 ], [ 129.197781790424727, 37.325835503388468 ], [ 129.193199110429617, 37.325994108260787 ], [ 129.189617151669381, 37.322872821048222 ], [ 129.187762480554738, 37.31759129148638 ], [ 129.177844179873063, 37.306285851450987 ], [ 129.17697794964667, 37.301577002879988 ], [ 129.189716084430103, 37.296123750388233 ], [ 129.190734175776498, 37.297295123525224 ], [ 129.199890383360412, 37.2924294751651 ], [ 129.217644766367982, 37.288732710966073 ], [ 129.216399336868619, 37.285583083193274 ], [ 129.219280862169711, 37.279705247258583 ], [ 129.227300355069247, 37.2723945579096 ], [ 129.225369464566711, 37.262334446372918 ], [ 129.22330291497525, 37.259082429013482 ], [ 129.225078349613483, 37.258327203648747 ], [ 129.225976556743916, 37.25059252979176 ], [ 129.228341551310592, 37.248242878407964 ], [ 129.223784297684404, 37.239009077264889 ], [ 129.219551054950273, 37.238114268636544 ], [ 129.220315601742044, 37.234196747732184 ], [ 129.217254666833924, 37.230963605555019 ], [ 129.217406858776883, 37.227425495916812 ], [ 129.214041933679084, 37.225301964586514 ], [ 129.213930899711897, 37.219848832224365 ], [ 129.206810413144154, 37.218408305079492 ], [ 129.199017287942922, 37.222929031042653 ], [ 129.194874924969128, 37.221659820580705 ], [ 129.192867421551853, 37.223315949990344 ], [ 129.184318614721377, 37.223919237310014 ], [ 129.184745906195758, 37.220879510043176 ], [ 129.182027120932418, 37.219542277228733 ], [ 129.184154644351224, 37.216383513976652 ], [ 129.184383971331044, 37.210636753623412 ], [ 129.181893019259093, 37.2052761938264 ], [ 129.168467604709235, 37.20301492666264 ], [ 129.165094396180848, 37.204308485739048 ], [ 129.165641821331178, 37.208381419150925 ], [ 129.160950366276097, 37.208048078581157 ], [ 129.151522918539314, 37.211396522233784 ], [ 129.148410529429725, 37.220506654411722 ], [ 129.144315309804881, 37.224099654430148 ], [ 129.14221089803516, 37.228761148749619 ], [ 129.135795952988872, 37.229083923414159 ], [ 129.131360766611465, 37.225489778204071 ], [ 129.12643685155291, 37.228491530336711 ], [ 129.123468362301082, 37.228278545442954 ], [ 129.119033433426608, 37.236293690462325 ], [ 129.118879431394276, 37.239495614314428 ], [ 129.119941209477929, 37.242255475536055 ], [ 129.121998061025153, 37.242487004107453 ], [ 129.128012936056791, 37.248361744565145 ], [ 129.130313145715775, 37.256302996574881 ], [ 129.12631512272165, 37.260660002978319 ], [ 129.122617461426302, 37.260071447530514 ], [ 129.118830830706713, 37.262081650200322 ], [ 129.111519317958908, 37.270829735382762 ], [ 129.11151287286603, 37.274475072852418 ], [ 129.10839987955174, 37.27789153480375 ], [ 129.109099873102195, 37.283228078783118 ], [ 129.105065091307466, 37.286175790677163 ], [ 129.102716225593781, 37.294168213781816 ], [ 129.103583278525463, 37.295946941827246 ], [ 129.100841408193673, 37.299917492695194 ], [ 129.101329254722884, 37.305287903113339 ], [ 129.107239071704328, 37.308615713347535 ], [ 129.106994147048965, 37.313074174502262 ], [ 129.111169228025602, 37.317132446252579 ], [ 129.112942063947287, 37.32318144628119 ], [ 129.109589616324399, 37.325832653163857 ], [ 129.110236969969634, 37.328077605513045 ], [ 129.116601222284231, 37.333017989752562 ], [ 129.112337824366875, 37.337453297762416 ], [ 129.106881908022757, 37.34019762907392 ], [ 129.105811234348096, 37.350823358846313 ], [ 129.101801653305671, 37.35876714982367 ], [ 129.09955779228639, 37.36009498198375 ], [ 129.100628621873938, 37.365568625920858 ], [ 129.108816398155994, 37.370929152253254 ], [ 129.120230466551618, 37.373834097162856 ], [ 129.123936739842293, 37.376946526732517 ], [ 129.128260408643172, 37.377019000662941 ], [ 129.138203043416297, 37.389011221415146 ], [ 129.144407639394814, 37.391792981691488 ], [ 129.148057757388244, 37.389356484689451 ], [ 129.146223384942374, 37.382378542593926 ], [ 129.153589383053003, 37.377503051136912 ], [ 129.164117221848926, 37.383606384345995 ] ] ] ] } },
{ "type": "Feature", "properties": { "emd_cd": "51230340", "emd_nm": "미로면" }, "geometry": { "type": "MultiPolygon", "coordinates": [ [ [ [ 129.000537828468339, 37.42218090949936 ], [ 129.010206533413793, 37.435884675328438 ], [ 129.035587942191199, 37.449546498818123 ], [ 129.036300471047412, 37.45226851297052 ], [ 129.048236234821672, 37.456999196118367 ], [ 129.053880499457478, 37.457052818927011 ], [ 129.055163876248741, 37.459030203674537 ], [ 129.065642590713026, 37.46035111916995 ], [ 129.076858550521962, 37.456347757259088 ], [ 129.078227243204225, 37.453122382493532 ], [ 129.082141049735753, 37.452531447389362 ], [ 129.084987372176442, 37.446127284486614 ], [ 129.092157651915556, 37.444039387470596 ], [ 129.092967590113943, 37.441885913039762 ], [ 129.105387521684548, 37.435089732523629 ], [ 129.106609383421187, 37.432139234435674 ], [ 129.116096912382204, 37.431264423311035 ], [ 129.118953150264872, 37.429494974584294 ], [ 129.1209683217796, 37.430776552222888 ], [ 129.126497291166118, 37.426408389253893 ], [ 129.130831859114721, 37.425422455171223 ], [ 129.12875250075848, 37.421360503950467 ], [ 129.128088536428322, 37.412651352159415 ], [ 129.130635111047042, 37.405659891807105 ], [ 129.135515434165967, 37.407140602483572 ], [ 129.137070339179388, 37.399354899980537 ], [ 129.139018641368096, 37.397437219885305 ], [ 129.138203043416297, 37.389011221415146 ], [ 129.128260408643172, 37.377019000662941 ], [ 129.123936739842293, 37.376946526732517 ], [ 129.120230466551618, 37.373834097162856 ], [ 129.108816398155994, 37.370929152253254 ], [ 129.100628621873938, 37.365568625920858 ], [ 129.099817055559868, 37.359492110078548 ], [ 129.096616372747945, 37.35889821454159 ], [ 129.093683761943396, 37.361108955650749 ], [ 129.088822106079107, 37.360092913368796 ], [ 129.090853354049131, 37.361349221714164 ], [ 129.086113978106567, 37.363650353105719 ], [ 129.081516225586313, 37.358785832725104 ], [ 129.072056023876513, 37.356379899045969 ], [ 129.070302286713456, 37.358412969057461 ], [ 129.066965789329487, 37.355948352087175 ], [ 129.06164198176873, 37.356920271276749 ], [ 129.058121336878486, 37.355704448804531 ], [ 129.054345975746344, 37.358334005952756 ], [ 129.047055107194467, 37.357400930040193 ], [ 129.032073669214782, 37.364670823758125 ], [ 129.013666384163088, 37.359984802044004 ], [ 129.012551329438111, 37.361240051527098 ], [ 129.015980133036521, 37.367169657807672 ], [ 129.015275072864938, 37.372550774810044 ], [ 129.016539786917633, 37.375806380617739 ], [ 129.012285053446988, 37.384131142475738 ], [ 129.016853040047039, 37.390865423954381 ], [ 129.012320011780588, 37.391766959100195 ], [ 129.009822203881015, 37.390665848653903 ], [ 129.004500453153355, 37.400987983673986 ], [ 129.004334704566844, 37.40345556934254 ], [ 129.00897473738334, 37.411272617572571 ], [ 129.008182129855129, 37.413438429897582 ], [ 129.001314530544931, 37.418341251570197 ], [ 129.000537828468339, 37.42218090949936 ] ] ] ] } },
{ "type": "Feature", "properties": { "emd_cd": "51230350", "emd_nm": "가곡면" }, "geometry": { "type": "MultiPolygon", "coordinates": [ [ [ [ 129.230498441524702, 37.076590876840037 ], [ 129.225377428152854, 37.073720107449205 ], [ 129.230861407228559, 37.06890212437564 ], [ 129.230470413160162, 37.067218944439595 ], [ 129.233074712616855, 37.063881934023847 ], [ 129.228520544359071, 37.05723470364304 ], [ 129.22953902637795, 37.054738294071051 ], [ 129.23205986893268, 37.054427870790626 ], [ 129.231129854722241, 37.052219431231919 ], [ 129.232927718559324, 37.049697078878296 ], [ 129.232666792386311, 37.044219270850107 ], [ 129.238208972475661, 37.040787963589501 ], [ 129.238012156670521, 37.038665295431016 ], [ 129.225313853448654, 37.044559977682482 ], [ 129.213409198223246, 37.042987206126384 ], [ 129.205045818270378, 37.044972473689739 ], [ 129.195938441484003, 37.042490877940914 ], [ 129.194751939455898, 37.040629775956248 ], [ 129.185409208466751, 37.041719066686653 ], [ 129.183680967090396, 37.048861201485472 ], [ 129.177053502606356, 37.05671605290263 ], [ 129.170397363860786, 37.060356119754807 ], [ 129.166778292416808, 37.06521633847268 ], [ 129.166183821816929, 37.069216325770661 ], [ 129.161692053974093, 37.06888363073562 ], [ 129.157996840291361, 37.071315039811424 ], [ 129.155152757449713, 37.070239588645428 ], [ 129.154256735700443, 37.072288540995515 ], [ 129.148045243629269, 37.076130071152747 ], [ 129.14427263168821, 37.076580067539723 ], [ 129.139471559138769, 37.082273215879653 ], [ 129.133548861120573, 37.081749933671375 ], [ 129.127188019817225, 37.084443561498844 ], [ 129.126689194745666, 37.08892743316909 ], [ 129.122551401512339, 37.089951135731219 ], [ 129.122976607156204, 37.091416548408318 ], [ 129.107779219046449, 37.093497363980731 ], [ 129.104575566603529, 37.097724889003487 ], [ 129.095786562888776, 37.10040109851883 ], [ 129.087876553196594, 37.114289098725514 ], [ 129.091943637655419, 37.119483495670686 ], [ 129.089102011516758, 37.123542828998531 ], [ 129.095373437822104, 37.138457136534612 ], [ 129.093487468547039, 37.142179645356954 ], [ 129.088741736228855, 37.143965913976452 ], [ 129.089147317986573, 37.1503717443792 ], [ 129.087874080335155, 37.152368808210731 ], [ 129.089133107923146, 37.154699997188082 ], [ 129.088564178658373, 37.158216051081702 ], [ 129.086634531588572, 37.159663937902131 ], [ 129.089107748487152, 37.162157894852008 ], [ 129.088979921032774, 37.164551757291079 ], [ 129.095101288552002, 37.166420852242702 ], [ 129.095534139469862, 37.16838350177801 ], [ 129.101059125644213, 37.171793707341905 ], [ 129.109177024976162, 37.169882385924353 ], [ 129.120935812805243, 37.172307756038961 ], [ 129.12528988471098, 37.174674435151509 ], [ 129.131068627609721, 37.172190796876748 ], [ 129.137608144142462, 37.17552146616714 ], [ 129.146736906423854, 37.177063389448783 ], [ 129.151942204712384, 37.174043555378546 ], [ 129.155621442047931, 37.179824332837327 ], [ 129.160183587822985, 37.183744644404783 ], [ 129.164859596145533, 37.18469618481128 ], [ 129.167629330137515, 37.188270210477974 ], [ 129.168601546172454, 37.190746639493163 ], [ 129.167093264693079, 37.197242493038623 ], [ 129.169174861645416, 37.202194256959146 ], [ 129.175478567888263, 37.200852956309987 ], [ 129.181716813487469, 37.202493669142108 ], [ 129.187933906891345, 37.200224014466947 ], [ 129.192636351367184, 37.192274054569985 ], [ 129.198488917233448, 37.186725308242643 ], [ 129.210436733633031, 37.187408128506917 ], [ 129.213874931999214, 37.185347487100564 ], [ 129.219458275601511, 37.186998346279964 ], [ 129.222997088307721, 37.186128113785607 ], [ 129.224842861293126, 37.17916802093287 ], [ 129.228674638537655, 37.172672357908041 ], [ 129.224768154423401, 37.168864265785523 ], [ 129.224219764155919, 37.160911421011022 ], [ 129.227887441926612, 37.158818947373881 ], [ 129.236900174865156, 37.15900801929741 ], [ 129.239661905351767, 37.15069357350103 ], [ 129.237246421009303, 37.147914693952487 ], [ 129.235925019530839, 37.140564792012299 ], [ 129.224958784374991, 37.133155477627589 ], [ 129.220760181744339, 37.126959438946251 ], [ 129.216078011366392, 37.126602564216199 ], [ 129.214807458247037, 37.124090948330839 ], [ 129.216621904294328, 37.118497059341657 ], [ 129.21336573846969, 37.109789780720888 ], [ 129.219178927668622, 37.101707319516976 ], [ 129.218186152320186, 37.093851727070721 ], [ 129.220727884701034, 37.091362075952262 ], [ 129.220463855716105, 37.088993684162062 ], [ 129.226454996401316, 37.083402362755173 ], [ 129.230498441524702, 37.076590876840037 ] ] ] ] } },
{ "type": "Feature", "properties": { "emd_cd": "51230360", "emd_nm": "신기면" }, "geometry": { "type": "MultiPolygon", "coordinates": [ [ [ [ 128.998034209529976, 37.32448230699832 ], [ 129.004265956922865, 37.327628376710287 ], [ 129.006420696855969, 37.332195570195061 ], [ 129.008519715748747, 37.332140583145062 ], [ 129.00876604375145, 37.333958981334199 ], [ 129.01135229561234, 37.334609550942126 ], [ 129.014338272669704, 37.338293266658688 ], [ 129.00983157166587, 37.340171845201603 ], [ 129.008243662650386, 37.345576898939761 ], [ 129.009500816024797, 37.345540356382152 ], [ 129.011152549818291, 37.350455989129259 ], [ 129.015144542569487, 37.353391550824313 ], [ 129.013666384163088, 37.359984802044004 ], [ 129.032073669214782, 37.364670823758125 ], [ 129.047055107194467, 37.357400930040193 ], [ 129.054345975746344, 37.358334005952756 ], [ 129.058121336878486, 37.355704448804531 ], [ 129.06164198176873, 37.356920271276749 ], [ 129.066965789329487, 37.355948352087175 ], [ 129.070302286713456, 37.358412969057461 ], [ 129.072056023876513, 37.356379899045969 ], [ 129.081516225586313, 37.358785832725104 ], [ 129.086113978106567, 37.363650353105719 ], [ 129.090853354049131, 37.361349221714164 ], [ 129.088822106079107, 37.360092913368796 ], [ 129.093683761943396, 37.361108955650749 ], [ 129.096616372747945, 37.35889821454159 ], [ 129.101801653305671, 37.35876714982367 ], [ 129.105811234348096, 37.350823358846313 ], [ 129.106881908022757, 37.34019762907392 ], [ 129.112337824366875, 37.337453297762416 ], [ 129.116601222284231, 37.333017989752562 ], [ 129.110236969969634, 37.328077605513045 ], [ 129.109589616324399, 37.325832653163857 ], [ 129.112942063947287, 37.32318144628119 ], [ 129.111169228025602, 37.317132446252579 ], [ 129.106994147048965, 37.313074174502262 ], [ 129.107239071704328, 37.308615713347535 ], [ 129.101329254722884, 37.305287903113339 ], [ 129.100975890477685, 37.298935824689956 ], [ 129.103583278525463, 37.295946941827246 ], [ 129.100491130960307, 37.293907778108796 ], [ 129.087353562234227, 37.295712454979046 ], [ 129.071759383270546, 37.29339419302439 ], [ 129.072077030366557, 37.295573832248905 ], [ 129.069270891439288, 37.298469257621782 ], [ 129.062501131289338, 37.302946859719725 ], [ 129.065420546872275, 37.308603359719157 ], [ 129.068132791318476, 37.309600249068559 ], [ 129.069363769223685, 37.311989771076135 ], [ 129.068811919021329, 37.314697756619054 ], [ 129.063545710259518, 37.316050085271797 ], [ 129.049725244018987, 37.313590120342198 ], [ 129.046408305389519, 37.311191193709064 ], [ 129.045362316824537, 37.307149435456566 ], [ 129.033464519843989, 37.300370591098101 ], [ 129.025996078866456, 37.301066597053023 ], [ 129.01830049459349, 37.303531210112993 ], [ 129.011022095022724, 37.311620097249012 ], [ 129.006377184569715, 37.312885405002675 ], [ 129.002356101300677, 37.318019477730999 ], [ 128.998528320926198, 37.318956907952511 ], [ 128.999519002999449, 37.321435366254157 ], [ 128.998034209529976, 37.32448230699832 ] ] ] ] } }
]
}
