{
"type": "FeatureCollection",
"name": "51730",
"crs": { "type": "name", "properties": { "name": "urn:ogc:def:crs:OGC:1.3:CRS84" } },
"features": [
{ "type": "Feature", "properties": { "emd_cd": "51730250", "emd_nm": "횡성읍" }, "geometry": { "type": "MultiPolygon", "coordinates": [ [ [ [ 128.047264179165069, 37.51681964270815 ], [ 128.045406620431777, 37.513682065599909 ], [ 128.047658685954616, 37.511013540140397 ], [ 128.046735539093589, 37.503310478923943 ], [ 128.047794250519871, 37.500120520991217 ], [ 128.043993691847248, 37.495619219403203 ], [ 128.043935335640242, 37.492004042948238 ], [ 128.045836801717087, 37.490312840002318 ], [ 128.044856288850951, 37.487761970741701 ], [ 128.046267162972839, 37.486350101578886 ], [ 128.044113843219009, 37.484793215135682 ], [ 128.040793606378315, 37.486429659649772 ], [ 128.038921536381253, 37.485663555084777 ], [ 128.039598466449661, 37.48269847818721 ], [ 128.035579748226723, 37.479289120296109 ], [ 128.033418015561523, 37.473523604079723 ], [ 128.037288367958865, 37.470728364003755 ], [ 128.037230513408929, 37.464635975975206 ], [ 128.043924759437544, 37.456657865237212 ], [ 128.040467365319358, 37.449861998607034 ], [ 128.036935828276143, 37.448229345207857 ], [ 128.03836268248395, 37.447123736152314 ], [ 128.037161859476299, 37.446351089088971 ], [ 128.027377633746937, 37.448541841945961 ], [ 128.014232614272061, 37.445260789173986 ], [ 128.012034404844798, 37.449747939074776 ], [ 128.00696934264397, 37.449803581391265 ], [ 128.007150920155937, 37.45286490189681 ], [ 128.00249027666186, 37.456992736465935 ], [ 127.992465384606319, 37.456538894622085 ], [ 127.982618722778739, 37.460172714421013 ], [ 127.974273574197426, 37.457650960927992 ], [ 127.968844027192489, 37.452320194360489 ], [ 127.965016413329209, 37.450931798774889 ], [ 127.963702871153856, 37.453542581945811 ], [ 127.958132714604403, 37.452978590119088 ], [ 127.95472864332848, 37.455468878644162 ], [ 127.949254559974364, 37.454353919860466 ], [ 127.948572516505848, 37.458341959948633 ], [ 127.941454369725065, 37.466947482204411 ], [ 127.938956661455663, 37.475532943111787 ], [ 127.936923766067153, 37.476293905253549 ], [ 127.93845195532414, 37.48244770640342 ], [ 127.932970029184631, 37.486992100058409 ], [ 127.932544666687477, 37.490445760890218 ], [ 127.935799515590418, 37.492450480250312 ], [ 127.935709652482387, 37.494816882229209 ], [ 127.938049490328353, 37.496240662020959 ], [ 127.939634112607166, 37.501148912764926 ], [ 127.929137895563997, 37.506911113604403 ], [ 127.931172234981304, 37.513071434797347 ], [ 127.934397416430045, 37.516343945723705 ], [ 127.942277132153578, 37.513095886830193 ], [ 127.954519528096711, 37.51460384897991 ], [ 127.963449234257098, 37.51296952418442 ], [ 127.96289969767669, 37.515691602139768 ], [ 127.964673111139575, 37.517718412322587 ], [ 127.972657959033668, 37.515245403536092 ], [ 127.985814269437213, 37.505533181162143 ], [ 127.990731556511619, 37.511110263756734 ], [ 127.995946049752447, 37.511427565328077 ], [ 128.00045495493228, 37.516677727706266 ], [ 127.996471461388126, 37.521838772428644 ], [ 127.997342269792739, 37.523586692593973 ], [ 128.013457452382255, 37.53502357089836 ], [ 128.015330989948723, 37.540572394251605 ], [ 128.013814363227993, 37.540585531668874 ], [ 128.015273299531714, 37.54616861709939 ], [ 128.01383366990521, 37.548363631277873 ], [ 128.016245758471513, 37.551329005731723 ], [ 128.024855236558835, 37.546076358675805 ], [ 128.026806727371934, 37.542022143420603 ], [ 128.033308076347907, 37.536943798648743 ], [ 128.038805776876558, 37.537189183628072 ], [ 128.041243247806989, 37.529475544586674 ], [ 128.047608349953691, 37.526399258730322 ], [ 128.045686470537902, 37.519930623540382 ], [ 128.047264179165069, 37.51681964270815 ] ] ] ] } },
{ "type": "Feature", "properties": { "emd_cd": "51730310", "emd_nm": "우천면" }, "geometry": { "type": "MultiPolygon", "coordinates": [ [ [ [ 128.15238844357998, 37.477718587859897 ], [ 128.147845675111512, 37.478511949185545 ], [ 128.145712722256206, 37.480801608084555 ], [ 128.138560385136657, 37.474055936259845 ], [ 128.131760394089298, 37.475508581548802 ], [ 128.132045032123926, 37.470095331096616 ], [ 128.120328702848582, 37.471327598602251 ], [ 128.122011637677474, 37.463983207451705 ], [ 128.127858877017303, 37.459778249082653 ], [ 128.130696827170226, 37.459987405310663 ], [ 128.135439277941771, 37.456303929192089 ], [ 128.140648337316719, 37.454812296595925 ], [ 128.139471003188504, 37.449847225160006 ], [ 128.14130054368232, 37.443010955338245 ], [ 128.138844534889529, 37.442040792093032 ], [ 128.136305425418072, 37.437040598016132 ], [ 128.130199820056646, 37.434604646006719 ], [ 128.122964273884634, 37.426762566304404 ], [ 128.124956590975557, 37.420056766226509 ], [ 128.113950863109437, 37.41675135482042 ], [ 128.114287606412489, 37.40832094964729 ], [ 128.108903696384573, 37.405239022203432 ], [ 128.104847622946608, 37.407254291560193 ], [ 128.09751737406026, 37.406243290525687 ], [ 128.095899022327956, 37.410275074754949 ], [ 128.091088472670435, 37.411646590420041 ], [ 128.088520934843132, 37.414309138252257 ], [ 128.08600784600975, 37.422076650460625 ], [ 128.083628643930979, 37.424475487524354 ], [ 128.084234889483156, 37.426764143130676 ], [ 128.071279903290019, 37.430796028142112 ], [ 128.067842986391611, 37.434037079837687 ], [ 128.062098506490599, 37.435888483955821 ], [ 128.062656302941349, 37.44075544274645 ], [ 128.059205105080935, 37.443143795079912 ], [ 128.058885832142892, 37.445149781228565 ], [ 128.054071210668894, 37.443339242010723 ], [ 128.042693338062577, 37.443252584382584 ], [ 128.041766039019365, 37.445524748244033 ], [ 128.036935828276143, 37.448229345207857 ], [ 128.040467365319358, 37.449861998607034 ], [ 128.043924759437544, 37.456657865237212 ], [ 128.037230513408929, 37.464635975975206 ], [ 128.037288367958865, 37.470728364003755 ], [ 128.033418015561523, 37.473523604079723 ], [ 128.035579748226723, 37.479289120296109 ], [ 128.039598466449661, 37.48269847818721 ], [ 128.038921536381253, 37.485663555084777 ], [ 128.040793606378315, 37.486429659649772 ], [ 128.044113843219009, 37.484793215135682 ], [ 128.046267162972839, 37.486350101578886 ], [ 128.044856288850951, 37.487761970741701 ], [ 128.045836801717087, 37.490312840002318 ], [ 128.043935335640242, 37.492004042948238 ], [ 128.043993691847248, 37.495619219403203 ], [ 128.04767560032073, 37.499707788052412 ], [ 128.046739448563414, 37.503499240354159 ], [ 128.048168818168733, 37.507648428268091 ], [ 128.045458039844704, 37.514927788918023 ], [ 128.050524746070693, 37.520172920166274 ], [ 128.05378679199859, 37.519123541632403 ], [ 128.060950756524335, 37.521557243583217 ], [ 128.062183560501637, 37.519959631717335 ], [ 128.063751469270557, 37.521357031312043 ], [ 128.070492227868954, 37.520549383478262 ], [ 128.074738087123308, 37.516238278726931 ], [ 128.078706996043564, 37.518642410887267 ], [ 128.080971723924421, 37.525756775230136 ], [ 128.087580218113885, 37.523809194719171 ], [ 128.090205477964844, 37.519702632937459 ], [ 128.098527167555318, 37.522183633640068 ], [ 128.105489021126857, 37.522084796186384 ], [ 128.107763588663545, 37.526670176671836 ], [ 128.111710654389924, 37.52772472940449 ], [ 128.111729350278154, 37.531598604393778 ], [ 128.120363270109038, 37.527922482482325 ], [ 128.125608642576168, 37.531973656706619 ], [ 128.134309511003238, 37.529674982206565 ], [ 128.135309502318393, 37.527436528698203 ], [ 128.137548346602671, 37.527621519542691 ], [ 128.141535470994967, 37.52481935682146 ], [ 128.137748692635824, 37.519153326876456 ], [ 128.138568462650596, 37.512862822731805 ], [ 128.145697301481761, 37.507674489082383 ], [ 128.145338937350374, 37.503039637416869 ], [ 128.152804026884525, 37.498004988757785 ], [ 128.16104837494521, 37.485442731775336 ], [ 128.15238844357998, 37.477718587859897 ] ] ] ] } },
{ "type": "Feature", "properties": { "emd_cd": "51730320", "emd_nm": "안흥면" }, "geometry": { "type": "MultiPolygon", "coordinates": [ [ [ [ 128.09794592121537, 37.405920058401918 ], [ 128.104847622946608, 37.407254291560193 ], [ 128.108903696384544, 37.405239022203446 ], [ 128.113267929146389, 37.406775732572797 ], [ 128.115050344561183, 37.410454981509972 ], [ 128.11314698053593, 37.414053095961592 ], [ 128.113950863109437, 37.416751354820413 ], [ 128.124956590975557, 37.420056766226509 ], [ 128.122964273884634, 37.426762566304419 ], [ 128.130199820056646, 37.434604646006719 ], [ 128.136305425418044, 37.437040598016154 ], [ 128.1388445348895, 37.44204079209306 ], [ 128.141125858675451, 37.442733621277135 ], [ 128.139471003188504, 37.449847225160035 ], [ 128.140648337316691, 37.454812296595918 ], [ 128.135439277941771, 37.456303929192089 ], [ 128.130696827170198, 37.459987405310628 ], [ 128.127858877017275, 37.459778249082653 ], [ 128.122011637677474, 37.463983207451697 ], [ 128.120710923541054, 37.466515553275002 ], [ 128.121698209170631, 37.468924560466206 ], [ 128.119965624531602, 37.470652055688262 ], [ 128.121371126380723, 37.472114296627019 ], [ 128.132045032123898, 37.470095331096609 ], [ 128.131760394089298, 37.475508581548802 ], [ 128.138560385136657, 37.474055936259845 ], [ 128.145712722256206, 37.480801608084569 ], [ 128.147845675111483, 37.478511949185545 ], [ 128.15238844357998, 37.477718587859897 ], [ 128.154095890920388, 37.474543826321991 ], [ 128.152237715528457, 37.472377112288669 ], [ 128.153300594531572, 37.470718827076205 ], [ 128.158039279615707, 37.470343555738324 ], [ 128.15868785857819, 37.47217665892596 ], [ 128.161649120699593, 37.473263506697329 ], [ 128.164842112547092, 37.471785025885708 ], [ 128.166892007205888, 37.475740519938633 ], [ 128.170738793147933, 37.477060296610333 ], [ 128.175900167733289, 37.475596754091178 ], [ 128.182619820978374, 37.469121067127112 ], [ 128.18045998672298, 37.464983950432917 ], [ 128.180901161907201, 37.456732422903045 ], [ 128.187357834270813, 37.455209205673796 ], [ 128.198035677593424, 37.449283351543563 ], [ 128.204638709339918, 37.449226152091875 ], [ 128.217776220126296, 37.454143228712788 ], [ 128.219756118295749, 37.45305224162238 ], [ 128.225655770180595, 37.454310026266633 ], [ 128.23263918023892, 37.452329453183118 ], [ 128.237153741764445, 37.452613290392399 ], [ 128.239745628500344, 37.455064775792366 ], [ 128.244746877053984, 37.454532410462285 ], [ 128.247668767283557, 37.442011265274921 ], [ 128.25772881336718, 37.438502357251792 ], [ 128.256203849599729, 37.429583857758402 ], [ 128.254090450009045, 37.427955339063516 ], [ 128.257878060348474, 37.424029365603204 ], [ 128.259202594293299, 37.416879355433394 ], [ 128.26513541457669, 37.408380322498232 ], [ 128.259145346917279, 37.405067097508109 ], [ 128.257251252937095, 37.398098246947718 ], [ 128.253792039075108, 37.393242562495935 ], [ 128.244701210067888, 37.395622137380265 ], [ 128.236177095094263, 37.387941818189347 ], [ 128.228691766824966, 37.389893801991704 ], [ 128.220746526391167, 37.394231712683116 ], [ 128.213948040913095, 37.392859387540923 ], [ 128.208111813657098, 37.394989598496032 ], [ 128.200614256479554, 37.390972561598467 ], [ 128.193300418668315, 37.389741602209156 ], [ 128.185591896821563, 37.392855989764833 ], [ 128.17981423817082, 37.387232668970441 ], [ 128.180701384320088, 37.380981976658383 ], [ 128.175538784693799, 37.378074359275537 ], [ 128.166393367595418, 37.376553397897496 ], [ 128.15838574118456, 37.383946147708727 ], [ 128.140969113085049, 37.381292487962895 ], [ 128.131980145074039, 37.387455002169581 ], [ 128.129914300708123, 37.390697493405597 ], [ 128.124272507037773, 37.392806877336575 ], [ 128.120654284931192, 37.390006140443226 ], [ 128.110511729646504, 37.391914849361918 ], [ 128.10240926691975, 37.396619735311255 ], [ 128.09794592121537, 37.405920058401918 ] ] ] ] } },
{ "type": "Feature", "properties": { "emd_cd": "51730330", "emd_nm": "둔내면" }, "geometry": { "type": "MultiPolygon", "coordinates": [ [ [ [ 128.253888804159004, 37.627364625098167 ], [ 128.274489782489667, 37.620781349099744 ], [ 128.283041799734491, 37.620561256956755 ], [ 128.283668162440421, 37.618971405106677 ], [ 128.280041710253158, 37.614667530495559 ], [ 128.279376140976836, 37.610542273796369 ], [ 128.280813444765499, 37.605411773059323 ], [ 128.285993092916129, 37.601866388219172 ], [ 128.280113349077851, 37.598544172826031 ], [ 128.279294251102982, 37.591869457441042 ], [ 128.281674093468069, 37.586481727188094 ], [ 128.284764247024043, 37.585407229489483 ], [ 128.284325777712411, 37.578309115011315 ], [ 128.294922913248115, 37.568801301355897 ], [ 128.295371965281788, 37.559219191630483 ], [ 128.297857153290153, 37.554998583936666 ], [ 128.294684901475364, 37.550384009027773 ], [ 128.293885117019187, 37.54500369628704 ], [ 128.302266426664886, 37.537961606813731 ], [ 128.299582113787324, 37.534399494639537 ], [ 128.301993118522944, 37.530374820821102 ], [ 128.300821306198173, 37.524092863383096 ], [ 128.296316732289228, 37.517841255698229 ], [ 128.297563105371779, 37.511832634955681 ], [ 128.290994530998177, 37.511240658170742 ], [ 128.289816923717297, 37.507001549341204 ], [ 128.285697961053557, 37.507330362390384 ], [ 128.282868458211482, 37.503914521786662 ], [ 128.276816672274407, 37.50251521497092 ], [ 128.274800457773921, 37.497575241676913 ], [ 128.273240359631131, 37.49767805190497 ], [ 128.268431336719971, 37.492600123666165 ], [ 128.266988792369261, 37.487322392123438 ], [ 128.263861977569945, 37.484629165579975 ], [ 128.24362774678292, 37.479984568218235 ], [ 128.244976076694485, 37.471679409833911 ], [ 128.24355388012367, 37.468349481723287 ], [ 128.246669492302829, 37.466221859211309 ], [ 128.244746877053984, 37.454532410462285 ], [ 128.239745628500344, 37.455064775792366 ], [ 128.237153741764445, 37.452613290392399 ], [ 128.23263918023892, 37.452329453183118 ], [ 128.225655770180595, 37.454310026266633 ], [ 128.219756118295749, 37.45305224162238 ], [ 128.217776220126296, 37.454143228712788 ], [ 128.212898900750389, 37.451360395751742 ], [ 128.210024239616871, 37.451883757812233 ], [ 128.201333297079969, 37.448723445293453 ], [ 128.194099192771006, 37.450552233838998 ], [ 128.187357834270813, 37.455209205673796 ], [ 128.180901161907201, 37.456732422903045 ], [ 128.18045998672298, 37.464983950432917 ], [ 128.182619820978374, 37.469121067127112 ], [ 128.175900167733289, 37.475596754091178 ], [ 128.170738793147933, 37.477060296610333 ], [ 128.166892007205888, 37.475740519938633 ], [ 128.164842112547092, 37.471785025885708 ], [ 128.161649120699593, 37.473263506697329 ], [ 128.15868785857819, 37.47217665892596 ], [ 128.158039279615707, 37.470343555738324 ], [ 128.153300594531572, 37.470718827076205 ], [ 128.152237715528457, 37.472377112288669 ], [ 128.154095890920388, 37.474543826321991 ], [ 128.152414121903576, 37.477817677004026 ], [ 128.161048374945182, 37.485442731775336 ], [ 128.152804026884525, 37.498004988757806 ], [ 128.145338937350374, 37.503039637416869 ], [ 128.145697301481732, 37.507674489082397 ], [ 128.138568462650596, 37.51286282273179 ], [ 128.138575142320036, 37.521957218774418 ], [ 128.140029368563972, 37.52217722133819 ], [ 128.142029975192827, 37.516964818393369 ], [ 128.145917798743199, 37.514151258719934 ], [ 128.148776476790601, 37.515846348314561 ], [ 128.151658852891842, 37.512129656144388 ], [ 128.159234086812404, 37.510629192355808 ], [ 128.159134620153367, 37.50921977587619 ], [ 128.164924634859489, 37.509263559133387 ], [ 128.170313339481993, 37.506074488463014 ], [ 128.176187855886951, 37.50829592785005 ], [ 128.177551412596131, 37.506894826738126 ], [ 128.18456427422484, 37.507603204343255 ], [ 128.185256057173149, 37.511868376487655 ], [ 128.194542561718805, 37.519004073832974 ], [ 128.194377242082169, 37.522337104804024 ], [ 128.190799445247961, 37.524977639397974 ], [ 128.191690061078731, 37.532596779727591 ], [ 128.197834640612058, 37.534258104020182 ], [ 128.199990567564868, 37.537969278898871 ], [ 128.209924880479377, 37.542821873302003 ], [ 128.208070738929365, 37.545203604350931 ], [ 128.207784192513202, 37.550507968285771 ], [ 128.212025315286439, 37.552137380240559 ], [ 128.214064488632147, 37.555412349395901 ], [ 128.215960514625408, 37.554996790923582 ], [ 128.218119564673941, 37.566220247816624 ], [ 128.221651817606329, 37.570330988355551 ], [ 128.228195114201441, 37.570532131163702 ], [ 128.231175570876275, 37.581411771065845 ], [ 128.237098502914989, 37.582555735215209 ], [ 128.243863532081974, 37.580951716848126 ], [ 128.250714849780479, 37.581570888542956 ], [ 128.257176141289193, 37.584630827723721 ], [ 128.257847780838091, 37.588451920356277 ], [ 128.251426920082139, 37.595361598508994 ], [ 128.246323609700113, 37.592723729479268 ], [ 128.242985415896953, 37.593212293192245 ], [ 128.250602107996798, 37.602655347616221 ], [ 128.252812867751999, 37.603366507629374 ], [ 128.256056388613302, 37.612043844220274 ], [ 128.256327989943543, 37.621469141398521 ], [ 128.253888804159004, 37.627364625098167 ] ] ] ] } },
{ "type": "Feature", "properties": { "emd_cd": "51730340", "emd_nm": "갑천면" }, "geometry": { "type": "MultiPolygon", "coordinates": [ [ [ [ 128.193380443526706, 37.53622021630536 ], [ 128.190799445247961, 37.524977639397974 ], [ 128.194377242082169, 37.522337104804024 ], [ 128.194542561718805, 37.519004073832974 ], [ 128.185256057173149, 37.511868376487655 ], [ 128.183766723940977, 37.507128462093831 ], [ 128.177551412596131, 37.506894826738126 ], [ 128.176187855886951, 37.50829592785005 ], [ 128.170313339481993, 37.506074488463014 ], [ 128.164924634859489, 37.509263559133387 ], [ 128.153905479859759, 37.510902602289306 ], [ 128.148776476790601, 37.515846348314561 ], [ 128.145917798743199, 37.514151258719934 ], [ 128.142029975192827, 37.516964818393369 ], [ 128.139959177456376, 37.520835600551337 ], [ 128.141343132591089, 37.525149464998719 ], [ 128.135309502318393, 37.527436528698203 ], [ 128.134309511003181, 37.529674982206593 ], [ 128.12560864257614, 37.531973656706612 ], [ 128.120799078650265, 37.527894036143017 ], [ 128.111729350278154, 37.531598604393814 ], [ 128.111710654389924, 37.527724729404504 ], [ 128.107763588663545, 37.526670176671857 ], [ 128.105489021126857, 37.522084796186377 ], [ 128.098527167555289, 37.522183633640068 ], [ 128.090205477964844, 37.519702632937474 ], [ 128.087580218113885, 37.523809194719171 ], [ 128.083099917285864, 37.526021581526031 ], [ 128.08026575637075, 37.525111494124396 ], [ 128.078706996043564, 37.518642410887267 ], [ 128.074738087123308, 37.516238278726931 ], [ 128.072422156271955, 37.51717712144837 ], [ 128.072254467003035, 37.519914067709429 ], [ 128.063751469270557, 37.521357031312064 ], [ 128.062183560501637, 37.51995963171732 ], [ 128.060950756524335, 37.521557243583231 ], [ 128.05378679199859, 37.51912354163241 ], [ 128.050524746070693, 37.520172920166253 ], [ 128.04726417916504, 37.516819642708157 ], [ 128.045686470537902, 37.519930623540382 ], [ 128.047608349953691, 37.526399258730322 ], [ 128.04124324780696, 37.52947554458666 ], [ 128.038805776876529, 37.537189183628072 ], [ 128.033308076347907, 37.536943798648743 ], [ 128.027835887913085, 37.541143465968212 ], [ 128.024855236558835, 37.546076358675805 ], [ 128.014165563004383, 37.552953915294822 ], [ 128.011069014669914, 37.559113200017691 ], [ 128.014389268786886, 37.560825791390414 ], [ 128.013269546275524, 37.565129577069015 ], [ 128.016398150210506, 37.569622790788273 ], [ 128.017323403794364, 37.574389604285621 ], [ 128.021010814423505, 37.5755122222929 ], [ 128.021874763974949, 37.579496435213123 ], [ 128.025512129703401, 37.581076105585311 ], [ 128.027689160003632, 37.585118190783696 ], [ 128.022831874238364, 37.589120501418769 ], [ 128.0244247388502, 37.594333673622643 ], [ 128.030565820874926, 37.59661100369469 ], [ 128.034532003715213, 37.606084918116522 ], [ 128.037619425064776, 37.606954814814543 ], [ 128.037421227479484, 37.610792784622063 ], [ 128.042067114516698, 37.617799213984377 ], [ 128.046130398859873, 37.620881554973913 ], [ 128.051432614274916, 37.621825252265957 ], [ 128.050475811410763, 37.62522658923622 ], [ 128.054188805071448, 37.628145984945448 ], [ 128.052420981597351, 37.630700971541387 ], [ 128.052977490281648, 37.63242167348583 ], [ 128.066241993376224, 37.636461033701288 ], [ 128.067138179461466, 37.64100870505964 ], [ 128.075280202260871, 37.644030264039849 ], [ 128.07962800854736, 37.649143754945896 ], [ 128.094954045326887, 37.652935538205554 ], [ 128.101885735077389, 37.650258627919776 ], [ 128.105597733004998, 37.646402869638287 ], [ 128.100326024626327, 37.640107935104261 ], [ 128.097244520510628, 37.628034024089203 ], [ 128.117005866299479, 37.617412287600139 ], [ 128.114640835038585, 37.613417683535957 ], [ 128.114248232501211, 37.607783567103446 ], [ 128.119356431568292, 37.601394069220042 ], [ 128.120331406995916, 37.596791994095611 ], [ 128.114368651046732, 37.594759088332687 ], [ 128.114068109068739, 37.589797052381464 ], [ 128.111451097528658, 37.58761352856893 ], [ 128.113354323321431, 37.584598136911865 ], [ 128.111962720040538, 37.582904608943231 ], [ 128.114096132251149, 37.577945353030337 ], [ 128.113571477979235, 37.573882960799033 ], [ 128.118869814369816, 37.56968908356292 ], [ 128.122021130746418, 37.569449068939939 ], [ 128.122819673395497, 37.563292552172086 ], [ 128.132146527256822, 37.555884433435381 ], [ 128.139430093798126, 37.553505265832698 ], [ 128.14653585400427, 37.563366639391425 ], [ 128.14863854828431, 37.563121991194649 ], [ 128.155678460019146, 37.558048443610538 ], [ 128.155863597504975, 37.556264523676774 ], [ 128.165677499319429, 37.552528399689628 ], [ 128.168658808511793, 37.547436568308228 ], [ 128.172172175133454, 37.546366188712696 ], [ 128.177114765191959, 37.541329397880041 ], [ 128.182933331205817, 37.539359631740595 ], [ 128.186046185453193, 37.539905572179428 ], [ 128.193380443526706, 37.53622021630536 ] ] ] ] } },
{ "type": "Feature", "properties": { "emd_cd": "51730350", "emd_nm": "청일면" }, "geometry": { "type": "MultiPolygon", "coordinates": [ [ [ [ 128.192552644401928, 37.533120360183993 ], [ 128.193380443526706, 37.53622021630536 ], [ 128.186046185453193, 37.539905572179428 ], [ 128.182933331205817, 37.539359631740595 ], [ 128.177114765191959, 37.541329397880041 ], [ 128.172172175133454, 37.546366188712696 ], [ 128.168658808511793, 37.547436568308228 ], [ 128.165677499319429, 37.552528399689628 ], [ 128.155863597504975, 37.556264523676774 ], [ 128.155678460019146, 37.558048443610538 ], [ 128.14863854828431, 37.563121991194649 ], [ 128.14653585400427, 37.563366639391425 ], [ 128.139430093798126, 37.553505265832698 ], [ 128.132146527256822, 37.555884433435381 ], [ 128.122819673395497, 37.563292552172086 ], [ 128.122021130746418, 37.569449068939939 ], [ 128.118869814369816, 37.56968908356292 ], [ 128.113571477979235, 37.573882960799033 ], [ 128.114096132251149, 37.577945353030337 ], [ 128.111962720040538, 37.582904608943231 ], [ 128.113354323321431, 37.584598136911865 ], [ 128.111451097528658, 37.58761352856893 ], [ 128.114068109068739, 37.589797052381464 ], [ 128.114368651046732, 37.594759088332687 ], [ 128.120331406995916, 37.596791994095611 ], [ 128.119356431568292, 37.601394069220042 ], [ 128.114248232501211, 37.607783567103446 ], [ 128.114640835038585, 37.613417683535957 ], [ 128.117005866299479, 37.617412287600139 ], [ 128.102477206948691, 37.62415428655779 ], [ 128.097146405546965, 37.628939547952754 ], [ 128.100326024626327, 37.640107935104261 ], [ 128.105621668260767, 37.645813092664731 ], [ 128.101885735077389, 37.650258627919776 ], [ 128.108027324476723, 37.650838066818153 ], [ 128.114192620042104, 37.654660082359598 ], [ 128.108010692305101, 37.656185896054737 ], [ 128.105572293230125, 37.659359672340138 ], [ 128.112460905278368, 37.664853421086697 ], [ 128.111687856740048, 37.671575924940178 ], [ 128.118826469260995, 37.678623784457777 ], [ 128.126096192567246, 37.677499322405055 ], [ 128.134244238832537, 37.680127998004068 ], [ 128.137440155270042, 37.679626533200995 ], [ 128.139953312161396, 37.674644997456831 ], [ 128.141339500423356, 37.675306213390591 ], [ 128.145611296800325, 37.672980776849364 ], [ 128.148152330360659, 37.669949653673136 ], [ 128.15242784348078, 37.658844758171647 ], [ 128.154195459496265, 37.661467729519707 ], [ 128.164175218974691, 37.664530914694161 ], [ 128.165945050361501, 37.659121392167272 ], [ 128.169790125740406, 37.658426730671138 ], [ 128.17522265862118, 37.654160841111178 ], [ 128.176867329580659, 37.655037283210703 ], [ 128.181278322251046, 37.653602263369756 ], [ 128.181572293295488, 37.65166455596458 ], [ 128.185762873659115, 37.649732532999209 ], [ 128.186476981910943, 37.644536526789331 ], [ 128.19955987943365, 37.651698335793618 ], [ 128.208679720528579, 37.64907103082664 ], [ 128.210646406220491, 37.645749250865748 ], [ 128.215259314864312, 37.643915921706437 ], [ 128.21573749610161, 37.640875567518158 ], [ 128.219443299977712, 37.639480898134295 ], [ 128.228475977759928, 37.628675261871173 ], [ 128.235726557788098, 37.62520231834101 ], [ 128.241925936816983, 37.626619599170269 ], [ 128.24704910601983, 37.625128579481071 ], [ 128.253888804159004, 37.627364625098167 ], [ 128.256327989943543, 37.621469141398521 ], [ 128.256056388613302, 37.612043844220274 ], [ 128.252812867751999, 37.603366507629374 ], [ 128.250602107996798, 37.602655347616221 ], [ 128.242985415896953, 37.593212293192245 ], [ 128.246323609700113, 37.592723729479268 ], [ 128.251426920082139, 37.595361598508994 ], [ 128.257847780838091, 37.588451920356277 ], [ 128.257176141289193, 37.584630827723721 ], [ 128.250714849780479, 37.581570888542956 ], [ 128.231613782122423, 37.581811859016206 ], [ 128.228195114201441, 37.570532131163702 ], [ 128.221651817606329, 37.570330988355551 ], [ 128.218119564673941, 37.566220247816624 ], [ 128.215960514625408, 37.554996790923582 ], [ 128.214064488632147, 37.555412349395901 ], [ 128.212025315286439, 37.552137380240559 ], [ 128.207784192513202, 37.550507968285771 ], [ 128.208070738929365, 37.545203604350931 ], [ 128.209924880479377, 37.542821873302003 ], [ 128.199990567564868, 37.537969278898871 ], [ 128.197834640612058, 37.534258104020182 ], [ 128.192552644401928, 37.533120360183993 ] ] ] ] } },
{ "type": "Feature", "properties": { "emd_cd": "51730360", "emd_nm": "공근면" }, "geometry": { "type": "MultiPolygon", "coordinates": [ [ [ [ 127.874262142119946, 37.555940155082268 ], [ 127.872491802569272, 37.562155780463783 ], [ 127.884266149686127, 37.571290704386357 ], [ 127.884370487813257, 37.575327324132324 ], [ 127.889115536926298, 37.576912838211236 ], [ 127.889066341174541, 37.580940377099822 ], [ 127.893767845326593, 37.585103352702667 ], [ 127.894270583741928, 37.592880072179014 ], [ 127.892587541145204, 37.597236588516878 ], [ 127.907501040784354, 37.598429311010513 ], [ 127.917573996519366, 37.602450610289843 ], [ 127.920718950995109, 37.605435178765234 ], [ 127.927004167025544, 37.604162455729963 ], [ 127.927527502988994, 37.606222234486239 ], [ 127.933172766623656, 37.609842857224656 ], [ 127.945256227152385, 37.608798305442996 ], [ 127.95121718209208, 37.611152292506645 ], [ 127.952414212055785, 37.61777966830018 ], [ 127.956480170083012, 37.619466014654719 ], [ 127.959727971270738, 37.626166206452453 ], [ 127.96748974835451, 37.627047128776539 ], [ 127.971221614782564, 37.638130094470363 ], [ 127.977578533795139, 37.636191520483827 ], [ 127.979143704504992, 37.631889974745427 ], [ 127.991910015175293, 37.627435563869092 ], [ 127.998817277163184, 37.62592281794803 ], [ 128.012144416452628, 37.626249271153775 ], [ 128.014167249341909, 37.623472923187428 ], [ 128.012923883288295, 37.621879294377159 ], [ 128.014444727845415, 37.614718641039794 ], [ 128.020302873084034, 37.613291314526933 ], [ 128.031334869987262, 37.622703815039351 ], [ 128.049342993874717, 37.62748633089398 ], [ 128.048646898139083, 37.631372320461693 ], [ 128.053871077847958, 37.629093554068042 ], [ 128.050475811410763, 37.625226589236235 ], [ 128.051432614274916, 37.621825252265964 ], [ 128.046130398859873, 37.620881554973913 ], [ 128.042067114516698, 37.617799213984377 ], [ 128.037421227479484, 37.610792784622049 ], [ 128.037619425064776, 37.606954814814522 ], [ 128.034532003715213, 37.606084918116515 ], [ 128.029557050762946, 37.595351559084996 ], [ 128.0244247388502, 37.594333673622643 ], [ 128.023473291183763, 37.592633601991118 ], [ 128.022831874238364, 37.58912050141879 ], [ 128.027689160003632, 37.585118190783696 ], [ 128.025512129703401, 37.581076105585311 ], [ 128.021874763974949, 37.579496435213102 ], [ 128.021010814423533, 37.575512222292886 ], [ 128.017323403794364, 37.574389604285635 ], [ 128.016398150210506, 37.569622790788273 ], [ 128.013269546275524, 37.565129577069023 ], [ 128.014389268786886, 37.560825791390421 ], [ 128.011069014669914, 37.559113200017677 ], [ 128.011590613674912, 37.556486116327449 ], [ 128.016245758471513, 37.551329005731723 ], [ 128.01383366990521, 37.548363631277873 ], [ 128.015273299531714, 37.54616861709939 ], [ 128.013682822140254, 37.54154816864466 ], [ 128.015330989948723, 37.540572394251605 ], [ 128.014293833471953, 37.53649457372817 ], [ 128.008555677535071, 37.530680350108661 ], [ 127.997342269792739, 37.523586692593973 ], [ 127.996471461388126, 37.521838772428644 ], [ 128.00045495493228, 37.516677727706266 ], [ 127.995946049752447, 37.511427565328077 ], [ 127.990731556511619, 37.511110263756734 ], [ 127.985814269437213, 37.505533181162143 ], [ 127.972657959033668, 37.515245403536092 ], [ 127.964673111139575, 37.517718412322587 ], [ 127.96289969767669, 37.515691602139768 ], [ 127.963449234257098, 37.51296952418442 ], [ 127.954519528096711, 37.51460384897991 ], [ 127.942277132153578, 37.513095886830193 ], [ 127.935527243990052, 37.516333935506232 ], [ 127.931516212196271, 37.513597666050003 ], [ 127.924239409068306, 37.517668324557526 ], [ 127.916185470919501, 37.514694721676712 ], [ 127.91157139476357, 37.521354638084276 ], [ 127.900217895595091, 37.520106206488528 ], [ 127.896080769375899, 37.522880634914621 ], [ 127.897526920695867, 37.525485169438859 ], [ 127.89545846030002, 37.532625439465463 ], [ 127.895492618746886, 37.536241519805785 ], [ 127.900402191102401, 37.540566260686894 ], [ 127.884621560899603, 37.551935766432386 ], [ 127.874262142119946, 37.555940155082268 ] ] ] ] } },
{ "type": "Feature", "properties": { "emd_cd": "51730370", "emd_nm": "서원면" }, "geometry": { "type": "MultiPolygon", "coordinates": [ [ [ [ 127.929137895563997, 37.506911113604403 ], [ 127.922618606308603, 37.501612641936511 ], [ 127.921473956667953, 37.498605758547427 ], [ 127.918754144031467, 37.497892879379641 ], [ 127.919158470738495, 37.492925730957936 ], [ 127.909758443714423, 37.486412914139727 ], [ 127.906128001257073, 37.473270682665408 ], [ 127.895843345604547, 37.472296436259057 ], [ 127.897143594707174, 37.468633829550598 ], [ 127.894412418778387, 37.469625002031478 ], [ 127.888968385536998, 37.466136712547993 ], [ 127.887297217532293, 37.468526719045464 ], [ 127.884268215687911, 37.467703180441895 ], [ 127.884575012561882, 37.470161659892753 ], [ 127.877082456039631, 37.46688788501941 ], [ 127.875400567273289, 37.456555169334543 ], [ 127.865646183995011, 37.446834394236504 ], [ 127.866047121143495, 37.440320507627007 ], [ 127.863387178452669, 37.436146350596012 ], [ 127.865066211762894, 37.431881334165126 ], [ 127.863975535296206, 37.425304012228914 ], [ 127.871309659060316, 37.415657493335857 ], [ 127.868004537980596, 37.399504876843842 ], [ 127.856582653972893, 37.398547366856278 ], [ 127.85175871609411, 37.395164243424055 ], [ 127.847662804716776, 37.400646983483945 ], [ 127.851229807056953, 37.408483915418692 ], [ 127.848136299621203, 37.413480742910259 ], [ 127.847531272165426, 37.417737349322799 ], [ 127.845615236888193, 37.419232806237716 ], [ 127.844869524751019, 37.423800591444873 ], [ 127.841073920181245, 37.428798602659356 ], [ 127.839991654844198, 37.433822675207395 ], [ 127.834454703928856, 37.43398918456959 ], [ 127.8202554771661, 37.446656076840455 ], [ 127.813471219147544, 37.44527031478404 ], [ 127.810483664322547, 37.441381998818962 ], [ 127.799937832874676, 37.438648894787626 ], [ 127.798406765908425, 37.44256007809107 ], [ 127.799366471661145, 37.451752227728761 ], [ 127.796239892605243, 37.463023368953344 ], [ 127.80076981757405, 37.467832754208636 ], [ 127.799792806214356, 37.472388139111651 ], [ 127.789625824165824, 37.474776601300334 ], [ 127.784812319591992, 37.478708213946021 ], [ 127.781933189247781, 37.482109805909893 ], [ 127.780232665173386, 37.488631268763328 ], [ 127.776090975248195, 37.488548052633512 ], [ 127.774719523126407, 37.491758196336193 ], [ 127.770115639584219, 37.492704938517043 ], [ 127.760149878048622, 37.492235315382146 ], [ 127.759421105796662, 37.49540252918063 ], [ 127.759929782915961, 37.503340317183309 ], [ 127.765418126384006, 37.502722732977873 ], [ 127.771804429019099, 37.505175086229265 ], [ 127.781161742661993, 37.513071855248675 ], [ 127.783698569127367, 37.512126881121411 ], [ 127.785452728472151, 37.513285312366776 ], [ 127.788718837880609, 37.51851478423503 ], [ 127.796370235655758, 37.523140916286756 ], [ 127.795004385568163, 37.524910114617526 ], [ 127.79633829057758, 37.52859272597388 ], [ 127.80648985177956, 37.53118219551871 ], [ 127.806246457776965, 37.534912827996791 ], [ 127.809587998395997, 37.537862887399513 ], [ 127.81630331007436, 37.536985925285137 ], [ 127.82247355963645, 37.538436557365799 ], [ 127.828226666429501, 37.536599872349406 ], [ 127.83357821768557, 37.539186096710509 ], [ 127.842053444050222, 37.538897356392489 ], [ 127.843034191752864, 37.541915748299253 ], [ 127.845933971245543, 37.544107939946407 ], [ 127.845132717443647, 37.547759824417135 ], [ 127.847626702463586, 37.54956696762887 ], [ 127.848059936069419, 37.552300338189582 ], [ 127.851348256360467, 37.554123956369622 ], [ 127.855158201652642, 37.553973265931802 ], [ 127.859480203070902, 37.557709168316435 ], [ 127.866188759743224, 37.55629622444367 ], [ 127.87376863832786, 37.557434986009113 ], [ 127.874262142119946, 37.555940155082268 ], [ 127.884621560899603, 37.551935766432386 ], [ 127.893973442409546, 37.545694070713921 ], [ 127.900402191102401, 37.540566260686894 ], [ 127.895492618746886, 37.536241519805785 ], [ 127.895988015063438, 37.52807870653195 ], [ 127.897526920695867, 37.525485169438859 ], [ 127.896080769375899, 37.522880634914621 ], [ 127.900217895595091, 37.520106206488528 ], [ 127.91157139476357, 37.521354638084276 ], [ 127.916185470919501, 37.514694721676712 ], [ 127.924239409068306, 37.517668324557526 ], [ 127.930118975057425, 37.514990578663131 ], [ 127.931516212196271, 37.513597666050003 ], [ 127.929137895563997, 37.506911113604403 ] ] ] ] } },
{ "type": "Feature", "properties": { "emd_cd": "51730380", "emd_nm": "강림면" }, "geometry": { "type": "MultiPolygon", "coordinates": [ [ [ [ 128.180320950883072, 37.38093475683133 ], [ 128.180206959127105, 37.378270544633715 ], [ 128.178076991674743, 37.37652838168858 ], [ 128.178320333029063, 37.373611573046624 ], [ 128.182031442883073, 37.36346734289269 ], [ 128.185401284147503, 37.359380361854271 ], [ 128.183078681382, 37.355262233264796 ], [ 128.186418156622381, 37.341392336483693 ], [ 128.183903543580186, 37.339297445570566 ], [ 128.176043621836271, 37.337526936038799 ], [ 128.169186212923421, 37.339106094080051 ], [ 128.167612761946998, 37.337629015348234 ], [ 128.172229894007103, 37.329531497000211 ], [ 128.172903715025882, 37.324981443634826 ], [ 128.166701107340174, 37.321867648713088 ], [ 128.158392047780325, 37.323644748685112 ], [ 128.152623986142856, 37.327306167067405 ], [ 128.146607057806705, 37.322956132519579 ], [ 128.143784651157489, 37.324855286122109 ], [ 128.136273175054612, 37.325903252775099 ], [ 128.131302773481025, 37.32937776300956 ], [ 128.119733561715975, 37.323730862430423 ], [ 128.119135954834633, 37.320790599922383 ], [ 128.115464016083166, 37.317498397945549 ], [ 128.11398781144149, 37.310206906472821 ], [ 128.117478891154946, 37.303678615443445 ], [ 128.108534376089438, 37.298727318799848 ], [ 128.104493824471319, 37.300833390912125 ], [ 128.101641543035697, 37.299451213253796 ], [ 128.098109114824013, 37.301189787596279 ], [ 128.086829711606015, 37.300884609111222 ], [ 128.073590919416915, 37.3044009347092 ], [ 128.066501885657317, 37.30883662131923 ], [ 128.051943414395254, 37.30837063331326 ], [ 128.040084478284655, 37.319130369772203 ], [ 128.037234475666651, 37.327614129291746 ], [ 128.035687980846006, 37.327635306102444 ], [ 128.033649648724861, 37.33245418919855 ], [ 128.037742864808138, 37.33763487892962 ], [ 128.039457454631361, 37.343482524908715 ], [ 128.036628608239454, 37.346643418468808 ], [ 128.038082100248545, 37.354588800829234 ], [ 128.045686038700239, 37.359231242788312 ], [ 128.046086995612768, 37.363382817239085 ], [ 128.049635477622132, 37.365928750077323 ], [ 128.055512344662276, 37.363946465223506 ], [ 128.060471071387951, 37.365959458810003 ], [ 128.065480911083171, 37.364304368270361 ], [ 128.072638025713673, 37.367246917661561 ], [ 128.072787245291664, 37.369698377901798 ], [ 128.076722238862828, 37.373786926140511 ], [ 128.074845475445159, 37.375584897517584 ], [ 128.074442870601388, 37.379669169555008 ], [ 128.076466298442824, 37.382796585164655 ], [ 128.071936636204839, 37.391904099771644 ], [ 128.078821117741256, 37.400054764389843 ], [ 128.081735566447179, 37.401215708598464 ], [ 128.088365957674654, 37.401351078453779 ], [ 128.09751737406026, 37.406243290525687 ], [ 128.101220755741934, 37.398384706073699 ], [ 128.104847568831417, 37.394818725783082 ], [ 128.110511729646504, 37.391914849361918 ], [ 128.116219713651986, 37.391847572677847 ], [ 128.119735771251811, 37.390001802082175 ], [ 128.124272507037773, 37.392806877336575 ], [ 128.129914300708123, 37.390697493405597 ], [ 128.131980145074039, 37.387455002169581 ], [ 128.140969113085049, 37.381292487962895 ], [ 128.15838574118456, 37.383946147708727 ], [ 128.166393367595418, 37.376553397897496 ], [ 128.175538784693799, 37.378074359275537 ], [ 128.180320950883072, 37.38093475683133 ] ] ] ] } }
]
}
