{
"type": "FeatureCollection",
"name": "51750",
"crs": { "type": "name", "properties": { "name": "urn:ogc:def:crs:OGC:1.3:CRS84" } },
"features": [
{ "type": "Feature", "properties": { "emd_cd": "51750250", "emd_nm": "영월읍" }, "geometry": { "type": "MultiPolygon", "coordinates": [ [ [ [ 128.50303732534158, 37.129053832006193 ], [ 128.491086503482819, 37.123836810533696 ], [ 128.482479385344874, 37.114979825942918 ], [ 128.48148436669436, 37.112194812398187 ], [ 128.477688916187304, 37.110028068540473 ], [ 128.460640950119569, 37.110379710034231 ], [ 128.45942541303836, 37.111883180400895 ], [ 128.461692288135595, 37.113003514133943 ], [ 128.459271345052656, 37.113612640815987 ], [ 128.458673476259349, 37.117075513470283 ], [ 128.455287476669923, 37.119034318735494 ], [ 128.453150751737269, 37.117357573435548 ], [ 128.451692425325973, 37.120358873564022 ], [ 128.44434871413921, 37.122894130293581 ], [ 128.447283420484609, 37.135934108684118 ], [ 128.442368655044419, 37.139069699524704 ], [ 128.444500657808817, 37.143505028189203 ], [ 128.443280047741808, 37.147191910077012 ], [ 128.447668736130282, 37.148832850110715 ], [ 128.449088901888075, 37.151226886444121 ], [ 128.448730691302927, 37.153663019655696 ], [ 128.443092426000049, 37.1592005865676 ], [ 128.445972056538665, 37.169831408379949 ], [ 128.444366299681121, 37.172543608929125 ], [ 128.447740519247162, 37.175466101251892 ], [ 128.446412454418152, 37.177358355653034 ], [ 128.444414276730242, 37.177298105848138 ], [ 128.439880265707757, 37.174086715512537 ], [ 128.433048232353542, 37.177925056813621 ], [ 128.427840472163552, 37.186415442330357 ], [ 128.427974693010867, 37.19565528241418 ], [ 128.431679313569646, 37.197712279007121 ], [ 128.431591797638532, 37.204849761613161 ], [ 128.43345182390442, 37.206160047637518 ], [ 128.435700130101139, 37.206526769269431 ], [ 128.438003086486361, 37.20474284399171 ], [ 128.439588334896797, 37.207340698987871 ], [ 128.449321957034329, 37.206635639072644 ], [ 128.450653767272371, 37.20864516918536 ], [ 128.459522774126583, 37.211299038420833 ], [ 128.456436503490551, 37.215438834927248 ], [ 128.461465262729689, 37.22671373209927 ], [ 128.469787406458664, 37.227983517970131 ], [ 128.470006267860441, 37.230988571905094 ], [ 128.472529596842293, 37.232818310014224 ], [ 128.475387973252964, 37.240069139316802 ], [ 128.489726733321135, 37.244439001045791 ], [ 128.485209634516252, 37.248602327774961 ], [ 128.48908323689443, 37.268584951663186 ], [ 128.495695417438725, 37.272510229515056 ], [ 128.495601507923396, 37.286709873575028 ], [ 128.497410686097197, 37.288099238136354 ], [ 128.509847870283835, 37.289565741554227 ], [ 128.513072327548514, 37.287417797611504 ], [ 128.519324064158155, 37.287555137830822 ], [ 128.522096004985087, 37.289727384321381 ], [ 128.525603643143342, 37.288602446884433 ], [ 128.529576520872581, 37.291964096274477 ], [ 128.535911144561425, 37.283848070709354 ], [ 128.542654966913233, 37.28583225802106 ], [ 128.545467625547104, 37.288308041934158 ], [ 128.555802050826372, 37.28839047452049 ], [ 128.565975857094571, 37.278325414027087 ], [ 128.570551696082106, 37.280115875902695 ], [ 128.574021249723927, 37.279649902532313 ], [ 128.578323070325268, 37.272301965916576 ], [ 128.577824408784579, 37.269719494103448 ], [ 128.574990514488547, 37.268637194302997 ], [ 128.570857258239158, 37.270908004692899 ], [ 128.568451217641922, 37.270373829923528 ], [ 128.566030550608303, 37.266696181106255 ], [ 128.564946016170751, 37.257015081962905 ], [ 128.565781763558931, 37.253293878986163 ], [ 128.569449138391292, 37.249314246519162 ], [ 128.576801825662983, 37.244681791489448 ], [ 128.575540763706101, 37.235811795129429 ], [ 128.580040713480741, 37.209959862685537 ], [ 128.577618890220833, 37.206331402141345 ], [ 128.577024914135222, 37.201677584648564 ], [ 128.579317327472637, 37.195882093698387 ], [ 128.583869997048282, 37.193426920647624 ], [ 128.583696410460817, 37.189576127439011 ], [ 128.58016115990435, 37.184567030455732 ], [ 128.583736889955901, 37.18034383172072 ], [ 128.584092683433425, 37.169908126655926 ], [ 128.587146145901244, 37.16553037063602 ], [ 128.586661942972313, 37.16257762959598 ], [ 128.577454187202932, 37.1591052490812 ], [ 128.564511219580794, 37.164460678202317 ], [ 128.549843907731429, 37.159873104471615 ], [ 128.537036017708203, 37.161180231633736 ], [ 128.524178874254432, 37.146402482995875 ], [ 128.521302961638042, 37.139870252673433 ], [ 128.508064111063049, 37.134777054358288 ], [ 128.50303732534158, 37.129053832006193 ] ] ] ] } },
{ "type": "Feature", "properties": { "emd_cd": "51750253", "emd_nm": "상동읍" }, "geometry": { "type": "MultiPolygon", "coordinates": [ [ [ [ 128.708482883670854, 37.116917769874171 ], [ 128.713770596578371, 37.119729207091822 ], [ 128.719375773802994, 37.120281156650492 ], [ 128.726023260220671, 37.127365505655405 ], [ 128.728656115166075, 37.123224951883323 ], [ 128.730804635748314, 37.12376130983165 ], [ 128.727868342607252, 37.12606764752293 ], [ 128.739991897447965, 37.132774485092703 ], [ 128.741882933730182, 37.148838038728918 ], [ 128.765488732447892, 37.150946204481166 ], [ 128.771367567248376, 37.147296288500684 ], [ 128.771834479668968, 37.144434543323634 ], [ 128.774470842160582, 37.144101015732552 ], [ 128.780085506793029, 37.149821539057363 ], [ 128.784201085235708, 37.14950369593344 ], [ 128.785274547343249, 37.159758048842534 ], [ 128.79272079656522, 37.164749330490196 ], [ 128.79785623820527, 37.171420775134287 ], [ 128.806832578382824, 37.172080516118633 ], [ 128.810675612459647, 37.175477204200554 ], [ 128.816785890805534, 37.174287204065578 ], [ 128.820181020108834, 37.176311011821305 ], [ 128.826420050374225, 37.174733675670112 ], [ 128.832435312448894, 37.17594538217751 ], [ 128.839823148106547, 37.167565584641544 ], [ 128.845070692302357, 37.166459723254356 ], [ 128.86544299585691, 37.16935276152126 ], [ 128.872147070849763, 37.167216095055807 ], [ 128.885067206479363, 37.168667038106513 ], [ 128.891889978231319, 37.160615008893068 ], [ 128.893126270615937, 37.15239404815317 ], [ 128.897552584506315, 37.151055084204074 ], [ 128.900526893542548, 37.147062999186936 ], [ 128.894030614500167, 37.146302321278696 ], [ 128.888024799810324, 37.140249030679421 ], [ 128.887017927277299, 37.134521517569944 ], [ 128.889292050844432, 37.124621204821665 ], [ 128.882665659777132, 37.119607907544591 ], [ 128.879416243315603, 37.119141840977569 ], [ 128.875634502034984, 37.114524642127385 ], [ 128.870236487695507, 37.113575245849184 ], [ 128.869361326607617, 37.109606724087634 ], [ 128.866947231149993, 37.109234593098726 ], [ 128.868550939959505, 37.107127131173698 ], [ 128.875275227488686, 37.108199063369149 ], [ 128.878429420037406, 37.104167921843654 ], [ 128.887402671226823, 37.101714001458866 ], [ 128.886729500471375, 37.098929453759915 ], [ 128.888982116737026, 37.091949343986585 ], [ 128.881429557805802, 37.080894065199836 ], [ 128.874539563360827, 37.078602468941654 ], [ 128.874503479048798, 37.075356681310119 ], [ 128.876362230206581, 37.072034936932198 ], [ 128.885747957383614, 37.066072991701063 ], [ 128.886650650866926, 37.062699800991069 ], [ 128.888472339386254, 37.061801691933205 ], [ 128.895704575342393, 37.063941167979877 ], [ 128.89884983629031, 37.06683351430339 ], [ 128.90537106545429, 37.06590423081596 ], [ 128.910600939920613, 37.06826789328057 ], [ 128.910682369455031, 37.066120004437913 ], [ 128.898147652756109, 37.057577449007461 ], [ 128.89685598513762, 37.055068772853026 ], [ 128.897855010102205, 37.045971862865571 ], [ 128.89641156736181, 37.044461591108622 ], [ 128.889226048235315, 37.049790307940384 ], [ 128.878619535385326, 37.053252448587493 ], [ 128.876871724628472, 37.046130548135913 ], [ 128.872503311716969, 37.043982299731454 ], [ 128.863755914728443, 37.048677224424701 ], [ 128.846874255894619, 37.051674685151006 ], [ 128.843962566652579, 37.054687140725896 ], [ 128.84397929235783, 37.057277612531422 ], [ 128.840602600142887, 37.059342514857207 ], [ 128.835778523295204, 37.066060517268838 ], [ 128.831524704982201, 37.067540624585718 ], [ 128.83195805118001, 37.075168347603153 ], [ 128.82837198139319, 37.078933306406299 ], [ 128.819487422774955, 37.077054642676273 ], [ 128.812382488399635, 37.078669423122228 ], [ 128.808085228297443, 37.075734426344546 ], [ 128.799592069265231, 37.07928979722422 ], [ 128.801251626611219, 37.085448306266727 ], [ 128.799574467209965, 37.086817094481532 ], [ 128.785681636598895, 37.087917935395602 ], [ 128.780546153231398, 37.09245185151665 ], [ 128.770495440026053, 37.085545903338151 ], [ 128.76260041719442, 37.084308028042273 ], [ 128.756531146594853, 37.085349357302 ], [ 128.740194593829528, 37.09191482657554 ], [ 128.73716124740875, 37.095219695126652 ], [ 128.732655964625877, 37.093882748990119 ], [ 128.72748991012034, 37.095815797680714 ], [ 128.722441053636288, 37.102978059248713 ], [ 128.714503516353119, 37.104554877508157 ], [ 128.713032227841552, 37.110567049417625 ], [ 128.708482883670854, 37.116917769874171 ] ] ] ] } },
{ "type": "Feature", "properties": { "emd_cd": "51750312", "emd_nm": "산솔면" }, "geometry": { "type": "MultiPolygon", "coordinates": [ [ [ [ 128.820181020111562, 37.176311011821213 ], [ 128.816785890808262, 37.174287204065521 ], [ 128.810675612462234, 37.175477204200526 ], [ 128.806832578385354, 37.172080516118562 ], [ 128.797856238207885, 37.171420775134202 ], [ 128.792720796567664, 37.164749330490125 ], [ 128.785274547345693, 37.159758048842477 ], [ 128.784201085238038, 37.149503695933376 ], [ 128.780085506795444, 37.149821539057314 ], [ 128.774470842162941, 37.144101015732467 ], [ 128.771834479671327, 37.144434543323655 ], [ 128.771367567250735, 37.147296288500556 ], [ 128.765488732450166, 37.150946204481137 ], [ 128.741882933732313, 37.148838038728933 ], [ 128.739991897450068, 37.132774485092682 ], [ 128.727868342609355, 37.126067647522895 ], [ 128.730804635750331, 37.123761309831622 ], [ 128.728656115168206, 37.123224951883294 ], [ 128.726023260222775, 37.127365505655384 ], [ 128.719375773805012, 37.120281156650456 ], [ 128.713770596580389, 37.119729207091694 ], [ 128.708482883672815, 37.116917769874142 ], [ 128.701549971876943, 37.117292761909255 ], [ 128.69673325000204, 37.120140939187706 ], [ 128.689208746869184, 37.119901744652402 ], [ 128.687343760838758, 37.122454179806873 ], [ 128.680931027517346, 37.124585801167115 ], [ 128.679558878633856, 37.130656881370925 ], [ 128.672046372313872, 37.135561732979312 ], [ 128.673955414222036, 37.139663732840297 ], [ 128.668491255812256, 37.142158177250728 ], [ 128.654672575840522, 37.139689382760643 ], [ 128.648026739958993, 37.135874707980626 ], [ 128.642058104331483, 37.137680279228533 ], [ 128.63149740936899, 37.132267822534388 ], [ 128.630234780576444, 37.134799773567948 ], [ 128.632327530185535, 37.139654598053014 ], [ 128.629841606277694, 37.146192239697136 ], [ 128.619674696191964, 37.148896687660752 ], [ 128.617616404197889, 37.151098146648614 ], [ 128.617255025366148, 37.154185179892437 ], [ 128.620074261854739, 37.161650464030842 ], [ 128.600511476300909, 37.164575376345958 ], [ 128.596927793045694, 37.16296194062194 ], [ 128.586661942973677, 37.162577629595958 ], [ 128.587146145902665, 37.165530370635992 ], [ 128.584092683434733, 37.169908126655891 ], [ 128.583736889957294, 37.180343831720762 ], [ 128.580161159905629, 37.184567030455732 ], [ 128.583696410462153, 37.189576127439025 ], [ 128.583869997049561, 37.193426920647646 ], [ 128.579317327473944, 37.19588209369833 ], [ 128.577024914136587, 37.201677584648515 ], [ 128.577618890222141, 37.206331402141217 ], [ 128.580040713481992, 37.209959862685523 ], [ 128.579231420008369, 37.220026884132217 ], [ 128.586205976116048, 37.221174972980727 ], [ 128.600283247749701, 37.212707271632141 ], [ 128.604295206226055, 37.218189854402254 ], [ 128.614595083949268, 37.218072247348509 ], [ 128.615916780845708, 37.216878691172212 ], [ 128.619104285245214, 37.218557340029989 ], [ 128.622545811876563, 37.213291013566632 ], [ 128.617530767538, 37.205987939589683 ], [ 128.622249726576086, 37.204231688534819 ], [ 128.622805374673391, 37.201189600608942 ], [ 128.627207561243466, 37.199804329368675 ], [ 128.629064098306429, 37.195738665818027 ], [ 128.631532744625588, 37.197401549613474 ], [ 128.6333918065354, 37.19657210259561 ], [ 128.63563999104241, 37.191544389432664 ], [ 128.63542472599201, 37.187774422135917 ], [ 128.643784211051923, 37.182205171721918 ], [ 128.6466275456429, 37.181873235117351 ], [ 128.660076134074615, 37.186678044634235 ], [ 128.668074673266176, 37.185419187738148 ], [ 128.671484027603299, 37.187082526090812 ], [ 128.676517317286851, 37.186952091233373 ], [ 128.682727921157863, 37.184845680122891 ], [ 128.69457554147391, 37.184584446982619 ], [ 128.699612217168038, 37.1900515326084 ], [ 128.710174013345068, 37.191006886219 ], [ 128.716317974996002, 37.19588221592349 ], [ 128.725276666252569, 37.198240973051789 ], [ 128.731896110493949, 37.197460005970179 ], [ 128.740038513873202, 37.206033692324958 ], [ 128.750047770715554, 37.21209849538576 ], [ 128.762905162684063, 37.208298158826537 ], [ 128.767689495204422, 37.203273888809505 ], [ 128.779859803205255, 37.200111869964871 ], [ 128.783143797313812, 37.200578744158207 ], [ 128.785435456558702, 37.19792616383198 ], [ 128.795320827993351, 37.196595691634457 ], [ 128.806501570284951, 37.189916468593573 ], [ 128.809320518690328, 37.190445275959682 ], [ 128.811370364184512, 37.186596936053014 ], [ 128.815166181048454, 37.185173888744636 ], [ 128.820181020111562, 37.176311011821213 ] ] ] ] } },
{ "type": "Feature", "properties": { "emd_cd": "51750325", "emd_nm": "김삿갓면" }, "geometry": { "type": "MultiPolygon", "coordinates": [ [ [ [ 128.753943008058002, 37.027912656607903 ], [ 128.749256011053916, 37.028911416645968 ], [ 128.735760494629091, 37.039563442476656 ], [ 128.725899652319299, 37.042175245292825 ], [ 128.718754929339468, 37.043571947113321 ], [ 128.712823857861082, 37.042564464864682 ], [ 128.709153028063099, 37.039268890648103 ], [ 128.700489383749897, 37.040712201082279 ], [ 128.688992399664642, 37.053071368740063 ], [ 128.683667391095526, 37.051468763611304 ], [ 128.673695639647747, 37.058932731902097 ], [ 128.663733654176554, 37.060945153473163 ], [ 128.657803534303156, 37.060487844058969 ], [ 128.656000763385236, 37.064438504197447 ], [ 128.650606288615336, 37.065882426031521 ], [ 128.642691690944048, 37.070754349359902 ], [ 128.639011084339728, 37.070717010231064 ], [ 128.637356211178059, 37.072343031727272 ], [ 128.634321370701798, 37.070758010584321 ], [ 128.628244380798321, 37.075225979045968 ], [ 128.62829772355812, 37.081385659284955 ], [ 128.622676405615493, 37.087398978755488 ], [ 128.60641424792405, 37.07667441543142 ], [ 128.604486076530122, 37.079121667010867 ], [ 128.601380361293394, 37.078911862796801 ], [ 128.601358108856829, 37.083146137070678 ], [ 128.595012109663514, 37.081556033263382 ], [ 128.593150011459244, 37.078411830054414 ], [ 128.590927348971007, 37.078231063949161 ], [ 128.581795028096565, 37.081683399157164 ], [ 128.574394641485384, 37.081446872839869 ], [ 128.570378003189546, 37.084623044696031 ], [ 128.570946624298898, 37.08619894880232 ], [ 128.561738257476037, 37.090661302527778 ], [ 128.550533696613826, 37.086218212880048 ], [ 128.536957588126114, 37.089991394733758 ], [ 128.534627953148942, 37.098435344659656 ], [ 128.532256021676631, 37.099718578848844 ], [ 128.521813682303247, 37.103230115063781 ], [ 128.514064021043538, 37.100767097523189 ], [ 128.510749954833585, 37.113963470385492 ], [ 128.506548492797606, 37.115556749187029 ], [ 128.496600729015483, 37.125766461712139 ], [ 128.50303732534158, 37.129053832006193 ], [ 128.508064111063049, 37.134777054358288 ], [ 128.521302961638042, 37.139870252673433 ], [ 128.524178874254432, 37.146402482995875 ], [ 128.537036017708203, 37.161180231633736 ], [ 128.549843907731429, 37.159873104471615 ], [ 128.564511219580794, 37.164460678202317 ], [ 128.577454187202932, 37.1591052490812 ], [ 128.586661942972313, 37.16257762959598 ], [ 128.596927793044273, 37.162961940621962 ], [ 128.600511476299459, 37.164575376345979 ], [ 128.620074261853262, 37.161650464030913 ], [ 128.617255025364756, 37.154185179892458 ], [ 128.617616404196411, 37.151098146648664 ], [ 128.61967469619043, 37.148896687660731 ], [ 128.629841606276244, 37.1461922396972 ], [ 128.632327530184, 37.139654598053085 ], [ 128.630234780574852, 37.13479977356797 ], [ 128.631497409367455, 37.132267822534409 ], [ 128.642058104329863, 37.13768027922859 ], [ 128.648026739957402, 37.135874707980641 ], [ 128.654672575838902, 37.139689382760722 ], [ 128.668491255810522, 37.142158177250785 ], [ 128.673955414220359, 37.139663732840333 ], [ 128.672046372312138, 37.135561732979347 ], [ 128.679558878632065, 37.130656881370996 ], [ 128.680931027515612, 37.124585801167129 ], [ 128.687343760836967, 37.122454179806894 ], [ 128.689208746867365, 37.119901744652481 ], [ 128.696733250000108, 37.120140939187735 ], [ 128.701549971875068, 37.117292761909283 ], [ 128.708482883670854, 37.116917769874171 ], [ 128.713032227841552, 37.110567049417625 ], [ 128.714503516353119, 37.104554877508157 ], [ 128.722441053636288, 37.102978059248713 ], [ 128.727824478756929, 37.095598721287288 ], [ 128.732655964625877, 37.093882748990119 ], [ 128.73716124740875, 37.095219695126652 ], [ 128.740194593829528, 37.09191482657554 ], [ 128.76213237446629, 37.084360292015582 ], [ 128.770495440026053, 37.085545903338151 ], [ 128.773481958567601, 37.087579781658434 ], [ 128.777589809723537, 37.083223678634724 ], [ 128.77792782309416, 37.078931900760473 ], [ 128.770049842667589, 37.075121199618984 ], [ 128.768573516656289, 37.068024888134005 ], [ 128.765128101869976, 37.063917393704877 ], [ 128.757173754069129, 37.070008011349955 ], [ 128.752539898340132, 37.057953907497101 ], [ 128.752919480162035, 37.053752837808496 ], [ 128.755221229830312, 37.05012327891869 ], [ 128.761371024175162, 37.04432739252794 ], [ 128.762496778637143, 37.037983634869832 ], [ 128.762141506817954, 37.036296587415812 ], [ 128.754696697433786, 37.031989789831208 ], [ 128.753943008058002, 37.027912656607903 ] ] ] ] } },
{ "type": "Feature", "properties": { "emd_cd": "51750330", "emd_nm": "북면" }, "geometry": { "type": "MultiPolygon", "coordinates": [ [ [ [ 128.406351944147843, 37.229813836092795 ], [ 128.388061106875114, 37.239296724653151 ], [ 128.370685054159253, 37.245587188457648 ], [ 128.371759392400293, 37.252177043995381 ], [ 128.370783768637921, 37.257096451912695 ], [ 128.372486786863448, 37.258849141945845 ], [ 128.371193263375005, 37.262907410274472 ], [ 128.365370339846152, 37.265620731450056 ], [ 128.361091199210421, 37.265026307294796 ], [ 128.355152780639429, 37.271146567686884 ], [ 128.359959838849676, 37.280876937146431 ], [ 128.364685192401197, 37.282444832446515 ], [ 128.366811611821134, 37.287216526825617 ], [ 128.37141645645039, 37.291623008553422 ], [ 128.382714569812322, 37.288992173975039 ], [ 128.397151749646866, 37.297346236031338 ], [ 128.406118329666072, 37.294007611327189 ], [ 128.408795356594197, 37.294537798866976 ], [ 128.408476114264829, 37.298653733492053 ], [ 128.405618366083644, 37.301624701962574 ], [ 128.406559615725513, 37.305453477568037 ], [ 128.41060269225153, 37.308709732710255 ], [ 128.407339725225967, 37.311269876886193 ], [ 128.404520993136515, 37.31962649585504 ], [ 128.406476996334021, 37.324725975804952 ], [ 128.411948255425017, 37.330339850939119 ], [ 128.41121004614422, 37.334078273105902 ], [ 128.412933368280733, 37.337052710402183 ], [ 128.41174239143055, 37.338525303670004 ], [ 128.420588050003431, 37.343661808660038 ], [ 128.425748215519462, 37.342774795904155 ], [ 128.430627941253704, 37.339757383758545 ], [ 128.43746481144197, 37.339607774598079 ], [ 128.442520589432831, 37.337264511654112 ], [ 128.448233601885619, 37.337569138614626 ], [ 128.452821451260377, 37.335770015112693 ], [ 128.454031917095989, 37.332109757098202 ], [ 128.464570990558173, 37.323179966564155 ], [ 128.46448185246237, 37.316424722435492 ], [ 128.460955461062298, 37.311067067089873 ], [ 128.464195261536815, 37.306775089318954 ], [ 128.470661305120927, 37.306913652509373 ], [ 128.481347102033766, 37.30258940805372 ], [ 128.497135025946704, 37.303198714641901 ], [ 128.500359919308153, 37.295260849318908 ], [ 128.500968325086831, 37.289266878421955 ], [ 128.495601507923396, 37.286709873575028 ], [ 128.49523406150152, 37.271113930316069 ], [ 128.490934212957285, 37.270484975251243 ], [ 128.48908323689443, 37.268584951663186 ], [ 128.485209634516252, 37.248602327774961 ], [ 128.489726733321135, 37.244439001045791 ], [ 128.475387973252964, 37.240069139316802 ], [ 128.472529596842293, 37.232818310014224 ], [ 128.470006267860441, 37.230988571905094 ], [ 128.469787406458664, 37.227983517970131 ], [ 128.461465262729689, 37.22671373209927 ], [ 128.456436503490551, 37.215438834927248 ], [ 128.459522774126583, 37.211299038420833 ], [ 128.450653767272371, 37.20864516918536 ], [ 128.449321957034329, 37.206635639072644 ], [ 128.439157736337791, 37.206755804729617 ], [ 128.435072474562674, 37.208540946959559 ], [ 128.433801228543416, 37.21105867006419 ], [ 128.430381016262913, 37.209977246015598 ], [ 128.42990821183551, 37.208382076328334 ], [ 128.414150564282949, 37.208713540015403 ], [ 128.413784791673578, 37.211911350058379 ], [ 128.411715312649221, 37.213010296020542 ], [ 128.412273637138071, 37.216154669918772 ], [ 128.409613807318578, 37.218010793414649 ], [ 128.40768044303465, 37.225276205170907 ], [ 128.405502216417915, 37.226758583421123 ], [ 128.406351944147843, 37.229813836092795 ] ] ] ] } },
{ "type": "Feature", "properties": { "emd_cd": "51750340", "emd_nm": "남면" }, "geometry": { "type": "MultiPolygon", "coordinates": [ [ [ [ 128.439157736337791, 37.206755804729617 ], [ 128.438540857446668, 37.204835044550393 ], [ 128.435215298612718, 37.206550195113358 ], [ 128.431591797638532, 37.204849761613161 ], [ 128.431679313569646, 37.197712279007121 ], [ 128.427974693010867, 37.19565528241418 ], [ 128.427840472163552, 37.186415442330357 ], [ 128.431936492314634, 37.179126233345194 ], [ 128.436374668946513, 37.175197201832489 ], [ 128.439880265707757, 37.174086715512537 ], [ 128.44538028070906, 37.177402135954509 ], [ 128.447740519247162, 37.175466101251892 ], [ 128.444366299681121, 37.172543608929125 ], [ 128.445972056538665, 37.169831408379949 ], [ 128.443092426000049, 37.1592005865676 ], [ 128.448730691302927, 37.153663019655696 ], [ 128.449088901888075, 37.151226886444121 ], [ 128.447668736130282, 37.148832850110715 ], [ 128.443280047741808, 37.147191910077012 ], [ 128.444500657808817, 37.143505028189203 ], [ 128.442368655044419, 37.139069699524704 ], [ 128.447283420484609, 37.135934108684118 ], [ 128.44434871413921, 37.122894130293581 ], [ 128.451692425325973, 37.120358873564022 ], [ 128.453150751737269, 37.117357573435548 ], [ 128.455287476669923, 37.119034318735494 ], [ 128.458673476259349, 37.117075513470283 ], [ 128.459271345052656, 37.113612640815987 ], [ 128.461692288135595, 37.113003514133943 ], [ 128.45942541303836, 37.111883180400895 ], [ 128.460640950119569, 37.110379710034231 ], [ 128.450333397804059, 37.112249467262608 ], [ 128.444808211325523, 37.10627157745791 ], [ 128.442711029474424, 37.109233729332033 ], [ 128.436137302876404, 37.111979387966777 ], [ 128.435618407519456, 37.109469109456235 ], [ 128.430731117203266, 37.106747057146229 ], [ 128.430184709352346, 37.103674268013165 ], [ 128.423114748840305, 37.103244704969349 ], [ 128.422157566225792, 37.110183924786661 ], [ 128.423560779495602, 37.112275127273648 ], [ 128.421068212365668, 37.113661663630943 ], [ 128.418420408480017, 37.119742334257182 ], [ 128.410925639827411, 37.122201329895027 ], [ 128.405190279803861, 37.128217299360038 ], [ 128.396445719098864, 37.129036136936556 ], [ 128.400794229968085, 37.133387453394455 ], [ 128.401821771795284, 37.138567906205907 ], [ 128.40368113921437, 37.139653231414229 ], [ 128.400919907156748, 37.146898246007233 ], [ 128.396395556490091, 37.148624603856575 ], [ 128.393235768526182, 37.151768456113651 ], [ 128.392839940068939, 37.154844120025736 ], [ 128.388794940213245, 37.154636105351926 ], [ 128.384353785346633, 37.158117514799514 ], [ 128.381851184227799, 37.155227272182657 ], [ 128.378613971236888, 37.154677789811494 ], [ 128.377030360574594, 37.151629417431664 ], [ 128.37588608621823, 37.153342230283073 ], [ 128.367898536366738, 37.154473607829374 ], [ 128.364435787752228, 37.157663854611997 ], [ 128.359757118144842, 37.150306982716053 ], [ 128.351445431804279, 37.157366137587367 ], [ 128.342572296449816, 37.155868704226897 ], [ 128.34029534580938, 37.158212132317161 ], [ 128.337181345638243, 37.157909819994288 ], [ 128.330783656590341, 37.150336812941681 ], [ 128.327506468753199, 37.152913025465047 ], [ 128.324477579379476, 37.147966718124586 ], [ 128.322079251976362, 37.149201524338537 ], [ 128.320104350633187, 37.147345703675263 ], [ 128.31115392628783, 37.145831782977751 ], [ 128.305828991279611, 37.139725234182265 ], [ 128.306341287471071, 37.137452058790075 ], [ 128.296345167619307, 37.133983250892108 ], [ 128.292607234072193, 37.139257509350244 ], [ 128.284734824703975, 37.143125076003116 ], [ 128.28000444561971, 37.142444244341355 ], [ 128.27350123118481, 37.147421520148747 ], [ 128.270531404425668, 37.154128128478341 ], [ 128.266145796929123, 37.155944231480369 ], [ 128.264537740631738, 37.160431534598324 ], [ 128.270468551247291, 37.161778636370073 ], [ 128.270829868552312, 37.166357407917985 ], [ 128.276287228497722, 37.172676852070779 ], [ 128.281081720997378, 37.173318383390502 ], [ 128.282417627688602, 37.171699759500818 ], [ 128.289614993437795, 37.170041826346321 ], [ 128.303287007802766, 37.171164943225293 ], [ 128.304334435925512, 37.169616406792962 ], [ 128.314202489442067, 37.167380130021137 ], [ 128.318412225527823, 37.163103298022961 ], [ 128.327095649643013, 37.166221411214458 ], [ 128.33062557629512, 37.163541904096277 ], [ 128.332848059933951, 37.163909255769092 ], [ 128.33278915207103, 37.165402342363308 ], [ 128.336755823517791, 37.165934806421326 ], [ 128.33562870178568, 37.168569607150459 ], [ 128.345033879291208, 37.171572489677125 ], [ 128.3498237988656, 37.176179025550425 ], [ 128.347931147035609, 37.178546040135608 ], [ 128.349119124822579, 37.180344308180921 ], [ 128.346466656410826, 37.183712464771212 ], [ 128.351224962558291, 37.1856104514479 ], [ 128.359170004346993, 37.183038569850872 ], [ 128.361341405303676, 37.183916042430766 ], [ 128.370838474090277, 37.182156976878225 ], [ 128.373884849210299, 37.185843880208303 ], [ 128.379031377369415, 37.187306077887484 ], [ 128.378015895800417, 37.188716549371776 ], [ 128.380406738963757, 37.19138048498241 ], [ 128.387569041116222, 37.190875933891391 ], [ 128.389227010080134, 37.194040569429646 ], [ 128.385467690127115, 37.193090549845266 ], [ 128.374896032444838, 37.197425557047282 ], [ 128.375829969335484, 37.206112111885545 ], [ 128.377569584176769, 37.210794855815109 ], [ 128.382763452535329, 37.211848659848364 ], [ 128.381602640393652, 37.21600288501233 ], [ 128.386442629069052, 37.221615276222913 ], [ 128.3865006630202, 37.226978836613839 ], [ 128.39371670438203, 37.229723538834996 ], [ 128.397907869496493, 37.23358194257812 ], [ 128.406351944147843, 37.229813836092795 ], [ 128.405502216417915, 37.226758583421123 ], [ 128.40768044303465, 37.225276205170907 ], [ 128.409613807318578, 37.218010793414649 ], [ 128.412273637138071, 37.216154669918772 ], [ 128.411715312649221, 37.213010296020542 ], [ 128.413784791673578, 37.211911350058379 ], [ 128.414150564282949, 37.208713540015403 ], [ 128.42990821183551, 37.208382076328334 ], [ 128.430381016262913, 37.209977246015598 ], [ 128.433801228543416, 37.21105867006419 ], [ 128.435072474562674, 37.208540946959559 ], [ 128.439157736337791, 37.206755804729617 ] ] ] ] } },
{ "type": "Feature", "properties": { "emd_cd": "51750355", "emd_nm": "한반도면" }, "geometry": { "type": "MultiPolygon", "coordinates": [ [ [ [ 128.342464076316929, 37.289601577700246 ], [ 128.34845574599322, 37.289640408657796 ], [ 128.359811074744755, 37.282622393246228 ], [ 128.358664150993206, 37.276454459756835 ], [ 128.355155671328987, 37.269889103071037 ], [ 128.361091199210421, 37.265026307294796 ], [ 128.365370339846152, 37.265620731450056 ], [ 128.371193263375005, 37.262907410274472 ], [ 128.372486786863448, 37.258849141945845 ], [ 128.370783768637921, 37.257096451912695 ], [ 128.371759392400293, 37.252177043995381 ], [ 128.370685054159253, 37.245587188457648 ], [ 128.388061106875114, 37.239296724653151 ], [ 128.397907869496493, 37.23358194257812 ], [ 128.39371670438203, 37.229723538834996 ], [ 128.3865006630202, 37.226978836613839 ], [ 128.386442629069052, 37.221615276222913 ], [ 128.381602640393652, 37.21600288501233 ], [ 128.382763452535329, 37.211848659848364 ], [ 128.377569584176769, 37.210794855815109 ], [ 128.374672354283149, 37.201028497438458 ], [ 128.374896032444838, 37.197425557047282 ], [ 128.376944409752213, 37.196094845716289 ], [ 128.385467690127115, 37.193090549845266 ], [ 128.38976961194075, 37.193550579650349 ], [ 128.386779871794459, 37.190599306599808 ], [ 128.380406738963757, 37.19138048498241 ], [ 128.378015895800417, 37.188716549371776 ], [ 128.379031377369415, 37.187306077887484 ], [ 128.373884849210299, 37.185843880208303 ], [ 128.370838474090277, 37.182156976878225 ], [ 128.361341405303676, 37.183916042430766 ], [ 128.359170004346993, 37.183038569850872 ], [ 128.351224962558291, 37.1856104514479 ], [ 128.346466656410826, 37.183712464771212 ], [ 128.349984321968492, 37.176412771270016 ], [ 128.345159488978197, 37.171646908031768 ], [ 128.33562870178568, 37.168569607150459 ], [ 128.336755823517791, 37.165934806421326 ], [ 128.33278915207103, 37.165402342363308 ], [ 128.332848059933951, 37.163909255769092 ], [ 128.33062557629512, 37.163541904096277 ], [ 128.327095649643013, 37.166221411214458 ], [ 128.318412225527823, 37.163103298022961 ], [ 128.314202489442067, 37.167380130021137 ], [ 128.304334435925512, 37.169616406792962 ], [ 128.303287007802766, 37.171164943225293 ], [ 128.298724573827997, 37.171051753629754 ], [ 128.295610639705245, 37.183251432457979 ], [ 128.299889277634009, 37.183565156758796 ], [ 128.302598398419576, 37.18660582446639 ], [ 128.307606965153298, 37.186033212925572 ], [ 128.310403800400849, 37.187385461960147 ], [ 128.311047369058116, 37.189851105651073 ], [ 128.314166020785876, 37.190070880245216 ], [ 128.312985168237873, 37.191222323907873 ], [ 128.313433716905109, 37.19677532047433 ], [ 128.321739357662324, 37.195575540669012 ], [ 128.32245890638842, 37.198340292812034 ], [ 128.32640714899, 37.197284244861329 ], [ 128.329580939907402, 37.202185520614037 ], [ 128.328717374690285, 37.20613652850993 ], [ 128.333430797511596, 37.216897887033213 ], [ 128.321322455885621, 37.219218720019398 ], [ 128.316649988944107, 37.223290035072047 ], [ 128.308876875669341, 37.217299901897839 ], [ 128.301295790739431, 37.216841803771018 ], [ 128.303276129220109, 37.225018907575929 ], [ 128.302068552210841, 37.228122492919212 ], [ 128.310945500165616, 37.23122085302338 ], [ 128.310018320476047, 37.234382681950258 ], [ 128.312053674443973, 37.237105724616448 ], [ 128.310375411348389, 37.23813999240928 ], [ 128.309402571324938, 37.243082216047597 ], [ 128.307549047468143, 37.243936519877444 ], [ 128.311507824011841, 37.255798102487745 ], [ 128.307454383677452, 37.25805383650868 ], [ 128.306425631725944, 37.262476279658742 ], [ 128.300024089048947, 37.268511822168001 ], [ 128.300306431749647, 37.271257234271147 ], [ 128.302503350690301, 37.276252358359777 ], [ 128.313345984689022, 37.277144016707261 ], [ 128.326141358751414, 37.274800980320826 ], [ 128.328448866694401, 37.281490061121936 ], [ 128.336355082972972, 37.282293802214134 ], [ 128.33841611330098, 37.285738300476396 ], [ 128.341102222329511, 37.286318479344409 ], [ 128.342464076316929, 37.289601577700246 ] ] ] ] } },
{ "type": "Feature", "properties": { "emd_cd": "51750360", "emd_nm": "주천면" }, "geometry": { "type": "MultiPolygon", "coordinates": [ [ [ [ 128.203431731522386, 37.290394349653035 ], [ 128.205370740220303, 37.292351242311128 ], [ 128.204469938749497, 37.295875057159492 ], [ 128.197682617186615, 37.299175458583022 ], [ 128.197397058184009, 37.300956339868968 ], [ 128.204239030899771, 37.302493811488887 ], [ 128.210157716667936, 37.300363342674466 ], [ 128.214285315591326, 37.302383401239233 ], [ 128.220495354253615, 37.29957462229607 ], [ 128.224617730848962, 37.301351249595754 ], [ 128.228007388745766, 37.300744647091001 ], [ 128.233672298902263, 37.298230473464763 ], [ 128.245066214284122, 37.286687200455745 ], [ 128.250396837870568, 37.286357290469574 ], [ 128.254379790148818, 37.288913302960339 ], [ 128.253825613640998, 37.284480178903266 ], [ 128.257332746257447, 37.283867255023104 ], [ 128.259934442825113, 37.286008727704655 ], [ 128.263128491838245, 37.286101487639321 ], [ 128.270183078555903, 37.27984904056536 ], [ 128.289253598721047, 37.28599457236048 ], [ 128.295919132981027, 37.284069047211432 ], [ 128.300113498985581, 37.287092828742722 ], [ 128.302638524897361, 37.29307932148982 ], [ 128.297323967951684, 37.303203977078375 ], [ 128.298318213368503, 37.306608808963411 ], [ 128.296387645199331, 37.313982146278882 ], [ 128.29707552209689, 37.321601463994782 ], [ 128.292703538081355, 37.324012619517966 ], [ 128.290628320044021, 37.327121765362072 ], [ 128.293898514484027, 37.330792717122669 ], [ 128.293884433461017, 37.334104508459085 ], [ 128.296729782939821, 37.335644652147948 ], [ 128.295741529817207, 37.345145397867427 ], [ 128.291801613683219, 37.350439951873355 ], [ 128.29497477763806, 37.354894749691859 ], [ 128.295511775272701, 37.359824343240049 ], [ 128.294033892379133, 37.3620668751594 ], [ 128.297027442041696, 37.367633977294581 ], [ 128.294609765948564, 37.380418751317642 ], [ 128.297114427294389, 37.390034515171827 ], [ 128.306960547495322, 37.386829480774423 ], [ 128.316791216522631, 37.377936091547113 ], [ 128.319364470099543, 37.37964150976903 ], [ 128.325825253011885, 37.377992635568418 ], [ 128.327048040198605, 37.376030782372958 ], [ 128.320217514476894, 37.366683036402868 ], [ 128.319741908781737, 37.36123475816003 ], [ 128.317710790134583, 37.359279154419895 ], [ 128.316446628941407, 37.353484797471879 ], [ 128.321268196596435, 37.347490328317178 ], [ 128.321284129034865, 37.337965590917683 ], [ 128.324221993086127, 37.329505725087714 ], [ 128.323545381609847, 37.323843323591383 ], [ 128.324816059403531, 37.320901970293654 ], [ 128.330428564701606, 37.322616145922161 ], [ 128.342699013063822, 37.311868482411903 ], [ 128.357595468226179, 37.308571294778609 ], [ 128.357631465599098, 37.305933115165878 ], [ 128.360353468654154, 37.30503941832449 ], [ 128.364116468063656, 37.298816558303471 ], [ 128.36887464370534, 37.29630762875513 ], [ 128.371416456450476, 37.291623008553444 ], [ 128.362614547661508, 37.281478974513021 ], [ 128.360259703962441, 37.281208370455374 ], [ 128.351754057237116, 37.287892162671262 ], [ 128.344445452290103, 37.29027355107965 ], [ 128.342464076317015, 37.289601577700246 ], [ 128.341102222329567, 37.286318479344409 ], [ 128.338416113301065, 37.285738300476424 ], [ 128.336355082972943, 37.28229380221417 ], [ 128.328448866694401, 37.281490061121936 ], [ 128.326141358751471, 37.274800980320826 ], [ 128.313345984688937, 37.277144016707268 ], [ 128.302503350690301, 37.276252358359777 ], [ 128.300024089048947, 37.268511822167952 ], [ 128.306425631725944, 37.262476279658706 ], [ 128.307454383677481, 37.258053836508722 ], [ 128.311507824011812, 37.255798102487688 ], [ 128.3075490474682, 37.243936519877444 ], [ 128.309402571324938, 37.243082216047618 ], [ 128.310375411348417, 37.23813999240928 ], [ 128.312039281664113, 37.237270509845246 ], [ 128.31001832047599, 37.234382681950258 ], [ 128.310945500165531, 37.23122085302338 ], [ 128.302068552210784, 37.228122492919212 ], [ 128.303276129220109, 37.225018907575929 ], [ 128.301259980629482, 37.216569410557959 ], [ 128.288168628617967, 37.21509547278626 ], [ 128.283939469058254, 37.210253935463371 ], [ 128.272838260793066, 37.209861520305878 ], [ 128.268473820435474, 37.207927314119246 ], [ 128.259845201138404, 37.216415880855223 ], [ 128.257886564122316, 37.221247296640108 ], [ 128.255356282540333, 37.22183876240355 ], [ 128.257075808160323, 37.222350478160372 ], [ 128.250904190373433, 37.229544586925094 ], [ 128.244327601012969, 37.226531827178704 ], [ 128.237410537954446, 37.229313766776272 ], [ 128.233000564238523, 37.227019196948305 ], [ 128.229218748323063, 37.227567203960156 ], [ 128.228687901027143, 37.230190535411268 ], [ 128.22438860182163, 37.232877567016118 ], [ 128.220363654764697, 37.240329683074791 ], [ 128.214838996340887, 37.241868412495634 ], [ 128.214750153937757, 37.246064402056227 ], [ 128.21210027234477, 37.245359751246745 ], [ 128.208911525974798, 37.246825855474292 ], [ 128.207837204784369, 37.248857259566869 ], [ 128.208897230897804, 37.254469190748679 ], [ 128.212563358524193, 37.262127763728017 ], [ 128.210626034395574, 37.275126799674332 ], [ 128.21841633410645, 37.278610088793151 ], [ 128.213580731539167, 37.288259513105743 ], [ 128.206083369043967, 37.287775253433502 ], [ 128.203431731522386, 37.290394349653035 ] ] ] ] } },
{ "type": "Feature", "properties": { "emd_cd": "51750380", "emd_nm": "무릉도원면" }, "geometry": { "type": "MultiPolygon", "coordinates": [ [ [ [ 128.297114427294389, 37.390034515171827 ], [ 128.294609765948564, 37.380418751317642 ], [ 128.297027442041696, 37.367633977294581 ], [ 128.294033892379133, 37.3620668751594 ], [ 128.295511775272701, 37.359824343240049 ], [ 128.29497477763806, 37.354894749691859 ], [ 128.291801613683219, 37.350439951873355 ], [ 128.295741529817207, 37.345145397867427 ], [ 128.296729782939821, 37.335644652147948 ], [ 128.293884433461017, 37.334104508459085 ], [ 128.293898514484027, 37.330792717122669 ], [ 128.290628320044021, 37.327121765362072 ], [ 128.292703538081355, 37.324012619517966 ], [ 128.29707552209689, 37.321601463994782 ], [ 128.296387645199331, 37.313982146278882 ], [ 128.298318213368503, 37.306608808963411 ], [ 128.297323967951684, 37.303203977078375 ], [ 128.302638524897361, 37.29307932148982 ], [ 128.300113498985581, 37.287092828742722 ], [ 128.295919132981027, 37.284069047211432 ], [ 128.289253598721047, 37.28599457236048 ], [ 128.270183078555903, 37.27984904056536 ], [ 128.263128491838245, 37.286101487639321 ], [ 128.259934442825113, 37.286008727704655 ], [ 128.257332746257447, 37.283867255023104 ], [ 128.253825613640998, 37.284480178903266 ], [ 128.254379790148818, 37.288913302960339 ], [ 128.250396837870568, 37.286357290469574 ], [ 128.245066214284122, 37.286687200455745 ], [ 128.233672298902263, 37.298230473464763 ], [ 128.228007388745766, 37.300744647091001 ], [ 128.224617730848962, 37.301351249595754 ], [ 128.220495354253615, 37.29957462229607 ], [ 128.214285315591326, 37.302383401239233 ], [ 128.209417794443084, 37.300347103373568 ], [ 128.202914744750217, 37.302508993963507 ], [ 128.197338017751804, 37.300399855746292 ], [ 128.204469938749497, 37.295875057159492 ], [ 128.204519376257451, 37.290579447036222 ], [ 128.202928545254451, 37.290469073228564 ], [ 128.198143748365311, 37.295693892128348 ], [ 128.194359324634377, 37.296823622567501 ], [ 128.190173609970202, 37.295340743213025 ], [ 128.188163474160177, 37.292790261938833 ], [ 128.178519986104618, 37.291937293722341 ], [ 128.17780632384995, 37.279503781715768 ], [ 128.170202563360164, 37.277929816915467 ], [ 128.163536089636011, 37.274057864759413 ], [ 128.142685478241162, 37.271236635641657 ], [ 128.125669907961253, 37.275292171936385 ], [ 128.121593422238675, 37.272323555718117 ], [ 128.11679740260638, 37.272287063084732 ], [ 128.114574642248925, 37.273596674434138 ], [ 128.115087435909487, 37.276669535931333 ], [ 128.110590437771179, 37.279062298093791 ], [ 128.106981368579056, 37.293015578495748 ], [ 128.108960763403303, 37.296412926285512 ], [ 128.108556636315512, 37.298766887697944 ], [ 128.11802261502396, 37.304044218679543 ], [ 128.114726531905546, 37.310051077354515 ], [ 128.114926519664607, 37.315651745053465 ], [ 128.115882973009207, 37.318226068427251 ], [ 128.119633594943537, 37.320758972602967 ], [ 128.119954799333783, 37.323629918732571 ], [ 128.131538503797969, 37.328851649437667 ], [ 128.136251294098571, 37.325864763325555 ], [ 128.143852817230851, 37.324823266129933 ], [ 128.146672553565594, 37.322952752157022 ], [ 128.152675331277777, 37.327268074498591 ], [ 128.158408603680982, 37.323627480328206 ], [ 128.167841881046144, 37.322099807920559 ], [ 128.17300146945044, 37.325009817183528 ], [ 128.16802723269933, 37.338051344704624 ], [ 128.169183318307745, 37.339149196480534 ], [ 128.17592996902755, 37.33757698506335 ], [ 128.183871611355045, 37.339324780651886 ], [ 128.186543190215417, 37.341429153900137 ], [ 128.18306180016998, 37.355244515148293 ], [ 128.185438379421612, 37.35937562537984 ], [ 128.182058181302608, 37.363451725957006 ], [ 128.178040782438273, 37.375061550226057 ], [ 128.180338029219968, 37.381216658208693 ], [ 128.178740930223171, 37.385733117526478 ], [ 128.185201810626012, 37.392158412336876 ], [ 128.193444682460353, 37.389383821199203 ], [ 128.201274008547699, 37.390927575017635 ], [ 128.208118345908161, 37.394853522669976 ], [ 128.215185547190885, 37.392539001069053 ], [ 128.222176229425145, 37.393836093584525 ], [ 128.23639655023868, 37.387801888155579 ], [ 128.245916216801248, 37.394063548708097 ], [ 128.255538658221099, 37.393942849312786 ], [ 128.258583654531606, 37.397738532090415 ], [ 128.260294520590378, 37.405133639994695 ], [ 128.271545180542461, 37.408100087540795 ], [ 128.278379518024991, 37.405727977481547 ], [ 128.282838335285845, 37.405870806089943 ], [ 128.294145058333328, 37.400649720355922 ], [ 128.293501025184696, 37.396552214196646 ], [ 128.297114427294389, 37.390034515171827 ] ] ] ] } }
]
}
