{
"type": "FeatureCollection",
"name": "51800",
"crs": { "type": "name", "properties": { "name": "urn:ogc:def:crs:OGC:1.3:CRS84" } },
"features": [
{ "type": "Feature", "properties": { "emd_cd": "51800250", "emd_nm": "양구읍" }, "geometry": { "type": "MultiPolygon", "coordinates": [ [ [ [ 128.007879008752241, 38.199788641129075 ], [ 128.008560111563639, 38.197861612861274 ], [ 128.017215633397228, 38.193298203403913 ], [ 128.018539330253191, 38.189662834095465 ], [ 128.021077305760571, 38.188079671201073 ], [ 128.020590580089248, 38.185972679051879 ], [ 128.022727648380965, 38.184622561159912 ], [ 128.021833496041694, 38.182034290987154 ], [ 128.02453396801215, 38.173502421968003 ], [ 128.022294466316822, 38.172289360967739 ], [ 128.02254963039033, 38.170640512291172 ], [ 128.024571795448594, 38.167026043093706 ], [ 128.0263246384703, 38.16735109681261 ], [ 128.026330421144223, 38.164350743685119 ], [ 128.028193186617216, 38.163211774615007 ], [ 128.029677418911604, 38.147415575152003 ], [ 128.037303325960352, 38.138824413341027 ], [ 128.038849944183966, 38.134240827990119 ], [ 128.029918463226068, 38.130002108104371 ], [ 128.028552633047184, 38.125759890525046 ], [ 128.025237101334596, 38.124191968298938 ], [ 128.026588984764487, 38.123054419270694 ], [ 128.023878864195922, 38.117818392881631 ], [ 128.020403099728867, 38.118284473024453 ], [ 128.018046390578064, 38.114883699203659 ], [ 128.01064139822563, 38.109991338540546 ], [ 128.01204864464512, 38.106500996833724 ], [ 128.011228308775856, 38.104523644422393 ], [ 128.008605070983663, 38.103817243483967 ], [ 128.010742261958029, 38.09694308438128 ], [ 128.008271993970737, 38.09576587846847 ], [ 128.008706124410651, 38.093945014848501 ], [ 128.004916385524837, 38.093312050042293 ], [ 128.005195084125063, 38.087791731850125 ], [ 127.998178271790863, 38.08861425811881 ], [ 127.996478687915854, 38.086353282393283 ], [ 127.991157391154516, 38.087139761362359 ], [ 127.993464090369869, 38.082512791006749 ], [ 127.990921371913615, 38.079205034271467 ], [ 127.990970690146881, 38.06681233693557 ], [ 127.984057296580104, 38.059882538051866 ], [ 127.982889985315694, 38.054765979052334 ], [ 127.980684291237324, 38.053237018229844 ], [ 127.978798258497307, 38.048555521816382 ], [ 127.980531238270785, 38.03878131136139 ], [ 127.977078978366208, 38.037154174318566 ], [ 127.979347495436215, 38.034892108241976 ], [ 127.981511750492999, 38.02839668902412 ], [ 127.968881250710254, 38.030980955823452 ], [ 127.953536128454473, 38.038571610533431 ], [ 127.951516818264068, 38.038173528315767 ], [ 127.947052885977911, 38.032915111502959 ], [ 127.946308400639523, 38.020790558642659 ], [ 127.94074019641549, 38.015139553332368 ], [ 127.934754427842748, 38.013886567710621 ], [ 127.931700306336737, 38.017753415677873 ], [ 127.913342656199546, 38.022868875301015 ], [ 127.904059281920169, 38.030315405033171 ], [ 127.901859858534834, 38.038201646359177 ], [ 127.903706079792798, 38.041847020191753 ], [ 127.902713887937054, 38.050587223191698 ], [ 127.903751137342894, 38.052529948338687 ], [ 127.913638004121992, 38.058539124465263 ], [ 127.904352465498718, 38.070127929005835 ], [ 127.904319284175429, 38.074895633311982 ], [ 127.907762295749535, 38.080431275957352 ], [ 127.903798529337564, 38.084706838606031 ], [ 127.901105558439397, 38.090884017638992 ], [ 127.888255247267168, 38.093512134460561 ], [ 127.887628144515546, 38.100325777358975 ], [ 127.884993012828019, 38.102038589710496 ], [ 127.886347232830332, 38.103518906376799 ], [ 127.884010341729009, 38.109452359539212 ], [ 127.8870026861197, 38.11172630452127 ], [ 127.887830380766005, 38.115302082809137 ], [ 127.882049311360348, 38.118726321373849 ], [ 127.876198034856657, 38.119108578484095 ], [ 127.875045762307423, 38.127112576556009 ], [ 127.876883497751592, 38.133762798768529 ], [ 127.873807823426063, 38.139202237867146 ], [ 127.877678257371059, 38.153160369291868 ], [ 127.875542537005586, 38.158956425074592 ], [ 127.880554649742521, 38.166165774057092 ], [ 127.881037655677716, 38.170527839816614 ], [ 127.886744408118403, 38.167241126798821 ], [ 127.890759362593343, 38.167284360130701 ], [ 127.898431334944334, 38.172832363037543 ], [ 127.900532872375791, 38.171839382578852 ], [ 127.898966247727159, 38.167331244076635 ], [ 127.902154379302374, 38.165621563225926 ], [ 127.907230950266324, 38.169552977466907 ], [ 127.916488022012359, 38.170267840224525 ], [ 127.921041586111144, 38.176426477394592 ], [ 127.928047747570574, 38.17763099068894 ], [ 127.934041183609637, 38.174789377391519 ], [ 127.943899930879041, 38.17529771642662 ], [ 127.950160091617605, 38.170565179571469 ], [ 127.953473537768843, 38.171710771959482 ], [ 127.964291548869895, 38.170167827490083 ], [ 127.983574799814278, 38.179233249212913 ], [ 127.981951122631969, 38.186839103938908 ], [ 127.983361162533839, 38.191671874406794 ], [ 127.990442658440685, 38.194117232175508 ], [ 127.995067486297657, 38.19762963719176 ], [ 128.007879008752241, 38.199788641129075 ] ] ] ] } },
{ "type": "Feature", "properties": { "emd_cd": "51800315", "emd_nm": "국토정중앙면" }, "geometry": { "type": "MultiPolygon", "coordinates": [ [ [ [ 128.097367742707632, 38.174595661946604 ], [ 128.095591255965019, 38.160792956257943 ], [ 128.086341442326045, 38.152190434163437 ], [ 128.089211287173612, 38.149271897744917 ], [ 128.090339880057712, 38.143092339495077 ], [ 128.087725439100268, 38.138398526971443 ], [ 128.091729733360864, 38.136037432638993 ], [ 128.093411111264771, 38.13086029009915 ], [ 128.10001985440843, 38.129744316328434 ], [ 128.098101563739789, 38.124139774170281 ], [ 128.104166987720333, 38.115039584263037 ], [ 128.105014047979409, 38.108712490229394 ], [ 128.101054278917303, 38.105802648369156 ], [ 128.101287550607537, 38.102741124554576 ], [ 128.097394347853367, 38.101036818229048 ], [ 128.090193990835587, 38.101200973346117 ], [ 128.088054599305508, 38.095853955503337 ], [ 128.099927777837593, 38.078345022314622 ], [ 128.112951416148377, 38.070984920583122 ], [ 128.11532397774252, 38.062584040834388 ], [ 128.113720888848889, 38.055651644155091 ], [ 128.117945849970454, 38.047326195417916 ], [ 128.112518186278095, 38.041849305216211 ], [ 128.113488665785411, 38.03683611320627 ], [ 128.102854346059388, 38.029173931166618 ], [ 128.094210227852699, 38.028251178651871 ], [ 128.088301998803558, 38.033079744794136 ], [ 128.085012807995497, 38.032308178004428 ], [ 128.080102760020281, 38.034177242779997 ], [ 128.078738235097916, 38.038115102417116 ], [ 128.069838832596645, 38.043671924156577 ], [ 128.068852848439349, 38.046799329061287 ], [ 128.061067959766149, 38.047311165007514 ], [ 128.0601266482862, 38.041056463701075 ], [ 128.058020791778461, 38.039117564071553 ], [ 128.059155731480985, 38.035061259809147 ], [ 128.056623034889896, 38.030957852353708 ], [ 128.059353404210299, 38.027753481650961 ], [ 128.061935989953525, 38.018935540054116 ], [ 128.06037254842343, 38.014991298684336 ], [ 128.055507721866093, 38.015401636827889 ], [ 128.052813422735852, 38.018398857152874 ], [ 128.04512893208485, 38.020463207255567 ], [ 128.03084923472889, 38.014124265278738 ], [ 128.024929116162042, 38.019417148344289 ], [ 128.01435837135233, 38.019148151753768 ], [ 128.007948814510428, 38.015594429177199 ], [ 127.997935168946597, 38.002773408046615 ], [ 127.993275227121501, 38.001611787713465 ], [ 127.991024272885014, 38.002644239515718 ], [ 127.98377472151887, 38.010287009560223 ], [ 127.987633682591877, 38.023891373030118 ], [ 127.985507752586059, 38.026819530555528 ], [ 127.981511750492999, 38.02839668902412 ], [ 127.979347495436215, 38.034892108241976 ], [ 127.977078978366208, 38.037154174318566 ], [ 127.980531238270785, 38.03878131136139 ], [ 127.978798258497307, 38.048555521816382 ], [ 127.980684291237324, 38.053237018229844 ], [ 127.982889985315694, 38.054765979052334 ], [ 127.984057296580104, 38.059882538051866 ], [ 127.990970690146881, 38.06681233693557 ], [ 127.990921371913615, 38.079205034271467 ], [ 127.993464090369869, 38.082512791006749 ], [ 127.991157391154516, 38.087139761362359 ], [ 127.996478687915854, 38.086353282393283 ], [ 127.998178271790863, 38.08861425811881 ], [ 128.005195084125063, 38.087791731850125 ], [ 128.004916385524837, 38.093312050042293 ], [ 128.008706124410651, 38.093945014848501 ], [ 128.008271993970737, 38.09576587846847 ], [ 128.010742261958029, 38.09694308438128 ], [ 128.008605070983663, 38.103817243483967 ], [ 128.011228308775856, 38.104523644422393 ], [ 128.01204864464512, 38.106500996833724 ], [ 128.01064139822563, 38.109991338540546 ], [ 128.018046390578064, 38.114883699203659 ], [ 128.020403099728867, 38.118284473024453 ], [ 128.023878864195922, 38.117818392881631 ], [ 128.026588984764487, 38.123054419270694 ], [ 128.025237101334596, 38.124191968298938 ], [ 128.028552633047184, 38.125759890525046 ], [ 128.029918463226068, 38.130002108104371 ], [ 128.038849944183966, 38.134240827990119 ], [ 128.037303325960352, 38.138824413341027 ], [ 128.029677418911604, 38.147415575152003 ], [ 128.029010305949981, 38.156746299236438 ], [ 128.031824047312142, 38.157362109045415 ], [ 128.036462643806999, 38.162289409077715 ], [ 128.043483093056722, 38.161770154432745 ], [ 128.046887956285985, 38.16484948853023 ], [ 128.053129629541303, 38.164609240228941 ], [ 128.055269293017204, 38.162962188626352 ], [ 128.060526565708841, 38.164826866718002 ], [ 128.063782659028817, 38.163467682848712 ], [ 128.070952976684254, 38.164937130989685 ], [ 128.077292344243375, 38.171519880057957 ], [ 128.092346854836762, 38.179660905593977 ], [ 128.09977506951796, 38.188987284979277 ], [ 128.105358295565054, 38.184864576061571 ], [ 128.103660989477476, 38.182866679169159 ], [ 128.103891072223519, 38.177533199847076 ], [ 128.097367742707632, 38.174595661946604 ] ] ] ] } },
{ "type": "Feature", "properties": { "emd_cd": "51800320", "emd_nm": "동면" }, "geometry": { "type": "MultiPolygon", "coordinates": [ [ [ [ 128.037024059604761, 38.29077073073141 ], [ 128.043751479893473, 38.289177050972121 ], [ 128.056398561444752, 38.290076480379206 ], [ 128.065684537503273, 38.287376394509486 ], [ 128.080581968222702, 38.288348280844104 ], [ 128.08592662283246, 38.290305187957472 ], [ 128.088766638326462, 38.2822854544698 ], [ 128.086617528990928, 38.279038343881197 ], [ 128.084865460298204, 38.270013966733579 ], [ 128.087481638434667, 38.260936014755401 ], [ 128.098076384135112, 38.249449040394175 ], [ 128.096318284407687, 38.239730000894866 ], [ 128.111674461543203, 38.226741543858786 ], [ 128.116707300256252, 38.225085923123089 ], [ 128.117281516703827, 38.218149203112262 ], [ 128.121477109481617, 38.213384238539348 ], [ 128.113358827248959, 38.203474024744622 ], [ 128.107191607426955, 38.201280133360221 ], [ 128.10466650929709, 38.196721966903233 ], [ 128.098957457552245, 38.192302322272063 ], [ 128.09977506951796, 38.188987284979277 ], [ 128.092346854836762, 38.179660905593977 ], [ 128.077292344243375, 38.171519880057957 ], [ 128.070952976684254, 38.164937130989685 ], [ 128.063782659028817, 38.163467682848712 ], [ 128.060526565708841, 38.164826866718002 ], [ 128.055269293017204, 38.162962188626352 ], [ 128.053129629541303, 38.164609240228941 ], [ 128.046887956285985, 38.16484948853023 ], [ 128.043483093056722, 38.161770154432745 ], [ 128.036462643806999, 38.162289409077715 ], [ 128.031824047312142, 38.157362109045415 ], [ 128.029010305949981, 38.156746299236438 ], [ 128.026597784848036, 38.166777971963228 ], [ 128.024571795448594, 38.167026043093706 ], [ 128.02254963039033, 38.170640512291172 ], [ 128.022294466316822, 38.172289360967739 ], [ 128.02453396801215, 38.173502421968003 ], [ 128.021833496041694, 38.182034290987154 ], [ 128.022727648380965, 38.184622561159912 ], [ 128.020486177713224, 38.186147090602887 ], [ 128.021077305760571, 38.188079671201073 ], [ 128.018539330253191, 38.189662834095465 ], [ 128.017215633397228, 38.193298203403913 ], [ 128.008560111563639, 38.197861612861274 ], [ 128.007879008752241, 38.199788641129075 ], [ 128.012556086343466, 38.204884146867187 ], [ 128.013621605235898, 38.211547267295373 ], [ 128.016820508707298, 38.217044464371249 ], [ 128.008050593213198, 38.22334670647593 ], [ 128.009626280516187, 38.225138947254777 ], [ 128.009207277054514, 38.229949888409813 ], [ 128.013716946988325, 38.233871451507916 ], [ 128.013281274487213, 38.237313554071157 ], [ 128.009663874807387, 38.24146687207633 ], [ 128.010986424218999, 38.247280218856332 ], [ 128.009423616119363, 38.249543210128337 ], [ 128.010764984793127, 38.253538456589844 ], [ 128.007954494366743, 38.25787271745093 ], [ 128.009013463711028, 38.263494575632521 ], [ 128.002029975522618, 38.275174536174681 ], [ 128.006239125707026, 38.277803165371971 ], [ 128.01078036967769, 38.28608015693635 ], [ 128.015965584606874, 38.289886726591988 ], [ 128.025380245487327, 38.289163279342851 ], [ 128.037024059604761, 38.29077073073141 ] ] ], [ [ [ 128.03041574009643, 38.291393548301222 ], [ 128.029491280485956, 38.290605181042338 ], [ 128.029288055659407, 38.291278738225166 ], [ 128.03041574009643, 38.291393548301222 ] ] ], [ [ [ 128.043655977342269, 38.295406599185526 ], [ 128.044084422851796, 38.292444969112921 ], [ 128.043180457268392, 38.29251858930639 ], [ 128.043655977342269, 38.295406599185526 ] ] ], [ [ [ 128.027916676431033, 38.312211472426178 ], [ 128.026483467318059, 38.311538510565072 ], [ 128.028083580655874, 38.312444158133204 ], [ 128.027916676431033, 38.312211472426178 ] ] ], [ [ [ 128.044020024116406, 38.337305935845087 ], [ 128.043975758554154, 38.333884569320958 ], [ 128.04660224637621, 38.334027010092562 ], [ 128.043179871275782, 38.333081798880571 ], [ 128.044192027205838, 38.329592163463765 ], [ 128.043338052395768, 38.327936763499515 ], [ 128.045874278385327, 38.327975652745295 ], [ 128.041123315343611, 38.323403468739151 ], [ 128.044652493171725, 38.322950803100312 ], [ 128.04636411697291, 38.324580279723492 ], [ 128.051323004114977, 38.325575401248237 ], [ 128.046887551450624, 38.324336911747658 ], [ 128.044945568821959, 38.322974311423955 ], [ 128.043300818015496, 38.322510569588388 ], [ 128.040854911779007, 38.323251516049524 ], [ 128.042587535739614, 38.32020877699356 ], [ 128.040268716073825, 38.317124786644172 ], [ 128.045210323828826, 38.316935920391479 ], [ 128.039884567687579, 38.31530935004357 ], [ 128.040674454943399, 38.313300015427593 ], [ 128.039531944588134, 38.311300692864613 ], [ 128.044654979179455, 38.310690986818734 ], [ 128.043900891637804, 38.305520539050626 ], [ 128.045331745709831, 38.305230311761228 ], [ 128.044103400339054, 38.3043981214973 ], [ 128.044184438780292, 38.302338152673393 ], [ 128.045273710380684, 38.302657912016215 ], [ 128.044128202053741, 38.301756466413828 ], [ 128.045872845816177, 38.301254565557983 ], [ 128.04421829031179, 38.29930261372138 ], [ 128.046279704490928, 38.298113549215131 ], [ 128.049600715049678, 38.29928603402324 ], [ 128.05080575407635, 38.299086814795757 ], [ 128.058914654881931, 38.304139248396453 ], [ 128.061380812591977, 38.303526843611422 ], [ 128.050359478320786, 38.29883699392726 ], [ 128.050111246090296, 38.297544732230051 ], [ 128.039656315332735, 38.298615680774191 ], [ 128.040137927280995, 38.299968372628896 ], [ 128.035847803953686, 38.303113395380095 ], [ 128.037188876960442, 38.309138994090603 ], [ 128.028537088826113, 38.311400835170261 ], [ 128.028317069728843, 38.312312438546456 ], [ 128.03043263493376, 38.314034304307647 ], [ 128.030471196063132, 38.316381057786415 ], [ 128.027934840879936, 38.318112541679909 ], [ 128.028503995177914, 38.321301015004714 ], [ 128.029949851552715, 38.321781681238214 ], [ 128.030304695572312, 38.319048199776937 ], [ 128.032483264645236, 38.32018173869443 ], [ 128.035585935721997, 38.320210511665827 ], [ 128.031462492699887, 38.319226575263208 ], [ 128.033636133765469, 38.315949206473576 ], [ 128.030734093345359, 38.311583132357562 ], [ 128.032933072576384, 38.310922536310727 ], [ 128.034827452040417, 38.312619981041216 ], [ 128.037518382006311, 38.3105668248798 ], [ 128.039099775768648, 38.311618278814024 ], [ 128.038232802229317, 38.315308529573478 ], [ 128.040535227825899, 38.320099759141137 ], [ 128.040057754042351, 38.324971276319573 ], [ 128.038293354295007, 38.325557756113305 ], [ 128.040713455665411, 38.32554673350014 ], [ 128.039990789878431, 38.326625598944858 ], [ 128.04192270654903, 38.328017944245374 ], [ 128.040921730642481, 38.328759992513447 ], [ 128.042744101269193, 38.327856458606391 ], [ 128.041649434276252, 38.330427898590997 ], [ 128.04342679572116, 38.329710064345015 ], [ 128.043724353632314, 38.329918495425275 ], [ 128.042660120541854, 38.332894869461036 ], [ 128.044020024116406, 38.337305935845087 ] ] ], [ [ [ 128.034811548486033, 38.321354671607125 ], [ 128.033196736560228, 38.320844508789726 ], [ 128.031412328091108, 38.320089685790947 ], [ 128.032419487935641, 38.321057418689314 ], [ 128.034811548486033, 38.321354671607125 ] ] ] ] } },
{ "type": "Feature", "properties": { "emd_cd": "51800330", "emd_nm": "방산면" }, "geometry": { "type": "MultiPolygon", "coordinates": [ [ [ [ 127.894904770452086, 38.312914667601945 ], [ 127.903983420875377, 38.309725940911072 ], [ 127.907649013585825, 38.31096301316385 ], [ 127.91491344335293, 38.310745393412923 ], [ 127.918690089149052, 38.308747475027026 ], [ 127.926791422786181, 38.30938097289323 ], [ 127.931547335687128, 38.306391450168022 ], [ 127.942227560570657, 38.306384598877159 ], [ 127.948741176857254, 38.304407985303072 ], [ 127.958224036233219, 38.300219579078082 ], [ 127.963139962012576, 38.293641231684326 ], [ 127.966915044866454, 38.293079664777935 ], [ 127.976460103998903, 38.28737394439036 ], [ 127.977264618310386, 38.284905619486935 ], [ 127.982467944688878, 38.280641094035403 ], [ 127.982573500634544, 38.277391141689549 ], [ 127.985803864340923, 38.273476666004463 ], [ 127.989752605383813, 38.275376082387027 ], [ 127.988929555438162, 38.277315672438817 ], [ 127.991756859940736, 38.278748434231744 ], [ 128.000011541015681, 38.278030587486562 ], [ 128.005794722688591, 38.270456904782428 ], [ 128.009013463711028, 38.263494575632521 ], [ 128.008354586105895, 38.256328832883163 ], [ 128.010764984793127, 38.253538456589844 ], [ 128.009663874807387, 38.24146687207633 ], [ 128.013281274487213, 38.237313554071157 ], [ 128.013716946988325, 38.233871451507916 ], [ 128.009207277054514, 38.229949888409813 ], [ 128.009626280516187, 38.225138947254777 ], [ 128.008050593213198, 38.22334670647593 ], [ 128.016820508707298, 38.217044464371249 ], [ 128.013621605235898, 38.211547267295373 ], [ 128.012556086343466, 38.204884146867187 ], [ 128.007879008752241, 38.199788641129075 ], [ 127.995067486297657, 38.19762963719176 ], [ 127.990442658440685, 38.194117232175508 ], [ 127.983361162533839, 38.191671874406794 ], [ 127.981951122631969, 38.186839103938908 ], [ 127.983574799814278, 38.179233249212913 ], [ 127.961423665532521, 38.169729610458781 ], [ 127.953473537768843, 38.171710771959482 ], [ 127.950160091617605, 38.170565179571469 ], [ 127.943899930879041, 38.17529771642662 ], [ 127.934041183609637, 38.174789377391519 ], [ 127.928047747570574, 38.17763099068894 ], [ 127.921041586111144, 38.176426477394592 ], [ 127.916488022012359, 38.170267840224525 ], [ 127.907230950266324, 38.169552977466907 ], [ 127.902154379302374, 38.165621563225926 ], [ 127.898966247727159, 38.167331244076635 ], [ 127.900532872375791, 38.171839382578852 ], [ 127.898431334944334, 38.172832363037543 ], [ 127.892464108737855, 38.167669534261627 ], [ 127.886744408118403, 38.167241126798821 ], [ 127.881037655677716, 38.170527839816614 ], [ 127.879058307782486, 38.174184387216648 ], [ 127.879429462074228, 38.177885042730892 ], [ 127.875296278810509, 38.191237957484056 ], [ 127.878155120217102, 38.197672881588517 ], [ 127.867636210208886, 38.205194752630355 ], [ 127.858559707978145, 38.203325849265042 ], [ 127.851745096179016, 38.208901563989627 ], [ 127.854335609589768, 38.213780312653554 ], [ 127.851762945552267, 38.218373232591645 ], [ 127.852659732996017, 38.230059783232342 ], [ 127.85815397291357, 38.235206376192401 ], [ 127.856111091608653, 38.245001647070588 ], [ 127.853835876862647, 38.245686504121892 ], [ 127.855378340194122, 38.254001659663274 ], [ 127.853395747654233, 38.258063077125982 ], [ 127.858537377287888, 38.263413843440134 ], [ 127.860102987627883, 38.272802027915418 ], [ 127.863801253898927, 38.276658965547462 ], [ 127.862350131503533, 38.280892774635923 ], [ 127.863271595153648, 38.284666679785317 ], [ 127.875168152352074, 38.292121881376076 ], [ 127.878755162460308, 38.298311693634041 ], [ 127.888467750249546, 38.30876527386188 ], [ 127.891930715331, 38.309505102668062 ], [ 127.894904770452086, 38.312914667601945 ] ] ] ] } },
{ "type": "Feature", "properties": { "emd_cd": "51800340", "emd_nm": "해안면" }, "geometry": { "type": "MultiPolygon", "coordinates": [ [ [ [ 128.154901066282036, 38.329328812432081 ], [ 128.161881679720693, 38.320788262923294 ], [ 128.164908617207658, 38.320608721204465 ], [ 128.170664687251872, 38.315727084950382 ], [ 128.16818432094297, 38.311307511765541 ], [ 128.169000356116868, 38.306524116763576 ], [ 128.167783502405655, 38.302438259422587 ], [ 128.171332778627402, 38.299724601413381 ], [ 128.168265567548445, 38.288871170634032 ], [ 128.172424163214913, 38.281326630562575 ], [ 128.169019948118006, 38.280080145503916 ], [ 128.164568536294155, 38.27505781535698 ], [ 128.163241604308013, 38.27106233009097 ], [ 128.16001111152022, 38.268901886038897 ], [ 128.159684786923208, 38.263422105736659 ], [ 128.16103418420127, 38.262005670085408 ], [ 128.158109209096352, 38.258658698482812 ], [ 128.146921550882496, 38.254057978068317 ], [ 128.145518138732569, 38.25015545208975 ], [ 128.138169905387741, 38.247335026705024 ], [ 128.135880647134201, 38.244315698933555 ], [ 128.129635391181068, 38.243858074806987 ], [ 128.124862633623906, 38.241339838376263 ], [ 128.124749397764788, 38.237374289390502 ], [ 128.120019360653458, 38.232924334961233 ], [ 128.118571969752878, 38.225803058167777 ], [ 128.113589297847028, 38.225603340755235 ], [ 128.096318284407687, 38.239730000894866 ], [ 128.098076384135112, 38.249449040394175 ], [ 128.087481638434667, 38.260936014755401 ], [ 128.084865460298204, 38.270013966733579 ], [ 128.086617528990928, 38.279038343881197 ], [ 128.088766638326462, 38.2822854544698 ], [ 128.082405678284374, 38.299604897821375 ], [ 128.084799831086627, 38.307258191200454 ], [ 128.090364867299115, 38.314261363806473 ], [ 128.112991305644584, 38.327699421612628 ], [ 128.122823903122082, 38.32608918572447 ], [ 128.12785433060148, 38.328480756971992 ], [ 128.136983174319425, 38.324401267361552 ], [ 128.141530012026635, 38.324306361475962 ], [ 128.144658593777223, 38.324460354220797 ], [ 128.147877999455915, 38.32702928344203 ], [ 128.151026640806094, 38.325699675985682 ], [ 128.154901066282036, 38.329328812432081 ] ] ] ] } }
]
}
