{
"type": "FeatureCollection",
"name": "51810",
"crs": { "type": "name", "properties": { "name": "urn:ogc:def:crs:OGC:1.3:CRS84" } },
"features": [
{ "type": "Feature", "properties": { "emd_cd": "51810250", "emd_nm": "인제읍" }, "geometry": { "type": "MultiPolygon", "coordinates": [ [ [ [ 128.423970769019661, 38.053893830932658 ], [ 128.428040429840934, 38.046122244549593 ], [ 128.428624910179082, 38.040914144319721 ], [ 128.427727291995183, 38.036281491295128 ], [ 128.42455563634087, 38.032389506286599 ], [ 128.43303161589688, 38.027276047945833 ], [ 128.438223245400849, 38.026602722981814 ], [ 128.439869565598656, 38.021713640500153 ], [ 128.435592385593878, 38.015079038384997 ], [ 128.430857351622137, 38.012893215902487 ], [ 128.429376076147548, 38.007516271265672 ], [ 128.42407765329304, 38.004505892573896 ], [ 128.415278908565796, 38.004065329414104 ], [ 128.409261685845564, 38.006295085340284 ], [ 128.400806022377481, 38.002543683813919 ], [ 128.394665229511105, 38.003144460175463 ], [ 128.393646231547734, 38.000338062077986 ], [ 128.389665211433055, 37.999847197108643 ], [ 128.383826208654199, 38.002347743443543 ], [ 128.36931704446144, 38.003385435106964 ], [ 128.366113199767966, 38.004458150289352 ], [ 128.362158934976691, 38.009467648036242 ], [ 128.359258874259865, 38.009794730204931 ], [ 128.353502902903671, 38.015801053918537 ], [ 128.363125432207568, 38.024163497435417 ], [ 128.360007065604464, 38.027016501278261 ], [ 128.356771741636749, 38.0279298172495 ], [ 128.348376375251775, 38.026701179725578 ], [ 128.344024875162432, 38.022874580246643 ], [ 128.342538929669558, 38.024406645818786 ], [ 128.337211257180854, 38.023657060416696 ], [ 128.335328376209134, 38.026762498059036 ], [ 128.330523997955794, 38.024596236059892 ], [ 128.325270918009181, 38.025289143045647 ], [ 128.321490967490689, 38.020852510708465 ], [ 128.317610667293167, 38.020824771499441 ], [ 128.314003179295298, 38.018674529629372 ], [ 128.310025509526355, 38.018098654274709 ], [ 128.307167801232197, 38.019727206055357 ], [ 128.30325338639804, 38.017310578574289 ], [ 128.291949761888816, 38.016252116750955 ], [ 128.279864438787826, 38.010106916217083 ], [ 128.276684395413724, 38.003803230719384 ], [ 128.264711875926622, 38.001222370551027 ], [ 128.260944431263965, 38.001351175539838 ], [ 128.25996364439672, 38.002992477568846 ], [ 128.255761764917878, 38.001043081936032 ], [ 128.257909058491322, 37.998747779555934 ], [ 128.262785118519105, 37.997960370950345 ], [ 128.264669860713155, 37.993966501896296 ], [ 128.259156894933426, 37.981950968061838 ], [ 128.260460309122038, 37.978121440695283 ], [ 128.256923312869162, 37.97298550858919 ], [ 128.24951833976084, 37.9706006560194 ], [ 128.245826880669341, 37.972247885973424 ], [ 128.240451623756456, 37.968655116109872 ], [ 128.235960626424031, 37.970314185446085 ], [ 128.232760210681363, 37.968634698835871 ], [ 128.225930811126688, 37.96962499423644 ], [ 128.217957454482416, 37.967147022333556 ], [ 128.20891239410733, 37.970735285687596 ], [ 128.198245677323229, 37.968338180853664 ], [ 128.193434087932815, 37.971770449567302 ], [ 128.197401965932784, 37.980425473898343 ], [ 128.196008064321404, 37.982725879653586 ], [ 128.199460982537005, 37.985206076371789 ], [ 128.193684117008019, 37.990186423065587 ], [ 128.194835534582836, 37.994832302601715 ], [ 128.190699113496407, 38.000570549954283 ], [ 128.192057177710183, 38.001577201790496 ], [ 128.190544828652776, 38.007399818948265 ], [ 128.197386163057558, 38.014663702632227 ], [ 128.196550291716619, 38.019057618164737 ], [ 128.192540231964728, 38.019907634666005 ], [ 128.189577616135409, 38.026106969410023 ], [ 128.181535855197069, 38.023806975487005 ], [ 128.174274518242413, 38.024600061955688 ], [ 128.173279611858902, 38.028697005231017 ], [ 128.175256102100917, 38.033889362394397 ], [ 128.173998335955844, 38.037777161723277 ], [ 128.17041248913381, 38.035232788268793 ], [ 128.159723082077448, 38.03578346168603 ], [ 128.147592079540203, 38.046313984497111 ], [ 128.13882258137906, 38.049810724119943 ], [ 128.138823731836368, 38.055843384978516 ], [ 128.136578934429963, 38.059713069269435 ], [ 128.137723356433099, 38.063419008439766 ], [ 128.132770169736489, 38.067665833834845 ], [ 128.13016709895561, 38.067477612361905 ], [ 128.128618015574517, 38.072219517829339 ], [ 128.121470088658214, 38.07558875640477 ], [ 128.119925469662491, 38.079626466744969 ], [ 128.115862128211461, 38.08229686408152 ], [ 128.115425080213242, 38.084625190861587 ], [ 128.112311023245866, 38.086387525470528 ], [ 128.105905166691826, 38.095616645489507 ], [ 128.104848485383144, 38.097783673360709 ], [ 128.105991954401532, 38.100288021620166 ], [ 128.101306370320145, 38.102889498074738 ], [ 128.101047729152839, 38.105813689508949 ], [ 128.104951348211301, 38.108628879543957 ], [ 128.104113415473165, 38.115020358841917 ], [ 128.098138339860384, 38.124184763240223 ], [ 128.100038499326899, 38.129805240103856 ], [ 128.093506892022788, 38.130888064610765 ], [ 128.091787880950307, 38.136052612443684 ], [ 128.087779871976238, 38.138459546723546 ], [ 128.09016070908558, 38.141790130721155 ], [ 128.089870205817931, 38.146596446510493 ], [ 128.086351699525039, 38.15222127045903 ], [ 128.096971814770029, 38.162624281923321 ], [ 128.097620784285141, 38.175040322648485 ], [ 128.104097396955012, 38.178261370713777 ], [ 128.103740506339989, 38.182897401276421 ], [ 128.10547491048959, 38.184880666863023 ], [ 128.099938751041634, 38.189034084893478 ], [ 128.098999931625571, 38.19229713377527 ], [ 128.104754807145383, 38.196772454355084 ], [ 128.107150845640149, 38.201255420330426 ], [ 128.112356996944413, 38.203392233776427 ], [ 128.114432599481489, 38.202808680056542 ], [ 128.122698811289297, 38.191447635083264 ], [ 128.12880269302218, 38.189130475122525 ], [ 128.139152323183311, 38.171052142191655 ], [ 128.141279466179554, 38.170194934133796 ], [ 128.146206825364914, 38.161954788484778 ], [ 128.148713300098819, 38.160365587465883 ], [ 128.147519414002886, 38.157652831198099 ], [ 128.149896197188895, 38.154326035052442 ], [ 128.15970117735705, 38.145966623127364 ], [ 128.1712774633001, 38.145186511269685 ], [ 128.17649590173491, 38.141184132656548 ], [ 128.176504278722945, 38.138781891417501 ], [ 128.179910981243864, 38.136632317811802 ], [ 128.178166926016274, 38.133144199174296 ], [ 128.179880126887923, 38.129458146070945 ], [ 128.18133285374779, 38.114374112827285 ], [ 128.185655893939725, 38.110625530809962 ], [ 128.191005122882729, 38.113406806499974 ], [ 128.192684861176417, 38.112534417617439 ], [ 128.191942787290827, 38.109532022175699 ], [ 128.193590313076868, 38.108820484441324 ], [ 128.202013690765284, 38.11144520065762 ], [ 128.205187939014166, 38.108151386022776 ], [ 128.202216968845505, 38.104547700153553 ], [ 128.223475968970064, 38.10274933523926 ], [ 128.227260949397106, 38.097156351111764 ], [ 128.240523067277991, 38.098551932675591 ], [ 128.251965837213874, 38.09560971166929 ], [ 128.257183403276883, 38.09712129921828 ], [ 128.266373792197498, 38.092021362747325 ], [ 128.268187912866097, 38.089435079008275 ], [ 128.278972436362949, 38.085968226182601 ], [ 128.289141090935203, 38.089275490806052 ], [ 128.298814291437139, 38.089515576602601 ], [ 128.309165467239154, 38.09212652501899 ], [ 128.318441406578103, 38.098903213314536 ], [ 128.322296922613901, 38.09626918345716 ], [ 128.330955867163681, 38.096132105559185 ], [ 128.34214449038447, 38.092886673450721 ], [ 128.359383088269851, 38.097378616424777 ], [ 128.367045196850711, 38.094297908814355 ], [ 128.375765868822327, 38.09538824884779 ], [ 128.381477436923632, 38.098838636039524 ], [ 128.390847107104321, 38.096531159927139 ], [ 128.394210032969113, 38.097484663391455 ], [ 128.404200803622871, 38.096070476396207 ], [ 128.407184738604883, 38.092332256786584 ], [ 128.408599464269884, 38.083111855967779 ], [ 128.410887158625343, 38.079369719817535 ], [ 128.408834557763498, 38.07666444725028 ], [ 128.410176103571899, 38.071885970143946 ], [ 128.413010146108974, 38.069460945058779 ], [ 128.411875413005276, 38.067644259283163 ], [ 128.417839374929343, 38.058356968503396 ], [ 128.423970769019661, 38.053893830932658 ] ] ] ] } },
{ "type": "Feature", "properties": { "emd_cd": "51810310", "emd_nm": "남면" }, "geometry": { "type": "MultiPolygon", "coordinates": [ [ [ [ 128.231741415206528, 37.951274574610856 ], [ 128.229061969493046, 37.94872657365768 ], [ 128.227388492790027, 37.938852458152745 ], [ 128.22114275425011, 37.929608549317201 ], [ 128.217706594880156, 37.931301130128901 ], [ 128.203345160614987, 37.931490012272043 ], [ 128.196420765942378, 37.92839071614025 ], [ 128.195153215918481, 37.935206968267828 ], [ 128.18985280361747, 37.941422126997573 ], [ 128.185435659679371, 37.941780865563423 ], [ 128.178855592092503, 37.946180088346715 ], [ 128.175165352138947, 37.945854442552601 ], [ 128.173298906247737, 37.934060149423104 ], [ 128.171307641678737, 37.932033413753707 ], [ 128.172260941149659, 37.926479494337727 ], [ 128.16999880731953, 37.92387753154464 ], [ 128.165056333414213, 37.922642348156415 ], [ 128.164459948277738, 37.91895869803124 ], [ 128.156548051182256, 37.908234330779564 ], [ 128.162629991860143, 37.905701253532612 ], [ 128.160888337194734, 37.895293482282796 ], [ 128.1495832983056, 37.895375576307543 ], [ 128.144883380879435, 37.892902134783981 ], [ 128.140421650585949, 37.894486116840156 ], [ 128.133100870680835, 37.894253431977369 ], [ 128.130953464866195, 37.898433434702191 ], [ 128.129183051855648, 37.895767609168551 ], [ 128.126003044357134, 37.895161001100604 ], [ 128.107268388874616, 37.900124806120623 ], [ 128.097144144268299, 37.896763293022097 ], [ 128.091201721707932, 37.898264988189901 ], [ 128.082362978431775, 37.901720096732305 ], [ 128.075173921207039, 37.907707630176368 ], [ 128.064703553696177, 37.910786946803469 ], [ 128.055875039947608, 37.917668906704236 ], [ 128.053077596714445, 37.91736959219142 ], [ 128.050499137728679, 37.921616429337703 ], [ 128.045389925240045, 37.922467446188925 ], [ 128.042548488461534, 37.926229126507863 ], [ 128.039384342466803, 37.92762363408724 ], [ 128.036425645303126, 37.935677436433338 ], [ 128.034135673487668, 37.936659928810919 ], [ 128.033493710460476, 37.940592122896689 ], [ 128.026111238468019, 37.945998006797588 ], [ 128.015972631098322, 37.942827608573062 ], [ 128.012704319588664, 37.938249370847473 ], [ 128.004177727882194, 37.938690260994854 ], [ 128.001298547372414, 37.937360230792294 ], [ 127.989631172542033, 37.945251723383514 ], [ 127.987250555651528, 37.951854067816065 ], [ 127.977545401495505, 37.957148064456412 ], [ 127.981625603062881, 37.960688839409663 ], [ 127.984493927385358, 37.966043724198158 ], [ 127.984050455365249, 37.970401460134916 ], [ 127.982325539542074, 37.972058807698772 ], [ 127.984861521125524, 37.975377043336543 ], [ 127.984735772192167, 37.979925725781015 ], [ 127.981761799502621, 37.98352862958221 ], [ 127.984189959247175, 37.98676756316889 ], [ 127.983609487137414, 37.989093898163816 ], [ 127.987948644485883, 37.988770404526868 ], [ 127.991549873895181, 37.991068851455147 ], [ 127.997281674573856, 37.99048998627152 ], [ 128.003403585656685, 37.995637641268651 ], [ 128.006640915339233, 37.996436341592521 ], [ 128.015249072690665, 37.996555441552012 ], [ 128.018733455988581, 38.000310007881588 ], [ 128.019632240454484, 38.007293173875915 ], [ 128.024240013959542, 38.008498515321008 ], [ 128.024416094729276, 38.011018350052225 ], [ 128.02824921276968, 38.013709940126724 ], [ 128.03474164494375, 38.015126777615386 ], [ 128.043249173672251, 38.020203071159308 ], [ 128.050364916114177, 38.019309004942343 ], [ 128.055456150686524, 38.015462010623928 ], [ 128.060426061834761, 38.015004474461286 ], [ 128.06189424086665, 38.018899583610008 ], [ 128.059120375700473, 38.027923282602742 ], [ 128.056378358394426, 38.031091100025435 ], [ 128.058977716324335, 38.035331652255358 ], [ 128.057920407451007, 38.039727903623017 ], [ 128.060020148709555, 38.041273713743152 ], [ 128.060940959001243, 38.047266399628739 ], [ 128.069095618293829, 38.04676631037637 ], [ 128.070069281838471, 38.043651331876319 ], [ 128.079039798775511, 38.038093869875468 ], [ 128.080409344792713, 38.034203239030269 ], [ 128.08541892525497, 38.032379243169636 ], [ 128.088640402219141, 38.033141102122016 ], [ 128.094571190143768, 38.028353025034981 ], [ 128.103199521815867, 38.02933449918676 ], [ 128.113733976569677, 38.037021268892303 ], [ 128.112728493883964, 38.042066024099192 ], [ 128.118107353969577, 38.047564776097438 ], [ 128.113880087338828, 38.055857282513919 ], [ 128.115425939851974, 38.062801235149436 ], [ 128.112973229220046, 38.071160370854834 ], [ 128.099860610800818, 38.078481410457321 ], [ 128.088035669306379, 38.09580950411744 ], [ 128.09013923064353, 38.101164765985018 ], [ 128.097351482076988, 38.101039129538584 ], [ 128.101306370320145, 38.102889498074738 ], [ 128.105991954401532, 38.100288021620166 ], [ 128.104848485383144, 38.097783673360709 ], [ 128.105905166691826, 38.095616645489507 ], [ 128.112311023245866, 38.086387525470528 ], [ 128.115425080213242, 38.084625190861587 ], [ 128.115862128211461, 38.08229686408152 ], [ 128.119925469662491, 38.079626466744969 ], [ 128.121470088658214, 38.07558875640477 ], [ 128.128618015574517, 38.072219517829339 ], [ 128.13016709895561, 38.067477612361905 ], [ 128.132770169736489, 38.067665833834845 ], [ 128.137723356433099, 38.063419008439766 ], [ 128.136578934429963, 38.059713069269435 ], [ 128.138823731836368, 38.055843384978516 ], [ 128.13882258137906, 38.049810724119943 ], [ 128.147592079540203, 38.046313984497111 ], [ 128.159723082077448, 38.03578346168603 ], [ 128.17041248913381, 38.035232788268793 ], [ 128.173998335955844, 38.037777161723277 ], [ 128.175256102100917, 38.033889362394397 ], [ 128.173279611858902, 38.028697005231017 ], [ 128.174274518242413, 38.024600061955688 ], [ 128.181535855197069, 38.023806975487005 ], [ 128.189577616135409, 38.026106969410023 ], [ 128.192540231964728, 38.019907634666005 ], [ 128.196550291716619, 38.019057618164737 ], [ 128.197386163057558, 38.014663702632227 ], [ 128.190544828652776, 38.007399818948265 ], [ 128.192057177710183, 38.001577201790496 ], [ 128.190699113496407, 38.000570549954283 ], [ 128.194835534582836, 37.994832302601715 ], [ 128.193684117008019, 37.990186423065587 ], [ 128.199460982537005, 37.985206076371789 ], [ 128.196008064321404, 37.982725879653586 ], [ 128.197401965932784, 37.980425473898343 ], [ 128.195317469702331, 37.978214567834343 ], [ 128.193457517382313, 37.97108552652211 ], [ 128.198245677323229, 37.968338180853664 ], [ 128.202271774737369, 37.970247262207579 ], [ 128.211410345480431, 37.969920608021745 ], [ 128.215628676119991, 37.965291367811524 ], [ 128.21459314111965, 37.959898290559259 ], [ 128.220839721006911, 37.958816853923665 ], [ 128.231741415206528, 37.951274574610856 ] ] ] ] } },
{ "type": "Feature", "properties": { "emd_cd": "51810320", "emd_nm": "북면" }, "geometry": { "type": "MultiPolygon", "coordinates": [ [ [ [ 128.113262320321439, 38.203440553845383 ], [ 128.121437783264327, 38.213653331649326 ], [ 128.128349401258703, 38.213662244165057 ], [ 128.13478843204274, 38.211035942716499 ], [ 128.141088757616416, 38.211999983740071 ], [ 128.143884745967057, 38.209214075673515 ], [ 128.146351972949304, 38.200069150392849 ], [ 128.167039031225016, 38.194646614331376 ], [ 128.169579905686845, 38.189097250983643 ], [ 128.179592202315519, 38.189225664921601 ], [ 128.182588743223135, 38.187433122113383 ], [ 128.189077807920256, 38.188249905971354 ], [ 128.195015856824966, 38.186405281867145 ], [ 128.197940872818833, 38.180402001309737 ], [ 128.201686642379826, 38.182717586406298 ], [ 128.210316852270751, 38.179647158045697 ], [ 128.216285616367315, 38.180672491830492 ], [ 128.221378534594635, 38.179687387332855 ], [ 128.224405876772295, 38.181431510106428 ], [ 128.225207548643539, 38.185921716193896 ], [ 128.22713068286177, 38.186318142478541 ], [ 128.231796469644905, 38.184452841136618 ], [ 128.236639724368359, 38.17795336120448 ], [ 128.245302854629216, 38.180132276527118 ], [ 128.25240359346148, 38.178761730329775 ], [ 128.26405435278312, 38.183022923484089 ], [ 128.273001580931378, 38.190339575794077 ], [ 128.26942789756248, 38.194652025610573 ], [ 128.268797080405221, 38.19931804318405 ], [ 128.266062039154036, 38.202051156357825 ], [ 128.264344839659543, 38.207710778359512 ], [ 128.266473836274514, 38.21134186887145 ], [ 128.270796107470971, 38.21353540492845 ], [ 128.271496479971574, 38.218003797636435 ], [ 128.278518922733042, 38.226096019559527 ], [ 128.284690520206993, 38.231347856259823 ], [ 128.295443632135743, 38.22805404854018 ], [ 128.307133155981717, 38.231471033432889 ], [ 128.308196386202241, 38.233324554277814 ], [ 128.307464032373304, 38.244082656600746 ], [ 128.30468765962911, 38.246333844636148 ], [ 128.305153562930741, 38.252184559375856 ], [ 128.308991574679681, 38.258996522280995 ], [ 128.315409685466022, 38.261568055426551 ], [ 128.319226771581384, 38.266074275554161 ], [ 128.326211028900758, 38.266447575545115 ], [ 128.337075678708146, 38.263123672410977 ], [ 128.340853915011053, 38.26550989928031 ], [ 128.359018896014675, 38.265644071829882 ], [ 128.359795545688769, 38.259169689983025 ], [ 128.363452055475079, 38.255008747694177 ], [ 128.365739600433045, 38.246934409222902 ], [ 128.364654088632733, 38.242029584775104 ], [ 128.366795616623079, 38.240851079994371 ], [ 128.368461442502053, 38.235845225999604 ], [ 128.371095653133608, 38.237488975379961 ], [ 128.370333774415712, 38.240371573479493 ], [ 128.371662366188417, 38.242320162642322 ], [ 128.376466416190453, 38.242996969406391 ], [ 128.378766799925103, 38.24538792377372 ], [ 128.380179918085901, 38.243786086791907 ], [ 128.388356621624496, 38.24803882125542 ], [ 128.392806191627614, 38.243891098570302 ], [ 128.394169821695726, 38.239593989969599 ], [ 128.396711710139073, 38.239350322116685 ], [ 128.407104762574079, 38.244657862165596 ], [ 128.406342023597347, 38.246053827075372 ], [ 128.417405515547358, 38.254599316902393 ], [ 128.423378581689576, 38.253588955314463 ], [ 128.43294034262226, 38.242417399109605 ], [ 128.439716372109302, 38.241266406877209 ], [ 128.437241658829606, 38.230285536562455 ], [ 128.440230089132569, 38.227498624794144 ], [ 128.440735611462657, 38.222929493830982 ], [ 128.437740674000338, 38.214077766142132 ], [ 128.442392422955805, 38.203652896906426 ], [ 128.438494822504396, 38.192555662684761 ], [ 128.426465256113346, 38.189169548825909 ], [ 128.421105642500493, 38.176667775536046 ], [ 128.433211879477255, 38.16860598641933 ], [ 128.433801403221906, 38.166342343876906 ], [ 128.439050798926445, 38.162674210932686 ], [ 128.437564652258544, 38.159633986464932 ], [ 128.437923243898013, 38.154927164404583 ], [ 128.443077468668406, 38.149567749416711 ], [ 128.449085195518109, 38.147451528905506 ], [ 128.46598983305077, 38.136942736977637 ], [ 128.464558065330209, 38.135267460950217 ], [ 128.46600227306422, 38.131580061667272 ], [ 128.464289220174436, 38.128620708135472 ], [ 128.46530727890115, 38.119168803586447 ], [ 128.457897123659023, 38.121264697686691 ], [ 128.450156531215725, 38.115142320307235 ], [ 128.440499619846122, 38.114055252686391 ], [ 128.437261355833726, 38.111036433548271 ], [ 128.427739805792044, 38.107981522735976 ], [ 128.411005319016368, 38.111202531723208 ], [ 128.410266972013858, 38.098935985590181 ], [ 128.404200803622871, 38.096070476396207 ], [ 128.394210032969113, 38.097484663391455 ], [ 128.390847107104321, 38.096531159927139 ], [ 128.381477436923632, 38.098838636039524 ], [ 128.375765868822327, 38.09538824884779 ], [ 128.367045196850711, 38.094297908814355 ], [ 128.359383088269851, 38.097378616424777 ], [ 128.34214449038447, 38.092886673450721 ], [ 128.330955867163681, 38.096132105559185 ], [ 128.322296922613901, 38.09626918345716 ], [ 128.318441406578103, 38.098903213314536 ], [ 128.309165467239154, 38.09212652501899 ], [ 128.298814291437139, 38.089515576602601 ], [ 128.289141090935203, 38.089275490806052 ], [ 128.278972436362949, 38.085968226182601 ], [ 128.268187912866097, 38.089435079008275 ], [ 128.266373792197498, 38.092021362747325 ], [ 128.257183403276883, 38.09712129921828 ], [ 128.251965837213874, 38.09560971166929 ], [ 128.240523067277991, 38.098551932675591 ], [ 128.227260949397106, 38.097156351111764 ], [ 128.223475968970064, 38.10274933523926 ], [ 128.202216968845505, 38.104547700153553 ], [ 128.205187939014166, 38.108151386022776 ], [ 128.202013690765284, 38.11144520065762 ], [ 128.193590313076868, 38.108820484441324 ], [ 128.191629116234765, 38.110166424854711 ], [ 128.192684861176417, 38.112534417617439 ], [ 128.191602216207372, 38.11338306876798 ], [ 128.185655893939725, 38.110625530809962 ], [ 128.182535984515965, 38.113097720973826 ], [ 128.178166926016274, 38.133144199174296 ], [ 128.179910981243864, 38.136632317811802 ], [ 128.176504278722945, 38.138781891417501 ], [ 128.17649590173491, 38.141184132656548 ], [ 128.1712774633001, 38.145186511269685 ], [ 128.15970117735705, 38.145966623127364 ], [ 128.149896197188895, 38.154326035052442 ], [ 128.147519414002886, 38.157652831198099 ], [ 128.148713300098819, 38.160365587465883 ], [ 128.146206825364914, 38.161954788484778 ], [ 128.141279466179554, 38.170194934133796 ], [ 128.139152323183311, 38.171052142191655 ], [ 128.12880269302218, 38.189130475122525 ], [ 128.122698811289297, 38.191447635083264 ], [ 128.113262320321439, 38.203440553845383 ] ] ] ] } },
{ "type": "Feature", "properties": { "emd_cd": "51810330", "emd_nm": "기린면" }, "geometry": { "type": "MultiPolygon", "coordinates": [ [ [ [ 128.214061745429831, 37.967675391151175 ], [ 128.217957454482416, 37.967147022333556 ], [ 128.225930811126688, 37.96962499423644 ], [ 128.232760210681363, 37.968634698835871 ], [ 128.235960626424031, 37.970314185446085 ], [ 128.240451623756456, 37.968655116109872 ], [ 128.245826880669341, 37.972247885973424 ], [ 128.24951833976084, 37.9706006560194 ], [ 128.256923312869162, 37.97298550858919 ], [ 128.260460309122038, 37.978121440695283 ], [ 128.259156894933426, 37.981950968061838 ], [ 128.264669860713155, 37.993966501896296 ], [ 128.262785118519105, 37.997960370950345 ], [ 128.257909058491322, 37.998747779555934 ], [ 128.255761764917878, 38.001043081936032 ], [ 128.25996364439672, 38.002992477568846 ], [ 128.260944431263965, 38.001351175539838 ], [ 128.264711875926622, 38.001222370551027 ], [ 128.276684395413724, 38.003803230719384 ], [ 128.279864438787826, 38.010106916217083 ], [ 128.291949761888816, 38.016252116750955 ], [ 128.30325338639804, 38.017310578574289 ], [ 128.307167801232197, 38.019727206055357 ], [ 128.310025509526355, 38.018098654274709 ], [ 128.314003179295298, 38.018674529629372 ], [ 128.317610667293167, 38.020824771499441 ], [ 128.321490967490689, 38.020852510708465 ], [ 128.325270918009181, 38.025289143045647 ], [ 128.330523997955794, 38.024596236059892 ], [ 128.335328376209134, 38.026762498059036 ], [ 128.337211257180854, 38.023657060416696 ], [ 128.342538929669558, 38.024406645818786 ], [ 128.344024875162432, 38.022874580246643 ], [ 128.348376375251775, 38.026701179725578 ], [ 128.356771741636749, 38.0279298172495 ], [ 128.360007065604464, 38.027016501278261 ], [ 128.363125432207568, 38.024163497435417 ], [ 128.353502902903671, 38.015801053918537 ], [ 128.359258874259865, 38.009794730204931 ], [ 128.362158934976691, 38.009467648036242 ], [ 128.366113199767966, 38.004458150289352 ], [ 128.36931704446144, 38.003385435106964 ], [ 128.383826208654199, 38.002347743443543 ], [ 128.389665211433055, 37.999847197108643 ], [ 128.393646231547734, 38.000338062077986 ], [ 128.394665229511105, 38.003144460175463 ], [ 128.400806022377481, 38.002543683813919 ], [ 128.409261685845564, 38.006295085340284 ], [ 128.415278908565796, 38.004065329414104 ], [ 128.42407765329304, 38.004505892573896 ], [ 128.429376076147548, 38.007516271265672 ], [ 128.430857351622137, 38.012893215902487 ], [ 128.435592385593878, 38.015079038384997 ], [ 128.439869565598656, 38.021713640500153 ], [ 128.438223245400849, 38.026602722981814 ], [ 128.43303161589688, 38.027276047945833 ], [ 128.42455563634087, 38.032389506286599 ], [ 128.427727291995183, 38.036281491295128 ], [ 128.428624910179082, 38.040914144319721 ], [ 128.428040429840934, 38.046122244549593 ], [ 128.425554936302831, 38.048737634172966 ], [ 128.431097030641922, 38.052212451258363 ], [ 128.435004762107184, 38.052375078438899 ], [ 128.441433376283356, 38.058015655741976 ], [ 128.445683831794156, 38.057583460659352 ], [ 128.44929154534276, 38.055150502467164 ], [ 128.454860466405449, 38.055627182163036 ], [ 128.455630530149932, 38.054055232818676 ], [ 128.46015207289949, 38.053380806987484 ], [ 128.463288799790575, 38.049141264278745 ], [ 128.468801394619021, 38.050703228388009 ], [ 128.477005947658228, 38.048222352135312 ], [ 128.478770895905285, 38.050506973385829 ], [ 128.486172587997089, 38.053909238933826 ], [ 128.493406244480042, 38.048601140428069 ], [ 128.496277680239587, 38.040726508145333 ], [ 128.500832268576147, 38.038055882206628 ], [ 128.498667361491897, 38.034230926294853 ], [ 128.498576781526367, 38.029933581337353 ], [ 128.499791797111527, 38.024826172570457 ], [ 128.504246625831001, 38.020161037406254 ], [ 128.502498840120467, 38.01737470049428 ], [ 128.508086877497078, 38.012252425977515 ], [ 128.513578240112423, 38.0129297084953 ], [ 128.51130175029121, 38.001882837515979 ], [ 128.502193353350322, 37.994910937600807 ], [ 128.501667684293011, 37.990847397412715 ], [ 128.499380304303514, 37.988956245344262 ], [ 128.501301176475863, 37.986094094161004 ], [ 128.495656292023455, 37.983730246068269 ], [ 128.497832603944374, 37.976268975025604 ], [ 128.496003209660472, 37.973764396413564 ], [ 128.497309217619261, 37.97268333231758 ], [ 128.496014506881153, 37.970357776316654 ], [ 128.496858753846425, 37.967424388427283 ], [ 128.495076237406977, 37.96407559787238 ], [ 128.492046665910038, 37.964499075322372 ], [ 128.48746397871912, 37.961168622301081 ], [ 128.477323724713472, 37.962977275267086 ], [ 128.47374541318527, 37.961505860484074 ], [ 128.471965825441799, 37.95951090472785 ], [ 128.473759192632343, 37.956804006474336 ], [ 128.472845087525997, 37.953474435988134 ], [ 128.466439406295336, 37.949343245981012 ], [ 128.467523806940562, 37.940268075387308 ], [ 128.463549757646007, 37.935662423736218 ], [ 128.472460174303308, 37.926522402538886 ], [ 128.475176231395068, 37.925518519081066 ], [ 128.476645873929243, 37.922198066739874 ], [ 128.474915062050684, 37.913577728754291 ], [ 128.476023125935313, 37.906445997927463 ], [ 128.473458500246409, 37.900347455251193 ], [ 128.476839187992169, 37.896498868135588 ], [ 128.481564125339531, 37.895058805613388 ], [ 128.481313935392933, 37.892674957787833 ], [ 128.475440158024725, 37.885358383996632 ], [ 128.470802481490239, 37.88581978221881 ], [ 128.466362529721522, 37.880991028534595 ], [ 128.458447224516078, 37.879425623380115 ], [ 128.453983866805913, 37.87529069517548 ], [ 128.447665361585905, 37.873505469183527 ], [ 128.444225406160854, 37.864921103681134 ], [ 128.440428402543887, 37.864013562468699 ], [ 128.435672513402835, 37.864560354957668 ], [ 128.431402291572539, 37.867142251517649 ], [ 128.428346491838113, 37.875107268192359 ], [ 128.424254818005693, 37.877799851836123 ], [ 128.421497254527253, 37.882895829488277 ], [ 128.414511886707203, 37.885393419239143 ], [ 128.408030936941827, 37.883681630920073 ], [ 128.402417272844332, 37.884651443405112 ], [ 128.395326678706795, 37.889091376214175 ], [ 128.391136781159503, 37.888082787747543 ], [ 128.378752543686886, 37.890990143049933 ], [ 128.376894130599197, 37.88984503095903 ], [ 128.366389291777693, 37.890528284804262 ], [ 128.357237300331974, 37.896686714775804 ], [ 128.357209683498269, 37.90056176154603 ], [ 128.352385340576973, 37.907073135460685 ], [ 128.35242078367321, 37.91007978922427 ], [ 128.34833279386342, 37.911770744177595 ], [ 128.343744695648496, 37.916608317989485 ], [ 128.33123869283412, 37.920679168464048 ], [ 128.327812778763217, 37.923266947184267 ], [ 128.322731683579093, 37.922833750916624 ], [ 128.316878263511825, 37.925749062372617 ], [ 128.305382488301774, 37.926720739613856 ], [ 128.30060771899187, 37.929698865140068 ], [ 128.293297120354509, 37.9261741065745 ], [ 128.289221445847886, 37.926481468705191 ], [ 128.284369801150234, 37.931944517175772 ], [ 128.284066691448771, 37.937803265522959 ], [ 128.279788775468688, 37.941274696002793 ], [ 128.276521012860286, 37.940230502346822 ], [ 128.270962603034604, 37.942660166077289 ], [ 128.266849365860026, 37.948783301352726 ], [ 128.252543690865281, 37.950145851364425 ], [ 128.244146799216708, 37.952574089019727 ], [ 128.230740633328764, 37.95161095384038 ], [ 128.220839721006911, 37.958816853923665 ], [ 128.21459314111965, 37.959898290559259 ], [ 128.215833715650831, 37.963978692511802 ], [ 128.214061745429831, 37.967675391151175 ] ] ] ] } },
{ "type": "Feature", "properties": { "emd_cd": "51810340", "emd_nm": "서화면" }, "geometry": { "type": "MultiPolygon", "coordinates": [ [ [ [ 128.087354227537219, 38.317659852442389 ], [ 128.094552559218101, 38.324822810066401 ], [ 128.115337941461689, 38.336623844328159 ], [ 128.118954320127045, 38.333635671175763 ], [ 128.124162547765678, 38.332362389407393 ], [ 128.135852054754253, 38.333007369204779 ], [ 128.140944308342114, 38.335529608501531 ], [ 128.145467626020121, 38.342765972920191 ], [ 128.15111459928994, 38.341885567033167 ], [ 128.15356414514099, 38.344639409718226 ], [ 128.157753941012089, 38.342547607289816 ], [ 128.158625288206451, 38.346909375554333 ], [ 128.175003158705039, 38.364252206444441 ], [ 128.184281789377764, 38.360603668565297 ], [ 128.190760665904833, 38.367907684693336 ], [ 128.191982092713062, 38.372885848020132 ], [ 128.207099600162792, 38.375052970349643 ], [ 128.21021338193674, 38.370142372168246 ], [ 128.212451231509021, 38.370145834214995 ], [ 128.217662150010852, 38.38252460393069 ], [ 128.226150445540327, 38.389641875142011 ], [ 128.227325814995595, 38.387852290499289 ], [ 128.233607028478843, 38.387329326728604 ], [ 128.233893446912901, 38.38485009834303 ], [ 128.229641436916069, 38.382027768513431 ], [ 128.229119723334094, 38.378977721021734 ], [ 128.233679670955866, 38.37238152537163 ], [ 128.238669605096817, 38.376288305417688 ], [ 128.248523709554519, 38.370777997585655 ], [ 128.257662584511877, 38.372754205498701 ], [ 128.262010852521144, 38.376467232295738 ], [ 128.26957160811159, 38.376153054358781 ], [ 128.272238791652313, 38.371818699670555 ], [ 128.27254180360481, 38.365691103507991 ], [ 128.268957183248972, 38.35637365264872 ], [ 128.264520368864737, 38.351610439338835 ], [ 128.267604522220012, 38.347783167454814 ], [ 128.267938063957871, 38.340153236697446 ], [ 128.270482946135616, 38.336980046345246 ], [ 128.274317874821321, 38.335508364524536 ], [ 128.282112455054488, 38.339996529907985 ], [ 128.287460698588859, 38.34009478167961 ], [ 128.299549617745129, 38.333838860431584 ], [ 128.309041700084947, 38.333277125555796 ], [ 128.312113822603294, 38.330580325035008 ], [ 128.308605471618762, 38.321056792239183 ], [ 128.314454605229741, 38.310017552898259 ], [ 128.315122439159182, 38.302258374734826 ], [ 128.320452624182792, 38.300253379641731 ], [ 128.321462817944195, 38.295184588601963 ], [ 128.321456018456047, 38.290921002774681 ], [ 128.318806020046111, 38.287726908585995 ], [ 128.319922644070743, 38.280114951759657 ], [ 128.317769060097675, 38.270266527717197 ], [ 128.319226771581384, 38.266074275554161 ], [ 128.315409685466022, 38.261568055426551 ], [ 128.308991574679681, 38.258996522280995 ], [ 128.305153562930741, 38.252184559375856 ], [ 128.30468765962911, 38.246333844636148 ], [ 128.307464032373304, 38.244082656600746 ], [ 128.308196386202241, 38.233324554277814 ], [ 128.307133155981717, 38.231471033432889 ], [ 128.295443632135743, 38.22805404854018 ], [ 128.284690520206993, 38.231347856259823 ], [ 128.271496479971574, 38.218003797636435 ], [ 128.270796107470971, 38.21353540492845 ], [ 128.265199488217746, 38.210017348304376 ], [ 128.264344839659543, 38.207710778359512 ], [ 128.266062039154036, 38.202051156357825 ], [ 128.268797080405221, 38.19931804318405 ], [ 128.26942789756248, 38.194652025610573 ], [ 128.273448988420313, 38.19123830770836 ], [ 128.270366736086885, 38.187078270665282 ], [ 128.262426195472528, 38.182261373836781 ], [ 128.25240359346148, 38.178761730329775 ], [ 128.245302854629216, 38.180132276527118 ], [ 128.236639724368359, 38.17795336120448 ], [ 128.231796469644905, 38.184452841136618 ], [ 128.22713068286177, 38.186318142478541 ], [ 128.225207548643539, 38.185921716193896 ], [ 128.224405876772295, 38.181431510106428 ], [ 128.221378534594635, 38.179687387332855 ], [ 128.216285616367315, 38.180672491830492 ], [ 128.210316852270751, 38.179647158045697 ], [ 128.201686642379826, 38.182717586406298 ], [ 128.197940872818833, 38.180402001309737 ], [ 128.195015856824966, 38.186405281867145 ], [ 128.189077807920256, 38.188249905971354 ], [ 128.182588743223135, 38.187433122113383 ], [ 128.179592202315519, 38.189225664921601 ], [ 128.169579905686845, 38.189097250983643 ], [ 128.167039031225016, 38.194646614331376 ], [ 128.146351972949304, 38.200069150392849 ], [ 128.143884745967057, 38.209214075673515 ], [ 128.141088757616416, 38.211999983740071 ], [ 128.13478843204274, 38.211035942716499 ], [ 128.128349401258703, 38.213662244165057 ], [ 128.121437783264327, 38.213653331649326 ], [ 128.117125618077665, 38.218525206402923 ], [ 128.116685730718132, 38.225050109100444 ], [ 128.11912614107132, 38.22698392019128 ], [ 128.119917180464824, 38.232906569562601 ], [ 128.124699425389082, 38.237353548750526 ], [ 128.124253564986674, 38.240894228748999 ], [ 128.129597164842124, 38.243888654597868 ], [ 128.135829708767403, 38.244356738342454 ], [ 128.138117278078852, 38.247398290969983 ], [ 128.145483118359238, 38.250142038776993 ], [ 128.14690984071683, 38.254041025157278 ], [ 128.158109712612003, 38.258672854657817 ], [ 128.161033668108502, 38.261991942399163 ], [ 128.159703909655235, 38.263409839088894 ], [ 128.160055442184785, 38.268903389054117 ], [ 128.163293639301969, 38.271052131865453 ], [ 128.164615935553002, 38.27504009980175 ], [ 128.169018338690108, 38.280087174794581 ], [ 128.172390715625937, 38.281441918175489 ], [ 128.168253382130217, 38.288921771921338 ], [ 128.171331051479115, 38.29970734476575 ], [ 128.167791814021228, 38.30236093163559 ], [ 128.169005938099957, 38.306437077005434 ], [ 128.16821016335328, 38.311189322801503 ], [ 128.170670907382004, 38.315706587273176 ], [ 128.164903687050298, 38.320637234403591 ], [ 128.159278355738678, 38.322996278894223 ], [ 128.15810198623106, 38.3265498645045 ], [ 128.154955621701589, 38.329315529211826 ], [ 128.1510688653172, 38.325683564014547 ], [ 128.147944468075167, 38.327026885922479 ], [ 128.144712817423738, 38.324455055164336 ], [ 128.141640014239869, 38.324266963598525 ], [ 128.137066638272557, 38.324389740144909 ], [ 128.127827753301034, 38.328499958991479 ], [ 128.122803161280359, 38.326117938249467 ], [ 128.112978836058261, 38.327776102338824 ], [ 128.091877361200886, 38.314568396035618 ], [ 128.090325472975621, 38.314206587353581 ], [ 128.087354227537219, 38.317659852442389 ] ] ] ] } },
{ "type": "Feature", "properties": { "emd_cd": "51810350", "emd_nm": "상남면" }, "geometry": { "type": "MultiPolygon", "coordinates": [ [ [ [ 128.231741415206528, 37.951274574610856 ], [ 128.244146799216708, 37.952574089019727 ], [ 128.252543690865281, 37.950145851364425 ], [ 128.266849365860026, 37.948783301352726 ], [ 128.270962603034604, 37.942660166077289 ], [ 128.276521012860286, 37.940230502346822 ], [ 128.279788775468688, 37.941274696002793 ], [ 128.284066691448771, 37.937803265522959 ], [ 128.284369801150234, 37.931944517175772 ], [ 128.289221445847886, 37.926481468705191 ], [ 128.293297120354509, 37.9261741065745 ], [ 128.30060771899187, 37.929698865140068 ], [ 128.305382488301774, 37.926720739613856 ], [ 128.316878263511825, 37.925749062372617 ], [ 128.322731683579093, 37.922833750916624 ], [ 128.327812778763217, 37.923266947184267 ], [ 128.33123869283412, 37.920679168464048 ], [ 128.341946235912985, 37.917422955245506 ], [ 128.35242078367321, 37.91007978922427 ], [ 128.352385340576973, 37.907073135460685 ], [ 128.357209683498269, 37.90056176154603 ], [ 128.357237300331974, 37.896686714775804 ], [ 128.366389291777693, 37.890528284804262 ], [ 128.376894130599197, 37.88984503095903 ], [ 128.378752543686886, 37.890990143049933 ], [ 128.391136781159503, 37.888082787747543 ], [ 128.395326678706795, 37.889091376214175 ], [ 128.402417272844332, 37.884651443405112 ], [ 128.408030936941827, 37.883681630920073 ], [ 128.412278175923888, 37.884759079046823 ], [ 128.413193787861047, 37.882004510539112 ], [ 128.411227592747451, 37.875301584214924 ], [ 128.408821025983599, 37.871080484168139 ], [ 128.402720199403518, 37.867045456810644 ], [ 128.400657164286571, 37.861207491006219 ], [ 128.397148374559777, 37.862300183756297 ], [ 128.390400445645298, 37.85884387098023 ], [ 128.382403875334887, 37.858622605663925 ], [ 128.378177184982604, 37.852336275120102 ], [ 128.366154185364479, 37.847044876051299 ], [ 128.362822581552876, 37.838626206964157 ], [ 128.366375115318817, 37.836398337721754 ], [ 128.365176503016613, 37.833547015652364 ], [ 128.353572052529415, 37.830707491571303 ], [ 128.34747222297716, 37.826287299573345 ], [ 128.336069296521572, 37.827927067403522 ], [ 128.33156272192798, 37.832686303778203 ], [ 128.328356405982788, 37.833875577609206 ], [ 128.319954331346793, 37.830712236930083 ], [ 128.313216679871772, 37.839513346658009 ], [ 128.307426091091628, 37.843674111065887 ], [ 128.305405791068551, 37.849589689332781 ], [ 128.307017299085288, 37.851320600189219 ], [ 128.305116548508835, 37.857598511362013 ], [ 128.297852555482791, 37.864639585063202 ], [ 128.2959036810322, 37.868601239558657 ], [ 128.291069613580447, 37.869298261672583 ], [ 128.287444916337392, 37.864930260986277 ], [ 128.284823495419943, 37.866299335699217 ], [ 128.276423345687562, 37.864936175760569 ], [ 128.273049412550961, 37.860775174523454 ], [ 128.267503958748904, 37.86099968906715 ], [ 128.26144490781968, 37.85638489921287 ], [ 128.260809115375224, 37.849602242509803 ], [ 128.256094889020801, 37.843436750520205 ], [ 128.256128908671542, 37.839603896751704 ], [ 128.247565995554737, 37.836047878973112 ], [ 128.247060456654452, 37.832711305811877 ], [ 128.242705244294712, 37.832098750211379 ], [ 128.238245389038866, 37.824695469498117 ], [ 128.234725614897286, 37.822180754587976 ], [ 128.224354556871504, 37.820357277532821 ], [ 128.214388815912145, 37.812319274823238 ], [ 128.208688415840697, 37.812587245581895 ], [ 128.205633897164262, 37.815418881472823 ], [ 128.20157142825903, 37.81613411581386 ], [ 128.196334852903988, 37.821932729581889 ], [ 128.191384602185025, 37.824047317016756 ], [ 128.186511188209607, 37.829967674455943 ], [ 128.18443042710291, 37.829964176846211 ], [ 128.18315638654181, 37.832864968775212 ], [ 128.179813179459188, 37.834949215448376 ], [ 128.181745788119457, 37.837739035362667 ], [ 128.181370976899416, 37.843014497294959 ], [ 128.178350610478248, 37.846553547468972 ], [ 128.173647821815706, 37.847775682541588 ], [ 128.172006125771105, 37.850219439604189 ], [ 128.16890688058092, 37.851251338978543 ], [ 128.171858635457426, 37.857125061600733 ], [ 128.168586418031197, 37.863049601077925 ], [ 128.168843242387226, 37.870998254081307 ], [ 128.173927047139557, 37.876458600749636 ], [ 128.174211549744058, 37.885023252317438 ], [ 128.164234353953844, 37.887192615620755 ], [ 128.160888337194734, 37.895293482282796 ], [ 128.162629991860143, 37.905701253532612 ], [ 128.156548051182256, 37.908234330779564 ], [ 128.164459948277738, 37.91895869803124 ], [ 128.165056333414213, 37.922642348156415 ], [ 128.16999880731953, 37.92387753154464 ], [ 128.172260941149659, 37.926479494337727 ], [ 128.171307641678737, 37.932033413753707 ], [ 128.173298906247737, 37.934060149423104 ], [ 128.174062160181762, 37.945052530308061 ], [ 128.175928151892009, 37.946319035082624 ], [ 128.178855592092503, 37.946180088346715 ], [ 128.185435659679371, 37.941780865563423 ], [ 128.18985280361747, 37.941422126997573 ], [ 128.195153215918481, 37.935206968267828 ], [ 128.196420765942378, 37.92839071614025 ], [ 128.203345160614987, 37.931490012272043 ], [ 128.217706594880156, 37.931301130128901 ], [ 128.22114275425011, 37.929608549317201 ], [ 128.227388492790027, 37.938852458152745 ], [ 128.229061969493046, 37.94872657365768 ], [ 128.231741415206528, 37.951274574610856 ] ] ] ] } }
]
}
