{
"type": "FeatureCollection",
"name": "29110",
"crs": { "type": "name", "properties": { "name": "urn:ogc:def:crs:OGC:1.3:CRS84" } },
"features": [
{ "type": "Feature", "properties": { "emd_cd": "29110101", "emd_nm": "대인동" }, "geometry": { "type": "MultiPolygon", "coordinates": [ [ [ [ 126.919248289424999, 35.153215266950951 ], [ 126.916658650517618, 35.151113550945993 ], [ 126.911282620024551, 35.154736912093831 ], [ 126.912980441254305, 35.15704252112603 ], [ 126.919248289424999, 35.153215266950951 ] ] ] ] } },
{ "type": "Feature", "properties": { "emd_cd": "29110102", "emd_nm": "금남로5가" }, "geometry": { "type": "MultiPolygon", "coordinates": [ [ [ [ 126.910210640853819, 35.152908513896847 ], [ 126.911303436895452, 35.154719378204867 ], [ 126.915225027795884, 35.152055951886737 ], [ 126.91357435667247, 35.150681759048773 ], [ 126.910210640853819, 35.152908513896847 ] ] ] ] } },
{ "type": "Feature", "properties": { "emd_cd": "29110103", "emd_nm": "충장로5가" }, "geometry": { "type": "MultiPolygon", "coordinates": [ [ [ [ 126.912090668081447, 35.149469928685704 ], [ 126.909622489570751, 35.153392394702337 ], [ 126.91357435667247, 35.150681759048773 ], [ 126.912090668081447, 35.149469928685704 ] ] ] ] } },
{ "type": "Feature", "properties": { "emd_cd": "29110104", "emd_nm": "수기동" }, "geometry": { "type": "MultiPolygon", "coordinates": [ [ [ [ 126.911612680963842, 35.150122643359452 ], [ 126.910597968578813, 35.14820985066855 ], [ 126.907224375383123, 35.151407347769975 ], [ 126.908736171559511, 35.152672258470105 ], [ 126.911612680963842, 35.150122643359452 ] ] ] ] } },
{ "type": "Feature", "properties": { "emd_cd": "29110105", "emd_nm": "대의동" }, "geometry": { "type": "MultiPolygon", "coordinates": [ [ [ [ 126.918660339148786, 35.148750075619738 ], [ 126.920413876476701, 35.150643647455517 ], [ 126.922152405155515, 35.149493063428338 ], [ 126.920538859697118, 35.147642532468794 ], [ 126.918660339148786, 35.148750075619738 ] ] ] ] } },
{ "type": "Feature", "properties": { "emd_cd": "29110106", "emd_nm": "궁동" }, "geometry": { "type": "MultiPolygon", "coordinates": [ [ [ [ 126.917503167986567, 35.149639169961162 ], [ 126.916658650517618, 35.151113550945993 ], [ 126.917921351770147, 35.152111515819762 ], [ 126.920413876476701, 35.150643647455517 ], [ 126.917503167986567, 35.149639169961162 ] ] ] ] } },
{ "type": "Feature", "properties": { "emd_cd": "29110107", "emd_nm": "장동" }, "geometry": { "type": "MultiPolygon", "coordinates": [ [ [ [ 126.924769711014449, 35.149046097773187 ], [ 126.921811577823689, 35.147115649566949 ], [ 126.922078451554896, 35.149638106216145 ], [ 126.91797572183755, 35.152174152387936 ], [ 126.919248289424999, 35.153215266950951 ], [ 126.924769711014449, 35.149046097773187 ] ] ] ] } },
{ "type": "Feature", "properties": { "emd_cd": "29110108", "emd_nm": "동명동" }, "geometry": { "type": "MultiPolygon", "coordinates": [ [ [ [ 126.919248289424999, 35.153215266950951 ], [ 126.921835946157486, 35.155201335952917 ], [ 126.930925528851674, 35.14967018477293 ], [ 126.927420401970735, 35.145971517368984 ], [ 126.919248289424999, 35.153215266950951 ] ] ] ] } },
{ "type": "Feature", "properties": { "emd_cd": "29110109", "emd_nm": "계림동" }, "geometry": { "type": "MultiPolygon", "coordinates": [ [ [ [ 126.912980441254305, 35.15704252112603 ], [ 126.916320514563594, 35.16548902005816 ], [ 126.930183296548435, 35.161137028195078 ], [ 126.919248289424999, 35.153215266950951 ], [ 126.912980441254305, 35.15704252112603 ] ] ] ] } },
{ "type": "Feature", "properties": { "emd_cd": "29110110", "emd_nm": "산수동" }, "geometry": { "type": "MultiPolygon", "coordinates": [ [ [ [ 126.921835946157486, 35.155201335952917 ], [ 126.930183296548435, 35.161137028195078 ], [ 126.93551575743146, 35.161784884145 ], [ 126.938860333785613, 35.16178539569232 ], [ 126.938370429350954, 35.159375498089055 ], [ 126.939924812583072, 35.158588207093864 ], [ 126.944359280834021, 35.158739424983388 ], [ 126.945695985480583, 35.155602369113701 ], [ 126.944532964334741, 35.156001867803084 ], [ 126.940907423461638, 35.152039431201302 ], [ 126.940103476624046, 35.153213591894705 ], [ 126.936337635942436, 35.152397640633104 ], [ 126.936596018662016, 35.153606640537646 ], [ 126.933087771533394, 35.15318385190529 ], [ 126.933101538909199, 35.151996306274818 ], [ 126.926066146521705, 35.152676966360289 ], [ 126.921835946157486, 35.155201335952917 ] ] ] ] } },
{ "type": "Feature", "properties": { "emd_cd": "29110111", "emd_nm": "지산동" }, "geometry": { "type": "MultiPolygon", "coordinates": [ [ [ [ 126.944532964334741, 35.156001867803084 ], [ 126.95562501517351, 35.15138751161367 ], [ 126.953478226908786, 35.145118877579108 ], [ 126.948258383305969, 35.144630282670626 ], [ 126.947304065266962, 35.141595271848267 ], [ 126.94032388403285, 35.1417160610631 ], [ 126.935453399203197, 35.143993155344198 ], [ 126.934400257951083, 35.146057197010222 ], [ 126.929940620203141, 35.144425122329579 ], [ 126.927379478382605, 35.145949904890585 ], [ 126.930971865590365, 35.149984595515633 ], [ 126.926149400577103, 35.152676801787599 ], [ 126.933101538909199, 35.151996306274818 ], [ 126.933087771533394, 35.15318385190529 ], [ 126.936596018662016, 35.153606640537646 ], [ 126.936337635942436, 35.152397640633104 ], [ 126.940103476624046, 35.153213591894705 ], [ 126.940907423461638, 35.152039431201302 ], [ 126.944532964334741, 35.156001867803084 ] ] ] ] } },
{ "type": "Feature", "properties": { "emd_cd": "29110112", "emd_nm": "남동" }, "geometry": { "type": "MultiPolygon", "coordinates": [ [ [ [ 126.917742614868445, 35.145244622249464 ], [ 126.920717808386655, 35.145201527491764 ], [ 126.921922315392152, 35.143042403636159 ], [ 126.92029228130086, 35.142438000265017 ], [ 126.917742614868445, 35.145244622249464 ] ] ] ] } },
{ "type": "Feature", "properties": { "emd_cd": "29110113", "emd_nm": "광산동" }, "geometry": { "type": "MultiPolygon", "coordinates": [ [ [ [ 126.921618237857302, 35.145352109527821 ], [ 126.91648348520647, 35.1457715171776 ], [ 126.922004977403589, 35.148261588953844 ], [ 126.921618237857302, 35.145352109527821 ] ] ] ] } },
{ "type": "Feature", "properties": { "emd_cd": "29110114", "emd_nm": "금동" }, "geometry": { "type": "MultiPolygon", "coordinates": [ [ [ [ 126.917668069147808, 35.141379202996866 ], [ 126.915212845123108, 35.143545144386103 ], [ 126.917742614868445, 35.145244622249464 ], [ 126.92029228130086, 35.142438000265017 ], [ 126.917668069147808, 35.141379202996866 ] ] ] ] } },
{ "type": "Feature", "properties": { "emd_cd": "29110115", "emd_nm": "호남동" }, "geometry": { "type": "MultiPolygon", "coordinates": [ [ [ [ 126.911922102097009, 35.149331049634647 ], [ 126.914622034619214, 35.14726575476481 ], [ 126.912641762372573, 35.14589251045745 ], [ 126.910597968578813, 35.14820985066855 ], [ 126.911922102097009, 35.149331049634647 ] ] ] ] } },
{ "type": "Feature", "properties": { "emd_cd": "29110116", "emd_nm": "불로동" }, "geometry": { "type": "MultiPolygon", "coordinates": [ [ [ [ 126.912888441498282, 35.146064904013734 ], [ 126.914622034619214, 35.14726575476481 ], [ 126.91704671397197, 35.145164450776051 ], [ 126.915196203807511, 35.143529611189301 ], [ 126.912888441498282, 35.146064904013734 ] ] ] ] } },
{ "type": "Feature", "properties": { "emd_cd": "29110117", "emd_nm": "황금동" }, "geometry": { "type": "MultiPolygon", "coordinates": [ [ [ [ 126.917632043423694, 35.146315897610052 ], [ 126.913335798542192, 35.148051160237841 ], [ 126.913998371307926, 35.148930587991629 ], [ 126.917632043423694, 35.146315897610052 ] ] ] ] } },
{ "type": "Feature", "properties": { "emd_cd": "29110118", "emd_nm": "서석동" }, "geometry": { "type": "MultiPolygon", "coordinates": [ [ [ [ 126.920718400217197, 35.145202285025107 ], [ 126.924403673879539, 35.148095314001829 ], [ 126.929658394165386, 35.144471465493666 ], [ 126.934400257951083, 35.146057197010222 ], [ 126.937080004318574, 35.143029416305652 ], [ 126.93698386847646, 35.137903240022055 ], [ 126.934355851731539, 35.13636630657097 ], [ 126.92842762389418, 35.137325746762393 ], [ 126.920718400217197, 35.145202285025107 ] ] ] ] } },
{ "type": "Feature", "properties": { "emd_cd": "29110119", "emd_nm": "소태동" }, "geometry": { "type": "MultiPolygon", "coordinates": [ [ [ [ 126.927353054475788, 35.127850487332708 ], [ 126.927452956706645, 35.129345992524122 ], [ 126.941125956271406, 35.132092848873512 ], [ 126.945746204365818, 35.12918140930369 ], [ 126.946797038286732, 35.125053014232492 ], [ 126.950660101135867, 35.123661363381416 ], [ 126.953860838975601, 35.11790549511668 ], [ 126.967816759064647, 35.111392039397622 ], [ 126.963567723825136, 35.107563298430939 ], [ 126.953970471905677, 35.105609842478657 ], [ 126.94927248975749, 35.107779546141536 ], [ 126.942578163903278, 35.105827168840101 ], [ 126.939770098430984, 35.106515216150676 ], [ 126.936226959748382, 35.109075862092297 ], [ 126.936736573246975, 35.111863766651936 ], [ 126.931409316227629, 35.125554279797583 ], [ 126.927353054475788, 35.127850487332708 ] ] ] ] } },
{ "type": "Feature", "properties": { "emd_cd": "29110120", "emd_nm": "용연동" }, "geometry": { "type": "MultiPolygon", "coordinates": [ [ [ [ 126.957859325343165, 35.096875337724434 ], [ 126.959521154514988, 35.106793042244917 ], [ 126.963567723825136, 35.107563298430939 ], [ 126.968156678272678, 35.111589693571553 ], [ 126.974974318110341, 35.112762358646243 ], [ 126.992612565949287, 35.122655446204114 ], [ 127.004226288152637, 35.121117942606872 ], [ 126.998637281669915, 35.115730511049186 ], [ 126.999894158011202, 35.114075138951279 ], [ 126.988396857306086, 35.110080209084742 ], [ 126.988785797714513, 35.107292689372869 ], [ 126.986289588307017, 35.105980804109407 ], [ 126.988682941563255, 35.101398064808265 ], [ 126.987483648303012, 35.099575673945274 ], [ 126.988901767253495, 35.095114655700783 ], [ 126.987609495017153, 35.094086942269833 ], [ 126.974059076614438, 35.091874153104023 ], [ 126.963499464128404, 35.087248327417747 ], [ 126.957949588507475, 35.089947900095858 ], [ 126.957423974015441, 35.091379167514496 ], [ 126.959809210182101, 35.092808158315599 ], [ 126.96016443948605, 35.095120801299849 ], [ 126.957859325343165, 35.096875337724434 ] ] ] ] } },
{ "type": "Feature", "properties": { "emd_cd": "29110121", "emd_nm": "운림동" }, "geometry": { "type": "MultiPolygon", "coordinates": [ [ [ [ 126.967795838480271, 35.136992032901716 ], [ 126.983471022764903, 35.137021617120347 ], [ 126.987803723269053, 35.12825161365037 ], [ 126.992612565949287, 35.122655446204114 ], [ 126.973393079451938, 35.11218374391845 ], [ 126.967816759064647, 35.111392039397622 ], [ 126.959828651025646, 35.114467736998009 ], [ 126.953860838975601, 35.11790549511668 ], [ 126.950660101135867, 35.123661363381416 ], [ 126.946797038286732, 35.125053014232492 ], [ 126.945746204365818, 35.12918140930369 ], [ 126.941125956271406, 35.132092848873512 ], [ 126.936254714994945, 35.131949814564663 ], [ 126.947145978293335, 35.140498628321012 ], [ 126.948258383305969, 35.144630282670626 ], [ 126.951394864894297, 35.14452840397486 ], [ 126.955307166435659, 35.140562174774821 ], [ 126.961883100466608, 35.140738704398984 ], [ 126.967795838480271, 35.136992032901716 ] ] ] ] } },
{ "type": "Feature", "properties": { "emd_cd": "29110122", "emd_nm": "학동" }, "geometry": { "type": "MultiPolygon", "coordinates": [ [ [ [ 126.92842762389418, 35.137325746762393 ], [ 126.934355851731539, 35.13636630657097 ], [ 126.93698386847646, 35.137903240022055 ], [ 126.937080004318574, 35.143029416305652 ], [ 126.947304065266962, 35.141595271848267 ], [ 126.935378471475914, 35.130856506352586 ], [ 126.928729083610421, 35.129106543595945 ], [ 126.926385213670684, 35.129899500366058 ], [ 126.917668069147808, 35.141379202996866 ], [ 126.923133958137655, 35.143517864844888 ], [ 126.92842762389418, 35.137325746762393 ] ] ] ] } },
{ "type": "Feature", "properties": { "emd_cd": "29110123", "emd_nm": "월남동" }, "geometry": { "type": "MultiPolygon", "coordinates": [ [ [ [ 126.940639170611774, 35.099312019115168 ], [ 126.938450988791018, 35.09761019208706 ], [ 126.937877068628396, 35.100142218467425 ], [ 126.9357296731189, 35.101425561122859 ], [ 126.932015757186207, 35.100879303049197 ], [ 126.926755117952965, 35.09588677146936 ], [ 126.920192545835278, 35.098642400757555 ], [ 126.923830591042403, 35.101947016645283 ], [ 126.922939020988537, 35.105782848231293 ], [ 126.926005275715738, 35.109690440197411 ], [ 126.93126576438236, 35.109452151021095 ], [ 126.93276621924997, 35.107045977595057 ], [ 126.936446778156764, 35.109044387386845 ], [ 126.942556203912375, 35.105828924848566 ], [ 126.94927248975749, 35.107779546141536 ], [ 126.953478020630357, 35.10556131766765 ], [ 126.959521154514988, 35.106793042244917 ], [ 126.957859325343165, 35.096875337724434 ], [ 126.949717834105641, 35.095681635880787 ], [ 126.940639170611774, 35.099312019115168 ] ] ] ] } },
{ "type": "Feature", "properties": { "emd_cd": "29110124", "emd_nm": "선교동" }, "geometry": { "type": "MultiPolygon", "coordinates": [ [ [ [ 126.963013284184257, 35.087308655975896 ], [ 126.958583890093053, 35.082437292953244 ], [ 126.959522302679204, 35.079146273806295 ], [ 126.954947655332816, 35.074915007353837 ], [ 126.949361505966181, 35.072777850194157 ], [ 126.943743239639616, 35.073553972320731 ], [ 126.945532349396174, 35.081412129507143 ], [ 126.94418749091605, 35.083275355255097 ], [ 126.946237700653171, 35.088693212878098 ], [ 126.942525521775465, 35.092033428710316 ], [ 126.946379593000273, 35.096882549344194 ], [ 126.952280185821749, 35.095550210087104 ], [ 126.957859325343165, 35.096875337724434 ], [ 126.96016443948605, 35.095120801299849 ], [ 126.959809210182101, 35.092808158315599 ], [ 126.957423974015441, 35.091379167514496 ], [ 126.957949588507475, 35.089947900095858 ], [ 126.963013284184257, 35.087308655975896 ] ] ] ] } },
{ "type": "Feature", "properties": { "emd_cd": "29110125", "emd_nm": "내남동" }, "geometry": { "type": "MultiPolygon", "coordinates": [ [ [ [ 126.939937846593992, 35.099509586793182 ], [ 126.946379593000273, 35.096882549344194 ], [ 126.942525521775465, 35.092033428710316 ], [ 126.946237700653171, 35.088693212878098 ], [ 126.94418749091605, 35.083275355255097 ], [ 126.945532349396174, 35.081412129507143 ], [ 126.944899273349307, 35.077666776955148 ], [ 126.942296500721582, 35.072454292811528 ], [ 126.932257734569617, 35.074463466443504 ], [ 126.932488348733358, 35.077743679720868 ], [ 126.927637960615513, 35.080356842518583 ], [ 126.924730131292577, 35.087998688408788 ], [ 126.919399865984005, 35.09168617020412 ], [ 126.921319575948189, 35.097257223521957 ], [ 126.926755117952965, 35.09588677146936 ], [ 126.931725678303636, 35.100794156146534 ], [ 126.93459376096186, 35.10128929421284 ], [ 126.937877068628396, 35.100142218467425 ], [ 126.938450988791018, 35.09761019208706 ], [ 126.940065549951584, 35.097829952071976 ], [ 126.939937846593992, 35.099509586793182 ] ] ] ] } },
{ "type": "Feature", "properties": { "emd_cd": "29110126", "emd_nm": "용산동" }, "geometry": { "type": "MultiPolygon", "coordinates": [ [ [ [ 126.911854909013059, 35.115654409526371 ], [ 126.918898296001586, 35.117373859842822 ], [ 126.924395991490385, 35.124715979867091 ], [ 126.93036342307856, 35.126592397303227 ], [ 126.936738269499074, 35.110661189290298 ], [ 126.935943432072946, 35.108383184061758 ], [ 126.93276621924997, 35.107045977595057 ], [ 126.93126576438236, 35.109452151021095 ], [ 126.925076490667109, 35.109317731719003 ], [ 126.922939020988537, 35.105782848231293 ], [ 126.923830591042403, 35.101947016645283 ], [ 126.918972582131019, 35.098741889979046 ], [ 126.913883196518967, 35.106259831566959 ], [ 126.912331758365042, 35.112302176675755 ], [ 126.913536782116722, 35.113716065696011 ], [ 126.911854909013059, 35.115654409526371 ] ] ] ] } },
{ "type": "Feature", "properties": { "emd_cd": "29110127", "emd_nm": "충장로1가" }, "geometry": { "type": "MultiPolygon", "coordinates": [ [ [ [ 126.918690203793304, 35.14696793548292 ], [ 126.917632043423694, 35.146315897610052 ], [ 126.91693918846272, 35.147197907006046 ], [ 126.917764577641307, 35.148028285818157 ], [ 126.918690203793304, 35.14696793548292 ] ] ] ] } },
{ "type": "Feature", "properties": { "emd_cd": "29110128", "emd_nm": "충장로2가" }, "geometry": { "type": "MultiPolygon", "coordinates": [ [ [ [ 126.916241642982627, 35.148786067046196 ], [ 126.917041184862939, 35.147321031172311 ], [ 126.915497067632998, 35.148024860273992 ], [ 126.916241642982627, 35.148786067046196 ] ] ] ] } },
{ "type": "Feature", "properties": { "emd_cd": "29110129", "emd_nm": "충장로3가" }, "geometry": { "type": "MultiPolygon", "coordinates": [ [ [ [ 126.915039426832806, 35.149811787694183 ], [ 126.915330286082224, 35.147887420349221 ], [ 126.913998371307926, 35.148930587991629 ], [ 126.915039426832806, 35.149811787694183 ] ] ] ] } },
{ "type": "Feature", "properties": { "emd_cd": "29110130", "emd_nm": "충장로4가" }, "geometry": { "type": "MultiPolygon", "coordinates": [ [ [ [ 126.91491536340726, 35.149707205049019 ], [ 126.913417823907551, 35.14825012198861 ], [ 126.911922102097009, 35.149331049634647 ], [ 126.914055183835345, 35.150789638393285 ], [ 126.91491536340726, 35.149707205049019 ] ] ] ] } },
{ "type": "Feature", "properties": { "emd_cd": "29110131", "emd_nm": "금남로1가" }, "geometry": { "type": "MultiPolygon", "coordinates": [ [ [ [ 126.918778731511438, 35.146858219765377 ], [ 126.918630558923581, 35.148724835345384 ], [ 126.920538859697118, 35.147642532468794 ], [ 126.918778731511438, 35.146858219765377 ] ] ] ] } },
{ "type": "Feature", "properties": { "emd_cd": "29110132", "emd_nm": "금남로2가" }, "geometry": { "type": "MultiPolygon", "coordinates": [ [ [ [ 126.918524809157859, 35.148846716451288 ], [ 126.917473733200779, 35.147760291880147 ], [ 126.916241642982627, 35.148786067046196 ], [ 126.91738894235931, 35.149751201383182 ], [ 126.918524809157859, 35.148846716451288 ] ] ] ] } },
{ "type": "Feature", "properties": { "emd_cd": "29110133", "emd_nm": "금남로3가" }, "geometry": { "type": "MultiPolygon", "coordinates": [ [ [ [ 126.916658650517618, 35.151113550945993 ], [ 126.916241642982627, 35.148786067046196 ], [ 126.915039426832806, 35.149811787694183 ], [ 126.916658650517618, 35.151113550945993 ] ] ] ] } },
{ "type": "Feature", "properties": { "emd_cd": "29110134", "emd_nm": "금남로4가" }, "geometry": { "type": "MultiPolygon", "coordinates": [ [ [ [ 126.915023877494136, 35.149800239258354 ], [ 126.915225027795884, 35.152055951886737 ], [ 126.916658650517618, 35.151113550945993 ], [ 126.915023877494136, 35.149800239258354 ] ] ] ] } }
]
}
