{
"type": "FeatureCollection",
"name": "29140",
"crs": { "type": "name", "properties": { "name": "urn:ogc:def:crs:OGC:1.3:CRS84" } },
"features": [
{ "type": "Feature", "properties": { "emd_cd": "29140104", "emd_nm": "양동" }, "geometry": { "type": "MultiPolygon", "coordinates": [ [ [ [ 126.890569763337481, 35.160607105552934 ], [ 126.898749200664085, 35.158084249473212 ], [ 126.909729216815066, 35.149188140563567 ], [ 126.905363646752392, 35.148280166929275 ], [ 126.900985743679684, 35.152397703263105 ], [ 126.89646430028381, 35.152203189286034 ], [ 126.890569763337481, 35.160607105552934 ] ] ] ] } },
{ "type": "Feature", "properties": { "emd_cd": "29140106", "emd_nm": "농성동" }, "geometry": { "type": "MultiPolygon", "coordinates": [ [ [ [ 126.880732022662713, 35.151444372426866 ], [ 126.884260134304157, 35.153553769438837 ], [ 126.883174052367778, 35.160778211243169 ], [ 126.887342991749847, 35.16138768371146 ], [ 126.89055490027549, 35.160754111727869 ], [ 126.896763904624251, 35.152650826908612 ], [ 126.886431752228461, 35.147092485248422 ], [ 126.880732022662713, 35.151444372426866 ] ] ] ] } },
{ "type": "Feature", "properties": { "emd_cd": "29140115", "emd_nm": "광천동" }, "geometry": { "type": "MultiPolygon", "coordinates": [ [ [ [ 126.871342396520348, 35.167000184176544 ], [ 126.875836868805905, 35.170622683971899 ], [ 126.883283591051992, 35.170113511291454 ], [ 126.886116999282962, 35.16804575423452 ], [ 126.885367259906886, 35.166311827552619 ], [ 126.887785387289497, 35.161401160089298 ], [ 126.883882023801974, 35.161120188639799 ], [ 126.882955699778265, 35.159378313048904 ], [ 126.877143772269591, 35.159544189484087 ], [ 126.877552964630638, 35.165950876413973 ], [ 126.871342396520348, 35.167000184176544 ] ] ] ] } },
{ "type": "Feature", "properties": { "emd_cd": "29140116", "emd_nm": "유촌동" }, "geometry": { "type": "MultiPolygon", "coordinates": [ [ [ [ 126.840643054635947, 35.15955859362834 ], [ 126.844646358740491, 35.163990924381245 ], [ 126.847324223917894, 35.173262960689605 ], [ 126.852380866554199, 35.17210313756091 ], [ 126.851124968883127, 35.168439493410233 ], [ 126.856669165569585, 35.168502552516735 ], [ 126.856256839867598, 35.167257337026449 ], [ 126.859025902533361, 35.168214497409124 ], [ 126.863418546783407, 35.166428459044482 ], [ 126.864123012945939, 35.162056617331807 ], [ 126.856101373356921, 35.162422223755833 ], [ 126.856034369610413, 35.160291615248724 ], [ 126.840643054635947, 35.15955859362834 ] ] ] ] } },
{ "type": "Feature", "properties": { "emd_cd": "29140117", "emd_nm": "덕흥동" }, "geometry": { "type": "MultiPolygon", "coordinates": [ [ [ [ 126.847324103812724, 35.173262618023365 ], [ 126.84351519860725, 35.162263653565205 ], [ 126.841665182708354, 35.159870759293625 ], [ 126.838265189094614, 35.159291273265353 ], [ 126.834459968754174, 35.154443964813169 ], [ 126.82946749658403, 35.159811283137017 ], [ 126.829483376791885, 35.16157495548569 ], [ 126.826692498548454, 35.161596813376242 ], [ 126.826393395395812, 35.160382475985948 ], [ 126.824658131592869, 35.162221816529048 ], [ 126.825131828819153, 35.165834549248913 ], [ 126.827926332670643, 35.168008723055294 ], [ 126.837375554095757, 35.170786855162845 ], [ 126.838720939441757, 35.178402064141672 ], [ 126.843305054861759, 35.176886844716506 ], [ 126.841866492390338, 35.174552127641917 ], [ 126.847324103812724, 35.173262618023365 ] ] ] ] } },
{ "type": "Feature", "properties": { "emd_cd": "29140118", "emd_nm": "쌍촌동" }, "geometry": { "type": "MultiPolygon", "coordinates": [ [ [ [ 126.872311770176864, 35.168689228616657 ], [ 126.872134062804847, 35.166208715824652 ], [ 126.866936011105949, 35.165011009099359 ], [ 126.870842429725172, 35.154744360358997 ], [ 126.869528529033019, 35.151576398005581 ], [ 126.871885780763833, 35.151645019327347 ], [ 126.870614882314598, 35.143307902266194 ], [ 126.865854246574727, 35.144787986968538 ], [ 126.863429720715544, 35.141865362182877 ], [ 126.860832992174039, 35.14247409164966 ], [ 126.861304407076616, 35.140987382177464 ], [ 126.85420977200566, 35.140639637872141 ], [ 126.852903644492926, 35.149673203637356 ], [ 126.858197480652919, 35.151931701301855 ], [ 126.855148642347288, 35.151823772380098 ], [ 126.856079439087111, 35.162412282562258 ], [ 126.864123012945939, 35.162056617331807 ], [ 126.863418546783407, 35.166428459044482 ], [ 126.860287349981206, 35.167376688609004 ], [ 126.872311770176864, 35.168689228616657 ] ] ] ] } },
{ "type": "Feature", "properties": { "emd_cd": "29140119", "emd_nm": "화정동" }, "geometry": { "type": "MultiPolygon", "coordinates": [ [ [ [ 126.874637631752748, 35.136212967949724 ], [ 126.868984724392675, 35.134135892057643 ], [ 126.867644541414805, 35.136226776397187 ], [ 126.865164803321022, 35.136157628804575 ], [ 126.863429720715544, 35.141865362182877 ], [ 126.865854246574727, 35.144787986968538 ], [ 126.870614882314598, 35.143307902266194 ], [ 126.871885780763833, 35.151645019327347 ], [ 126.873510930707965, 35.15170988573658 ], [ 126.873472963004133, 35.154595423823146 ], [ 126.874721789522226, 35.154573976976536 ], [ 126.875427765180774, 35.157426840801065 ], [ 126.876969825127333, 35.157371793535255 ], [ 126.877083120359231, 35.159595188931576 ], [ 126.883023554773942, 35.159420995380238 ], [ 126.884260134304157, 35.153553769438837 ], [ 126.880732022662713, 35.151444372426866 ], [ 126.886431752228461, 35.147092485248422 ], [ 126.885403934535262, 35.146566709262672 ], [ 126.888306140884637, 35.142786895140581 ], [ 126.883250161057873, 35.138869083526899 ], [ 126.883484116300068, 35.137542658405444 ], [ 126.880181808456769, 35.138248244693102 ], [ 126.877839410515236, 35.134932769689335 ], [ 126.874637631752748, 35.136212967949724 ] ] ] ] } },
{ "type": "Feature", "properties": { "emd_cd": "29140120", "emd_nm": "치평동" }, "geometry": { "type": "MultiPolygon", "coordinates": [ [ [ [ 126.855993099977027, 35.160292196664464 ], [ 126.85516467944835, 35.151754477583026 ], [ 126.858197480652919, 35.151931701301855 ], [ 126.852903644492926, 35.149673203637356 ], [ 126.852752525831406, 35.145173390787356 ], [ 126.850896466698231, 35.147376472235223 ], [ 126.848916812505351, 35.14732162816572 ], [ 126.841048429941395, 35.143152112191785 ], [ 126.8377585792296, 35.148056358383805 ], [ 126.831492701598023, 35.148111846740001 ], [ 126.825276685921651, 35.15364520739864 ], [ 126.826692498548454, 35.161596813376242 ], [ 126.829483376791885, 35.16157495548569 ], [ 126.82946749658403, 35.159811283137017 ], [ 126.834459968754174, 35.154443964813169 ], [ 126.838978365754116, 35.159652060722379 ], [ 126.855993099977027, 35.160292196664464 ] ] ] ] } },
{ "type": "Feature", "properties": { "emd_cd": "29140121", "emd_nm": "내방동" }, "geometry": { "type": "MultiPolygon", "coordinates": [ [ [ [ 126.877552964630638, 35.165950876413973 ], [ 126.876969825127333, 35.157371793535255 ], [ 126.875427765180774, 35.157426840801065 ], [ 126.874721789522226, 35.154573976976536 ], [ 126.873472963004133, 35.154595423823146 ], [ 126.873510930707965, 35.15170988573658 ], [ 126.869528529033019, 35.151576398005581 ], [ 126.870842429725172, 35.154744360358997 ], [ 126.866936011105949, 35.165011009099359 ], [ 126.870423771814103, 35.166558063428532 ], [ 126.877552964630638, 35.165950876413973 ] ] ] ] } },
{ "type": "Feature", "properties": { "emd_cd": "29140125", "emd_nm": "서창동" }, "geometry": { "type": "MultiPolygon", "coordinates": [ [ [ [ 126.816754155468502, 35.116597183626496 ], [ 126.822986555344514, 35.120061255298126 ], [ 126.825061592040313, 35.118963606761014 ], [ 126.825176840792338, 35.116973546579885 ], [ 126.821874888698787, 35.113757499954787 ], [ 126.822950157753709, 35.110155009192049 ], [ 126.82948587549734, 35.110737187863378 ], [ 126.837539386834521, 35.11388257858512 ], [ 126.837461005310217, 35.11025414657346 ], [ 126.843463216087372, 35.107384197207949 ], [ 126.8438194896261, 35.103513720083356 ], [ 126.84105414450211, 35.100998007975036 ], [ 126.83810663338015, 35.102278360761147 ], [ 126.836640056044757, 35.098644636300385 ], [ 126.83362650288295, 35.097805373299877 ], [ 126.831516690876157, 35.098031885992555 ], [ 126.832069540087588, 35.099969325802945 ], [ 126.8269986489464, 35.103461060136389 ], [ 126.820418022208671, 35.103847048897045 ], [ 126.818547989339194, 35.109284242542579 ], [ 126.805272764228931, 35.105168475854711 ], [ 126.802805157259542, 35.112269077394679 ], [ 126.809225916697272, 35.112276966109398 ], [ 126.809935047221288, 35.116725800641255 ], [ 126.816754155468502, 35.116597183626496 ] ] ] ] } },
{ "type": "Feature", "properties": { "emd_cd": "29140126", "emd_nm": "세하동" }, "geometry": { "type": "MultiPolygon", "coordinates": [ [ [ [ 126.837539386834521, 35.11388257858512 ], [ 126.82948587549734, 35.110737187863378 ], [ 126.822950157753709, 35.110155009192049 ], [ 126.821874888698787, 35.113757499954787 ], [ 126.825176840792338, 35.116973546579885 ], [ 126.825061592040313, 35.118963606761014 ], [ 126.822986555344514, 35.120061255298126 ], [ 126.817357624159584, 35.118159381401838 ], [ 126.816941149800627, 35.120732388717769 ], [ 126.823342147963174, 35.126825065310214 ], [ 126.82950988292373, 35.127575039448097 ], [ 126.833061534318006, 35.125644340842143 ], [ 126.834252956031548, 35.128694039490917 ], [ 126.836530301320195, 35.128812731177725 ], [ 126.83936140201989, 35.125715527074739 ], [ 126.842471337210597, 35.128163623364983 ], [ 126.843500631058475, 35.123188678505947 ], [ 126.841238416686082, 35.121753649504377 ], [ 126.844243957515133, 35.120329939741666 ], [ 126.843774718842923, 35.118487439074407 ], [ 126.843018395776397, 35.11693549306127 ], [ 126.838572889758183, 35.116681223869648 ], [ 126.837539386834521, 35.11388257858512 ] ] ] ] } },
{ "type": "Feature", "properties": { "emd_cd": "29140127", "emd_nm": "용두동" }, "geometry": { "type": "MultiPolygon", "coordinates": [ [ [ [ 126.800626792052796, 35.097292961373391 ], [ 126.80092659322797, 35.100898903193709 ], [ 126.803385453592085, 35.102818336510879 ], [ 126.805952209156857, 35.102433294122179 ], [ 126.806207992878726, 35.105736120873622 ], [ 126.818547989339194, 35.109284242542579 ], [ 126.820418022208671, 35.103847048897045 ], [ 126.826849800653761, 35.103517983196063 ], [ 126.832069540087588, 35.099969325802945 ], [ 126.828366897041477, 35.094459199235843 ], [ 126.820078824216395, 35.090933097730236 ], [ 126.816278859473897, 35.093705094009387 ], [ 126.811107951311826, 35.090937242345319 ], [ 126.806432617378903, 35.097517393614659 ], [ 126.802527060265987, 35.093481979970463 ], [ 126.800626792052796, 35.097292961373391 ] ] ] ] } },
{ "type": "Feature", "properties": { "emd_cd": "29140128", "emd_nm": "풍암동" }, "geometry": { "type": "MultiPolygon", "coordinates": [ [ [ [ 126.859933896656699, 35.121370265674173 ], [ 126.863446008378659, 35.12402241667855 ], [ 126.86089670012413, 35.124543718106324 ], [ 126.86133392521036, 35.128188217643249 ], [ 126.86715037939247, 35.128624523291705 ], [ 126.867472179421114, 35.132840890125472 ], [ 126.865164803321022, 35.136157628804575 ], [ 126.867644541414805, 35.136226776397187 ], [ 126.869936625513503, 35.133938918364102 ], [ 126.875102147773035, 35.136314459086655 ], [ 126.877839410515236, 35.134932769689335 ], [ 126.880374105913816, 35.138270303839036 ], [ 126.884345384875161, 35.137555193134496 ], [ 126.88755778246113, 35.133999082706147 ], [ 126.886374756398936, 35.130072651436052 ], [ 126.88837988325227, 35.124805097298051 ], [ 126.887644790702268, 35.116928276341234 ], [ 126.882223985736388, 35.116089660585139 ], [ 126.87332315647312, 35.119962548578918 ], [ 126.869485834568238, 35.115787706035192 ], [ 126.871033116836514, 35.113575522365231 ], [ 126.870618730597968, 35.110228927893317 ], [ 126.868587884015213, 35.110050269269976 ], [ 126.865355247730989, 35.111395354127012 ], [ 126.864518191806326, 35.11359984244514 ], [ 126.866449501863343, 35.115702105194025 ], [ 126.859933896656699, 35.121370265674173 ] ] ] ] } },
{ "type": "Feature", "properties": { "emd_cd": "29140129", "emd_nm": "벽진동" }, "geometry": { "type": "MultiPolygon", "coordinates": [ [ [ [ 126.844546973627899, 35.129905722646527 ], [ 126.83936140201989, 35.125715527074739 ], [ 126.836530301320195, 35.128812731177725 ], [ 126.834252956031548, 35.128694039490917 ], [ 126.833061534318006, 35.125644340842143 ], [ 126.828437189149696, 35.127661981497603 ], [ 126.822053755282425, 35.126175242565743 ], [ 126.818725575674179, 35.1316706783755 ], [ 126.829460753617141, 35.14084071372055 ], [ 126.833724686888843, 35.140388980742095 ], [ 126.834432619684179, 35.13780550919212 ], [ 126.843048649648836, 35.136035318674985 ], [ 126.842569819057488, 35.133410815284485 ], [ 126.839961132990055, 35.132575658825012 ], [ 126.844546973627899, 35.129905722646527 ] ] ] ] } },
{ "type": "Feature", "properties": { "emd_cd": "29140130", "emd_nm": "금호동" }, "geometry": { "type": "MultiPolygon", "coordinates": [ [ [ [ 126.844546973627899, 35.129905722646527 ], [ 126.84001999157168, 35.131983761910554 ], [ 126.840042529823577, 35.133328517536405 ], [ 126.842569819057488, 35.133410815284485 ], [ 126.84276377204128, 35.135854503479578 ], [ 126.851979817354703, 35.139709007386763 ], [ 126.854481178265715, 35.138991612080751 ], [ 126.855399649925488, 35.14113511073203 ], [ 126.861304407076616, 35.140987382177464 ], [ 126.860832992174039, 35.14247409164966 ], [ 126.863429720715544, 35.141865362182877 ], [ 126.867472179421114, 35.132840890125472 ], [ 126.866719717643278, 35.128004686215952 ], [ 126.861051615758186, 35.127820154948722 ], [ 126.86089670012413, 35.124543718106324 ], [ 126.863446008378659, 35.12402241667855 ], [ 126.860065637553433, 35.121378621746082 ], [ 126.847243249233216, 35.127127781628985 ], [ 126.848201202533147, 35.130250155083665 ], [ 126.844546973627899, 35.129905722646527 ] ] ] ] } },
{ "type": "Feature", "properties": { "emd_cd": "29140131", "emd_nm": "마륵동" }, "geometry": { "type": "MultiPolygon", "coordinates": [ [ [ [ 126.829460753617141, 35.14084071372055 ], [ 126.828836286203057, 35.149309111193624 ], [ 126.831045296126547, 35.149451316340915 ], [ 126.831492701598023, 35.148111846740001 ], [ 126.8377585792296, 35.148056358383805 ], [ 126.841048429941395, 35.143152112191785 ], [ 126.850896466698231, 35.147376472235223 ], [ 126.85473142187773, 35.139146083233719 ], [ 126.851979817354703, 35.139709007386763 ], [ 126.843166338293742, 35.135996488738989 ], [ 126.834432619684179, 35.13780550919212 ], [ 126.833724686888843, 35.140388980742095 ], [ 126.829460753617141, 35.14084071372055 ] ] ] ] } },
{ "type": "Feature", "properties": { "emd_cd": "29140132", "emd_nm": "매월동" }, "geometry": { "type": "MultiPolygon", "coordinates": [ [ [ [ 126.837329059877405, 35.110866839004935 ], [ 126.838397741535431, 35.116512416203506 ], [ 126.843018395776397, 35.11693549306127 ], [ 126.843774718842923, 35.118487439074407 ], [ 126.844243957515133, 35.120329939741666 ], [ 126.841238416686082, 35.121753649504377 ], [ 126.843500631058475, 35.123188678505947 ], [ 126.842764940960649, 35.127621192334864 ], [ 126.847199597035527, 35.130525195874448 ], [ 126.847243249233216, 35.127127781628985 ], [ 126.861467897494535, 35.120536333393993 ], [ 126.866449501863343, 35.115702105194025 ], [ 126.864518191806326, 35.11359984244514 ], [ 126.865516205404901, 35.109322792467282 ], [ 126.861259883037235, 35.110252215744026 ], [ 126.859481012245169, 35.108321882771556 ], [ 126.861195353133951, 35.107632768212596 ], [ 126.860630982516611, 35.106402801636023 ], [ 126.857190903586257, 35.105840175289721 ], [ 126.855281204675393, 35.107194292783582 ], [ 126.844015845635667, 35.104007209176245 ], [ 126.843463216087372, 35.107384197207949 ], [ 126.837329059877405, 35.110866839004935 ] ] ] ] } },
{ "type": "Feature", "properties": { "emd_cd": "29140133", "emd_nm": "동천동" }, "geometry": { "type": "MultiPolygon", "coordinates": [ [ [ [ 126.841866492390338, 35.174552127641917 ], [ 126.842872448203181, 35.176185650444445 ], [ 126.875618029198279, 35.170558866523415 ], [ 126.870292021157312, 35.167467060926697 ], [ 126.864899568356037, 35.168488284775606 ], [ 126.856256839867598, 35.167257337026449 ], [ 126.856669165569585, 35.168502552516735 ], [ 126.851124968883127, 35.168439493410233 ], [ 126.852380866554199, 35.17210313756091 ], [ 126.841866492390338, 35.174552127641917 ] ] ] ] } }
]
}
