{
"type": "FeatureCollection",
"name": "29155",
"crs": { "type": "name", "properties": { "name": "urn:ogc:def:crs:OGC:1.3:CRS84" } },
"features": [
{ "type": "Feature", "properties": { "emd_cd": "29155101", "emd_nm": "사동" }, "geometry": { "type": "MultiPolygon", "coordinates": [ [ [ [ 126.909959078064176, 35.144572588446579 ], [ 126.912652323388727, 35.145858275681661 ], [ 126.915980802962295, 35.142859918341848 ], [ 126.911487360323761, 35.141678188129141 ], [ 126.909959078064176, 35.144572588446579 ] ] ] ] } },
{ "type": "Feature", "properties": { "emd_cd": "29155102", "emd_nm": "구동" }, "geometry": { "type": "MultiPolygon", "coordinates": [ [ [ [ 126.909845282902651, 35.144493372443307 ], [ 126.907283812441591, 35.148311301521446 ], [ 126.909732778717853, 35.149192343575372 ], [ 126.912652543245486, 35.145857924313944 ], [ 126.909845282902651, 35.144493372443307 ] ] ] ] } },
{ "type": "Feature", "properties": { "emd_cd": "29155103", "emd_nm": "서동" }, "geometry": { "type": "MultiPolygon", "coordinates": [ [ [ [ 126.903274090766629, 35.14352008145562 ], [ 126.905367513314701, 35.148295709364021 ], [ 126.907599053670225, 35.148808877952462 ], [ 126.910988453176614, 35.140804816858392 ], [ 126.910230257645679, 35.139338308972569 ], [ 126.908166070267981, 35.140599620064613 ], [ 126.907756000933915, 35.143325411497294 ], [ 126.903274090766629, 35.14352008145562 ] ] ] ] } },
{ "type": "Feature", "properties": { "emd_cd": "29155104", "emd_nm": "월산동" }, "geometry": { "type": "MultiPolygon", "coordinates": [ [ [ [ 126.902173233198411, 35.140086152307248 ], [ 126.893418416356468, 35.136139267223918 ], [ 126.885406424330043, 35.146567603988572 ], [ 126.894302732095397, 35.151464710320703 ], [ 126.900980494274734, 35.152400574233624 ], [ 126.905352668483161, 35.148274389550046 ], [ 126.902173233198411, 35.140086152307248 ] ] ] ] } },
{ "type": "Feature", "properties": { "emd_cd": "29155105", "emd_nm": "백운동" }, "geometry": { "type": "MultiPolygon", "coordinates": [ [ [ [ 126.895010599732061, 35.135925828205508 ], [ 126.902174702712628, 35.140086865582596 ], [ 126.903269562297993, 35.143517112325625 ], [ 126.907759906972487, 35.143325847167539 ], [ 126.90817011915712, 35.140599767397525 ], [ 126.910291353018081, 35.139320102455045 ], [ 126.908685249942295, 35.136293577891401 ], [ 126.911117712194212, 35.136655137612841 ], [ 126.911749510589729, 35.13467348558904 ], [ 126.901652860760905, 35.133296251551371 ], [ 126.89880301853772, 35.135088619145847 ], [ 126.89622733367608, 35.134337923519141 ], [ 126.895010599732061, 35.135925828205508 ] ] ] ] } },
{ "type": "Feature", "properties": { "emd_cd": "29155106", "emd_nm": "주월동" }, "geometry": { "type": "MultiPolygon", "coordinates": [ [ [ [ 126.883206204350969, 35.138375439665012 ], [ 126.885678097838934, 35.141386391858731 ], [ 126.888522963633264, 35.141666089549496 ], [ 126.896230112854198, 35.134335429171031 ], [ 126.898805797663016, 35.135086124738955 ], [ 126.901983563406432, 35.133653668318956 ], [ 126.906056487128737, 35.125282195810719 ], [ 126.903640225252815, 35.124454328240432 ], [ 126.90355416427181, 35.122385990827858 ], [ 126.896836079106762, 35.126137479179945 ], [ 126.88841008306521, 35.121256961195591 ], [ 126.886380949352017, 35.13006913300444 ], [ 126.887531680675465, 35.133943210068672 ], [ 126.883206204350969, 35.138375439665012 ] ] ] ] } },
{ "type": "Feature", "properties": { "emd_cd": "29155107", "emd_nm": "노대동" }, "geometry": { "type": "MultiPolygon", "coordinates": [ [ [ [ 126.895773414704735, 35.101307172920677 ], [ 126.902802044354672, 35.106551819761755 ], [ 126.90006672082211, 35.106570962123442 ], [ 126.898984538521077, 35.110820827912519 ], [ 126.904452095982407, 35.111583360402456 ], [ 126.90497577588016, 35.109469112693809 ], [ 126.906490176333932, 35.108973865231476 ], [ 126.912505284697986, 35.110471134852091 ], [ 126.914239450047376, 35.108857037602846 ], [ 126.914541935640543, 35.105157750419821 ], [ 126.917844308929986, 35.102049019892945 ], [ 126.918240512565475, 35.09901536825295 ], [ 126.921326612909496, 35.097216468521118 ], [ 126.919406706897519, 35.091666443970297 ], [ 126.910645613921758, 35.088660019515075 ], [ 126.90973859469284, 35.091670506779764 ], [ 126.904866437252835, 35.096494753238339 ], [ 126.897446581726072, 35.096877005866247 ], [ 126.895773414704735, 35.101307172920677 ] ] ] ] } },
{ "type": "Feature", "properties": { "emd_cd": "29155108", "emd_nm": "진월동" }, "geometry": { "type": "MultiPolygon", "coordinates": [ [ [ [ 126.887645382874382, 35.116928421114672 ], [ 126.888407049172429, 35.121261338973667 ], [ 126.896840780650876, 35.126141440201849 ], [ 126.902826707149515, 35.12327479055331 ], [ 126.905081174591743, 35.117233238792508 ], [ 126.909034086097662, 35.117418526023641 ], [ 126.913551326178009, 35.113707179808557 ], [ 126.912123678234494, 35.110023598872502 ], [ 126.909819006871899, 35.109352726642982 ], [ 126.90497577588016, 35.109469112693809 ], [ 126.904452095982407, 35.111583360402456 ], [ 126.898984538521077, 35.110820827912519 ], [ 126.90006672082211, 35.106570962123442 ], [ 126.902802044354672, 35.106551819761755 ], [ 126.896984841388289, 35.106069631958079 ], [ 126.895574914043607, 35.103186718850225 ], [ 126.892805276820766, 35.102061766727338 ], [ 126.891331358797345, 35.104516180463577 ], [ 126.894428643482314, 35.104538837460396 ], [ 126.89264423534577, 35.105933792604318 ], [ 126.896147845549038, 35.109537716725029 ], [ 126.895651196583344, 35.11317074265078 ], [ 126.887645382874382, 35.116928421114672 ] ] ] ] } },
{ "type": "Feature", "properties": { "emd_cd": "29155109", "emd_nm": "덕남동" }, "geometry": { "type": "MultiPolygon", "coordinates": [ [ [ [ 126.885299196684997, 35.08993207013598 ], [ 126.885232320103356, 35.094249367206444 ], [ 126.887732884274001, 35.095360450557827 ], [ 126.892595935699546, 35.096373069558446 ], [ 126.894984564080843, 35.094938732241765 ], [ 126.897405694306073, 35.096973353559704 ], [ 126.902612510693942, 35.097397473399724 ], [ 126.909772231450987, 35.091687865439347 ], [ 126.910745977827403, 35.087449255464044 ], [ 126.905841844595315, 35.082066259616106 ], [ 126.899927699093027, 35.080732742253396 ], [ 126.899477528418643, 35.085898710688021 ], [ 126.891770416721002, 35.087935875961406 ], [ 126.888157976957203, 35.090696039131238 ], [ 126.885299196684997, 35.08993207013598 ] ] ] ] } },
{ "type": "Feature", "properties": { "emd_cd": "29155110", "emd_nm": "행암동" }, "geometry": { "type": "MultiPolygon", "coordinates": [ [ [ [ 126.876945201675639, 35.092426698364946 ], [ 126.878933191691772, 35.102525176861221 ], [ 126.885505668157876, 35.102990062595531 ], [ 126.886045976972824, 35.105027493803163 ], [ 126.889017389606295, 35.106588964946638 ], [ 126.894265395118993, 35.104972644982013 ], [ 126.891331358797345, 35.104516180463577 ], [ 126.892805276820766, 35.102061766727338 ], [ 126.895574914043607, 35.103186718850225 ], [ 126.896984841388289, 35.106069631958079 ], [ 126.900213345965057, 35.105338968056081 ], [ 126.895773414704735, 35.101307172920677 ], [ 126.897372058009637, 35.096955991485814 ], [ 126.894950929133728, 35.094921369492809 ], [ 126.892562300672438, 35.096355706150966 ], [ 126.887699250696798, 35.095343085801261 ], [ 126.885307897878334, 35.094346209981488 ], [ 126.884777360498447, 35.092339653066425 ], [ 126.876945201675639, 35.092426698364946 ] ] ] ] } },
{ "type": "Feature", "properties": { "emd_cd": "29155111", "emd_nm": "임암동" }, "geometry": { "type": "MultiPolygon", "coordinates": [ [ [ [ 126.859495191780823, 35.108367913851332 ], [ 126.861280082522256, 35.110242540454585 ], [ 126.864024943848207, 35.109082070613198 ], [ 126.866527860567643, 35.110615608507786 ], [ 126.871205833336148, 35.110353560149434 ], [ 126.876577213381864, 35.10542977397003 ], [ 126.877909846101176, 35.107726032356396 ], [ 126.876944958644032, 35.092427860874501 ], [ 126.873839219852798, 35.092476731715131 ], [ 126.869208304178315, 35.100313565119819 ], [ 126.86667368078264, 35.099260263907354 ], [ 126.862341742499623, 35.10058605339453 ], [ 126.861223505096973, 35.107590562988563 ], [ 126.859495191780823, 35.108367913851332 ] ] ] ] } },
{ "type": "Feature", "properties": { "emd_cd": "29155112", "emd_nm": "송하동" }, "geometry": { "type": "MultiPolygon", "coordinates": [ [ [ [ 126.868005727558796, 35.113005516017772 ], [ 126.870859150472583, 35.113831366530306 ], [ 126.869486858065841, 35.11575843097566 ], [ 126.874315393506421, 35.119999836767661 ], [ 126.882231054608411, 35.116094210390898 ], [ 126.885617600462183, 35.117145882881687 ], [ 126.892984493511236, 35.115508742071924 ], [ 126.895651196583344, 35.11317074265078 ], [ 126.896147845549038, 35.109537716725029 ], [ 126.89264423534577, 35.105933792604318 ], [ 126.886801361691809, 35.10553741663611 ], [ 126.885505668157876, 35.102990062595531 ], [ 126.878933191691772, 35.102525176861221 ], [ 126.87789702086711, 35.100050444951854 ], [ 126.878574949306014, 35.102932139931156 ], [ 126.876779838098273, 35.103321507876281 ], [ 126.877911502975692, 35.107725628431815 ], [ 126.876578134638123, 35.105429829000371 ], [ 126.868005727558796, 35.113005516017772 ] ] ] ] } },
{ "type": "Feature", "properties": { "emd_cd": "29155113", "emd_nm": "양림동" }, "geometry": { "type": "MultiPolygon", "coordinates": [ [ [ [ 126.908683099553343, 35.136293386960752 ], [ 126.910459508817965, 35.141690625800898 ], [ 126.915838952638765, 35.143109322712306 ], [ 126.92073266019861, 35.137691748844645 ], [ 126.91549699520985, 35.134425749332067 ], [ 126.911576410273227, 35.134075991590244 ], [ 126.911115287596488, 35.136654838358169 ], [ 126.908683099553343, 35.136293386960752 ] ] ] ] } },
{ "type": "Feature", "properties": { "emd_cd": "29155114", "emd_nm": "방림동" }, "geometry": { "type": "MultiPolygon", "coordinates": [ [ [ [ 126.911040600835591, 35.134030858791206 ], [ 126.916265627848276, 35.134683250923842 ], [ 126.92073266019861, 35.137691748844645 ], [ 126.929630377031856, 35.126425123747183 ], [ 126.924482798722167, 35.124687047290621 ], [ 126.92107886788142, 35.128780640584459 ], [ 126.916129118757667, 35.127363215775205 ], [ 126.911040600835591, 35.134030858791206 ] ] ] ] } },
{ "type": "Feature", "properties": { "emd_cd": "29155115", "emd_nm": "봉선동" }, "geometry": { "type": "MultiPolygon", "coordinates": [ [ [ [ 126.911043113451328, 35.134030869678639 ], [ 126.913687291024075, 35.132083400976832 ], [ 126.91459887241038, 35.128122677663264 ], [ 126.916733629273935, 35.12728520344605 ], [ 126.921082752080423, 35.128780336697382 ], [ 126.923939895958512, 35.126396940208231 ], [ 126.924567290355341, 35.123642776977235 ], [ 126.91888128679058, 35.117303479063217 ], [ 126.911959009474501, 35.115626210722063 ], [ 126.908553368280209, 35.117586226297774 ], [ 126.905083568281682, 35.117231329811361 ], [ 126.904161864113874, 35.11870858092459 ], [ 126.903637446636623, 35.124456822763477 ], [ 126.906053708557877, 35.125284690388895 ], [ 126.901619342304357, 35.133259277298812 ], [ 126.911043113451328, 35.134030869678639 ] ] ] ] } },
{ "type": "Feature", "properties": { "emd_cd": "29155116", "emd_nm": "구소동" }, "geometry": { "type": "MultiPolygon", "coordinates": [ [ [ [ 126.809569865929319, 35.060809440464588 ], [ 126.814835143987082, 35.053925803161668 ], [ 126.807435943347599, 35.050895442349621 ], [ 126.80357514465301, 35.052421110798832 ], [ 126.801460629936585, 35.058152453752101 ], [ 126.798019867491618, 35.059293101608475 ], [ 126.804023461002558, 35.061739820577216 ], [ 126.805945612027486, 35.061247073089298 ], [ 126.805005495575202, 35.060053252969333 ], [ 126.80620182113087, 35.058775747039064 ], [ 126.809569865929319, 35.060809440464588 ] ] ] ] } },
{ "type": "Feature", "properties": { "emd_cd": "29155117", "emd_nm": "양촌동" }, "geometry": { "type": "MultiPolygon", "coordinates": [ [ [ [ 126.794314063692966, 35.060806302150404 ], [ 126.791385867222772, 35.060446660780748 ], [ 126.788404360971967, 35.057813643162369 ], [ 126.787060185510569, 35.060455931685198 ], [ 126.783811548381422, 35.059312793803649 ], [ 126.778275425575899, 35.067631550618955 ], [ 126.77330112579007, 35.06634560334934 ], [ 126.770288379530726, 35.069535853586871 ], [ 126.782502370139625, 35.072560536869723 ], [ 126.785210680574593, 35.071158237636602 ], [ 126.791352367181148, 35.071563999318215 ], [ 126.792824454076467, 35.068702297489118 ], [ 126.794914610818694, 35.069426948598277 ], [ 126.796369188328342, 35.066702252403338 ], [ 126.799774680672442, 35.064958355219723 ], [ 126.801848684286853, 35.06098177283323 ], [ 126.797504787486034, 35.058963057528594 ], [ 126.794314063692966, 35.060806302150404 ] ] ] ] } },
{ "type": "Feature", "properties": { "emd_cd": "29155118", "emd_nm": "도금동" }, "geometry": { "type": "MultiPolygon", "coordinates": [ [ [ [ 126.837299604010042, 35.080689757522414 ], [ 126.84501217626557, 35.080931951891721 ], [ 126.84632477586463, 35.078599453578668 ], [ 126.853015578030536, 35.080490002226327 ], [ 126.855572813041221, 35.077963107332266 ], [ 126.853447819609485, 35.073838903038023 ], [ 126.844265162029629, 35.070380131342489 ], [ 126.836992215220718, 35.074369454500122 ], [ 126.836437864138389, 35.07669676673347 ], [ 126.834729454745471, 35.077236160302306 ], [ 126.837596917471458, 35.078924971447769 ], [ 126.837299604010042, 35.080689757522414 ] ] ] ] } },
{ "type": "Feature", "properties": { "emd_cd": "29155119", "emd_nm": "승촌동" }, "geometry": { "type": "MultiPolygon", "coordinates": [ [ [ [ 126.78865694447417, 35.05832563040142 ], [ 126.788472226010711, 35.058198015202599 ], [ 126.78869377699543, 35.058397425803051 ], [ 126.78865694447417, 35.05832563040142 ] ] ], [ [ [ 126.756736982565016, 35.058244374239173 ], [ 126.753175781064883, 35.06475602560851 ], [ 126.754138172251473, 35.066851935273817 ], [ 126.758036045327628, 35.068631118711231 ], [ 126.766997389204661, 35.06818127570353 ], [ 126.770288379530726, 35.069535853586871 ], [ 126.77330112579007, 35.06634560334934 ], [ 126.778275425575899, 35.067631550618955 ], [ 126.78144619983135, 35.061504437608257 ], [ 126.783811548381422, 35.059312793803649 ], [ 126.787060185510569, 35.060455931685198 ], [ 126.788404360971967, 35.057813643162369 ], [ 126.781585033126731, 35.053846033255937 ], [ 126.773382768920683, 35.052837414653311 ], [ 126.767477056401717, 35.05569938727168 ], [ 126.768629043109385, 35.060657246276747 ], [ 126.766285544629937, 35.063882610071218 ], [ 126.760515836205713, 35.062987400449991 ], [ 126.756736982565016, 35.058244374239173 ] ] ] ] } },
{ "type": "Feature", "properties": { "emd_cd": "29155120", "emd_nm": "지석동" }, "geometry": { "type": "MultiPolygon", "coordinates": [ [ [ [ 126.825387945036027, 35.080787093403778 ], [ 126.828096963355719, 35.079750838407961 ], [ 126.828984618813408, 35.086017811871109 ], [ 126.83497448110586, 35.08639689411919 ], [ 126.833138499945449, 35.087391214548681 ], [ 126.834655554654546, 35.088550778439995 ], [ 126.837067842430258, 35.085191768240506 ], [ 126.840135600821512, 35.086436704893337 ], [ 126.840279647409417, 35.088059189132316 ], [ 126.841981430448428, 35.087663792919138 ], [ 126.840515172169049, 35.086659233105699 ], [ 126.842102195567691, 35.084901928807433 ], [ 126.841350218960159, 35.082207968045523 ], [ 126.837299604010042, 35.080689757522414 ], [ 126.837596917471458, 35.078924971447769 ], [ 126.83506646997688, 35.077512792339753 ], [ 126.832719954841579, 35.078516664374959 ], [ 126.827610899457824, 35.076318312496191 ], [ 126.827688507588149, 35.073379079688983 ], [ 126.825387945036027, 35.080787093403778 ] ] ] ] } },
{ "type": "Feature", "properties": { "emd_cd": "29155121", "emd_nm": "압촌동" }, "geometry": { "type": "MultiPolygon", "coordinates": [ [ [ [ 126.822098649228835, 35.091928466050788 ], [ 126.828351438135186, 35.094436372698048 ], [ 126.831412808309508, 35.098010729629188 ], [ 126.836584797228355, 35.098652547257792 ], [ 126.837206650383166, 35.100380734155621 ], [ 126.841802943372215, 35.098646621464887 ], [ 126.843994998696502, 35.095127810030789 ], [ 126.84186307710047, 35.092634413434482 ], [ 126.842163684761573, 35.088103717678955 ], [ 126.840279647409417, 35.088059189132316 ], [ 126.840135600821512, 35.086436704893337 ], [ 126.837002688585585, 35.085206236952772 ], [ 126.834655554654546, 35.088550778439995 ], [ 126.833138499945449, 35.087391214548681 ], [ 126.83497448110586, 35.08639689411919 ], [ 126.828984618813408, 35.086017811871109 ], [ 126.827887387716729, 35.079664557524083 ], [ 126.823543277230414, 35.080923193961489 ], [ 126.823913031949587, 35.089081710455432 ], [ 126.822098649228835, 35.091928466050788 ] ] ] ] } },
{ "type": "Feature", "properties": { "emd_cd": "29155122", "emd_nm": "화장동" }, "geometry": { "type": "MultiPolygon", "coordinates": [ [ [ [ 126.811748720168765, 35.084967480606053 ], [ 126.807877052087264, 35.085002384428272 ], [ 126.80629114905831, 35.081104085006217 ], [ 126.807621757980087, 35.07993173186204 ], [ 126.806426036650137, 35.079235007470324 ], [ 126.812954868720681, 35.07870719614008 ], [ 126.814667527705524, 35.076013069742785 ], [ 126.816560659656488, 35.076664952893928 ], [ 126.816447505320468, 35.074065973048498 ], [ 126.811456520324882, 35.069909290485711 ], [ 126.802266199571292, 35.069128432990489 ], [ 126.793540138888261, 35.072323797846423 ], [ 126.794958305518165, 35.069442319157936 ], [ 126.792824454076467, 35.068702297489118 ], [ 126.791352367181148, 35.071563999318215 ], [ 126.785210680574593, 35.071158237636602 ], [ 126.782502370139625, 35.072560536869723 ], [ 126.78610926975395, 35.074922809765631 ], [ 126.795986437945999, 35.087995459833124 ], [ 126.80221894397674, 35.091617528785385 ], [ 126.806487814893231, 35.097568382265798 ], [ 126.811091469722399, 35.090946302214732 ], [ 126.808100465227994, 35.08623392231123 ], [ 126.811347961317651, 35.086607641385527 ], [ 126.811748720168765, 35.084967480606053 ] ] ] ] } },
{ "type": "Feature", "properties": { "emd_cd": "29155123", "emd_nm": "칠석동" }, "geometry": { "type": "MultiPolygon", "coordinates": [ [ [ [ 126.832719954841579, 35.078516664374959 ], [ 126.84143253870532, 35.071291693524643 ], [ 126.848257103449555, 35.071058955288315 ], [ 126.844133565275413, 35.065442489565086 ], [ 126.836829471447601, 35.066217393516126 ], [ 126.835964862147989, 35.063856870724443 ], [ 126.829097451552471, 35.062132881518352 ], [ 126.825626246105756, 35.064887445444739 ], [ 126.824980068651911, 35.068750269669664 ], [ 126.827672696870607, 35.071211866908129 ], [ 126.82741093268352, 35.07597626408009 ], [ 126.832719954841579, 35.078516664374959 ] ] ] ] } },
{ "type": "Feature", "properties": { "emd_cd": "29155124", "emd_nm": "석정동" }, "geometry": { "type": "MultiPolygon", "coordinates": [ [ [ [ 126.823127943815678, 35.082485315650651 ], [ 126.817490763629422, 35.079797447106273 ], [ 126.816560659656488, 35.076664952893928 ], [ 126.814667527705524, 35.076013069742785 ], [ 126.812954868720681, 35.07870719614008 ], [ 126.806426036650137, 35.079235007470324 ], [ 126.807877052087264, 35.085002384428272 ], [ 126.81195018647594, 35.08527761227969 ], [ 126.811347961317651, 35.086607641385527 ], [ 126.808100465227994, 35.08623392231123 ], [ 126.808608561922156, 35.088643633709125 ], [ 126.814899745110793, 35.093484057534447 ], [ 126.820069088686353, 35.090996313784828 ], [ 126.822098649228835, 35.091928466050788 ], [ 126.823638680463034, 35.090259462423234 ], [ 126.823127943815678, 35.082485315650651 ] ] ] ] } },
{ "type": "Feature", "properties": { "emd_cd": "29155125", "emd_nm": "신장동" }, "geometry": { "type": "MultiPolygon", "coordinates": [ [ [ [ 126.814320886151677, 35.063758779537253 ], [ 126.826180813369689, 35.064554958405907 ], [ 126.829122001978931, 35.062109480837499 ], [ 126.82652745165727, 35.062471407551051 ], [ 126.821858741509601, 35.059948121754786 ], [ 126.818583375447659, 35.052769150099394 ], [ 126.81454478649934, 35.053290666642454 ], [ 126.813383946753902, 35.054285371839875 ], [ 126.814581274407701, 35.055313078018173 ], [ 126.809544960126587, 35.060837271350465 ], [ 126.814320886151677, 35.063758779537253 ] ] ] ] } },
{ "type": "Feature", "properties": { "emd_cd": "29155126", "emd_nm": "양과동" }, "geometry": { "type": "MultiPolygon", "coordinates": [ [ [ [ 126.88812366607354, 35.0906781059888 ], [ 126.899483280273842, 35.08588522209174 ], [ 126.899115605625354, 35.08120804400717 ], [ 126.895145371414728, 35.080720280954274 ], [ 126.892013721340888, 35.077955846732614 ], [ 126.885440637982001, 35.081543411462711 ], [ 126.871687377650389, 35.07436392762898 ], [ 126.862174940650917, 35.076974876157763 ], [ 126.864932523025587, 35.080185186599891 ], [ 126.863097565854545, 35.083137439697794 ], [ 126.864780732336428, 35.085533183123708 ], [ 126.863437534319118, 35.086237728008498 ], [ 126.8634081452945, 35.090651764381057 ], [ 126.86622589508643, 35.09641932830781 ], [ 126.865804546395069, 35.099540411793548 ], [ 126.867476294149824, 35.100205618782958 ], [ 126.872046651353799, 35.097420864497998 ], [ 126.873839219852798, 35.092476731715131 ], [ 126.884779437015908, 35.092352364292267 ], [ 126.885264250847342, 35.089914036425078 ], [ 126.88812366607354, 35.0906781059888 ] ] ] ] } },
{ "type": "Feature", "properties": { "emd_cd": "29155127", "emd_nm": "이장동" }, "geometry": { "type": "MultiPolygon", "coordinates": [ [ [ [ 126.864631951547835, 35.085354986889101 ], [ 126.863097565854545, 35.083137439697794 ], [ 126.864853904819952, 35.080908669038486 ], [ 126.863979775065914, 35.077767856266263 ], [ 126.861105337289345, 35.078942874800788 ], [ 126.855576765658469, 35.078107988560213 ], [ 126.848565905026987, 35.088685467487608 ], [ 126.851821078711069, 35.089874640059264 ], [ 126.851019018636322, 35.091941141413834 ], [ 126.853484786789139, 35.092785326978216 ], [ 126.853208991460562, 35.094231326492149 ], [ 126.855474132822337, 35.094356100584939 ], [ 126.860501856755832, 35.099643853153992 ], [ 126.863953384192897, 35.100647660718998 ], [ 126.86635912047727, 35.098888597638293 ], [ 126.864877908567323, 35.091765107113261 ], [ 126.8634081452945, 35.090651764381057 ], [ 126.864631951547835, 35.085354986889101 ] ] ] ] } },
{ "type": "Feature", "properties": { "emd_cd": "29155128", "emd_nm": "대지동" }, "geometry": { "type": "MultiPolygon", "coordinates": [ [ [ [ 126.825387945036027, 35.080787093403778 ], [ 126.827672696870607, 35.071211866908129 ], [ 126.825000312913502, 35.068941190490158 ], [ 126.826064668558047, 35.064244251576262 ], [ 126.82506258291869, 35.063580014545039 ], [ 126.817180296830216, 35.063769826347752 ], [ 126.812212264820175, 35.070606010778704 ], [ 126.816447505320468, 35.074065973048498 ], [ 126.817490763629422, 35.079797447106273 ], [ 126.823127943815678, 35.082485315650651 ], [ 126.825387945036027, 35.080787093403778 ] ] ] ] } },
{ "type": "Feature", "properties": { "emd_cd": "29155129", "emd_nm": "원산동" }, "geometry": { "type": "MultiPolygon", "coordinates": [ [ [ [ 126.860625579348564, 35.106355663178242 ], [ 126.86265403209562, 35.10324213015722 ], [ 126.862068757601264, 35.100907859748126 ], [ 126.863953384192897, 35.100647660718998 ], [ 126.860501856755832, 35.099643853153992 ], [ 126.855474132822337, 35.094356100584939 ], [ 126.853208991460562, 35.094231326492149 ], [ 126.853484786789139, 35.092785326978216 ], [ 126.851019018636322, 35.091941141413834 ], [ 126.851821078711069, 35.089874640059264 ], [ 126.848565905026987, 35.088685467487608 ], [ 126.853421681317172, 35.082546142351092 ], [ 126.852868705085328, 35.080306800226865 ], [ 126.84632477586463, 35.078599453578668 ], [ 126.84501217626557, 35.080931951891721 ], [ 126.840297804686799, 35.081664124111576 ], [ 126.842102195567691, 35.084901928807433 ], [ 126.840515172169049, 35.086659233105699 ], [ 126.842163684761573, 35.088103717678955 ], [ 126.84186307710047, 35.092634413434482 ], [ 126.843994998696502, 35.095127810030789 ], [ 126.841802943372215, 35.098646621464887 ], [ 126.837206650383166, 35.100380734155621 ], [ 126.837652040145898, 35.101809931875522 ], [ 126.84107625630574, 35.101053588149256 ], [ 126.847731649208313, 35.105780267128395 ], [ 126.855251547725885, 35.10719313934289 ], [ 126.857156966514182, 35.105840675728381 ], [ 126.860625579348564, 35.106355663178242 ] ] ] ] } },
{ "type": "Feature", "properties": { "emd_cd": "29155130", "emd_nm": "월성동" }, "geometry": { "type": "MultiPolygon", "coordinates": [ [ [ [ 126.793436030844049, 35.072287240267151 ], [ 126.802266199571292, 35.069128432990489 ], [ 126.812349515243852, 35.070598094481916 ], [ 126.817180296830216, 35.063769826347752 ], [ 126.814191692368141, 35.063714602503907 ], [ 126.80620182113087, 35.058775747039064 ], [ 126.805005495575202, 35.060053252969333 ], [ 126.805870859877345, 35.06132041403562 ], [ 126.801848684286853, 35.06098177283323 ], [ 126.799774680672442, 35.064958355219723 ], [ 126.796369188328342, 35.066702252403338 ], [ 126.793436030844049, 35.072287240267151 ] ] ] ] } }
]
}
