{
"type": "FeatureCollection",
"name": "46110",
"crs": { "type": "name", "properties": { "name": "urn:ogc:def:crs:OGC:1.3:CRS84" } },
"features": [
{ "type": "Feature", "properties": { "emd_cd": "46110101", "emd_nm": "용당동" }, "geometry": { "type": "MultiPolygon", "coordinates": [ [ [ [ 126.388983690183821, 34.813281643445258 ], [ 126.395004011920207, 34.813340132790159 ], [ 126.395579931931863, 34.810224891348184 ], [ 126.400104517429867, 34.810422075327551 ], [ 126.404900544118647, 34.805256117412881 ], [ 126.403501321087347, 34.804197644591078 ], [ 126.404845428745389, 34.801522297859854 ], [ 126.403265791080543, 34.799566324290446 ], [ 126.404648012562149, 34.797537948852501 ], [ 126.404042783155234, 34.793496304913369 ], [ 126.400402842271731, 34.795993917351176 ], [ 126.395922751322999, 34.795974660759221 ], [ 126.39369412543121, 34.802793540568985 ], [ 126.387320585316218, 34.807517925606653 ], [ 126.388983690183821, 34.813281643445258 ] ] ] ] } },
{ "type": "Feature", "properties": { "emd_cd": "46110102", "emd_nm": "산정동" }, "geometry": { "type": "MultiPolygon", "coordinates": [ [ [ [ 126.391669286883882, 34.788312226362009 ], [ 126.39482832139727, 34.787059236776365 ], [ 126.392792085520128, 34.791753598235637 ], [ 126.389384634886227, 34.791786089679363 ], [ 126.390184398327335, 34.797436275317487 ], [ 126.385777110608771, 34.797387273567828 ], [ 126.384319457956167, 34.802663855473234 ], [ 126.378763050176218, 34.800382732182221 ], [ 126.375230171718755, 34.802661571100408 ], [ 126.370680745452702, 34.802174657268282 ], [ 126.371664646498871, 34.803735728808796 ], [ 126.369440231733378, 34.802068952213304 ], [ 126.366970778389188, 34.803537355337284 ], [ 126.368544959258742, 34.805204979476031 ], [ 126.363056786126805, 34.807138988166948 ], [ 126.370289063262376, 34.813340674268808 ], [ 126.37413325509894, 34.809594014241398 ], [ 126.378207009646303, 34.812581681113258 ], [ 126.381411449376628, 34.809663825278484 ], [ 126.378064140527627, 34.806928815660157 ], [ 126.381303163156844, 34.80599039603878 ], [ 126.384399614122358, 34.808954963383108 ], [ 126.384116288772645, 34.810433659901534 ], [ 126.388983690183821, 34.813281643445265 ], [ 126.387320585316218, 34.807517925606653 ], [ 126.39369412543121, 34.802793540568985 ], [ 126.395922751322999, 34.795974660759221 ], [ 126.400402842271703, 34.795993917351176 ], [ 126.404340547051191, 34.793280873018254 ], [ 126.408466416047688, 34.792909720213864 ], [ 126.406745721617256, 34.789834474455283 ], [ 126.409533209535439, 34.786168619871205 ], [ 126.409803958406627, 34.784024890504497 ], [ 126.409094040376715, 34.786018763484456 ], [ 126.404077582163367, 34.784311612213941 ], [ 126.402731389426592, 34.785482254344117 ], [ 126.401148076246272, 34.783133350823988 ], [ 126.387724717165042, 34.780906370732829 ], [ 126.389972746388977, 34.785213249542331 ], [ 126.393282041363221, 34.787098529430978 ], [ 126.391669286883882, 34.788312226362009 ] ] ] ] } },
{ "type": "Feature", "properties": { "emd_cd": "46110103", "emd_nm": "연산동" }, "geometry": { "type": "MultiPolygon", "coordinates": [ [ [ [ 126.369923613699754, 34.814417539846055 ], [ 126.376848247660277, 34.823583374404635 ], [ 126.384188285222976, 34.828107586004187 ], [ 126.38236066384593, 34.828787941382821 ], [ 126.385482138399468, 34.829113229527366 ], [ 126.38197126580998, 34.83014012822612 ], [ 126.392669718264884, 34.829003028563733 ], [ 126.395149172044853, 34.827149756352419 ], [ 126.395290246825596, 34.825107422043573 ], [ 126.39280496657797, 34.824651452624934 ], [ 126.39140913826914, 34.821232570193025 ], [ 126.39414903456688, 34.81739964115841 ], [ 126.39131128816777, 34.813537881903294 ], [ 126.384116288772645, 34.810433659901555 ], [ 126.384399614122358, 34.808954963383094 ], [ 126.381303163156844, 34.80599039603878 ], [ 126.378064140527627, 34.806928815660171 ], [ 126.381411449376628, 34.809663825278484 ], [ 126.378207009646331, 34.812581681113286 ], [ 126.37413325509894, 34.809594014241398 ], [ 126.370640975421225, 34.811886263376401 ], [ 126.369923613699754, 34.814417539846055 ] ] ] ] } },
{ "type": "Feature", "properties": { "emd_cd": "46110104", "emd_nm": "대성동" }, "geometry": { "type": "MultiPolygon", "coordinates": [ [ [ [ 126.37880811500473, 34.800401684572236 ], [ 126.384319457956167, 34.802663855473234 ], [ 126.385777110608771, 34.797387273567828 ], [ 126.384761877094462, 34.795778858765516 ], [ 126.382175466362241, 34.796237830833469 ], [ 126.37880811500473, 34.800401684572236 ] ] ] ] } },
{ "type": "Feature", "properties": { "emd_cd": "46110105", "emd_nm": "양동" }, "geometry": { "type": "MultiPolygon", "coordinates": [ [ [ [ 126.378573787423434, 34.796523168060112 ], [ 126.380735840481321, 34.798961934221708 ], [ 126.381396740567524, 34.796595612324396 ], [ 126.384794212511054, 34.795571558611194 ], [ 126.379127639402839, 34.794998478665242 ], [ 126.378573787423434, 34.796523168060112 ] ] ] ] } },
{ "type": "Feature", "properties": { "emd_cd": "46110106", "emd_nm": "북교동" }, "geometry": { "type": "MultiPolygon", "coordinates": [ [ [ [ 126.378573787423434, 34.796523168060112 ], [ 126.380634685041031, 34.792778911005506 ], [ 126.378445815409478, 34.791091511586771 ], [ 126.376470997952836, 34.794029150907015 ], [ 126.378573787423434, 34.796523168060112 ] ] ] ] } },
{ "type": "Feature", "properties": { "emd_cd": "46110107", "emd_nm": "남교동" }, "geometry": { "type": "MultiPolygon", "coordinates": [ [ [ [ 126.384085909880483, 34.79431764984556 ], [ 126.383658281288035, 34.792456722974428 ], [ 126.381457958254373, 34.792483890341536 ], [ 126.379083459296893, 34.795019219116277 ], [ 126.384085909880483, 34.79431764984556 ] ] ] ] } },
{ "type": "Feature", "properties": { "emd_cd": "46110108", "emd_nm": "호남동" }, "geometry": { "type": "MultiPolygon", "coordinates": [ [ [ [ 126.391861788200202, 34.7892497724309 ], [ 126.385656598604797, 34.790212145138995 ], [ 126.386809301469611, 34.79368375552054 ], [ 126.384085909880511, 34.794317649845567 ], [ 126.387221436253228, 34.798230907169319 ], [ 126.390184398327335, 34.79743627531748 ], [ 126.389384634886227, 34.791786089679363 ], [ 126.391699505219108, 34.791764364448468 ], [ 126.391861788200202, 34.7892497724309 ] ] ] ] } },
{ "type": "Feature", "properties": { "emd_cd": "46110109", "emd_nm": "대안동" }, "geometry": { "type": "MultiPolygon", "coordinates": [ [ [ [ 126.386075831758362, 34.793828616984634 ], [ 126.384985577886212, 34.790611247013537 ], [ 126.384242728306873, 34.790779107713661 ], [ 126.384875845547199, 34.794106762146136 ], [ 126.386075831758362, 34.793828616984634 ] ] ] ] } },
{ "type": "Feature", "properties": { "emd_cd": "46110110", "emd_nm": "창평동" }, "geometry": { "type": "MultiPolygon", "coordinates": [ [ [ [ 126.384079674290433, 34.791716160004206 ], [ 126.38405852606752, 34.794323694496988 ], [ 126.384875845547199, 34.794106762146129 ], [ 126.384079674290433, 34.791716160004206 ] ] ] ] } },
{ "type": "Feature", "properties": { "emd_cd": "46110111", "emd_nm": "명륜동" }, "geometry": { "type": "MultiPolygon", "coordinates": [ [ [ [ 126.385656598604797, 34.790212145138995 ], [ 126.384242728306873, 34.790779107713661 ], [ 126.386809301469611, 34.79368375552054 ], [ 126.386202225194339, 34.79184038234888 ], [ 126.385656598604797, 34.790212145138995 ] ] ] ] } },
{ "type": "Feature", "properties": { "emd_cd": "46110112", "emd_nm": "죽동" }, "geometry": { "type": "MultiPolygon", "coordinates": [ [ [ [ 126.379501861554928, 34.791818564943298 ], [ 126.383658281288064, 34.792456722974414 ], [ 126.384489969314998, 34.790060050493146 ], [ 126.381113579563731, 34.789712342638964 ], [ 126.379501861554928, 34.791818564943298 ] ] ] ] } },
{ "type": "Feature", "properties": { "emd_cd": "46110113", "emd_nm": "무안동" }, "geometry": { "type": "MultiPolygon", "coordinates": [ [ [ [ 126.383262820620004, 34.789915767916433 ], [ 126.385876656228689, 34.788808728403126 ], [ 126.383442663151826, 34.78801182529817 ], [ 126.383262820620004, 34.789915767916433 ] ] ] ] } },
{ "type": "Feature", "properties": { "emd_cd": "46110114", "emd_nm": "측후동" }, "geometry": { "type": "MultiPolygon", "coordinates": [ [ [ [ 126.383262820620004, 34.789915767916433 ], [ 126.38346707768082, 34.788510553792747 ], [ 126.381044100899516, 34.78877547043092 ], [ 126.381355122473892, 34.789705253427698 ], [ 126.383262820620004, 34.789915767916433 ] ] ] ] } },
{ "type": "Feature", "properties": { "emd_cd": "46110115", "emd_nm": "상락동1가" }, "geometry": { "type": "MultiPolygon", "coordinates": [ [ [ [ 126.3866000771649, 34.788255522785761 ], [ 126.387336497525695, 34.790073181844235 ], [ 126.388339794595424, 34.789792894670249 ], [ 126.3866000771649, 34.788255522785761 ] ] ] ] } },
{ "type": "Feature", "properties": { "emd_cd": "46110116", "emd_nm": "상락동2가" }, "geometry": { "type": "MultiPolygon", "coordinates": [ [ [ [ 126.384489969314998, 34.790060050493146 ], [ 126.386476537617838, 34.79031044038733 ], [ 126.387336497525695, 34.790073181844235 ], [ 126.385876656228689, 34.788808728403126 ], [ 126.384489969314998, 34.790060050493146 ] ] ] ] } },
{ "type": "Feature", "properties": { "emd_cd": "46110117", "emd_nm": "복만동" }, "geometry": { "type": "MultiPolygon", "coordinates": [ [ [ [ 126.385876656228689, 34.788808728403126 ], [ 126.38529951589949, 34.787075678021502 ], [ 126.384312824382064, 34.787372483971893 ], [ 126.385876656228689, 34.788808728403126 ] ] ] ] } },
{ "type": "Feature", "properties": { "emd_cd": "46110118", "emd_nm": "동명동" }, "geometry": { "type": "MultiPolygon", "coordinates": [ [ [ [ 126.391699505219108, 34.791764364448468 ], [ 126.392762095117931, 34.789575993079715 ], [ 126.393766210253474, 34.790290702292729 ], [ 126.39482832139727, 34.787059236776351 ], [ 126.388823920706415, 34.789021757926065 ], [ 126.391861788200202, 34.7892497724309 ], [ 126.391699505219108, 34.791764364448468 ] ] ] ] } },
{ "type": "Feature", "properties": { "emd_cd": "46110119", "emd_nm": "광동1가" }, "geometry": { "type": "MultiPolygon", "coordinates": [ [ [ [ 126.390350140920873, 34.787220173700277 ], [ 126.390076274594833, 34.788606085483508 ], [ 126.391114993698437, 34.787823760746242 ], [ 126.390350140920873, 34.787220173700277 ] ] ] ] } },
{ "type": "Feature", "properties": { "emd_cd": "46110120", "emd_nm": "광동2가" }, "geometry": { "type": "MultiPolygon", "coordinates": [ [ [ [ 126.389382596203276, 34.787977034005216 ], [ 126.388823920706415, 34.789021757926065 ], [ 126.389724906003067, 34.788345476751836 ], [ 126.389382596203276, 34.787977034005216 ] ] ] ] } },
{ "type": "Feature", "properties": { "emd_cd": "46110121", "emd_nm": "광동3가" }, "geometry": { "type": "MultiPolygon", "coordinates": [ [ [ [ 126.388456541610907, 34.788695515803198 ], [ 126.388339794595424, 34.789792894670249 ], [ 126.389303857074523, 34.789455343814325 ], [ 126.388456541610907, 34.788695515803198 ] ] ] ] } },
{ "type": "Feature", "properties": { "emd_cd": "46110122", "emd_nm": "영해동1가" }, "geometry": { "type": "MultiPolygon", "coordinates": [ [ [ [ 126.385546398795299, 34.786091859540868 ], [ 126.387800841670398, 34.785737071924729 ], [ 126.387020798633188, 34.784982169913746 ], [ 126.385546398795299, 34.786091859540868 ] ] ] ] } },
{ "type": "Feature", "properties": { "emd_cd": "46110123", "emd_nm": "영해동2가" }, "geometry": { "type": "MultiPolygon", "coordinates": [ [ [ [ 126.384824385679238, 34.786642506335674 ], [ 126.386199350435234, 34.786696605769592 ], [ 126.385546398795299, 34.786091859540868 ], [ 126.384824385679238, 34.786642506335674 ] ] ] ] } },
{ "type": "Feature", "properties": { "emd_cd": "46110124", "emd_nm": "행복동1가" }, "geometry": { "type": "MultiPolygon", "coordinates": [ [ [ [ 126.387800841670398, 34.785737071924729 ], [ 126.38695096148507, 34.78733958779943 ], [ 126.388558311143356, 34.786157231595269 ], [ 126.387800841670398, 34.785737071924729 ] ] ] ] } },
{ "type": "Feature", "properties": { "emd_cd": "46110125", "emd_nm": "행복동2가" }, "geometry": { "type": "MultiPolygon", "coordinates": [ [ [ [ 126.38547670591511, 34.787235048342367 ], [ 126.38695096148507, 34.78733958779943 ], [ 126.386211974937183, 34.786687069750784 ], [ 126.38547670591511, 34.787235048342367 ] ] ] ] } },
{ "type": "Feature", "properties": { "emd_cd": "46110126", "emd_nm": "축복동1가" }, "geometry": { "type": "MultiPolygon", "coordinates": [ [ [ [ 126.389494302855553, 34.786694428426287 ], [ 126.389168488115388, 34.788137198252244 ], [ 126.390350140920873, 34.787220173700277 ], [ 126.389494302855553, 34.786694428426287 ] ] ] ] } },
{ "type": "Feature", "properties": { "emd_cd": "46110127", "emd_nm": "축복동2가" }, "geometry": { "type": "MultiPolygon", "coordinates": [ [ [ [ 126.387709298289394, 34.788026064191527 ], [ 126.389168488115388, 34.788137198252244 ], [ 126.388430784697221, 34.78747184623407 ], [ 126.387709298289394, 34.788026064191527 ] ] ] ] } },
{ "type": "Feature", "properties": { "emd_cd": "46110128", "emd_nm": "축복동3가" }, "geometry": { "type": "MultiPolygon", "coordinates": [ [ [ [ 126.387740276063795, 34.789245595637375 ], [ 126.387709298289394, 34.788026064191527 ], [ 126.386978514497301, 34.788584782866558 ], [ 126.387740276063795, 34.789245595637375 ] ] ] ] } },
{ "type": "Feature", "properties": { "emd_cd": "46110129", "emd_nm": "보광동1가" }, "geometry": { "type": "MultiPolygon", "coordinates": [ [ [ [ 126.388430784697221, 34.78747184623407 ], [ 126.388558311143356, 34.786157231595269 ], [ 126.387670726010839, 34.786794965409982 ], [ 126.388430784697221, 34.78747184623407 ] ] ] ] } },
{ "type": "Feature", "properties": { "emd_cd": "46110130", "emd_nm": "보광동2가" }, "geometry": { "type": "MultiPolygon", "coordinates": [ [ [ [ 126.387709298289394, 34.788026064191527 ], [ 126.387670726010839, 34.786794965409982 ], [ 126.38695096148507, 34.78733958779943 ], [ 126.387709298289394, 34.788026064191527 ] ] ] ] } },
{ "type": "Feature", "properties": { "emd_cd": "46110131", "emd_nm": "보광동3가" }, "geometry": { "type": "MultiPolygon", "coordinates": [ [ [ [ 126.38695096148507, 34.78733958779943 ], [ 126.386978514497301, 34.788584782866558 ], [ 126.387709298289394, 34.788026064191527 ], [ 126.38695096148507, 34.78733958779943 ] ] ] ] } },
{ "type": "Feature", "properties": { "emd_cd": "46110132", "emd_nm": "유달동" }, "geometry": { "type": "MultiPolygon", "coordinates": [ [ [ [ 126.380994398860011, 34.788623666251191 ], [ 126.381208623161541, 34.787154129252073 ], [ 126.375932601198443, 34.783977285778995 ], [ 126.377859973209794, 34.785381058057872 ], [ 126.380994398860011, 34.788623666251191 ] ] ] ] } },
{ "type": "Feature", "properties": { "emd_cd": "46110133", "emd_nm": "대의동1가" }, "geometry": { "type": "MultiPolygon", "coordinates": [ [ [ [ 126.384312824382064, 34.787372483971893 ], [ 126.384671439605171, 34.786508460803567 ], [ 126.383979718962109, 34.786580508934883 ], [ 126.384312824382064, 34.787372483971893 ] ] ] ] } },
{ "type": "Feature", "properties": { "emd_cd": "46110134", "emd_nm": "대의동2가" }, "geometry": { "type": "MultiPolygon", "coordinates": [ [ [ [ 126.381208623161541, 34.787154129252073 ], [ 126.381044100899516, 34.78877547043092 ], [ 126.384518028533037, 34.787860356533393 ], [ 126.383979718962109, 34.786580508934883 ], [ 126.381208623161541, 34.787154129252073 ] ] ] ] } },
{ "type": "Feature", "properties": { "emd_cd": "46110135", "emd_nm": "대의동3가" }, "geometry": { "type": "MultiPolygon", "coordinates": [ [ [ [ 126.381309994666935, 34.786457536692829 ], [ 126.380420051221265, 34.787097431701007 ], [ 126.381208623161569, 34.78715412925208 ], [ 126.381309994666935, 34.786457536692829 ] ] ] ] } },
{ "type": "Feature", "properties": { "emd_cd": "46110136", "emd_nm": "중앙동1가" }, "geometry": { "type": "MultiPolygon", "coordinates": [ [ [ [ 126.383528122074907, 34.785621273249511 ], [ 126.38466300863675, 34.786622453132694 ], [ 126.384671439605171, 34.786508460803567 ], [ 126.383528122074907, 34.785621273249511 ] ] ] ] } },
{ "type": "Feature", "properties": { "emd_cd": "46110137", "emd_nm": "중앙동2가" }, "geometry": { "type": "MultiPolygon", "coordinates": [ [ [ [ 126.381358252544445, 34.785793375915681 ], [ 126.383179035831716, 34.786538181092595 ], [ 126.383222631515352, 34.785886254750011 ], [ 126.381358252544445, 34.785793375915681 ] ] ] ] } },
{ "type": "Feature", "properties": { "emd_cd": "46110138", "emd_nm": "중앙동3가" }, "geometry": { "type": "MultiPolygon", "coordinates": [ [ [ [ 126.379765701501469, 34.786391565568415 ], [ 126.381358252544445, 34.785793375915681 ], [ 126.379250754787321, 34.785691140755858 ], [ 126.379765701501469, 34.786391565568415 ] ] ] ] } },
{ "type": "Feature", "properties": { "emd_cd": "46110139", "emd_nm": "만호동" }, "geometry": { "type": "MultiPolygon", "coordinates": [ [ [ [ 126.383938681775916, 34.786233057726854 ], [ 126.384808255806263, 34.784061875316702 ], [ 126.383826811452366, 34.784361426442615 ], [ 126.383938681775916, 34.786233057726854 ] ] ] ] } },
{ "type": "Feature", "properties": { "emd_cd": "46110140", "emd_nm": "수강동1가" }, "geometry": { "type": "MultiPolygon", "coordinates": [ [ [ [ 126.386747589110286, 34.784594093578356 ], [ 126.385546398795299, 34.786091859540868 ], [ 126.387020798633188, 34.784982169913746 ], [ 126.386747589110286, 34.784594093578356 ] ] ] ] } },
{ "type": "Feature", "properties": { "emd_cd": "46110141", "emd_nm": "수강동2가" }, "geometry": { "type": "MultiPolygon", "coordinates": [ [ [ [ 126.384398603470643, 34.786261800542675 ], [ 126.385546398795299, 34.786091859540868 ], [ 126.385168412327829, 34.78575126675576 ], [ 126.384398603470643, 34.786261800542675 ] ] ] ] } },
{ "type": "Feature", "properties": { "emd_cd": "46110142", "emd_nm": "해안동1가" }, "geometry": { "type": "MultiPolygon", "coordinates": [ [ [ [ 126.382276484624953, 34.779504332447786 ], [ 126.382049213545201, 34.783176701004777 ], [ 126.383011056347698, 34.783338955806173 ], [ 126.38364567097652, 34.78108548862614 ], [ 126.382276484624953, 34.779504332447786 ] ] ] ] } },
{ "type": "Feature", "properties": { "emd_cd": "46110143", "emd_nm": "해안동2가" }, "geometry": { "type": "MultiPolygon", "coordinates": [ [ [ [ 126.381771440639525, 34.780961279328224 ], [ 126.382049213545201, 34.783176701004777 ], [ 126.382133476594575, 34.781007623238395 ], [ 126.381771440639525, 34.780961279328224 ] ] ] ] } },
{ "type": "Feature", "properties": { "emd_cd": "46110144", "emd_nm": "해안동3가" }, "geometry": { "type": "MultiPolygon", "coordinates": [ [ [ [ 126.381247481339088, 34.783041133337676 ], [ 126.38088963716541, 34.781031720600524 ], [ 126.380755699153795, 34.782956906870346 ], [ 126.381247481339088, 34.783041133337676 ] ] ] ] } },
{ "type": "Feature", "properties": { "emd_cd": "46110145", "emd_nm": "해안동4가" }, "geometry": { "type": "MultiPolygon", "coordinates": [ [ [ [ 126.37976978399567, 34.780508328929351 ], [ 126.378919800879274, 34.782384712978192 ], [ 126.380389464908617, 34.782670848312272 ], [ 126.381265321675997, 34.780665893959551 ], [ 126.37976978399567, 34.780508328929351 ] ] ] ] } },
{ "type": "Feature", "properties": { "emd_cd": "46110146", "emd_nm": "항동" }, "geometry": { "type": "MultiPolygon", "coordinates": [ [ [ [ 126.38364567097652, 34.78108548862614 ], [ 126.38281440954195, 34.784305159168227 ], [ 126.38589406878377, 34.785195624467903 ], [ 126.386747589110286, 34.784594093578356 ], [ 126.38364567097652, 34.78108548862614 ] ] ] ] } },
{ "type": "Feature", "properties": { "emd_cd": "46110147", "emd_nm": "중동1가" }, "geometry": { "type": "MultiPolygon", "coordinates": [ [ [ [ 126.382322215654909, 34.78459506855269 ], [ 126.383592674313149, 34.785339438258113 ], [ 126.383749955163026, 34.784665724963872 ], [ 126.382322215654909, 34.78459506855269 ] ] ] ] } },
{ "type": "Feature", "properties": { "emd_cd": "46110148", "emd_nm": "중동2가" }, "geometry": { "type": "MultiPolygon", "coordinates": [ [ [ [ 126.379470847193687, 34.78522154982425 ], [ 126.382322215654909, 34.784595068552697 ], [ 126.379480844422318, 34.784909998888857 ], [ 126.379470847193687, 34.78522154982425 ] ] ] ] } },
{ "type": "Feature", "properties": { "emd_cd": "46110149", "emd_nm": "유동" }, "geometry": { "type": "MultiPolygon", "coordinates": [ [ [ [ 126.380696643858897, 34.783890943409389 ], [ 126.383011056347698, 34.783338955806173 ], [ 126.380755699153795, 34.782956906870346 ], [ 126.380696643858897, 34.783890943409389 ] ] ] ] } },
{ "type": "Feature", "properties": { "emd_cd": "46110150", "emd_nm": "금동1가" }, "geometry": { "type": "MultiPolygon", "coordinates": [ [ [ [ 126.382368182339448, 34.783990648731589 ], [ 126.383749955163054, 34.78466572496388 ], [ 126.383826811452366, 34.784361426442615 ], [ 126.382368182339448, 34.783990648731589 ] ] ] ] } },
{ "type": "Feature", "properties": { "emd_cd": "46110151", "emd_nm": "금동2가" }, "geometry": { "type": "MultiPolygon", "coordinates": [ [ [ [ 126.380645108215603, 34.784506466330306 ], [ 126.382369623264609, 34.783964488655336 ], [ 126.380696643858897, 34.783890943409389 ], [ 126.380645108215603, 34.784506466330306 ] ] ] ] } },
{ "type": "Feature", "properties": { "emd_cd": "46110152", "emd_nm": "경동1가" }, "geometry": { "type": "MultiPolygon", "coordinates": [ [ [ [ 126.383222631515352, 34.785886254750011 ], [ 126.381403280220866, 34.785170942034007 ], [ 126.381358252544445, 34.785793375915681 ], [ 126.383222631515352, 34.785886254750011 ] ] ] ] } },
{ "type": "Feature", "properties": { "emd_cd": "46110153", "emd_nm": "경동2가" }, "geometry": { "type": "MultiPolygon", "coordinates": [ [ [ [ 126.381403280220866, 34.785170942033993 ], [ 126.379250754787321, 34.785691140755858 ], [ 126.381358252544445, 34.785793375915681 ], [ 126.381403280220866, 34.785170942033993 ] ] ] ] } },
{ "type": "Feature", "properties": { "emd_cd": "46110154", "emd_nm": "서산동" }, "geometry": { "type": "MultiPolygon", "coordinates": [ [ [ [ 126.371870932566736, 34.780494266880879 ], [ 126.375932601198443, 34.783977285778981 ], [ 126.380625239499153, 34.78474208792499 ], [ 126.379274809972046, 34.781736308724312 ], [ 126.376892357982172, 34.78201671084404 ], [ 126.375369766097265, 34.7799514365595 ], [ 126.371870932566736, 34.780494266880879 ] ] ] ] } },
{ "type": "Feature", "properties": { "emd_cd": "46110155", "emd_nm": "금화동" }, "geometry": { "type": "MultiPolygon", "coordinates": [ [ [ [ 126.376930421534254, 34.782032608349027 ], [ 126.37976978399567, 34.780508328929351 ], [ 126.375127603909903, 34.780538610644946 ], [ 126.376930421534254, 34.782032608349027 ] ] ] ] } },
{ "type": "Feature", "properties": { "emd_cd": "46110156", "emd_nm": "온금동" }, "geometry": { "type": "MultiPolygon", "coordinates": [ [ [ [ 126.368093469632299, 34.783181029458454 ], [ 126.374464018017605, 34.784893152535737 ], [ 126.375321900792827, 34.789096291700389 ], [ 126.380994398860011, 34.788623666251198 ], [ 126.371829757590291, 34.780354626687433 ], [ 126.36909488410754, 34.780838155887679 ], [ 126.368093469632299, 34.783181029458454 ] ] ] ] } },
{ "type": "Feature", "properties": { "emd_cd": "46110157", "emd_nm": "죽교동" }, "geometry": { "type": "MultiPolygon", "coordinates": [ [ [ [ 126.349658485360536, 34.796469767811033 ], [ 126.357997600187858, 34.803833766312358 ], [ 126.356818678989072, 34.802248567638685 ], [ 126.359952450152704, 34.799609365500963 ], [ 126.365412060753641, 34.803948031630796 ], [ 126.362518985545279, 34.806302157482577 ], [ 126.359756378147551, 34.805402821488336 ], [ 126.362680869662128, 34.806891090294449 ], [ 126.364618411234105, 34.805448820372256 ], [ 126.36406224849199, 34.80780166677809 ], [ 126.36854495925877, 34.805204979476031 ], [ 126.366970778389188, 34.803537355337284 ], [ 126.369440231733407, 34.802068952213283 ], [ 126.3716646464989, 34.803735728808817 ], [ 126.370680745452702, 34.802174657268274 ], [ 126.375230171718783, 34.802661571100394 ], [ 126.378406681607402, 34.800866297538867 ], [ 126.379968157185232, 34.79866228008494 ], [ 126.376470230172018, 34.793977398167847 ], [ 126.37841082632518, 34.791110793533441 ], [ 126.381295984254308, 34.791114646216627 ], [ 126.381355122473892, 34.789705253427698 ], [ 126.380994398860011, 34.788623666251198 ], [ 126.374758109308672, 34.788828453871979 ], [ 126.374464018017605, 34.784893152535737 ], [ 126.368093469632299, 34.783181029458454 ], [ 126.368139978006752, 34.786288996499067 ], [ 126.36588505694975, 34.789830047408977 ], [ 126.355586660282114, 34.79535678434079 ], [ 126.354821945565817, 34.793655680184678 ], [ 126.350907485426916, 34.797090565096518 ], [ 126.349658485360536, 34.796469767811033 ] ] ], [ [ [ 126.357866297363813, 34.805899601399666 ], [ 126.36000639279122, 34.806204210684029 ], [ 126.360025494339041, 34.806142286905434 ], [ 126.357866297363813, 34.805899601399666 ] ] ] ] } },
{ "type": "Feature", "properties": { "emd_cd": "46110158", "emd_nm": "상동" }, "geometry": { "type": "MultiPolygon", "coordinates": [ [ [ [ 126.422785955543787, 34.813440071349483 ], [ 126.431861532781411, 34.800214181985616 ], [ 126.434077680642275, 34.801229855228463 ], [ 126.436666854935027, 34.797325345832462 ], [ 126.426378802144541, 34.793373424114584 ], [ 126.426327289986133, 34.796438222485378 ], [ 126.421072250124581, 34.795635603847423 ], [ 126.414043937741113, 34.798458923592165 ], [ 126.407538508420586, 34.811823860950796 ], [ 126.408767854050211, 34.81337358213986 ], [ 126.404648161137217, 34.824946721628933 ], [ 126.406444043365752, 34.826370622253819 ], [ 126.408764547175579, 34.824873205648373 ], [ 126.411199610651167, 34.82561252492993 ], [ 126.415308161249314, 34.817944167027811 ], [ 126.420293016376007, 34.816755175243607 ], [ 126.420617306563486, 34.812958746075218 ], [ 126.422785955543787, 34.813440071349483 ] ] ] ] } },
{ "type": "Feature", "properties": { "emd_cd": "46110159", "emd_nm": "용해동" }, "geometry": { "type": "MultiPolygon", "coordinates": [ [ [ [ 126.404042783155234, 34.793496304913369 ], [ 126.404648012562149, 34.797537948852501 ], [ 126.403265791080543, 34.799566324290446 ], [ 126.404845428745389, 34.801522297859854 ], [ 126.403501321087347, 34.804197644591078 ], [ 126.404900544118647, 34.805256117412881 ], [ 126.400104517429867, 34.810422075327551 ], [ 126.395579931931863, 34.810224891348184 ], [ 126.395004011920207, 34.813340132790159 ], [ 126.39131128816777, 34.813537881903294 ], [ 126.39414903456688, 34.81739964115841 ], [ 126.391479542250877, 34.821601572305099 ], [ 126.39280496657797, 34.824651452624934 ], [ 126.395290246825596, 34.825107422043573 ], [ 126.395462075023048, 34.828351141159345 ], [ 126.398431144776595, 34.824546708759726 ], [ 126.405396414317494, 34.823231245568685 ], [ 126.407281678265889, 34.819396660102548 ], [ 126.406245509176031, 34.817602800683737 ], [ 126.408767854050211, 34.81337358213986 ], [ 126.407538508420586, 34.811823860950781 ], [ 126.414043937741113, 34.798458923592165 ], [ 126.42107225012461, 34.795635603847423 ], [ 126.426835304866216, 34.795549198505171 ], [ 126.425795122907459, 34.792096365997764 ], [ 126.424511624565753, 34.79356422937613 ], [ 126.42014594002768, 34.791136804174776 ], [ 126.411284163134397, 34.793201628457737 ], [ 126.414775220006518, 34.788574699982021 ], [ 126.409546257753135, 34.786151385579856 ], [ 126.406745721617256, 34.789834474455283 ], [ 126.408466416047716, 34.792909720213878 ], [ 126.404042783155234, 34.793496304913369 ] ] ] ] } },
{ "type": "Feature", "properties": { "emd_cd": "46110160", "emd_nm": "석현동" }, "geometry": { "type": "MultiPolygon", "coordinates": [ [ [ [ 126.410251272630049, 34.828802761095226 ], [ 126.417920140971304, 34.829514253780829 ], [ 126.421145268285301, 34.832544674113649 ], [ 126.426679280727413, 34.82943596295447 ], [ 126.432435060131368, 34.829271002999675 ], [ 126.433391944195535, 34.831953046772206 ], [ 126.43879722649686, 34.833358828160407 ], [ 126.439028634790574, 34.827803362959962 ], [ 126.437356806280008, 34.82436848973807 ], [ 126.439074066564842, 34.821020908682158 ], [ 126.433237083445562, 34.821169518662181 ], [ 126.431409705132992, 34.818927302253982 ], [ 126.427379552038175, 34.819147125632753 ], [ 126.427750749577442, 34.814534617973223 ], [ 126.420617306563486, 34.812958746075218 ], [ 126.421096142201208, 34.815578737908879 ], [ 126.415308161249314, 34.817944167027811 ], [ 126.410251272630049, 34.828802761095226 ] ] ] ] } },
{ "type": "Feature", "properties": { "emd_cd": "46110161", "emd_nm": "달동" }, "geometry": { "type": "MultiPolygon", "coordinates": [ [ [ [ 126.369258922295131, 34.758008738776006 ], [ 126.369590022490783, 34.757443705071587 ], [ 126.369202242508422, 34.757234254503977 ], [ 126.369258922295131, 34.758008738776006 ] ] ], [ [ [ 126.358803321449429, 34.76682514121844 ], [ 126.357779480276676, 34.77427073205827 ], [ 126.356024849870678, 34.775161888637314 ], [ 126.357157206857664, 34.777626196528566 ], [ 126.354622426929836, 34.77838105707751 ], [ 126.355977949908024, 34.780504347143875 ], [ 126.354981312360593, 34.782914839623785 ], [ 126.3579256479549, 34.778814075577429 ], [ 126.365010234620115, 34.77420629948373 ], [ 126.366882208568654, 34.774787309390575 ], [ 126.375404726044962, 34.770617037444268 ], [ 126.374291693009326, 34.768355797997209 ], [ 126.371743132791536, 34.767752313431878 ], [ 126.373316078457734, 34.766389976541042 ], [ 126.370985603898617, 34.76403140629818 ], [ 126.372462918226873, 34.759323265483879 ], [ 126.367563546198781, 34.758356436707089 ], [ 126.365249368956952, 34.760210462994173 ], [ 126.361934407759136, 34.751840804035247 ], [ 126.358482590441255, 34.752131493189069 ], [ 126.361114593488665, 34.74698494217062 ], [ 126.359535617135592, 34.744199682054678 ], [ 126.350456576031348, 34.750578796393128 ], [ 126.350096241869807, 34.766175864129401 ], [ 126.358803321449429, 34.76682514121844 ] ] ], [ [ [ 126.305158593673369, 34.769292814150901 ], [ 126.305802871773395, 34.775071197866382 ], [ 126.30899065508639, 34.782380615013267 ], [ 126.311757492354687, 34.780488416762829 ], [ 126.315336514672708, 34.78130563752169 ], [ 126.315136225001609, 34.782877060739509 ], [ 126.316657169890419, 34.783200525239835 ], [ 126.315702898464394, 34.784855527686503 ], [ 126.318526918428574, 34.785448705029268 ], [ 126.319834094909439, 34.788200593364202 ], [ 126.328510301049945, 34.781805362157407 ], [ 126.331096760243085, 34.783522994600844 ], [ 126.326608913922087, 34.779620904100845 ], [ 126.329116170933943, 34.777470368974996 ], [ 126.328407846739495, 34.775343394673385 ], [ 126.322288851448377, 34.773671681685663 ], [ 126.319929319641901, 34.764166102905911 ], [ 126.321018247065808, 34.763386495041786 ], [ 126.318567551908032, 34.759225665589305 ], [ 126.308111671818097, 34.762839030253559 ], [ 126.305158593673369, 34.769292814150901 ] ] ], [ [ [ 126.298351557912468, 34.773527910498593 ], [ 126.29883843576458, 34.774018029388778 ], [ 126.298980508682618, 34.774012160858703 ], [ 126.298351557912468, 34.773527910498593 ] ] ], [ [ [ 126.289781995035824, 34.777431273224785 ], [ 126.295207695997973, 34.783859494458248 ], [ 126.297519348281369, 34.78367200891384 ], [ 126.296554810567258, 34.782291056499972 ], [ 126.297801342152326, 34.781519199065706 ], [ 126.302176261202959, 34.781786077109835 ], [ 126.300640825698608, 34.779147424396683 ], [ 126.301259764360921, 34.776460109526717 ], [ 126.295876925923551, 34.776118722597154 ], [ 126.294319042412397, 34.778284452177921 ], [ 126.289781995035824, 34.777431273224785 ] ] ], [ [ [ 126.323224906533255, 34.787535928713567 ], [ 126.324033082868809, 34.787465928934161 ], [ 126.323707584844854, 34.786883073741919 ], [ 126.323224906533255, 34.787535928713567 ] ] ] ] } },
{ "type": "Feature", "properties": { "emd_cd": "46110162", "emd_nm": "율도동" }, "geometry": { "type": "MultiPolygon", "coordinates": [ [ [ [ 126.333440180468756, 34.787254337705399 ], [ 126.334209126165973, 34.787073977466228 ], [ 126.333553500035308, 34.786895485830925 ], [ 126.333440180468756, 34.787254337705399 ] ] ], [ [ [ 126.334497250143201, 34.78876516347961 ], [ 126.335718583281505, 34.788892526604869 ], [ 126.340672659468382, 34.794822375087293 ], [ 126.338471654877338, 34.785556531131618 ], [ 126.339075263968525, 34.782125208822457 ], [ 126.338226609918038, 34.785647399456593 ], [ 126.334497250143201, 34.78876516347961 ] ] ], [ [ [ 126.316748757634514, 34.790952285034138 ], [ 126.318145054635153, 34.789666370383244 ], [ 126.316286648557664, 34.78846896940091 ], [ 126.315700692895973, 34.789866641435516 ], [ 126.316748757634514, 34.790952285034138 ] ] ], [ [ [ 126.331225661232168, 34.794950471373674 ], [ 126.333307115210147, 34.793582782816294 ], [ 126.332323077096802, 34.789756684292392 ], [ 126.331225661232168, 34.794950471373674 ] ] ], [ [ [ 126.313945026382584, 34.79280041408466 ], [ 126.316786096722396, 34.795806324801866 ], [ 126.317396508452106, 34.798866400718907 ], [ 126.315804818590095, 34.801474049026069 ], [ 126.318635522786778, 34.802696835742715 ], [ 126.317096893045147, 34.805019238158074 ], [ 126.314813072734168, 34.80435449376936 ], [ 126.316133744287797, 34.808603761622187 ], [ 126.324564967699928, 34.811967517824016 ], [ 126.326286896092611, 34.815444436465953 ], [ 126.328939604809861, 34.815456961829064 ], [ 126.331408285498952, 34.808044144724356 ], [ 126.332818601724028, 34.807870975052069 ], [ 126.330892081929832, 34.804683398167533 ], [ 126.330906893137694, 34.799609858034628 ], [ 126.332717199721415, 34.798735070777752 ], [ 126.332693682369168, 34.796408886204873 ], [ 126.330245042062899, 34.796404602561871 ], [ 126.329453949511063, 34.794605125950973 ], [ 126.328197280676164, 34.796009167568378 ], [ 126.320530844763638, 34.796137578723183 ], [ 126.319466837849788, 34.79541629098793 ], [ 126.320794261825128, 34.794973929223993 ], [ 126.316950388810241, 34.794595695886933 ], [ 126.315707750316562, 34.792397251705914 ], [ 126.313945026382584, 34.79280041408466 ] ] ] ] } },
{ "type": "Feature", "properties": { "emd_cd": "46110163", "emd_nm": "대양동" }, "geometry": { "type": "MultiPolygon", "coordinates": [ [ [ [ 126.386365028787338, 34.829388535243069 ], [ 126.388222643387536, 34.836735139811594 ], [ 126.397048294212695, 34.838103673981074 ], [ 126.400839100087055, 34.841867439444798 ], [ 126.400282525007825, 34.843529979537756 ], [ 126.40073517182293, 34.843974164183642 ], [ 126.401202800227196, 34.842176047729708 ], [ 126.404185181831636, 34.841904077389493 ], [ 126.40582271753064, 34.843213488941572 ], [ 126.410914942310569, 34.842217983534411 ], [ 126.412435549336337, 34.843831470046794 ], [ 126.419219563224956, 34.844363279390272 ], [ 126.42017663411994, 34.841295565665675 ], [ 126.422688151022015, 34.842526429654399 ], [ 126.425056957734952, 34.838815880977627 ], [ 126.435918355218504, 34.837595179001013 ], [ 126.439046155417216, 34.834094006124374 ], [ 126.433391944195535, 34.831953046772206 ], [ 126.432114458609249, 34.829228850654026 ], [ 126.426679280727413, 34.829435962954456 ], [ 126.420164579297008, 34.832438018772187 ], [ 126.417920140971304, 34.829514253780808 ], [ 126.410251272630049, 34.828802761095226 ], [ 126.411199610651167, 34.825612524929937 ], [ 126.408764547175579, 34.82487320564838 ], [ 126.406444043365752, 34.826370622253819 ], [ 126.403805799648623, 34.823990208613722 ], [ 126.398431144776595, 34.824546708759726 ], [ 126.395462075023048, 34.828351141159345 ], [ 126.386365028787338, 34.829388535243069 ] ] ] ] } },
{ "type": "Feature", "properties": { "emd_cd": "46110164", "emd_nm": "옥암동" }, "geometry": { "type": "MultiPolygon", "coordinates": [ [ [ [ 126.422785955543787, 34.813440071349483 ], [ 126.427751808766899, 34.814533180742622 ], [ 126.427292375161443, 34.819085482972731 ], [ 126.43142954171428, 34.818925925910129 ], [ 126.431301932364747, 34.8203666857058 ], [ 126.433238164301358, 34.82116810852817 ], [ 126.453047890371224, 34.818481245730865 ], [ 126.454830220599419, 34.816792017846588 ], [ 126.455098096166765, 34.810811172190547 ], [ 126.457575515925413, 34.810822268724678 ], [ 126.457968602833461, 34.80814625868819 ], [ 126.459424593085245, 34.808585239845122 ], [ 126.458335584898535, 34.793282654434044 ], [ 126.445493404954192, 34.791362273366822 ], [ 126.440987821939942, 34.799391903805649 ], [ 126.436666854935027, 34.797325345832462 ], [ 126.434077680642275, 34.801229855228463 ], [ 126.431861532781411, 34.800214181985616 ], [ 126.422785955543787, 34.813440071349483 ] ] ] ] } }
]
}
