{
"type": "FeatureCollection",
"name": "46710",
"crs": { "type": "name", "properties": { "name": "urn:ogc:def:crs:OGC:1.3:CRS84" } },
"features": [
{ "type": "Feature", "properties": { "emd_cd": "46710250", "emd_nm": "담양읍" }, "geometry": { "type": "MultiPolygon", "coordinates": [ [ [ [ 126.931658579084058, 35.335493150657982 ], [ 126.939199674708632, 35.334466671706515 ], [ 126.94253045016886, 35.336621134667929 ], [ 126.947718403814292, 35.33592225518646 ], [ 126.952847519550119, 35.333571860488 ], [ 126.958012980550066, 35.328147224688067 ], [ 126.968238503532049, 35.327633471517338 ], [ 126.970445302197575, 35.33479205667917 ], [ 126.981023148212842, 35.340278965001161 ], [ 126.984637348299344, 35.345430937354351 ], [ 126.995563464822624, 35.350981877012316 ], [ 126.996745965730867, 35.348503336966253 ], [ 127.004218920163851, 35.349935233387477 ], [ 127.007869288229045, 35.346401860406836 ], [ 127.010955654397321, 35.347050007849631 ], [ 127.014363092481588, 35.34350086302171 ], [ 127.016957170814408, 35.342938319286709 ], [ 127.016317126980908, 35.34041980378052 ], [ 127.010689731440394, 35.341082624410191 ], [ 127.010035438456256, 35.339871252956591 ], [ 127.01369101393071, 35.336162002089836 ], [ 127.016158720481698, 35.336441309711567 ], [ 127.017776895654137, 35.334635615940321 ], [ 127.020847114548033, 35.337145351087621 ], [ 127.021526010884941, 35.333913601188556 ], [ 127.018650835231, 35.333217633441144 ], [ 127.018784947165912, 35.33167663122375 ], [ 127.02205471866111, 35.329935526242473 ], [ 127.023285443172583, 35.328072786160917 ], [ 127.022011160461787, 35.326751210547819 ], [ 127.024751055421106, 35.324841769928526 ], [ 127.022102131070284, 35.323009578067229 ], [ 127.022139521368473, 35.320758968860154 ], [ 127.014396816844396, 35.318669987696545 ], [ 127.017440067851126, 35.310414404414765 ], [ 127.016713624683092, 35.308738120367444 ], [ 127.014337006913649, 35.308229622330607 ], [ 127.01315442417355, 35.310664014555854 ], [ 127.004800787788426, 35.312693207105795 ], [ 126.999851545098934, 35.303990793024617 ], [ 127.002498988044394, 35.29932811312873 ], [ 126.998412567247769, 35.294177606686858 ], [ 126.984672822102894, 35.295737052349715 ], [ 126.984649887093667, 35.293934561453767 ], [ 126.980298408800692, 35.29000808117349 ], [ 126.974775144307785, 35.289852104537793 ], [ 126.974402482582192, 35.297305208043845 ], [ 126.96696716468, 35.298355408185621 ], [ 126.964669283037949, 35.296056547190801 ], [ 126.961209613861499, 35.301323009389428 ], [ 126.956469167637437, 35.302991212086255 ], [ 126.95730323131049, 35.310383749680575 ], [ 126.950943215558382, 35.310009993967356 ], [ 126.940665611967319, 35.315848938205356 ], [ 126.938117895473894, 35.321613575640633 ], [ 126.940062852900553, 35.321988936772101 ], [ 126.93955472821591, 35.3245239105064 ], [ 126.936512346985296, 35.328020517548111 ], [ 126.93625902844785, 35.332014185914588 ], [ 126.931658579084058, 35.335493150657982 ] ] ] ] } },
{ "type": "Feature", "properties": { "emd_cd": "46710310", "emd_nm": "봉산면" }, "geometry": { "type": "MultiPolygon", "coordinates": [ [ [ [ 126.914976862572743, 35.25731067191127 ], [ 126.920393444060281, 35.261129392002871 ], [ 126.927799396724694, 35.261125607550149 ], [ 126.930129597379604, 35.266142365603955 ], [ 126.934865760681603, 35.269154594976193 ], [ 126.939288949966212, 35.269806271262915 ], [ 126.949096732172976, 35.276637359129545 ], [ 126.948127245378416, 35.281322847774135 ], [ 126.953220607464957, 35.290786931508478 ], [ 126.951976815139346, 35.29413195671075 ], [ 126.957132261848471, 35.303373459609247 ], [ 126.961229379670328, 35.301306206102318 ], [ 126.964669283037949, 35.296056547190801 ], [ 126.96696716468, 35.298355408185621 ], [ 126.974402482582192, 35.297305208043845 ], [ 126.974391895364789, 35.290397074564474 ], [ 126.977744240075182, 35.276994574012299 ], [ 126.982328262884479, 35.273741847039453 ], [ 126.985268289349364, 35.273942769083753 ], [ 126.985289576078713, 35.272350983304385 ], [ 126.981373950154605, 35.269233373683527 ], [ 126.982769741174749, 35.26658781842805 ], [ 126.981520470083069, 35.260894647141896 ], [ 126.974863363747119, 35.257276005218699 ], [ 126.971307802110871, 35.250964097231488 ], [ 126.966169521121827, 35.246230543207929 ], [ 126.961080121855147, 35.250836418545539 ], [ 126.954639386678309, 35.253620863451012 ], [ 126.950745155426162, 35.247478326791352 ], [ 126.937133649337639, 35.246315277903136 ], [ 126.935839413312166, 35.243341373912934 ], [ 126.932633682159278, 35.241561084842843 ], [ 126.933800126093942, 35.246704363581799 ], [ 126.93128560377005, 35.250869352538075 ], [ 126.929389929702694, 35.252457608198675 ], [ 126.921066339486103, 35.253381314977823 ], [ 126.914976862572743, 35.25731067191127 ] ] ] ] } },
{ "type": "Feature", "properties": { "emd_cd": "46710320", "emd_nm": "고서면" }, "geometry": { "type": "MultiPolygon", "coordinates": [ [ [ [ 126.96609814815352, 35.202011342584754 ], [ 126.956433891950368, 35.207165385714063 ], [ 126.948905446719124, 35.219076446292625 ], [ 126.949781484561953, 35.222255200039413 ], [ 126.953403682038996, 35.224973055371805 ], [ 126.951909558631314, 35.224471459114682 ], [ 126.947603577279693, 35.230743146229699 ], [ 126.943557273311413, 35.231733703433498 ], [ 126.942274964103731, 35.23615840714654 ], [ 126.932286695491683, 35.240636948636286 ], [ 126.937133649337639, 35.246315277903136 ], [ 126.950745155426162, 35.247478326791352 ], [ 126.954639386678309, 35.253620863451012 ], [ 126.961080121855147, 35.250836418545539 ], [ 126.967847142307505, 35.24421322346975 ], [ 126.97710886190211, 35.242231919686645 ], [ 126.984329334618792, 35.236144741209301 ], [ 126.987549246948277, 35.236421649331376 ], [ 126.992086589602422, 35.233330063692136 ], [ 126.9970586781007, 35.234279829496096 ], [ 126.999985818910929, 35.230530563860682 ], [ 127.000060274774754, 35.218899317399874 ], [ 127.01558978951833, 35.204515775118217 ], [ 127.011629075339798, 35.1987524765022 ], [ 126.983206403356391, 35.197555633597595 ], [ 126.981724053478217, 35.194226611997038 ], [ 126.974484929885378, 35.192362948939788 ], [ 126.974094721163283, 35.190071270467456 ], [ 126.971435858666752, 35.18871310918734 ], [ 126.967607569092721, 35.188458649948444 ], [ 126.966358586723629, 35.184241525964325 ], [ 126.959918422898483, 35.190016269579999 ], [ 126.958623379001509, 35.193092529913955 ], [ 126.96609814815352, 35.202011342584754 ] ] ] ] } },
{ "type": "Feature", "properties": { "emd_cd": "46710335", "emd_nm": "가사문학면" }, "geometry": { "type": "MultiPolygon", "coordinates": [ [ [ [ 127.012262300443112, 35.198933015711702 ], [ 127.015242486456074, 35.195965878537713 ], [ 127.016896345644497, 35.196246782343238 ], [ 127.020080096052823, 35.192059197861639 ], [ 127.025507981378951, 35.196083422393436 ], [ 127.032331225691593, 35.193057081786506 ], [ 127.035219658709778, 35.189198561537708 ], [ 127.034673697795014, 35.184504661158329 ], [ 127.040900857578151, 35.178768866278148 ], [ 127.045420142158903, 35.180448645069212 ], [ 127.04913841590583, 35.18481920360788 ], [ 127.048361079966242, 35.187663573657332 ], [ 127.054404133564773, 35.189409511054144 ], [ 127.062175870100035, 35.189161524998859 ], [ 127.062593086428578, 35.186674508700534 ], [ 127.065739819790394, 35.184129070222816 ], [ 127.063970723787889, 35.179414381420074 ], [ 127.068171994198835, 35.173632970761382 ], [ 127.066954739189683, 35.171068278682604 ], [ 127.068101329944412, 35.162991313921999 ], [ 127.07333719161511, 35.156348531036755 ], [ 127.073060556154431, 35.153223147941652 ], [ 127.082394000094098, 35.1474387178867 ], [ 127.084150693504313, 35.14399108835164 ], [ 127.083915142764837, 35.138732454238351 ], [ 127.085928312783366, 35.137808816756866 ], [ 127.087667905116874, 35.131319970031242 ], [ 127.089589651234007, 35.130139448630807 ], [ 127.088508992147325, 35.126783579229738 ], [ 127.086529961993932, 35.127257540175862 ], [ 127.07992868473373, 35.124115106803167 ], [ 127.078784982938302, 35.123277307356176 ], [ 127.080358578114485, 35.119861987379522 ], [ 127.071169562344863, 35.115954465111891 ], [ 127.063851816648935, 35.121708708562579 ], [ 127.056767311811967, 35.121882037837437 ], [ 127.053647244746969, 35.127470345117587 ], [ 127.049513408952635, 35.129497471858024 ], [ 127.046928943114409, 35.129630293220181 ], [ 127.04553564170898, 35.127884551617527 ], [ 127.019490568168521, 35.138514259847724 ], [ 127.012758484746357, 35.13425321299367 ], [ 127.008713173160501, 35.133749204621999 ], [ 127.00930160156868, 35.141767554722719 ], [ 127.007185047703189, 35.143852809446734 ], [ 127.009676394470048, 35.149630061574094 ], [ 127.007290276208664, 35.156002602254127 ], [ 127.01071324920629, 35.159054257985723 ], [ 127.011042736504564, 35.16588116765233 ], [ 127.016773780278257, 35.165330688882776 ], [ 127.020933951641865, 35.167226303680671 ], [ 127.021465381662622, 35.173074635013911 ], [ 127.016842005552348, 35.174737035097458 ], [ 127.01339259167861, 35.180383518232993 ], [ 126.999950623750507, 35.188817126218574 ], [ 126.996658958515113, 35.189001520456003 ], [ 126.9911172225667, 35.186390441717954 ], [ 126.985810069037413, 35.188629890654745 ], [ 126.982765277827056, 35.184006686434145 ], [ 126.978187722901225, 35.186184647745399 ], [ 126.97392670123017, 35.186121372564841 ], [ 126.972126902588087, 35.185002311566073 ], [ 126.971720766795244, 35.179782534993542 ], [ 126.968146147903951, 35.181075990706383 ], [ 126.966358586723629, 35.184241525964325 ], [ 126.967607569092721, 35.188458649948444 ], [ 126.971435858666752, 35.18871310918734 ], [ 126.974094721163283, 35.190071270467456 ], [ 126.974484929885378, 35.192362948939788 ], [ 126.981724053478217, 35.194226611997038 ], [ 126.983206403356391, 35.197555633597595 ], [ 127.012262300443112, 35.198933015711702 ] ] ] ] } },
{ "type": "Feature", "properties": { "emd_cd": "46710340", "emd_nm": "창평면" }, "geometry": { "type": "MultiPolygon", "coordinates": [ [ [ [ 126.985268289349364, 35.273942769083753 ], [ 126.999445389022327, 35.280582348727535 ], [ 127.000891813445605, 35.279073526996775 ], [ 127.008501985436766, 35.282353419359723 ], [ 127.01548674108453, 35.281930588091839 ], [ 127.020896630418633, 35.274531209323747 ], [ 127.009141102818731, 35.271567282448139 ], [ 126.991523605940529, 35.26364018654823 ], [ 126.993701682111904, 35.255435408628031 ], [ 126.998129460664686, 35.256219433801576 ], [ 127.002331274238927, 35.25189389932634 ], [ 127.005116197746347, 35.251296113730433 ], [ 127.008275020479346, 35.245604116384605 ], [ 127.006323540528584, 35.242827997635302 ], [ 127.008162253226629, 35.241941674033562 ], [ 127.015109100311022, 35.243674441084643 ], [ 127.019859420359168, 35.249121968577356 ], [ 127.023901655873189, 35.243967921307899 ], [ 127.033463631014357, 35.244770315347473 ], [ 127.033295926398466, 35.241516894517972 ], [ 127.042083944870541, 35.241222561095704 ], [ 127.047020716536437, 35.236765404461487 ], [ 127.047521109974525, 35.230963179466592 ], [ 127.045676611834693, 35.229882868184106 ], [ 127.045441248829391, 35.218859708906166 ], [ 127.048723204425414, 35.204987102547143 ], [ 127.046325857280962, 35.197950272217255 ], [ 127.047627644393884, 35.194275858173228 ], [ 127.046203686853744, 35.191087617518406 ], [ 127.04913841590583, 35.18481920360788 ], [ 127.045420142158903, 35.180448645069212 ], [ 127.040900857578151, 35.178768866278148 ], [ 127.039093068915733, 35.181340059292936 ], [ 127.036203721319055, 35.182200965129518 ], [ 127.034673697795014, 35.184504661158329 ], [ 127.035219658709778, 35.189198561537708 ], [ 127.032331225691593, 35.193057081786506 ], [ 127.025507981378951, 35.196083422393436 ], [ 127.020080096052823, 35.192059197861639 ], [ 127.016896345644497, 35.196246782343238 ], [ 127.015242486456074, 35.195965878537713 ], [ 127.012262300443112, 35.198933015711702 ], [ 127.01558978951833, 35.204515775118217 ], [ 127.000060274774754, 35.218899317399874 ], [ 126.999985818910929, 35.230530563860682 ], [ 126.9970586781007, 35.234279829496096 ], [ 126.992086589602422, 35.233330063692136 ], [ 126.987549246948277, 35.236421649331376 ], [ 126.984329334618792, 35.236144741209301 ], [ 126.97710886190211, 35.242231919686645 ], [ 126.969214752842802, 35.24356449411242 ], [ 126.964973050740085, 35.246869978672606 ], [ 126.966169521121827, 35.246230543207929 ], [ 126.96930492236153, 35.248801031370832 ], [ 126.974863363747119, 35.257276005218699 ], [ 126.981520470083069, 35.260894647141896 ], [ 126.982769741174749, 35.26658781842805 ], [ 126.981373950154605, 35.269233373683527 ], [ 126.985289576078713, 35.272350983304385 ], [ 126.985268289349364, 35.273942769083753 ] ] ] ] } },
{ "type": "Feature", "properties": { "emd_cd": "46710350", "emd_nm": "대덕면" }, "geometry": { "type": "MultiPolygon", "coordinates": [ [ [ [ 127.047627644393884, 35.194275858173228 ], [ 127.046325857280962, 35.197950272217255 ], [ 127.048666693355244, 35.20921806586113 ], [ 127.045441248829391, 35.218859708906166 ], [ 127.045676611834693, 35.229882868184106 ], [ 127.047521109974525, 35.230963179466592 ], [ 127.047020716536437, 35.236765404461487 ], [ 127.042083944870541, 35.241222561095704 ], [ 127.033295926398466, 35.241516894517972 ], [ 127.033463631014357, 35.244770315347473 ], [ 127.023901655873189, 35.243967921307899 ], [ 127.019859420359168, 35.249121968577356 ], [ 127.01266620174377, 35.242483217704823 ], [ 127.006323540528584, 35.242827997635302 ], [ 127.008275020479346, 35.245604116384605 ], [ 127.005116197746347, 35.251296113730433 ], [ 127.002331274238927, 35.25189389932634 ], [ 126.998129460664686, 35.256219433801576 ], [ 126.993701682111904, 35.255435408628031 ], [ 126.991523605940529, 35.26364018654823 ], [ 127.009141102818731, 35.271567282448139 ], [ 127.020896630418633, 35.274531209323747 ], [ 127.024244050064112, 35.273885519678061 ], [ 127.028347313066106, 35.277448986243321 ], [ 127.032488949653867, 35.278142771435462 ], [ 127.03725199413698, 35.277463370779692 ], [ 127.047623295535999, 35.271632000649376 ], [ 127.053170021248903, 35.270794072252208 ], [ 127.058164176262252, 35.273238054381316 ], [ 127.066781809377048, 35.269908917231803 ], [ 127.071048036488023, 35.266340773601641 ], [ 127.069591802565412, 35.264482700624576 ], [ 127.070326943784764, 35.253774537240176 ], [ 127.078695776077183, 35.254665884633773 ], [ 127.080988607050784, 35.247929197092169 ], [ 127.087504892603704, 35.242487731731643 ], [ 127.0890698480992, 35.234388680586044 ], [ 127.093448679091864, 35.231876498374746 ], [ 127.093192320491681, 35.224661040543438 ], [ 127.097575336255758, 35.220426412960357 ], [ 127.097225246307062, 35.217917706591869 ], [ 127.100789629240481, 35.211950675588433 ], [ 127.103894564599742, 35.209694037671262 ], [ 127.103444648128459, 35.205836608910282 ], [ 127.106436819902839, 35.204103519174183 ], [ 127.105554628767905, 35.199227513097632 ], [ 127.117997799917063, 35.194943200075002 ], [ 127.115994819895562, 35.192096867600931 ], [ 127.107115206352404, 35.191291275323941 ], [ 127.097258234823542, 35.18799386615229 ], [ 127.09300981516094, 35.182553674198495 ], [ 127.090875325942434, 35.183184033147612 ], [ 127.090225250311818, 35.181548271740212 ], [ 127.081010327414546, 35.180044300304672 ], [ 127.072643420439945, 35.182252778851776 ], [ 127.069817841268161, 35.184922692910582 ], [ 127.065739819790394, 35.184129070222816 ], [ 127.062593086428578, 35.186674508700534 ], [ 127.062175870100035, 35.189161524998859 ], [ 127.054404133564773, 35.189409511054144 ], [ 127.048361079966242, 35.187663573657332 ], [ 127.046203686853744, 35.191087617518406 ], [ 127.047627644393884, 35.194275858173228 ] ] ] ] } },
{ "type": "Feature", "properties": { "emd_cd": "46710360", "emd_nm": "무정면" }, "geometry": { "type": "MultiPolygon", "coordinates": [ [ [ [ 127.01315442417355, 35.310664014555854 ], [ 127.016582787250655, 35.305495963930845 ], [ 127.019288867011952, 35.304941194253026 ], [ 127.02023557698142, 35.302378516973675 ], [ 127.024537392944822, 35.303390860966836 ], [ 127.029856731832481, 35.301897445476754 ], [ 127.032101099740714, 35.303475049937411 ], [ 127.042798681530059, 35.302316743899702 ], [ 127.044319466996512, 35.300691651819697 ], [ 127.053813331449931, 35.302985410879124 ], [ 127.056256668647848, 35.306308811660202 ], [ 127.058820147688266, 35.306080631125759 ], [ 127.060701193001861, 35.309222461227193 ], [ 127.066015862922555, 35.307925319651481 ], [ 127.066870952398418, 35.312083360479754 ], [ 127.079243012791679, 35.310681422049157 ], [ 127.089282292264627, 35.306692040190377 ], [ 127.096802447413296, 35.301822061887144 ], [ 127.094812611724279, 35.29926538860213 ], [ 127.096207613290119, 35.295328433731484 ], [ 127.091589233379793, 35.289996048657535 ], [ 127.092761706029989, 35.28829837095396 ], [ 127.090772314271462, 35.284176816820043 ], [ 127.093503716288367, 35.273980000794545 ], [ 127.099633980619515, 35.269002224713475 ], [ 127.097941957845833, 35.266523239944611 ], [ 127.098546808505688, 35.262759642298398 ], [ 127.081232230461339, 35.247668837657073 ], [ 127.078695776077183, 35.254665884633773 ], [ 127.070326943784764, 35.253774537240176 ], [ 127.069258798515961, 35.258449559969606 ], [ 127.070782423533345, 35.267532116377254 ], [ 127.058164176262252, 35.273238054381316 ], [ 127.053170021248903, 35.270794072252208 ], [ 127.048313741202293, 35.271496669718566 ], [ 127.03725199413698, 35.277463370779692 ], [ 127.032488949653867, 35.278142771435462 ], [ 127.028347313066106, 35.277448986243321 ], [ 127.023661779805892, 35.273805625345965 ], [ 127.020896630418633, 35.274531209323747 ], [ 127.017844150088607, 35.280246974163042 ], [ 127.014385648868412, 35.28211599857152 ], [ 127.008501985436766, 35.282353419359723 ], [ 127.001746924435395, 35.279153106820623 ], [ 126.999445389022327, 35.280582348727535 ], [ 126.985250121967695, 35.273938944985161 ], [ 126.982328262884479, 35.273741847039453 ], [ 126.977744240075182, 35.276994574012299 ], [ 126.974775144307785, 35.289852104537793 ], [ 126.980298408800692, 35.29000808117349 ], [ 126.984649887093667, 35.293934561453767 ], [ 126.984672822102894, 35.295737052349715 ], [ 126.998412567247769, 35.294177606686858 ], [ 127.002498988044394, 35.29932811312873 ], [ 126.999851545098934, 35.303990793024617 ], [ 127.004800787788426, 35.312693207105795 ], [ 127.01315442417355, 35.310664014555854 ] ] ] ] } },
{ "type": "Feature", "properties": { "emd_cd": "46710370", "emd_nm": "금성면" }, "geometry": { "type": "MultiPolygon", "coordinates": [ [ [ [ 127.004218920163851, 35.349935233387477 ], [ 127.006266012322854, 35.354811952118958 ], [ 127.005005845891048, 35.357764384306712 ], [ 127.007941031390558, 35.36145300379588 ], [ 127.00378417977015, 35.363187248920198 ], [ 127.006331442704195, 35.368707778045696 ], [ 127.006406976061285, 35.373427541505748 ], [ 127.012016269893365, 35.37393974471572 ], [ 127.012181179637096, 35.376065561106962 ], [ 127.016124228652643, 35.379001048151316 ], [ 127.022888505121557, 35.375360229827457 ], [ 127.029021481435279, 35.379917482513079 ], [ 127.036695109530967, 35.377730684513502 ], [ 127.039097403812519, 35.380143301705729 ], [ 127.048856787217829, 35.377374955084441 ], [ 127.055859885090129, 35.384537731183457 ], [ 127.057028473420772, 35.383791401629132 ], [ 127.061963524586503, 35.377026401092806 ], [ 127.064983393886862, 35.37595385554863 ], [ 127.063594354523246, 35.369897152540737 ], [ 127.070607393754386, 35.365513436010737 ], [ 127.065170154683173, 35.35654545851866 ], [ 127.069900025747472, 35.351404490868347 ], [ 127.067172771711213, 35.345638970915388 ], [ 127.070289091392482, 35.339796720908787 ], [ 127.063031785297639, 35.336231397672236 ], [ 127.058376256479519, 35.337477178272962 ], [ 127.055251786825366, 35.341063268775954 ], [ 127.052333654804684, 35.340264812023982 ], [ 127.052477573101285, 35.335917279735384 ], [ 127.050507280012354, 35.334799682786787 ], [ 127.050945799577079, 35.329372759472875 ], [ 127.043091729984212, 35.321885385115237 ], [ 127.046206475986281, 35.318597625941997 ], [ 127.050907613723552, 35.31671643904189 ], [ 127.054713359369131, 35.317902550655504 ], [ 127.062296206628858, 35.316840512958755 ], [ 127.066580757455654, 35.312871262564137 ], [ 127.066015862922555, 35.307925319651481 ], [ 127.060701193001861, 35.309222461227193 ], [ 127.058820147688266, 35.306080631125759 ], [ 127.056256668647848, 35.306308811660202 ], [ 127.053813331449931, 35.302985410879124 ], [ 127.046367549304364, 35.300816950804474 ], [ 127.032101099740714, 35.303475049937411 ], [ 127.029856731832481, 35.301897445476754 ], [ 127.024537392944822, 35.303390860966836 ], [ 127.02023557698142, 35.302378516973675 ], [ 127.019288867011952, 35.304941194253026 ], [ 127.014345969168872, 35.307611605035284 ], [ 127.017440067851126, 35.310414404414765 ], [ 127.014396816844396, 35.318669987696545 ], [ 127.022139521368473, 35.320758968860154 ], [ 127.022102131070284, 35.323009578067229 ], [ 127.024751055421106, 35.324841769928526 ], [ 127.022011160461787, 35.326751210547819 ], [ 127.023285443172583, 35.328072786160917 ], [ 127.02205471866111, 35.329935526242473 ], [ 127.018784947165912, 35.33167663122375 ], [ 127.018650835231, 35.333217633441144 ], [ 127.021296311359023, 35.333399224107723 ], [ 127.021481778150687, 35.33638739319067 ], [ 127.017830196182089, 35.334627181309365 ], [ 127.016158720481698, 35.336441309711567 ], [ 127.013736156049674, 35.336165053008294 ], [ 127.010068463441684, 35.340315172280661 ], [ 127.016317126980908, 35.34041980378052 ], [ 127.016957170814408, 35.342938319286709 ], [ 127.014363092481588, 35.34350086302171 ], [ 127.010955654397321, 35.347050007849631 ], [ 127.007869288229045, 35.346401860406836 ], [ 127.004218920163851, 35.349935233387477 ] ] ] ] } },
{ "type": "Feature", "properties": { "emd_cd": "46710380", "emd_nm": "용면" }, "geometry": { "type": "MultiPolygon", "coordinates": [ [ [ [ 126.95693092276781, 35.385770737332109 ], [ 126.961490700867671, 35.395070650026831 ], [ 126.97610116637621, 35.400045631035532 ], [ 126.975979325062355, 35.407269548943781 ], [ 126.971614898989131, 35.414284920791815 ], [ 126.970290562378068, 35.41979231875397 ], [ 126.971380334506449, 35.427671211029178 ], [ 126.97691861686809, 35.428137270288452 ], [ 126.981625101773446, 35.42664641449381 ], [ 126.982954757920552, 35.429960738643977 ], [ 126.985074426873567, 35.430054961434195 ], [ 126.983367241452541, 35.433752067713833 ], [ 126.985306343933587, 35.436731857475174 ], [ 126.994545248730489, 35.439804123066089 ], [ 126.994991087506676, 35.443656751447648 ], [ 126.997975213386923, 35.446084817821159 ], [ 127.000199642644475, 35.452427096867879 ], [ 126.998024061106406, 35.457303826658325 ], [ 127.000015878245563, 35.462874777476031 ], [ 127.003026716112231, 35.464463917862375 ], [ 127.009869135333503, 35.461685440280682 ], [ 127.014291729208168, 35.457819344437837 ], [ 127.023936667114143, 35.464232657117208 ], [ 127.02747954645325, 35.463710519984019 ], [ 127.034721868243366, 35.466571845942013 ], [ 127.036519300477877, 35.459808268449102 ], [ 127.034923402966825, 35.456994626401254 ], [ 127.034994947395859, 35.447644584827586 ], [ 127.038261128422462, 35.437718090825925 ], [ 127.037353278435305, 35.433855256554331 ], [ 127.040182628994302, 35.431788797511985 ], [ 127.044610458332144, 35.433545478626655 ], [ 127.045945668700199, 35.431349169567419 ], [ 127.049026989784139, 35.431083603489746 ], [ 127.052314929000786, 35.426516099505093 ], [ 127.04972882452978, 35.422757904950295 ], [ 127.045141466917272, 35.407220317218062 ], [ 127.047272861188318, 35.404680733073533 ], [ 127.04692962116961, 35.402193712927705 ], [ 127.041710632571167, 35.398719370783255 ], [ 127.032893552785467, 35.400500018390304 ], [ 127.027015255994868, 35.399855061474838 ], [ 127.027462876714992, 35.39467943230737 ], [ 127.030088224786496, 35.392538863367363 ], [ 127.03046277693845, 35.39008990698234 ], [ 127.035426534223205, 35.390224477684846 ], [ 127.035333662652718, 35.386680586042857 ], [ 127.039541068078606, 35.384014200455802 ], [ 127.040479577430077, 35.382395300218874 ], [ 127.039097403812519, 35.380143301705729 ], [ 127.036695109530967, 35.377730684513502 ], [ 127.029021481435279, 35.379917482513079 ], [ 127.022888505121557, 35.375360229827457 ], [ 127.016124228652643, 35.379001048151316 ], [ 127.012181179637096, 35.376065561106962 ], [ 127.012016269893365, 35.37393974471572 ], [ 127.006406976061285, 35.373427541505748 ], [ 127.006331442704195, 35.368707778045696 ], [ 127.00378417977015, 35.363187248920198 ], [ 127.007941031390558, 35.36145300379588 ], [ 127.005005845891048, 35.357764384306712 ], [ 127.006266012322854, 35.354811952118958 ], [ 127.004218920163851, 35.349935233387477 ], [ 126.996745965730867, 35.348503336966253 ], [ 126.995563464822624, 35.350981877012316 ], [ 126.993221600333897, 35.350650503318619 ], [ 126.987948641729673, 35.346229684025381 ], [ 126.980750282890654, 35.343859358551256 ], [ 126.980660627635316, 35.345024911603076 ], [ 126.979010626242001, 35.344091031743325 ], [ 126.976115916943655, 35.34579564346609 ], [ 126.976010745775355, 35.352303148790234 ], [ 126.973603140199785, 35.354357684789314 ], [ 126.974856131418747, 35.356517415041161 ], [ 126.974236753402593, 35.360450783113912 ], [ 126.975732276726106, 35.361109040975876 ], [ 126.971460905226479, 35.373648029494682 ], [ 126.967235281438917, 35.375789430688947 ], [ 126.965172101696368, 35.380583931103651 ], [ 126.95693092276781, 35.385770737332109 ] ] ] ] } },
{ "type": "Feature", "properties": { "emd_cd": "46710390", "emd_nm": "월산면" }, "geometry": { "type": "MultiPolygon", "coordinates": [ [ [ [ 126.875816103280343, 35.342392673854675 ], [ 126.878961912731725, 35.352328642883847 ], [ 126.883000050731013, 35.35090675314374 ], [ 126.884169281519362, 35.362132487454232 ], [ 126.886990883072357, 35.365082509578421 ], [ 126.895609658741023, 35.366102729718193 ], [ 126.898399765692133, 35.371905871074858 ], [ 126.90301281431428, 35.373326053437331 ], [ 126.902864334177693, 35.377775954495696 ], [ 126.913495094057822, 35.382434803118997 ], [ 126.914888618084447, 35.387119474292255 ], [ 126.923897798296892, 35.379392893662136 ], [ 126.924462901215776, 35.383491226714646 ], [ 126.926521606633912, 35.38507895257105 ], [ 126.924066559609599, 35.392549597185024 ], [ 126.925660236962571, 35.396848761912885 ], [ 126.924610112172488, 35.399360586217334 ], [ 126.919448734039634, 35.401938955150293 ], [ 126.927167135611612, 35.405389512286568 ], [ 126.933239331115672, 35.406089793280138 ], [ 126.932138836875637, 35.401586311450039 ], [ 126.92999619466832, 35.400185064340555 ], [ 126.932611123658091, 35.398454717850235 ], [ 126.932926077480332, 35.395244707031011 ], [ 126.935612905700907, 35.394351470746102 ], [ 126.940317671010249, 35.396154119451431 ], [ 126.941286972617476, 35.394127116470649 ], [ 126.948793572720248, 35.396225456900126 ], [ 126.952212983003434, 35.39496687303788 ], [ 126.954269460920159, 35.39663514213003 ], [ 126.961490700867671, 35.395070650026831 ], [ 126.95693092276781, 35.385770737332109 ], [ 126.965172101696368, 35.380583931103651 ], [ 126.967235281438917, 35.375789430688947 ], [ 126.971460905226479, 35.373648029494682 ], [ 126.975732276726106, 35.361109040975876 ], [ 126.974236753402593, 35.360450783113912 ], [ 126.974856131418747, 35.356517415041161 ], [ 126.973603140199785, 35.354357684789314 ], [ 126.976010745775355, 35.352303148790234 ], [ 126.976115916943655, 35.34579564346609 ], [ 126.979010626242001, 35.344091031743325 ], [ 126.983900402497525, 35.34430609441246 ], [ 126.981023148212842, 35.340278965001161 ], [ 126.970445302197575, 35.33479205667917 ], [ 126.968238503532049, 35.327633471517338 ], [ 126.964216644918267, 35.328327450265192 ], [ 126.961734391796753, 35.327020130183982 ], [ 126.956650504204859, 35.328708688194453 ], [ 126.952847519550119, 35.333571860488 ], [ 126.94253045016886, 35.336621134667929 ], [ 126.939199674708632, 35.334466671706515 ], [ 126.933262663681219, 35.335890262425131 ], [ 126.92669461113455, 35.334789275281949 ], [ 126.924184404451779, 35.332770832071724 ], [ 126.924045204841008, 35.330090283071229 ], [ 126.920357399621594, 35.328620999240208 ], [ 126.903899714314534, 35.333487272403794 ], [ 126.897735865072121, 35.328490569878845 ], [ 126.887778127666735, 35.326038496409311 ], [ 126.879276883684284, 35.339872371579858 ], [ 126.875816103280343, 35.342392673854675 ] ] ] ] } },
{ "type": "Feature", "properties": { "emd_cd": "46710400", "emd_nm": "수북면" }, "geometry": { "type": "MultiPolygon", "coordinates": [ [ [ [ 126.88034032265675, 35.321435814434402 ], [ 126.888220916886027, 35.326372187107253 ], [ 126.897735865072121, 35.328490569878845 ], [ 126.903899714314534, 35.333487272403794 ], [ 126.920357399621594, 35.328620999240208 ], [ 126.924045204841008, 35.330090283071229 ], [ 126.925494355334081, 35.334315483462262 ], [ 126.931658579084058, 35.335493150657982 ], [ 126.93625902844785, 35.332014185914588 ], [ 126.936512346985296, 35.328020517548111 ], [ 126.93955472821591, 35.3245239105064 ], [ 126.940062852900553, 35.321988936772101 ], [ 126.938117895473894, 35.321613575640633 ], [ 126.940665611967319, 35.315848938205356 ], [ 126.950943215558382, 35.310009993967356 ], [ 126.95730323131049, 35.310383749680575 ], [ 126.956649024319944, 35.303267834722043 ], [ 126.951976815139346, 35.29413195671075 ], [ 126.953220607464957, 35.290786931508478 ], [ 126.948127245378416, 35.281322847774135 ], [ 126.949096732172976, 35.276637359129545 ], [ 126.939288796175688, 35.269806172036766 ], [ 126.934865760681603, 35.269154594976193 ], [ 126.930129597379604, 35.266142365603955 ], [ 126.927799396724694, 35.261125607550149 ], [ 126.914778303493748, 35.260163096755527 ], [ 126.91355159769148, 35.262024404876918 ], [ 126.916343409798046, 35.265420506862533 ], [ 126.917078369411442, 35.272437763012043 ], [ 126.922680763837306, 35.275950155042558 ], [ 126.921336995960814, 35.281918794691158 ], [ 126.918849470731857, 35.284890420303448 ], [ 126.918748808047496, 35.2907332899523 ], [ 126.906478325941251, 35.297874731166502 ], [ 126.905426207342543, 35.30267104583551 ], [ 126.901026939557767, 35.307052733314507 ], [ 126.885882079217922, 35.307960083802477 ], [ 126.881899819066817, 35.313793601884086 ], [ 126.88034032265675, 35.321435814434402 ] ] ] ] } },
{ "type": "Feature", "properties": { "emd_cd": "46710410", "emd_nm": "대전면" }, "geometry": { "type": "MultiPolygon", "coordinates": [ [ [ [ 126.854202323787135, 35.294485093321384 ], [ 126.861285973565813, 35.301176664056669 ], [ 126.861654512880037, 35.307283558444141 ], [ 126.860218715071426, 35.310278996174631 ], [ 126.862505953463028, 35.31387367265706 ], [ 126.862680498918607, 35.317898013719834 ], [ 126.861194828825134, 35.320939259954926 ], [ 126.862779162894498, 35.322427423705534 ], [ 126.877876829718119, 35.322920172908852 ], [ 126.88034032265675, 35.321435814434402 ], [ 126.881899819066817, 35.313793601884086 ], [ 126.885882079217922, 35.307960083802477 ], [ 126.901026939557767, 35.307052733314507 ], [ 126.905426207342543, 35.30267104583551 ], [ 126.906478325941251, 35.297874731166502 ], [ 126.918748808047496, 35.2907332899523 ], [ 126.918849470731857, 35.284890420303448 ], [ 126.921336995960814, 35.281918794691158 ], [ 126.922680763837306, 35.275950155042558 ], [ 126.917078369411442, 35.272437763012043 ], [ 126.916343409798046, 35.265420506862533 ], [ 126.91355159769148, 35.262024404876918 ], [ 126.916671213620518, 35.259501421574861 ], [ 126.914734462245718, 35.258228359240242 ], [ 126.904066063191806, 35.25780972179372 ], [ 126.900137666744342, 35.253835349250409 ], [ 126.891396876281078, 35.249859478504597 ], [ 126.889614129243483, 35.24667066883449 ], [ 126.879204596031244, 35.248040475030379 ], [ 126.879188393837168, 35.254098453965995 ], [ 126.876402725510701, 35.260385989113978 ], [ 126.867898827501222, 35.272318795601656 ], [ 126.86512368525193, 35.273783572346716 ], [ 126.860377825621072, 35.289560427770624 ], [ 126.854202323787135, 35.294485093321384 ] ] ] ] } }
]
}
