{
"type": "FeatureCollection",
"name": "46730",
"crs": { "type": "name", "properties": { "name": "urn:ogc:def:crs:OGC:1.3:CRS84" } },
"features": [
{ "type": "Feature", "properties": { "emd_cd": "46730250", "emd_nm": "구례읍" }, "geometry": { "type": "MultiPolygon", "coordinates": [ [ [ [ 127.484916302570582, 35.20222190365179 ], [ 127.475261693177487, 35.198876361165787 ], [ 127.468671433234675, 35.193781163812595 ], [ 127.467390873905885, 35.186530997385432 ], [ 127.468099105339874, 35.172274459084939 ], [ 127.46575032732035, 35.166956394591296 ], [ 127.460841051302125, 35.161627184509385 ], [ 127.445231835469514, 35.16875501532094 ], [ 127.435497299502373, 35.178537836936755 ], [ 127.422847095570376, 35.18676381359915 ], [ 127.402840595510895, 35.18978277353493 ], [ 127.388008102386735, 35.188481883698124 ], [ 127.379676545154155, 35.19135445027608 ], [ 127.376650693283167, 35.193435833275309 ], [ 127.372082580421207, 35.205932566961529 ], [ 127.372300092282529, 35.212264711006796 ], [ 127.374763774744594, 35.215862499092879 ], [ 127.368756823734543, 35.221541588729927 ], [ 127.366904896929583, 35.225463635722448 ], [ 127.368004133098438, 35.228437477089194 ], [ 127.371055823249591, 35.225889949406508 ], [ 127.377462858364865, 35.225468951933593 ], [ 127.379140765162958, 35.227947860566637 ], [ 127.382992525330394, 35.228569458177965 ], [ 127.39030107192319, 35.237239961711516 ], [ 127.397767829991864, 35.237223865393631 ], [ 127.402790443110433, 35.241484339978896 ], [ 127.402408907912147, 35.23110451837141 ], [ 127.406597918950453, 35.224349663593877 ], [ 127.416522799779074, 35.223032583369857 ], [ 127.418035025539254, 35.22151447705383 ], [ 127.420222894379535, 35.225991250035563 ], [ 127.42391810744472, 35.227814252286443 ], [ 127.428358178557673, 35.226305270372983 ], [ 127.429637277507013, 35.22381476881759 ], [ 127.443146677951248, 35.221011435358221 ], [ 127.446124990782096, 35.218476025127956 ], [ 127.453150254585566, 35.221746203807911 ], [ 127.455690377378403, 35.220604126583048 ], [ 127.460519040658966, 35.221670733570811 ], [ 127.460371304614881, 35.22399394430154 ], [ 127.467632562218242, 35.223005963632552 ], [ 127.470371520333856, 35.213299621106351 ], [ 127.481798113629679, 35.20883348644594 ], [ 127.484916302570582, 35.20222190365179 ] ] ] ] } },
{ "type": "Feature", "properties": { "emd_cd": "46730310", "emd_nm": "문척면" }, "geometry": { "type": "MultiPolygon", "coordinates": [ [ [ [ 127.531626855527904, 35.186157127111983 ], [ 127.53444376288239, 35.181300326462598 ], [ 127.532051587693175, 35.176514338723081 ], [ 127.533658147697267, 35.173716916709587 ], [ 127.533281206818032, 35.167184202324087 ], [ 127.52871683202109, 35.164746216337619 ], [ 127.527989038998456, 35.161873473041915 ], [ 127.520471258374869, 35.157953203885732 ], [ 127.51900620302159, 35.155172998000729 ], [ 127.521064041500864, 35.148056694957425 ], [ 127.51969939116384, 35.146571355997793 ], [ 127.519919619989636, 35.140478065595474 ], [ 127.52281760841197, 35.134410134999335 ], [ 127.521227227112519, 35.127885127549767 ], [ 127.517113504893331, 35.124666160344724 ], [ 127.503324232501399, 35.124327446721516 ], [ 127.496128784579909, 35.127605430281612 ], [ 127.498139653972657, 35.130499383216844 ], [ 127.498047607248282, 35.133550675899841 ], [ 127.492880274950352, 35.137669675567345 ], [ 127.49039074872077, 35.143004068911374 ], [ 127.486794946626432, 35.144521716148908 ], [ 127.485425167159605, 35.148420592358747 ], [ 127.48132229436824, 35.152249239043947 ], [ 127.471637432397898, 35.155660085501303 ], [ 127.466644678662604, 35.161127020658206 ], [ 127.460841051302125, 35.161627184509385 ], [ 127.46575032732035, 35.166956394591296 ], [ 127.468099105339874, 35.172274459084939 ], [ 127.467390873905885, 35.186530997385432 ], [ 127.468671433234675, 35.193781163812595 ], [ 127.478444143279404, 35.20000229353478 ], [ 127.488021158065138, 35.203088307390061 ], [ 127.492118510209536, 35.202670255763167 ], [ 127.500413455269438, 35.193764662112798 ], [ 127.511410085733687, 35.190977880265535 ], [ 127.518688596904482, 35.18648931355753 ], [ 127.531626855527904, 35.186157127111983 ] ] ] ] } },
{ "type": "Feature", "properties": { "emd_cd": "46730320", "emd_nm": "간전면" }, "geometry": { "type": "MultiPolygon", "coordinates": [ [ [ [ 127.618148334031474, 35.190897746361593 ], [ 127.624631683951222, 35.182563063164537 ], [ 127.619956240961216, 35.180026376180308 ], [ 127.620132628399631, 35.17745776471714 ], [ 127.61609694771991, 35.173057318328453 ], [ 127.615499489837745, 35.168139544618107 ], [ 127.607485667054689, 35.160956218626708 ], [ 127.604084830539534, 35.148993613461059 ], [ 127.604565211134826, 35.143916186585521 ], [ 127.606879294326163, 35.142404781793324 ], [ 127.60425517659985, 35.133238284892172 ], [ 127.605409499003088, 35.129859988135699 ], [ 127.603741657466458, 35.118567855701471 ], [ 127.594662827157961, 35.122082276390152 ], [ 127.590715387390901, 35.119800075042505 ], [ 127.583973380247002, 35.119118004115712 ], [ 127.58047618773827, 35.115222642561413 ], [ 127.563937624294184, 35.108227904186791 ], [ 127.563930633996037, 35.101972078219553 ], [ 127.561823312172237, 35.098039130008033 ], [ 127.559563141680457, 35.095605789565219 ], [ 127.552476732377528, 35.094730342758936 ], [ 127.537529960325287, 35.102727612695297 ], [ 127.531952993573242, 35.107942401438855 ], [ 127.531894065344261, 35.11252224056215 ], [ 127.527734098128306, 35.113583610235231 ], [ 127.526306162277379, 35.116473015634973 ], [ 127.521111628968072, 35.118933190185913 ], [ 127.518741052797196, 35.126219276785434 ], [ 127.521227227112519, 35.127885127549767 ], [ 127.52281760841197, 35.134410134999335 ], [ 127.519919619989636, 35.140478065595474 ], [ 127.51969939116384, 35.146571355997793 ], [ 127.521064041500864, 35.148056694957425 ], [ 127.51900620302159, 35.155172998000729 ], [ 127.520471258374869, 35.157953203885732 ], [ 127.527989038998456, 35.161873473041915 ], [ 127.52871683202109, 35.164746216337619 ], [ 127.533281206818032, 35.167184202324087 ], [ 127.533658147697267, 35.173716916709587 ], [ 127.532051587693175, 35.176514338723081 ], [ 127.53444376288239, 35.181300326462598 ], [ 127.531626855527904, 35.186157127111983 ], [ 127.538803139682585, 35.190008216665532 ], [ 127.555182542050616, 35.190219492964623 ], [ 127.563698281938642, 35.195513817288564 ], [ 127.589070601607219, 35.202119719715213 ], [ 127.609240952500684, 35.197212099318762 ], [ 127.618148334031474, 35.190897746361593 ] ] ] ] } },
{ "type": "Feature", "properties": { "emd_cd": "46730330", "emd_nm": "토지면" }, "geometry": { "type": "MultiPolygon", "coordinates": [ [ [ [ 127.531626855527904, 35.186157127111983 ], [ 127.518688596904482, 35.18648931355753 ], [ 127.511410085733687, 35.190977880265535 ], [ 127.500413455269438, 35.193764662112798 ], [ 127.496039222769937, 35.199015689762497 ], [ 127.498064151727249, 35.202316687847961 ], [ 127.501039159044197, 35.203186128846845 ], [ 127.498232242290058, 35.204989344019062 ], [ 127.503322382184521, 35.203205079582126 ], [ 127.506628747611856, 35.204007779280175 ], [ 127.511741309135758, 35.207629206651333 ], [ 127.514915434437285, 35.212345839383715 ], [ 127.515785649968592, 35.215217518656722 ], [ 127.513101254074854, 35.219066482744097 ], [ 127.513540612151829, 35.225051494705355 ], [ 127.518503892948118, 35.235931091296678 ], [ 127.518268358644434, 35.240392420261038 ], [ 127.520563506364297, 35.245008248527249 ], [ 127.516981907156335, 35.250178437894149 ], [ 127.520945885034706, 35.257366485759299 ], [ 127.520746043233416, 35.26270297351379 ], [ 127.523433326758735, 35.267232760457027 ], [ 127.523549693028784, 35.274006663719895 ], [ 127.527018611029845, 35.278760848262081 ], [ 127.525930724906701, 35.283878326935735 ], [ 127.528547677956254, 35.293358300135189 ], [ 127.546407446502926, 35.296474309357521 ], [ 127.548936653398286, 35.299831687837745 ], [ 127.556288954574114, 35.301018732150979 ], [ 127.567766691966312, 35.307451806344716 ], [ 127.572184551054477, 35.312483198966973 ], [ 127.578298114197494, 35.309439107701834 ], [ 127.576114467439481, 35.306103463366661 ], [ 127.577407861355354, 35.295345695406887 ], [ 127.585373572329132, 35.291118308593894 ], [ 127.591189967729207, 35.275435111329976 ], [ 127.595574821499568, 35.272002978020979 ], [ 127.595693617555781, 35.268128901980937 ], [ 127.610155886699744, 35.262063068211781 ], [ 127.612683433472171, 35.253450683223512 ], [ 127.615247584951192, 35.250390142064433 ], [ 127.61244304826684, 35.247941331183185 ], [ 127.613675603654798, 35.24403724491394 ], [ 127.612843480492401, 35.241117409657463 ], [ 127.619270101453424, 35.235516678570882 ], [ 127.618431382245788, 35.230959355753207 ], [ 127.62112160622965, 35.224669930445238 ], [ 127.620698508607248, 35.212671744681813 ], [ 127.617442090195226, 35.210066416455732 ], [ 127.616958420371859, 35.207197663873956 ], [ 127.618024354029018, 35.199714633926114 ], [ 127.621877632637123, 35.191810514033811 ], [ 127.618148334031474, 35.190897746361593 ], [ 127.609240952500684, 35.197212099318762 ], [ 127.587588029694075, 35.202035942542871 ], [ 127.563698281938642, 35.195513817288564 ], [ 127.555182542050616, 35.190219492964623 ], [ 127.538803139682585, 35.190008216665532 ], [ 127.531626855527904, 35.186157127111983 ] ] ] ] } },
{ "type": "Feature", "properties": { "emd_cd": "46730340", "emd_nm": "마산면" }, "geometry": { "type": "MultiPolygon", "coordinates": [ [ [ [ 127.496039222769937, 35.199015689762497 ], [ 127.492118510209536, 35.202670255763167 ], [ 127.484916302570582, 35.20222190365179 ], [ 127.481798113629679, 35.20883348644594 ], [ 127.470636240432199, 35.213048312555095 ], [ 127.468853114409512, 35.221440271597061 ], [ 127.461483848705569, 35.229747500818945 ], [ 127.46334707688753, 35.233861682053664 ], [ 127.476935446853588, 35.240480577132743 ], [ 127.476588572933622, 35.242085255218051 ], [ 127.478579366569733, 35.242447672703889 ], [ 127.479402921246503, 35.244819521374168 ], [ 127.485769015403022, 35.248984517704024 ], [ 127.487715742633497, 35.251857650335538 ], [ 127.487496488408979, 35.254874523647608 ], [ 127.484815857351322, 35.258983405180217 ], [ 127.49396221180163, 35.266224368472848 ], [ 127.497624374583779, 35.275108662085074 ], [ 127.500878155858473, 35.277666683646984 ], [ 127.50668522772088, 35.287208497603373 ], [ 127.511797762618016, 35.290484418903887 ], [ 127.515878631219309, 35.296675079314532 ], [ 127.522474839675866, 35.29654316636519 ], [ 127.528549487191839, 35.293210042875913 ], [ 127.525930724906701, 35.283878326935735 ], [ 127.527018611029845, 35.278760848262081 ], [ 127.523549693028784, 35.274006663719895 ], [ 127.523433326758735, 35.267232760457027 ], [ 127.520746043233416, 35.26270297351379 ], [ 127.520945885034706, 35.257366485759299 ], [ 127.516981907156335, 35.250178437894149 ], [ 127.520563506364297, 35.245008248527249 ], [ 127.518268358644434, 35.240392420261038 ], [ 127.518503892948118, 35.235931091296678 ], [ 127.513540612151829, 35.225051494705355 ], [ 127.513101254074854, 35.219066482744097 ], [ 127.515780691102364, 35.215059923474072 ], [ 127.509033202387087, 35.205314260338689 ], [ 127.503322382184521, 35.203205079582126 ], [ 127.498232242290058, 35.204989344019062 ], [ 127.501039159044197, 35.203186128846845 ], [ 127.498064151727249, 35.202316687847961 ], [ 127.496039222769937, 35.199015689762497 ] ] ] ] } },
{ "type": "Feature", "properties": { "emd_cd": "46730350", "emd_nm": "광의면" }, "geometry": { "type": "MultiPolygon", "coordinates": [ [ [ [ 127.515878631219309, 35.296675079314532 ], [ 127.511797762618016, 35.290484418903887 ], [ 127.503173593000696, 35.283110822503389 ], [ 127.500878155858473, 35.277666683646984 ], [ 127.497624374583779, 35.275108662085074 ], [ 127.49396221180163, 35.266224368472848 ], [ 127.485646868737263, 35.260347046875957 ], [ 127.484646050450394, 35.258004645376694 ], [ 127.487336934118389, 35.255391265465221 ], [ 127.487715742633497, 35.251857650335538 ], [ 127.485769015403022, 35.248984517704024 ], [ 127.479402921246503, 35.244819521374168 ], [ 127.478579366569733, 35.242447672703889 ], [ 127.476588572933622, 35.242085255218051 ], [ 127.476935446853588, 35.240480577132743 ], [ 127.463247976006031, 35.233776244210652 ], [ 127.461483848705569, 35.229747500818945 ], [ 127.466320450880616, 35.225643960992734 ], [ 127.466877174762828, 35.223033864081117 ], [ 127.456665219778799, 35.225992811461296 ], [ 127.453506897038991, 35.231309847766468 ], [ 127.448840887405694, 35.233622457323932 ], [ 127.449515068934943, 35.235381260241432 ], [ 127.446570624348013, 35.237848122793508 ], [ 127.44304112006553, 35.245164778307391 ], [ 127.447052611250385, 35.245144523374407 ], [ 127.449543036309862, 35.249376095693805 ], [ 127.453826194814468, 35.252345235520927 ], [ 127.453070510967521, 35.254709436733449 ], [ 127.457008207763437, 35.256193337830261 ], [ 127.460476646861864, 35.260203677769319 ], [ 127.442177767812737, 35.25765222510325 ], [ 127.424398752972067, 35.270304075529069 ], [ 127.424467311994007, 35.272978674910668 ], [ 127.430706468113655, 35.278271753214931 ], [ 127.43105386095246, 35.282150538074347 ], [ 127.434273476132532, 35.285126844363731 ], [ 127.437731097844335, 35.285835963126019 ], [ 127.440175198324724, 35.290543547811787 ], [ 127.444625740177287, 35.29389764162007 ], [ 127.459211735647415, 35.293911290317048 ], [ 127.464482038690662, 35.289856612607764 ], [ 127.478431813109935, 35.295064980715289 ], [ 127.488852590203393, 35.29532174961993 ], [ 127.498648965560633, 35.303389910061199 ], [ 127.500638209090241, 35.301334652551802 ], [ 127.508336236280272, 35.300107582484948 ], [ 127.515878631219309, 35.296675079314532 ] ] ] ] } },
{ "type": "Feature", "properties": { "emd_cd": "46730360", "emd_nm": "용방면" }, "geometry": { "type": "MultiPolygon", "coordinates": [ [ [ [ 127.447052611250385, 35.245144523374407 ], [ 127.44304112006553, 35.245164778307391 ], [ 127.446570624348013, 35.237848122793508 ], [ 127.449515068934943, 35.235381260241432 ], [ 127.448840887405694, 35.233622457323932 ], [ 127.453506897038991, 35.231309847766468 ], [ 127.456665219778799, 35.225992811461296 ], [ 127.460371304614881, 35.22399394430154 ], [ 127.460519040658966, 35.221670733570811 ], [ 127.455690377378403, 35.220604126583048 ], [ 127.453150254585566, 35.221746203807911 ], [ 127.445322369722291, 35.218577513499646 ], [ 127.443146677951248, 35.221011435358221 ], [ 127.429637277507013, 35.22381476881759 ], [ 127.428358178557673, 35.226305270372983 ], [ 127.423240094649159, 35.227898223499501 ], [ 127.420222894379535, 35.225991250035563 ], [ 127.418035025539254, 35.22151447705383 ], [ 127.416522799779074, 35.223032583369857 ], [ 127.406597918950453, 35.224349663593877 ], [ 127.402408907912147, 35.23110451837141 ], [ 127.402758253818419, 35.241772296944838 ], [ 127.400232856692114, 35.246171025646873 ], [ 127.401408665249505, 35.248906182044109 ], [ 127.394827609402384, 35.259632587068893 ], [ 127.394932015260324, 35.263701941619594 ], [ 127.392920764450352, 35.265047897980978 ], [ 127.390812237092817, 35.272967098455567 ], [ 127.410970208991913, 35.27755116418956 ], [ 127.421855500851251, 35.275811029363375 ], [ 127.42844029944375, 35.276973883060471 ], [ 127.428794128997424, 35.275709412893605 ], [ 127.424467311994007, 35.272978674910668 ], [ 127.424581187027485, 35.269801793679541 ], [ 127.434897295978558, 35.263762710233777 ], [ 127.437735488869365, 35.25979992451412 ], [ 127.442177767812737, 35.25765222510325 ], [ 127.460461353655447, 35.260219896620335 ], [ 127.457008207763437, 35.256193337830261 ], [ 127.453070510967521, 35.254709436733449 ], [ 127.453475797086, 35.25182230359664 ], [ 127.449543036309862, 35.249376095693805 ], [ 127.447052611250385, 35.245144523374407 ] ] ] ] } },
{ "type": "Feature", "properties": { "emd_cd": "46730370", "emd_nm": "산동면" }, "geometry": { "type": "MultiPolygon", "coordinates": [ [ [ [ 127.390812237092817, 35.272967098455567 ], [ 127.38912049415066, 35.27508569076906 ], [ 127.3891950216818, 35.278523637892761 ], [ 127.381549254616417, 35.280035951253758 ], [ 127.380099520722823, 35.283613727897723 ], [ 127.381819711087104, 35.285431494703118 ], [ 127.383485639686796, 35.29419363519505 ], [ 127.386400186732857, 35.298037342829424 ], [ 127.38463528717422, 35.303475647193821 ], [ 127.388269983673595, 35.304574276058901 ], [ 127.394038927672099, 35.310648257584035 ], [ 127.398503867449719, 35.312019539069098 ], [ 127.400019611518161, 35.322410715194415 ], [ 127.415552994074389, 35.337277983617938 ], [ 127.415981257111085, 35.341255796771691 ], [ 127.420068125099746, 35.345142847086613 ], [ 127.424112207255789, 35.352898873500017 ], [ 127.428495539954127, 35.355456798406671 ], [ 127.431006935690505, 35.359648060088183 ], [ 127.441230711316749, 35.364217922705471 ], [ 127.442717507181115, 35.360913365774991 ], [ 127.453916449464685, 35.360507422617871 ], [ 127.458329023592711, 35.363672913675231 ], [ 127.464310202326033, 35.363954690913857 ], [ 127.471768198177031, 35.366796626374573 ], [ 127.480356593851198, 35.363642002411822 ], [ 127.481286959209214, 35.361145216069787 ], [ 127.485799286235533, 35.358365574130595 ], [ 127.492408235984428, 35.35879924589301 ], [ 127.495512165017146, 35.360821735887981 ], [ 127.499975342850377, 35.359961122770812 ], [ 127.508692083591612, 35.353076064369837 ], [ 127.514051010435267, 35.3514990155211 ], [ 127.516277462277813, 35.347710056053806 ], [ 127.525026270830907, 35.34509655946826 ], [ 127.530106351897146, 35.337600210293658 ], [ 127.540895224417099, 35.334121227759049 ], [ 127.542342101370892, 35.328571142696603 ], [ 127.562417091908202, 35.319741516073741 ], [ 127.567191141786552, 35.319226434923486 ], [ 127.572152658954991, 35.313457970016451 ], [ 127.568544096839588, 35.307976443687259 ], [ 127.563251214920086, 35.304730489528694 ], [ 127.553667965922543, 35.300112679554168 ], [ 127.548936653398286, 35.299831687837745 ], [ 127.547339100013247, 35.296891538510614 ], [ 127.540454891310006, 35.295008539108515 ], [ 127.528549487191839, 35.293210042875913 ], [ 127.522474839675866, 35.29654316636519 ], [ 127.515878631219309, 35.296675079314532 ], [ 127.497774900242504, 35.303269883889563 ], [ 127.488852590203393, 35.29532174961993 ], [ 127.478431813109935, 35.295064980715289 ], [ 127.464482038690662, 35.289856612607764 ], [ 127.459211735647415, 35.293911290317048 ], [ 127.442546285680351, 35.293139016828547 ], [ 127.437731097844335, 35.285835963126019 ], [ 127.434273476132532, 35.285126844363731 ], [ 127.43105386095246, 35.282150538074347 ], [ 127.430706468113655, 35.278271753214931 ], [ 127.428661439181099, 35.276920482836857 ], [ 127.421855500851251, 35.275811029363375 ], [ 127.410970208991913, 35.27755116418956 ], [ 127.390812237092817, 35.272967098455567 ] ] ] ] } }
]
}
