{
"type": "FeatureCollection",
"name": "46780",
"crs": { "type": "name", "properties": { "name": "urn:ogc:def:crs:OGC:1.3:CRS84" } },
"features": [
{ "type": "Feature", "properties": { "emd_cd": "46780250", "emd_nm": "보성읍" }, "geometry": { "type": "MultiPolygon", "coordinates": [ [ [ [ 127.011923799885565, 34.770524182253318 ], [ 127.023751589569258, 34.773078902445384 ], [ 127.031048495486232, 34.768085404288271 ], [ 127.034448174061467, 34.768449123997769 ], [ 127.039517404736358, 34.762296372584416 ], [ 127.054163646759548, 34.761766989864164 ], [ 127.057991474493974, 34.764491101002022 ], [ 127.061729698206847, 34.763821566974784 ], [ 127.059153787174807, 34.76635991501 ], [ 127.059155048041902, 34.768751200328133 ], [ 127.063111117065503, 34.771635159043115 ], [ 127.063369053276247, 34.777495466336767 ], [ 127.061449926058785, 34.780081791978034 ], [ 127.06319403364563, 34.782663118679686 ], [ 127.066695618326364, 34.783481349698285 ], [ 127.074750674433247, 34.789151878730948 ], [ 127.077846290189015, 34.787750959888882 ], [ 127.07743691706979, 34.789901871149858 ], [ 127.079520356212143, 34.792478681601708 ], [ 127.084439249744989, 34.793047442282607 ], [ 127.092219084276181, 34.789135225869344 ], [ 127.094919903951336, 34.790337608359202 ], [ 127.096245176203084, 34.79323184558595 ], [ 127.098277622597848, 34.792679980368391 ], [ 127.098143902886264, 34.790922330314189 ], [ 127.100638315059783, 34.788800064142386 ], [ 127.098778645781863, 34.786978654278478 ], [ 127.100573296419185, 34.781781397448682 ], [ 127.096853780193911, 34.777560602685654 ], [ 127.096303517944705, 34.773911993546506 ], [ 127.097977110192119, 34.772431317012888 ], [ 127.102101914103883, 34.772463699007417 ], [ 127.104201307747672, 34.769070995264009 ], [ 127.10712868060422, 34.768948925728751 ], [ 127.107129055665382, 34.764016296510015 ], [ 127.117906933594753, 34.761358156782904 ], [ 127.109391254680745, 34.743787355605342 ], [ 127.110163234615442, 34.733435159738775 ], [ 127.098737944961371, 34.725095220337337 ], [ 127.095597232825185, 34.719557367382599 ], [ 127.096513637996026, 34.718154271726917 ], [ 127.094259574750922, 34.711827930761814 ], [ 127.091567973242093, 34.713436202500233 ], [ 127.072375224750829, 34.712152944846778 ], [ 127.06907541004766, 34.715184442905361 ], [ 127.072234334463104, 34.720393171874711 ], [ 127.071025046652366, 34.724437960989661 ], [ 127.06546412835992, 34.72373087312949 ], [ 127.060584364922008, 34.725765166506932 ], [ 127.052678171790575, 34.724815994623548 ], [ 127.047384695972937, 34.728669293101113 ], [ 127.041013122928362, 34.726494450828469 ], [ 127.032356382563066, 34.732387339720383 ], [ 127.029048686569709, 34.732355314240714 ], [ 127.026204486203014, 34.739856685264563 ], [ 127.01960227732495, 34.740745565293757 ], [ 127.01459568530737, 34.738544219115212 ], [ 127.017480468245893, 34.745423918229086 ], [ 127.020448856821659, 34.748464020887639 ], [ 127.017453921809363, 34.753172779242519 ], [ 127.014302456847219, 34.754418061623589 ], [ 127.016224361663234, 34.756664997951546 ], [ 127.0160210655648, 34.761044633733015 ], [ 127.014360306067431, 34.760907725516233 ], [ 127.015408433777424, 34.762505347574503 ], [ 127.012742815570192, 34.763644858213901 ], [ 127.015750380991747, 34.764833307389218 ], [ 127.013719243797411, 34.765072719538338 ], [ 127.011923799885565, 34.770524182253318 ] ] ] ] } },
{ "type": "Feature", "properties": { "emd_cd": "46780253", "emd_nm": "벌교읍" }, "geometry": { "type": "MultiPolygon", "coordinates": [ [ [ [ 127.438635459427957, 34.774174849320751 ], [ 127.438962971940512, 34.774469567273314 ], [ 127.439031517801553, 34.774148078994351 ], [ 127.438635459427957, 34.774174849320751 ] ] ], [ [ [ 127.432986817376431, 34.776802111905695 ], [ 127.435738540536207, 34.775115086800376 ], [ 127.432599550405584, 34.775638276716762 ], [ 127.432986817376431, 34.776802111905695 ] ] ], [ [ [ 127.403283407676895, 34.781350428686054 ], [ 127.403494048585173, 34.781418672511926 ], [ 127.403483468108334, 34.781356862182939 ], [ 127.403283407676895, 34.781350428686054 ] ] ], [ [ [ 127.415736199553137, 34.781690484351806 ], [ 127.416632744064998, 34.781450370036076 ], [ 127.416496188048896, 34.781061682125369 ], [ 127.415736199553137, 34.781690484351806 ] ] ], [ [ [ 127.415640797805963, 34.786596844202371 ], [ 127.422310935302605, 34.784635798214119 ], [ 127.424307258867955, 34.782275751776531 ], [ 127.426441260818493, 34.782946093542108 ], [ 127.426228552931505, 34.78574832977052 ], [ 127.429106638898588, 34.783223323654418 ], [ 127.426750950757466, 34.780623450603677 ], [ 127.430145754882901, 34.779434446805332 ], [ 127.417771599766354, 34.781481364841888 ], [ 127.417984178678125, 34.783886706050161 ], [ 127.415640797805963, 34.786596844202371 ] ] ], [ [ [ 127.409416964245267, 34.786415398663827 ], [ 127.409609832043657, 34.786449618349124 ], [ 127.409607958206962, 34.786444062980756 ], [ 127.409416964245267, 34.786415398663827 ] ] ], [ [ [ 127.420949868560584, 34.79057892079377 ], [ 127.420224611001387, 34.790054422993798 ], [ 127.419848588800519, 34.790577239797109 ], [ 127.420949868560584, 34.79057892079377 ] ] ], [ [ [ 127.423066580991389, 34.797228711713728 ], [ 127.423570720880534, 34.797775285883013 ], [ 127.423593546388375, 34.797213273961134 ], [ 127.423066580991389, 34.797228711713728 ] ] ], [ [ [ 127.421748981698485, 34.798546473504103 ], [ 127.422020058120111, 34.79893365282156 ], [ 127.422161626089959, 34.798774922794216 ], [ 127.421748981698485, 34.798546473504103 ] ] ], [ [ [ 127.427798632064182, 34.802975964608379 ], [ 127.428254162452845, 34.803197725567372 ], [ 127.428123757124496, 34.802932468438996 ], [ 127.427798632064182, 34.802975964608379 ] ] ], [ [ [ 127.226127002692223, 34.842536343258097 ], [ 127.225621409088347, 34.846909800780764 ], [ 127.229149197291179, 34.856096551524715 ], [ 127.236802440077469, 34.856581661824194 ], [ 127.25168902956375, 34.862630543115294 ], [ 127.253024857829359, 34.867104549371362 ], [ 127.251948436700047, 34.868651636519104 ], [ 127.253837835096675, 34.872443375881247 ], [ 127.252569730457139, 34.876430938365182 ], [ 127.253939056774755, 34.880880733297673 ], [ 127.252480140623675, 34.884069051362516 ], [ 127.258291687548834, 34.885835476559635 ], [ 127.25961180343711, 34.889630965462082 ], [ 127.26262363753564, 34.892140720812073 ], [ 127.264871844658884, 34.889373294636201 ], [ 127.273866791594457, 34.890107673362401 ], [ 127.280274955214821, 34.893113127681595 ], [ 127.282886579603527, 34.897261760755434 ], [ 127.286320292673267, 34.897663434616369 ], [ 127.291879547262567, 34.901717130764183 ], [ 127.294784817259099, 34.900542269377226 ], [ 127.299622753933591, 34.901791378261812 ], [ 127.302518856439136, 34.900340692066081 ], [ 127.306503577577999, 34.903057511234138 ], [ 127.316454752274382, 34.894573379609575 ], [ 127.316319852310656, 34.891446123691388 ], [ 127.323246258733747, 34.887660590626716 ], [ 127.324821442436445, 34.882523866414424 ], [ 127.331053346233162, 34.888212309190905 ], [ 127.335836577661397, 34.889844435574162 ], [ 127.336507620831043, 34.882441320036271 ], [ 127.340333681082868, 34.877662764035279 ], [ 127.33878456564193, 34.873885608697826 ], [ 127.339628921948446, 34.870564752767194 ], [ 127.337556907109843, 34.867852835634004 ], [ 127.344153901342636, 34.865960526177275 ], [ 127.350356962823923, 34.867831898172398 ], [ 127.356354722793469, 34.864276044180663 ], [ 127.36210914372073, 34.867337025322428 ], [ 127.366742735327463, 34.867688131527188 ], [ 127.367265571455846, 34.862454997391211 ], [ 127.379020482282471, 34.852381023293859 ], [ 127.377240381970338, 34.849772746827938 ], [ 127.379467523620335, 34.847334514989548 ], [ 127.378958136830718, 34.845534461977806 ], [ 127.378679695598493, 34.845468811934325 ], [ 127.378009494362729, 34.84642645695817 ], [ 127.37768849679405, 34.84669478586968 ], [ 127.377093191518398, 34.84697582375054 ], [ 127.376754575578929, 34.847034900820979 ], [ 127.376405917757396, 34.846960493363611 ], [ 127.375030279766563, 34.847682768073831 ], [ 127.374259362067875, 34.847843409293688 ], [ 127.374196750432603, 34.847733477835249 ], [ 127.374856025702655, 34.84766107477278 ], [ 127.375741123637638, 34.847123728271754 ], [ 127.37764694746069, 34.846653765728838 ], [ 127.380270709092599, 34.842686886418321 ], [ 127.392003796875301, 34.83975968319055 ], [ 127.398808703733053, 34.842325133636983 ], [ 127.399468806367096, 34.844205095465327 ], [ 127.411689418741602, 34.838450620103998 ], [ 127.41591312578359, 34.834298081533142 ], [ 127.416884128986339, 34.830786792327039 ], [ 127.40119698807321, 34.824846767063939 ], [ 127.398163587064573, 34.827112044557516 ], [ 127.398727557724044, 34.826168785628411 ], [ 127.396126729496288, 34.825293115345481 ], [ 127.38929817299028, 34.828830189691338 ], [ 127.386918857797113, 34.83461807270416 ], [ 127.380243891173592, 34.837482078971519 ], [ 127.367450073489579, 34.835254458355124 ], [ 127.357524981569981, 34.838334330764866 ], [ 127.349612564455256, 34.844411029294427 ], [ 127.348152049629974, 34.843951631184019 ], [ 127.350597414436621, 34.842021580430753 ], [ 127.345041470967431, 34.841048560320772 ], [ 127.345098888703973, 34.83983778659055 ], [ 127.352203329515206, 34.840550001189321 ], [ 127.354126613514495, 34.836756456818065 ], [ 127.366778843572945, 34.831005713858545 ], [ 127.382936365205936, 34.826681651439571 ], [ 127.391914721021791, 34.814523391133854 ], [ 127.395574088352475, 34.813636452735707 ], [ 127.39752016486986, 34.816409298521364 ], [ 127.400172718423576, 34.817037112639667 ], [ 127.404161119032167, 34.814648271238411 ], [ 127.411217796872833, 34.815316481142304 ], [ 127.411808572333626, 34.813009498411581 ], [ 127.417803444502653, 34.81242929396749 ], [ 127.418422741114767, 34.811207798186004 ], [ 127.423029155245302, 34.812593906936669 ], [ 127.424970542858844, 34.816217516612461 ], [ 127.427796666111817, 34.813535716457217 ], [ 127.422041437463704, 34.80898369208154 ], [ 127.417860092124457, 34.809411804774768 ], [ 127.41276304429681, 34.802594046016807 ], [ 127.407824182388964, 34.801624776567259 ], [ 127.40646275623773, 34.803000876016021 ], [ 127.402662256558656, 34.799951480095039 ], [ 127.402656898640188, 34.798319998775007 ], [ 127.400242150153986, 34.798931404762321 ], [ 127.395092147367137, 34.796742766776703 ], [ 127.394363122005501, 34.79455349112672 ], [ 127.396132874424922, 34.793623504058672 ], [ 127.395132791661382, 34.791821929150515 ], [ 127.396609565100718, 34.791715077988563 ], [ 127.394762090138101, 34.790635341086208 ], [ 127.395391115291758, 34.79007062462464 ], [ 127.396797391771202, 34.789885604455151 ], [ 127.397268381606182, 34.789412261840411 ], [ 127.396792275412011, 34.789827769081199 ], [ 127.396205556071351, 34.789575847447267 ], [ 127.394989954743735, 34.790256926084353 ], [ 127.394756448676034, 34.790540261389033 ], [ 127.394724334097106, 34.790703275563949 ], [ 127.394790400998247, 34.791024348835855 ], [ 127.392854176565237, 34.791033574079819 ], [ 127.392445394104072, 34.791966180481133 ], [ 127.390578789759473, 34.789525287791761 ], [ 127.384712271886585, 34.791767480733 ], [ 127.387142533661873, 34.79752992958953 ], [ 127.383807166526594, 34.800195558245122 ], [ 127.383824350965838, 34.802658077542219 ], [ 127.381382848642957, 34.803193917904338 ], [ 127.380550132376982, 34.805583793117385 ], [ 127.371797885815766, 34.807506144993674 ], [ 127.363757928952452, 34.816849814431642 ], [ 127.357398494695545, 34.816252874019483 ], [ 127.354841616873955, 34.818845378506225 ], [ 127.352553729021238, 34.825388586626872 ], [ 127.347097889094428, 34.825162733237022 ], [ 127.340541962568665, 34.827736854544391 ], [ 127.337921039961017, 34.824443479151512 ], [ 127.330790925808387, 34.824040791373697 ], [ 127.327659898884363, 34.822295661748754 ], [ 127.318641960269503, 34.810808814986771 ], [ 127.312522889912273, 34.812023196295684 ], [ 127.297787972536014, 34.809130234432502 ], [ 127.291192968330122, 34.810708237796597 ], [ 127.286196856121066, 34.814246434774098 ], [ 127.283124533355291, 34.818855242253605 ], [ 127.283641694899558, 34.825592052675233 ], [ 127.278024069889909, 34.827729031076444 ], [ 127.276812101430977, 34.830337007124285 ], [ 127.274691668487293, 34.828827985748525 ], [ 127.271031326947849, 34.831543543288809 ], [ 127.260967815516722, 34.83377034240786 ], [ 127.256069429908479, 34.833634883223787 ], [ 127.254411546877279, 34.831504051586897 ], [ 127.247985174012925, 34.831841226143517 ], [ 127.247215829894756, 34.830531425234796 ], [ 127.241737991721934, 34.833993335373044 ], [ 127.231899674681301, 34.833437430672411 ], [ 127.224515676657063, 34.840143596147747 ], [ 127.226127002692223, 34.842536343258097 ] ] ], [ [ [ 127.454128709054231, 34.767126686988064 ], [ 127.454034400519475, 34.769376479879533 ], [ 127.455936172603231, 34.767640540948847 ], [ 127.454128709054231, 34.767126686988064 ] ] ], [ [ [ 127.447387752145971, 34.775621396334124 ], [ 127.448146390881732, 34.775952575627372 ], [ 127.447923131373102, 34.775488793875432 ], [ 127.447387752145971, 34.775621396334124 ] ] ], [ [ [ 127.471618023088908, 34.783574835140101 ], [ 127.475053967810084, 34.783854290510142 ], [ 127.475737360563457, 34.781927095911357 ], [ 127.473457922242957, 34.7830281729535 ], [ 127.471910706246604, 34.781845098361764 ], [ 127.471618023088908, 34.783574835140101 ] ] ], [ [ [ 127.47051715371272, 34.785016580641148 ], [ 127.470017705677833, 34.784575285850551 ], [ 127.469862768816853, 34.785116208277827 ], [ 127.47051715371272, 34.785016580641148 ] ] ], [ [ [ 127.459909227956487, 34.788407787190827 ], [ 127.461152044025127, 34.786305884862621 ], [ 127.460801269632029, 34.78415752273375 ], [ 127.458941560275846, 34.78756116447078 ], [ 127.459909227956487, 34.788407787190827 ] ] ], [ [ [ 127.479330201014875, 34.789003190842557 ], [ 127.477908139970054, 34.789073485947497 ], [ 127.477912517277574, 34.789549623747902 ], [ 127.478296912708828, 34.789581857839387 ], [ 127.479330201014875, 34.789003190842557 ] ] ], [ [ [ 127.439243838488153, 34.779750478032511 ], [ 127.444537784925288, 34.78111896042946 ], [ 127.443252417360213, 34.782853971383553 ], [ 127.444259329272015, 34.785257792994635 ], [ 127.44647420198315, 34.785131118530821 ], [ 127.449130060147837, 34.787592840188339 ], [ 127.449420958611881, 34.79077019702806 ], [ 127.446496016140784, 34.794431226147289 ], [ 127.449898460380069, 34.794904943379734 ], [ 127.448897880176091, 34.798224169963831 ], [ 127.45113747700367, 34.797291639409984 ], [ 127.450483657947231, 34.795522578914685 ], [ 127.453140178383322, 34.791846839328187 ], [ 127.454834902954502, 34.791961839825071 ], [ 127.455738223111823, 34.79445617699492 ], [ 127.458859712389113, 34.792276621392723 ], [ 127.461204177111568, 34.792619036618717 ], [ 127.460291736074666, 34.802287327918883 ], [ 127.462089832956508, 34.804916753421153 ], [ 127.464142661332559, 34.804916339359124 ], [ 127.470054159281844, 34.794976219044756 ], [ 127.467953633715197, 34.795576687117411 ], [ 127.469439100851176, 34.793594965834998 ], [ 127.464375457348041, 34.793465148403584 ], [ 127.464324275713182, 34.791711022313841 ], [ 127.466648698896165, 34.791326250300543 ], [ 127.465681659441074, 34.789344682627771 ], [ 127.468648709673005, 34.789647963958025 ], [ 127.47005848422279, 34.787153069004383 ], [ 127.468353473468326, 34.7879654991047 ], [ 127.465590328095004, 34.785982494687367 ], [ 127.462459474354375, 34.791466717330032 ], [ 127.459928868428193, 34.791680298403854 ], [ 127.458290640405664, 34.79005291488194 ], [ 127.452418663014612, 34.789084506787276 ], [ 127.454699685165536, 34.785383024871429 ], [ 127.452828059671603, 34.783441619796413 ], [ 127.454283196702505, 34.782467993766538 ], [ 127.451600767944782, 34.781097726136913 ], [ 127.453672442820434, 34.780262417336928 ], [ 127.45319985475146, 34.779235420607186 ], [ 127.447927874024174, 34.781112550352312 ], [ 127.44225394735912, 34.778355693361689 ], [ 127.443130813512326, 34.779682055963733 ], [ 127.439243838488153, 34.779750478032511 ] ] ], [ [ [ 127.472201985926674, 34.793767592704391 ], [ 127.476003382405324, 34.791314845482717 ], [ 127.471589501821839, 34.793643529882495 ], [ 127.472201985926674, 34.793767592704391 ] ] ], [ [ [ 127.447332750478111, 34.798029361696088 ], [ 127.447581951831211, 34.798364589143716 ], [ 127.448282641981976, 34.797870954606793 ], [ 127.447332750478111, 34.798029361696088 ] ] ], [ [ [ 127.436207980995178, 34.809682335415353 ], [ 127.444547613665222, 34.8104752577418 ], [ 127.445858509109314, 34.808778302358327 ], [ 127.443552156437249, 34.806793794068987 ], [ 127.436207980995178, 34.809682335415353 ] ] ], [ [ [ 127.451274868549092, 34.811539860337511 ], [ 127.451115928485834, 34.810331160799073 ], [ 127.450420828338821, 34.810666613232925 ], [ 127.451274868549092, 34.811539860337511 ] ] ] ] } },
{ "type": "Feature", "properties": { "emd_cd": "46780310", "emd_nm": "노동면" }, "geometry": { "type": "MultiPolygon", "coordinates": [ [ [ [ 127.08484655975829, 34.869111708442055 ], [ 127.086542668146123, 34.862792977481448 ], [ 127.082786379358041, 34.860180987698726 ], [ 127.083937540790274, 34.857185620296264 ], [ 127.082056869630691, 34.851718098788695 ], [ 127.088953776478249, 34.845805732628357 ], [ 127.086481041962017, 34.843750345290324 ], [ 127.0866965117402, 34.841166498470955 ], [ 127.082168678718219, 34.838376477228671 ], [ 127.082834992531858, 34.833581834135728 ], [ 127.080386737398456, 34.829910284309058 ], [ 127.08506819843528, 34.825217927742756 ], [ 127.08721833181211, 34.819265358398894 ], [ 127.084408879731129, 34.814099315854712 ], [ 127.084775700917135, 34.811724410545203 ], [ 127.08036008095884, 34.81043640602234 ], [ 127.07712402089409, 34.80622433207985 ], [ 127.078704788689393, 34.80442840274543 ], [ 127.077077917467761, 34.800798618774145 ], [ 127.079512431440861, 34.799255917114742 ], [ 127.08050063981689, 34.795513740887429 ], [ 127.084290702443212, 34.795682514197829 ], [ 127.087088586253088, 34.792116199913266 ], [ 127.079520356212143, 34.792478681601708 ], [ 127.07743691706979, 34.789901871149858 ], [ 127.077846290189015, 34.787750959888882 ], [ 127.074750674433247, 34.789151878730948 ], [ 127.066695618326364, 34.783481349698285 ], [ 127.06319403364563, 34.782663118679686 ], [ 127.061449926058785, 34.780081791978034 ], [ 127.063369053276247, 34.777495466336767 ], [ 127.063111117065503, 34.771635159043115 ], [ 127.059155048041902, 34.768751200328133 ], [ 127.059153787174807, 34.76635991501 ], [ 127.061729698206847, 34.763821566974784 ], [ 127.057991474493974, 34.764491101002022 ], [ 127.052771690670042, 34.761484180340346 ], [ 127.039517404736358, 34.762296372584416 ], [ 127.034448174061467, 34.768449123997769 ], [ 127.031048495486232, 34.768085404288271 ], [ 127.025518839365958, 34.771087742423752 ], [ 127.023751589569258, 34.773078902445384 ], [ 127.023933480024013, 34.778599186281582 ], [ 127.018318810950973, 34.781681397569052 ], [ 127.015835410989709, 34.787723365991582 ], [ 127.016670841010111, 34.794355122720027 ], [ 127.019655521684399, 34.800135769427207 ], [ 127.018411731010175, 34.801073044173108 ], [ 127.022036124185291, 34.809930775725618 ], [ 127.02046555203637, 34.812866299314763 ], [ 127.022478058016432, 34.816230158832056 ], [ 127.021572336829848, 34.821817717722141 ], [ 127.031352396102633, 34.823654732792292 ], [ 127.030696293971147, 34.832708646935693 ], [ 127.033371727422562, 34.836609678134622 ], [ 127.043753140704979, 34.838715141397905 ], [ 127.053650891163088, 34.84248931353229 ], [ 127.055265099993122, 34.846129901715166 ], [ 127.060716847074957, 34.846949110618155 ], [ 127.062494332570125, 34.852275616523897 ], [ 127.062313926756758, 34.858931353484735 ], [ 127.065832697575786, 34.863677902283712 ], [ 127.068726094820263, 34.863782583290352 ], [ 127.072231501212769, 34.867322456376506 ], [ 127.075524661275196, 34.866636973324219 ], [ 127.080476029377266, 34.869130168222263 ], [ 127.08484655975829, 34.869111708442055 ] ] ] ] } },
{ "type": "Feature", "properties": { "emd_cd": "46780320", "emd_nm": "미력면" }, "geometry": { "type": "MultiPolygon", "coordinates": [ [ [ [ 127.08934581043583, 34.846189050061803 ], [ 127.102561511763753, 34.849975920270957 ], [ 127.102925026420607, 34.845801484197317 ], [ 127.104583750310084, 34.84420063402105 ], [ 127.112833662031576, 34.84192637922331 ], [ 127.112472212369354, 34.835139370564654 ], [ 127.128410488531472, 34.836139568191776 ], [ 127.127733830526822, 34.821747506972329 ], [ 127.133191533607942, 34.819468323587536 ], [ 127.135354845862238, 34.815131169651494 ], [ 127.13456418062664, 34.811843665772876 ], [ 127.131165002408125, 34.809274544896262 ], [ 127.128104135993709, 34.798249003213201 ], [ 127.123862471082873, 34.795844394620651 ], [ 127.12249871431662, 34.791971424628535 ], [ 127.124879355945453, 34.789950517792633 ], [ 127.122385802747161, 34.787499457708201 ], [ 127.12320608312281, 34.782915981443161 ], [ 127.121678121855496, 34.78153781109615 ], [ 127.123105237466291, 34.780733452845624 ], [ 127.123670391066597, 34.776447869049477 ], [ 127.122341820901852, 34.773875892359008 ], [ 127.12691122220663, 34.767901642311827 ], [ 127.117906933594753, 34.761358156782904 ], [ 127.107129055665382, 34.764016296510015 ], [ 127.10712868060422, 34.768948925728751 ], [ 127.104201307747672, 34.769070995264009 ], [ 127.102101914103883, 34.772463699007417 ], [ 127.097977110192119, 34.772431317012888 ], [ 127.096303517944705, 34.773911993546506 ], [ 127.096853780193911, 34.777560602685654 ], [ 127.100573296419185, 34.781781397448682 ], [ 127.098778645781863, 34.786978654278478 ], [ 127.100544875435872, 34.78947730595916 ], [ 127.098143902886264, 34.790922330314189 ], [ 127.098277622597848, 34.792679980368391 ], [ 127.096245176203084, 34.79323184558595 ], [ 127.094919903951336, 34.790337608359202 ], [ 127.090682289841112, 34.789196720824918 ], [ 127.085722236876066, 34.792578873528285 ], [ 127.087138029646425, 34.793024460755511 ], [ 127.084290702443212, 34.795682514197829 ], [ 127.08050063981689, 34.795513740887429 ], [ 127.079512431440861, 34.799255917114742 ], [ 127.077077917467761, 34.800798618774145 ], [ 127.078704788689393, 34.80442840274543 ], [ 127.07712402089409, 34.80622433207985 ], [ 127.08036008095884, 34.81043640602234 ], [ 127.084775700917135, 34.811724410545203 ], [ 127.084408879731129, 34.814099315854712 ], [ 127.08721833181211, 34.819265358398894 ], [ 127.08506819843528, 34.825217927742756 ], [ 127.080386737398456, 34.829910284309058 ], [ 127.082834992531858, 34.833581834135728 ], [ 127.082168678718219, 34.838376477228671 ], [ 127.0866965117402, 34.841166498470955 ], [ 127.086481041962017, 34.843750345290324 ], [ 127.08934581043583, 34.846189050061803 ] ] ] ] } },
{ "type": "Feature", "properties": { "emd_cd": "46780330", "emd_nm": "겸백면" }, "geometry": { "type": "MultiPolygon", "coordinates": [ [ [ [ 127.112472212369354, 34.835139370564654 ], [ 127.114314344969259, 34.847108204404165 ], [ 127.123963872069851, 34.854569812213533 ], [ 127.123364370564715, 34.864467383085291 ], [ 127.127450166707376, 34.87084201859706 ], [ 127.129921968569661, 34.871311078609345 ], [ 127.13627745360121, 34.877019995041444 ], [ 127.1405842855945, 34.876706756798832 ], [ 127.144634970777972, 34.873255989674362 ], [ 127.151560982853525, 34.872230788504339 ], [ 127.149780937502413, 34.86790501647075 ], [ 127.143515267786512, 34.864992458552159 ], [ 127.14407354525791, 34.863016464230036 ], [ 127.150446633400804, 34.863164240904091 ], [ 127.159047893519102, 34.867071094861181 ], [ 127.157866785814804, 34.86299950323923 ], [ 127.15910278276597, 34.858944528192801 ], [ 127.162868242056675, 34.85617999326616 ], [ 127.163758046232502, 34.852990110878409 ], [ 127.163147476570145, 34.851019095612699 ], [ 127.159831848540009, 34.849676533733657 ], [ 127.161633720707329, 34.840710749664908 ], [ 127.164519697419138, 34.836996062805568 ], [ 127.168741930998493, 34.836928438861264 ], [ 127.175537015107579, 34.833798729597845 ], [ 127.176992124207572, 34.831858209986024 ], [ 127.176017448123972, 34.830202538157863 ], [ 127.177606326169013, 34.829139017851553 ], [ 127.18705465065959, 34.828084850249624 ], [ 127.192478982062141, 34.83089840059688 ], [ 127.193335856615676, 34.83363450941679 ], [ 127.211255454712628, 34.83459101942988 ], [ 127.211390333519958, 34.826837156738108 ], [ 127.213451381023745, 34.8259894195482 ], [ 127.210447066074821, 34.818447352891191 ], [ 127.212114839033745, 34.80904650192705 ], [ 127.201981790447348, 34.801644966081298 ], [ 127.184481598554939, 34.796324959075626 ], [ 127.178749282764514, 34.788454861795408 ], [ 127.170108180474188, 34.789958468719398 ], [ 127.164637065376652, 34.788691218599944 ], [ 127.164627412415399, 34.791522933737291 ], [ 127.16662784183562, 34.793888648492086 ], [ 127.163070012470428, 34.79618827387894 ], [ 127.15714704004705, 34.79312343909703 ], [ 127.152622176062977, 34.795127168501587 ], [ 127.146976444248594, 34.790591989940047 ], [ 127.141504657238258, 34.789002555750699 ], [ 127.138699501972113, 34.788911707497462 ], [ 127.135443710512632, 34.791340341435735 ], [ 127.124879355945453, 34.789950517792633 ], [ 127.12249871431662, 34.791971424628535 ], [ 127.123441542907656, 34.795242063752717 ], [ 127.127400200520256, 34.797072792807697 ], [ 127.13090727356682, 34.804786780592153 ], [ 127.131165002408125, 34.809274544896262 ], [ 127.13456418062664, 34.811843665772876 ], [ 127.135354845862238, 34.815131169651494 ], [ 127.133191533607942, 34.819468323587536 ], [ 127.127733830526822, 34.821747506972329 ], [ 127.128410488531472, 34.836139568191776 ], [ 127.112472212369354, 34.835139370564654 ] ] ] ] } },
{ "type": "Feature", "properties": { "emd_cd": "46780340", "emd_nm": "율어면" }, "geometry": { "type": "MultiPolygon", "coordinates": [ [ [ [ 127.224515676657063, 34.840143596147747 ], [ 127.21546964117158, 34.835258412583698 ], [ 127.193335856615676, 34.83363450941679 ], [ 127.192478982062141, 34.83089840059688 ], [ 127.18705465065959, 34.828084850249624 ], [ 127.177606326169013, 34.829139017851553 ], [ 127.176017448123972, 34.830202538157863 ], [ 127.176992124207572, 34.831858209986024 ], [ 127.175537015107579, 34.833798729597845 ], [ 127.168741930998493, 34.836928438861264 ], [ 127.164519697419138, 34.836996062805568 ], [ 127.161633720707329, 34.840710749664908 ], [ 127.159831848540009, 34.849676533733657 ], [ 127.163147476570145, 34.851019095612699 ], [ 127.163758046232502, 34.852990110878409 ], [ 127.162868242056675, 34.85617999326616 ], [ 127.15910278276597, 34.858944528192801 ], [ 127.157866785814804, 34.86299950323923 ], [ 127.159047893519102, 34.867071094861181 ], [ 127.14701886948329, 34.86245405314493 ], [ 127.143338924097208, 34.86448569145994 ], [ 127.149780937502413, 34.86790501647075 ], [ 127.151146771658532, 34.872028530111038 ], [ 127.159007335659027, 34.882058367343561 ], [ 127.161487146926547, 34.880937479716707 ], [ 127.161400857490847, 34.878901323972691 ], [ 127.165375646417473, 34.877741756854334 ], [ 127.172523360513864, 34.877759735158648 ], [ 127.178537721235827, 34.880035230913506 ], [ 127.178428511441894, 34.881932528032301 ], [ 127.182395855948414, 34.885199793941084 ], [ 127.182554190165973, 34.891886652980453 ], [ 127.189366185351872, 34.893693042699091 ], [ 127.189916531773193, 34.895859903913959 ], [ 127.194375826256831, 34.899083577231011 ], [ 127.207605330799723, 34.902202944939383 ], [ 127.211504114572662, 34.901994961762057 ], [ 127.217135948184492, 34.897894378339437 ], [ 127.223550949259405, 34.899918364979278 ], [ 127.226384522207667, 34.897941523641023 ], [ 127.227408165587292, 34.894965962084278 ], [ 127.236103597053727, 34.893968421536869 ], [ 127.242764407537635, 34.886653087903291 ], [ 127.251640755638803, 34.885629947352776 ], [ 127.253939056774755, 34.880880733297673 ], [ 127.25168902956375, 34.862630543115294 ], [ 127.236802440077469, 34.856581661824194 ], [ 127.229149197291179, 34.856096551524715 ], [ 127.224515676657063, 34.840143596147747 ] ] ] ] } },
{ "type": "Feature", "properties": { "emd_cd": "46780350", "emd_nm": "복내면" }, "geometry": { "type": "MultiPolygon", "coordinates": [ [ [ [ 127.088953776478249, 34.845805732628357 ], [ 127.082056869630691, 34.851718098788695 ], [ 127.083937540790274, 34.857185620296264 ], [ 127.082786379358041, 34.860180987698726 ], [ 127.086542668146123, 34.862792977481448 ], [ 127.084974610660851, 34.869589487368479 ], [ 127.089903165960052, 34.873736357789788 ], [ 127.088171586805728, 34.87713010129707 ], [ 127.088658990384957, 34.88035900378658 ], [ 127.086595805625578, 34.883018132253468 ], [ 127.088848720470622, 34.885011654314823 ], [ 127.081977758834583, 34.891810545519654 ], [ 127.085522774198267, 34.8960327881693 ], [ 127.079993686093715, 34.905351201135424 ], [ 127.082234204327747, 34.909296926863043 ], [ 127.079223199984085, 34.914160887139346 ], [ 127.081524757597677, 34.918604220425287 ], [ 127.082392014125944, 34.925925894450799 ], [ 127.086986497937232, 34.92790996615966 ], [ 127.090489764157454, 34.936345585523213 ], [ 127.100791303542778, 34.937699359271072 ], [ 127.116927815898322, 34.951717469826924 ], [ 127.119463485540194, 34.951389136785835 ], [ 127.121658432734819, 34.948130361062546 ], [ 127.132375532084467, 34.947811846300738 ], [ 127.134626170442189, 34.942229470893636 ], [ 127.140813199810111, 34.935785414068185 ], [ 127.145964211513657, 34.935071915161259 ], [ 127.15681658225428, 34.925631701996664 ], [ 127.163644501217064, 34.924524996417844 ], [ 127.158039584719617, 34.913794460461084 ], [ 127.161601223899652, 34.912207996373951 ], [ 127.165032976593977, 34.91282501484455 ], [ 127.165705451240527, 34.911069587893238 ], [ 127.170104906896455, 34.909973546598934 ], [ 127.169818851659159, 34.90729255869482 ], [ 127.171784508944555, 34.906379658214199 ], [ 127.175182016947915, 34.898812391493479 ], [ 127.184233525867484, 34.896000636755602 ], [ 127.18640568749494, 34.892563027651917 ], [ 127.181879586094269, 34.890917378807067 ], [ 127.182395855948414, 34.885199793941084 ], [ 127.178428511441894, 34.881932528032301 ], [ 127.178537721235827, 34.880035230913506 ], [ 127.172523360513864, 34.877759735158648 ], [ 127.161400857490847, 34.878901323972691 ], [ 127.161487146926547, 34.880937479716707 ], [ 127.159007335659027, 34.882058367343561 ], [ 127.151560982853525, 34.872230788504339 ], [ 127.144634970777972, 34.873255989674362 ], [ 127.14102282657214, 34.876556811712355 ], [ 127.13627745360121, 34.877019995041444 ], [ 127.129921968569661, 34.871311078609345 ], [ 127.127450166707376, 34.87084201859706 ], [ 127.123663270772468, 34.865429325085216 ], [ 127.123963872069851, 34.854569812213533 ], [ 127.114314344969259, 34.847108204404165 ], [ 127.112833662031576, 34.84192637922331 ], [ 127.104583750310084, 34.84420063402105 ], [ 127.101642474867404, 34.850286609382891 ], [ 127.093751633406754, 34.848755156132249 ], [ 127.088953776478249, 34.845805732628357 ] ] ] ] } },
{ "type": "Feature", "properties": { "emd_cd": "46780360", "emd_nm": "문덕면" }, "geometry": { "type": "MultiPolygon", "coordinates": [ [ [ [ 127.186457268373175, 34.893006614623395 ], [ 127.184233525867484, 34.896000636755602 ], [ 127.175182016947915, 34.898812391493479 ], [ 127.171784508944555, 34.906379658214199 ], [ 127.169818851659159, 34.90729255869482 ], [ 127.170104906896455, 34.909973546598934 ], [ 127.165705451240527, 34.911069587893238 ], [ 127.165032976593977, 34.91282501484455 ], [ 127.161601223899652, 34.912207996373951 ], [ 127.158039584719617, 34.913794460461084 ], [ 127.163644501217064, 34.924524996417844 ], [ 127.15681658225428, 34.925631701996664 ], [ 127.145964211513657, 34.935071915161259 ], [ 127.140813199810111, 34.935785414068185 ], [ 127.134626170442189, 34.942229470893636 ], [ 127.132375532084467, 34.947811846300738 ], [ 127.121658432734819, 34.948130361062546 ], [ 127.119463485540194, 34.951389136785835 ], [ 127.116927815898322, 34.951717469826924 ], [ 127.11437779790846, 34.954434252285708 ], [ 127.114568965685336, 34.957502827955928 ], [ 127.122313688207882, 34.960570599997553 ], [ 127.123258365076595, 34.962869427392512 ], [ 127.125807098780712, 34.963933198270396 ], [ 127.125919748786572, 34.967597662969872 ], [ 127.127864768210756, 34.968455743678838 ], [ 127.134698971758368, 34.965063646751382 ], [ 127.139325001409503, 34.965364357850163 ], [ 127.144524958627073, 34.963246331166168 ], [ 127.153705590837546, 34.96522562808849 ], [ 127.158876922198175, 34.969148104455641 ], [ 127.162179184994386, 34.968916873740092 ], [ 127.168636454128816, 34.972750221071976 ], [ 127.172272410298447, 34.973035955137753 ], [ 127.173858284323359, 34.976997183449612 ], [ 127.175845426079889, 34.977816485557284 ], [ 127.183380008135515, 34.968386686792485 ], [ 127.189050998386222, 34.967859430753585 ], [ 127.191108025601054, 34.971118874732582 ], [ 127.190919521000581, 34.978791456774395 ], [ 127.188906209878652, 34.979563765026221 ], [ 127.188898927852648, 34.981270069685692 ], [ 127.19626062513008, 34.987073087042575 ], [ 127.199946902306053, 34.986487827426998 ], [ 127.204980213338985, 34.975010913290639 ], [ 127.209043871465326, 34.973021430581888 ], [ 127.208992974944948, 34.971424668153787 ], [ 127.203668111658359, 34.967450963615143 ], [ 127.207843903370602, 34.964029136313307 ], [ 127.210620149963873, 34.958209607193922 ], [ 127.218990930546227, 34.957267912074322 ], [ 127.221216774959657, 34.955453054599701 ], [ 127.224798536024906, 34.947228223027892 ], [ 127.22379191652243, 34.939915957554497 ], [ 127.232271816344337, 34.936409402074716 ], [ 127.232290555974316, 34.934397600450943 ], [ 127.237219369979215, 34.927982481624056 ], [ 127.236561129203764, 34.925497462457976 ], [ 127.240436309810974, 34.921162316220418 ], [ 127.23465901412662, 34.920150232110323 ], [ 127.232141177279303, 34.917828231653189 ], [ 127.232856364439428, 34.916143403295024 ], [ 127.229377268890204, 34.909272255434828 ], [ 127.229818174820508, 34.906534520589673 ], [ 127.227766050801804, 34.904899605321361 ], [ 127.228613744709762, 34.901504523808129 ], [ 127.22544525523756, 34.899347931897786 ], [ 127.217135948184492, 34.897894378339437 ], [ 127.211504114572662, 34.901994961762057 ], [ 127.203723280129608, 34.901653183182674 ], [ 127.194375826256831, 34.899083577231011 ], [ 127.189916531773193, 34.895859903913959 ], [ 127.189626776079749, 34.893888557204789 ], [ 127.186457268373175, 34.893006614623395 ] ] ] ] } },
{ "type": "Feature", "properties": { "emd_cd": "46780370", "emd_nm": "조성면" }, "geometry": { "type": "MultiPolygon", "coordinates": [ [ [ [ 127.188991414183874, 34.797127763794208 ], [ 127.19032110307819, 34.799032732548618 ], [ 127.201981790447348, 34.801644966081298 ], [ 127.212114839033745, 34.80904650192705 ], [ 127.210447066074821, 34.818447352891191 ], [ 127.213451381023745, 34.8259894195482 ], [ 127.211390333519958, 34.826837156738108 ], [ 127.211255454712628, 34.83459101942988 ], [ 127.218709161933873, 34.836314492670702 ], [ 127.224515676657063, 34.840143596147747 ], [ 127.230452289273515, 34.833838339686338 ], [ 127.241737991721934, 34.833993335373044 ], [ 127.247215829894756, 34.830531425234796 ], [ 127.247985174012925, 34.831841226143517 ], [ 127.254411546877279, 34.831504051586897 ], [ 127.256069429908479, 34.833634883223787 ], [ 127.260967815516722, 34.83377034240786 ], [ 127.271031326947849, 34.831543543288809 ], [ 127.274691668487293, 34.828827985748525 ], [ 127.276812101430977, 34.830337007124285 ], [ 127.278024069889909, 34.827729031076444 ], [ 127.283641694899558, 34.825592052675233 ], [ 127.283124533355291, 34.818855242253605 ], [ 127.286196856121066, 34.814246434774098 ], [ 127.291198929252914, 34.810700174078363 ], [ 127.289038347808855, 34.80777249530243 ], [ 127.286586219233357, 34.807179815104696 ], [ 127.286296363039682, 34.803991887437881 ], [ 127.283705544191449, 34.799378507519414 ], [ 127.281106073490733, 34.798297820197639 ], [ 127.280362006620493, 34.794626663029405 ], [ 127.266258483868484, 34.786530916146596 ], [ 127.258808317362607, 34.788909104767797 ], [ 127.248509817913785, 34.789713207716495 ], [ 127.247378600215342, 34.778143019875635 ], [ 127.242504078664709, 34.774583181623363 ], [ 127.240162041650976, 34.770475791665007 ], [ 127.240701541584471, 34.760090248374297 ], [ 127.229000472161403, 34.757576357375427 ], [ 127.229557291276876, 34.761928088196811 ], [ 127.225586784029502, 34.767435718704355 ], [ 127.217629388434105, 34.767359236773203 ], [ 127.203032324184377, 34.774397633195939 ], [ 127.205628515080789, 34.776659216393362 ], [ 127.204063354703834, 34.780002229434182 ], [ 127.201316795801787, 34.780317143234626 ], [ 127.197835311390008, 34.784743210863233 ], [ 127.195689849788437, 34.791112163385307 ], [ 127.188991414183874, 34.797127763794208 ] ] ] ] } },
{ "type": "Feature", "properties": { "emd_cd": "46780380", "emd_nm": "득량면" }, "geometry": { "type": "MultiPolygon", "coordinates": [ [ [ [ 127.19953292394888, 34.710846628755306 ], [ 127.199760512944536, 34.711263525618172 ], [ 127.200233782074108, 34.71080918710291 ], [ 127.19953292394888, 34.710846628755306 ] ] ], [ [ [ 127.109169924713839, 34.742872992926117 ], [ 127.117906933594753, 34.761358156782904 ], [ 127.12691122220663, 34.767901642311827 ], [ 127.122341820901852, 34.773875892359008 ], [ 127.123670391066597, 34.776447869049477 ], [ 127.123105237466291, 34.780733452845624 ], [ 127.121678121855496, 34.78153781109615 ], [ 127.12320608312281, 34.782915981443161 ], [ 127.122385802747161, 34.787499457708201 ], [ 127.124879355945453, 34.789950517792633 ], [ 127.135443710512632, 34.791340341435735 ], [ 127.138699501972113, 34.788911707497462 ], [ 127.141504657238258, 34.789002555750699 ], [ 127.146976444248594, 34.790591989940047 ], [ 127.152622176062977, 34.795127168501587 ], [ 127.15714704004705, 34.79312343909703 ], [ 127.163070012470428, 34.79618827387894 ], [ 127.16662784183562, 34.793888648492086 ], [ 127.164627412415399, 34.791522933737291 ], [ 127.164637065376652, 34.788691218599944 ], [ 127.170108180474188, 34.789958468719398 ], [ 127.177146635711495, 34.788206035416081 ], [ 127.179429670285344, 34.788644083958523 ], [ 127.182792770706826, 34.795211256694031 ], [ 127.188991414183874, 34.797127763794208 ], [ 127.195689849788437, 34.791112163385307 ], [ 127.197835311390008, 34.784743210863233 ], [ 127.201316795801787, 34.780317143234626 ], [ 127.204063354703834, 34.780002229434182 ], [ 127.205628515080789, 34.776659216393362 ], [ 127.203032324184377, 34.774397633195939 ], [ 127.217629388434105, 34.767359236773203 ], [ 127.224909230948157, 34.767867018144649 ], [ 127.229857180767354, 34.75996367491436 ], [ 127.228128203556722, 34.758317277332679 ], [ 127.229310121512242, 34.757642636046178 ], [ 127.209448971113986, 34.738064904919504 ], [ 127.211372056431415, 34.737373744489119 ], [ 127.209284548673153, 34.737887796086888 ], [ 127.211254678612079, 34.732710625752276 ], [ 127.210848673760168, 34.729122641730818 ], [ 127.212773961716891, 34.728224480480371 ], [ 127.210190595288353, 34.728942198895368 ], [ 127.205718518423126, 34.721772002120368 ], [ 127.205744294110289, 34.718523095008855 ], [ 127.202290353394119, 34.714119810095212 ], [ 127.199213856362007, 34.713343952551718 ], [ 127.198246490621443, 34.705769500481402 ], [ 127.190811327591817, 34.704159446727978 ], [ 127.186835117536333, 34.696637602424481 ], [ 127.18750438339994, 34.6953801714264 ], [ 127.183998650912812, 34.695664815294997 ], [ 127.186463980557491, 34.694449441578797 ], [ 127.177515582094756, 34.691961738165702 ], [ 127.17543389350034, 34.692356513370562 ], [ 127.17476673118405, 34.695206725489811 ], [ 127.178171534116473, 34.696215836101445 ], [ 127.181076264108199, 34.701022016838508 ], [ 127.184443827656267, 34.702607879095069 ], [ 127.183919182563713, 34.706222389757457 ], [ 127.16507168077743, 34.711466922414942 ], [ 127.161546006406056, 34.715832477118248 ], [ 127.155959509722564, 34.712526432072139 ], [ 127.148745569686156, 34.712670075972227 ], [ 127.141186286761567, 34.718178029671698 ], [ 127.141255463039101, 34.723253056596512 ], [ 127.134494283891854, 34.723889873501932 ], [ 127.129563949417488, 34.72914180117202 ], [ 127.127092922722355, 34.729316852626106 ], [ 127.11975474780813, 34.735489311721757 ], [ 127.110163234615442, 34.733435159738775 ], [ 127.109169924713839, 34.742872992926117 ] ] ] ] } },
{ "type": "Feature", "properties": { "emd_cd": "46780390", "emd_nm": "회천면" }, "geometry": { "type": "MultiPolygon", "coordinates": [ [ [ [ 127.023846875130801, 34.677775869630011 ], [ 127.031664190362719, 34.680012827293297 ], [ 127.032561272268396, 34.683945539637875 ], [ 127.045021135371371, 34.688058509355152 ], [ 127.049362625994263, 34.692679464179093 ], [ 127.066420851536321, 34.698049290676352 ], [ 127.068960792526596, 34.705012877364325 ], [ 127.072816766053876, 34.709743945343853 ], [ 127.072375224750829, 34.712152944846778 ], [ 127.091567973242093, 34.713436202500233 ], [ 127.094259574750922, 34.711827930761814 ], [ 127.096513637996026, 34.718154271726917 ], [ 127.095597232825185, 34.719557367382599 ], [ 127.098737944961371, 34.725095220337337 ], [ 127.103021196825267, 34.727056590909271 ], [ 127.105872403977614, 34.731087395106762 ], [ 127.117495821191099, 34.735622416009015 ], [ 127.124407922521826, 34.732687532782414 ], [ 127.127092922722355, 34.729316852626106 ], [ 127.129563949417488, 34.72914180117202 ], [ 127.134494283891854, 34.723889873501932 ], [ 127.141255463039101, 34.723253056596512 ], [ 127.141186286761567, 34.718178029671698 ], [ 127.148745569686156, 34.712670075972227 ], [ 127.155959509722564, 34.712526432072139 ], [ 127.161709229353207, 34.715797143203908 ], [ 127.16507168077743, 34.711466922414942 ], [ 127.180272987872939, 34.708037640704944 ], [ 127.18493376380971, 34.704752956701967 ], [ 127.178171534116473, 34.696215836101445 ], [ 127.175104447569439, 34.695842062888161 ], [ 127.175466594056047, 34.691315404455857 ], [ 127.170639237912425, 34.693974539526117 ], [ 127.1720266809767, 34.691914855562899 ], [ 127.169389063250733, 34.692946880234565 ], [ 127.166482734069234, 34.691310793027554 ], [ 127.157949352686174, 34.691964350773375 ], [ 127.146699809376997, 34.694395850544282 ], [ 127.142958033946002, 34.692125115511601 ], [ 127.143172350278078, 34.69351857481476 ], [ 127.135222570089923, 34.701817998700157 ], [ 127.129536111834284, 34.702903066379051 ], [ 127.130381562434266, 34.70478870597551 ], [ 127.12878218647576, 34.707086010833748 ], [ 127.127703470140105, 34.702486367937219 ], [ 127.125315568074697, 34.701009774719758 ], [ 127.123982313400845, 34.702422127849104 ], [ 127.116715914017263, 34.694411461345574 ], [ 127.114764745749994, 34.69384032884205 ], [ 127.113782804434649, 34.695691472336541 ], [ 127.114135766231115, 34.693149691674087 ], [ 127.109840640045618, 34.684764980302973 ], [ 127.111191385507283, 34.680108451640209 ], [ 127.110337845408367, 34.681295132466182 ], [ 127.108755186341668, 34.681710560943777 ], [ 127.110473219334665, 34.679112957942785 ], [ 127.099460986323734, 34.675202145724015 ], [ 127.098116539850423, 34.671392258415018 ], [ 127.095172516316509, 34.669841669665054 ], [ 127.096132247652719, 34.668442841286293 ], [ 127.094499648040497, 34.670144280509682 ], [ 127.086173695806991, 34.669770518596103 ], [ 127.083856065333336, 34.667623258128302 ], [ 127.084974675601501, 34.667043780126612 ], [ 127.086633667915947, 34.664679782324811 ], [ 127.084380774703575, 34.667294016362355 ], [ 127.082870994424979, 34.665115445139222 ], [ 127.08568316979914, 34.66474205554379 ], [ 127.084286650516944, 34.664410899600568 ], [ 127.079344033305304, 34.666258218874013 ], [ 127.072968924419399, 34.663587607925102 ], [ 127.071971424143598, 34.661558956747655 ], [ 127.066005039712238, 34.665123391778224 ], [ 127.067196492539722, 34.662285275030357 ], [ 127.062348228904142, 34.6585838685412 ], [ 127.061699739917131, 34.656089665778502 ], [ 127.061429617707958, 34.653549525333382 ], [ 127.063047944930631, 34.65232527048115 ], [ 127.063606642345988, 34.653925223114925 ], [ 127.063549630173398, 34.651989819154352 ], [ 127.060006248425424, 34.65060694936404 ], [ 127.060886739344824, 34.649201923414658 ], [ 127.05977838509871, 34.650398774154567 ], [ 127.056405543007159, 34.648199481227778 ], [ 127.05297382286119, 34.641854085085257 ], [ 127.046140377327944, 34.634965829676233 ], [ 127.044592508827705, 34.64122687894583 ], [ 127.046181496993569, 34.644472513983914 ], [ 127.042018848626441, 34.654184135279543 ], [ 127.030219243966599, 34.662433704651818 ], [ 127.029028935300047, 34.669929606568012 ], [ 127.023846875130801, 34.677775869630011 ] ] ] ] } },
{ "type": "Feature", "properties": { "emd_cd": "46780400", "emd_nm": "웅치면" }, "geometry": { "type": "MultiPolygon", "coordinates": [ [ [ [ 127.01459568530737, 34.738544219115212 ], [ 127.01960227732495, 34.740745565293757 ], [ 127.026204486203014, 34.739856685264563 ], [ 127.029048686569709, 34.732355314240714 ], [ 127.032356382563066, 34.732387339720383 ], [ 127.041013122928362, 34.726494450828469 ], [ 127.047384695972937, 34.728669293101113 ], [ 127.052678171790575, 34.724815994623548 ], [ 127.060584364922008, 34.725765166506932 ], [ 127.06546412835992, 34.72373087312949 ], [ 127.071025046652366, 34.724437960989661 ], [ 127.072234334463104, 34.720393171874711 ], [ 127.06907541004766, 34.715184442905361 ], [ 127.072375224750829, 34.712152944846778 ], [ 127.072816766053876, 34.709743945343853 ], [ 127.068960792526596, 34.705012877364325 ], [ 127.06681939107014, 34.698386335895854 ], [ 127.049362625994263, 34.692679464179093 ], [ 127.045021135371371, 34.688058509355152 ], [ 127.032561272268396, 34.683945539637875 ], [ 127.031664190362719, 34.680012827293297 ], [ 127.023846875130801, 34.677775869630011 ], [ 127.018772898869116, 34.681698586026833 ], [ 127.002580963279215, 34.679871850757081 ], [ 126.988821765017121, 34.683124974330845 ], [ 126.987832652963547, 34.681549789075305 ], [ 126.979010225537678, 34.683067163678501 ], [ 126.980481772609082, 34.689289908357672 ], [ 126.977470076164522, 34.695163637641535 ], [ 126.973964851524727, 34.697360983828993 ], [ 126.974926865211742, 34.699996146808473 ], [ 126.971979928156216, 34.705364082125321 ], [ 126.972235281373869, 34.70890480261022 ], [ 126.975049376646027, 34.711090038974724 ], [ 126.979811358564035, 34.709896277407708 ], [ 126.981867018250327, 34.71085444791909 ], [ 126.988267426506823, 34.717362024167713 ], [ 126.988823132178709, 34.720714275204706 ], [ 126.992965842032746, 34.724045946583423 ], [ 126.998019031575467, 34.725304077914011 ], [ 127.00865004257426, 34.73482976818552 ], [ 127.013223813731187, 34.734445433787933 ], [ 127.015395105951853, 34.736626048957696 ], [ 127.01459568530737, 34.738544219115212 ] ] ] ] } }
]
}
