{
"type": "FeatureCollection",
"name": "46820",
"crs": { "type": "name", "properties": { "name": "urn:ogc:def:crs:OGC:1.3:CRS84" } },
"features": [
{ "type": "Feature", "properties": { "emd_cd": "46820250", "emd_nm": "해남읍" }, "geometry": { "type": "MultiPolygon", "coordinates": [ [ [ [ 126.609678070747577, 34.597646105054814 ], [ 126.619929577881024, 34.593709111057294 ], [ 126.620747405156649, 34.591543531972242 ], [ 126.625584539981787, 34.590603969731518 ], [ 126.629283004199834, 34.586974443110769 ], [ 126.63258866432794, 34.579954818524506 ], [ 126.632730675322051, 34.577723278252428 ], [ 126.629269186517845, 34.576558794203443 ], [ 126.631757509545992, 34.570017708509894 ], [ 126.629184937623947, 34.56675839520743 ], [ 126.630044625090747, 34.552798060688787 ], [ 126.6315325456832, 34.549222397223879 ], [ 126.629197561906906, 34.546062096571838 ], [ 126.618883319893797, 34.539275244578093 ], [ 126.612679426149668, 34.540376469146338 ], [ 126.61175284038076, 34.538909948516142 ], [ 126.604540389833716, 34.541693516492145 ], [ 126.599858750222481, 34.53971212110762 ], [ 126.596779894327781, 34.542751426382537 ], [ 126.59019954356296, 34.539012843736415 ], [ 126.581065450096304, 34.542084965789392 ], [ 126.578524585096091, 34.539640409895817 ], [ 126.576978790629227, 34.541075644330071 ], [ 126.576390840907962, 34.539964551743708 ], [ 126.569571575134077, 34.540069922763365 ], [ 126.560773446524166, 34.54308830950945 ], [ 126.555050046102153, 34.539477868471131 ], [ 126.55559059156829, 34.535263874780654 ], [ 126.552948618339997, 34.531947188035232 ], [ 126.548011546151741, 34.533382303791456 ], [ 126.54421252539268, 34.529902015305446 ], [ 126.54129272531064, 34.529333953747738 ], [ 126.539726624590813, 34.520450561566747 ], [ 126.536856788772397, 34.519991125717993 ], [ 126.521928196605003, 34.523295806782556 ], [ 126.515063256383769, 34.522006654990157 ], [ 126.499255390901851, 34.524619962759672 ], [ 126.480352945942542, 34.53038110233387 ], [ 126.491691808184171, 34.549515547306392 ], [ 126.513050620924545, 34.550503998222077 ], [ 126.519465837356165, 34.55352999765298 ], [ 126.522892152690261, 34.556675412443909 ], [ 126.5260633967291, 34.565974896873705 ], [ 126.532958041189971, 34.569519564636963 ], [ 126.535540647967963, 34.580433785601222 ], [ 126.542204949759025, 34.58441415339778 ], [ 126.545567191938076, 34.584937344604519 ], [ 126.547820297121277, 34.582099563130342 ], [ 126.556244892990549, 34.58136929403414 ], [ 126.563368551743167, 34.583768876905964 ], [ 126.568638422053212, 34.583392840004642 ], [ 126.569061383011544, 34.586653777577091 ], [ 126.573552414135733, 34.588515832725847 ], [ 126.57659923064044, 34.592491281747598 ], [ 126.584884041166703, 34.596260890669136 ], [ 126.602146407390961, 34.591022438226126 ], [ 126.605167219511898, 34.591855073703698 ], [ 126.609678070747577, 34.597646105054814 ] ] ] ] } },
{ "type": "Feature", "properties": { "emd_cd": "46820310", "emd_nm": "삼산면" }, "geometry": { "type": "MultiPolygon", "coordinates": [ [ [ [ 126.650053711231479, 34.486760776718242 ], [ 126.642629774686043, 34.483649394389339 ], [ 126.637398710639118, 34.484407919318187 ], [ 126.633926576027093, 34.481868668309218 ], [ 126.633926658520394, 34.47501177727387 ], [ 126.636728733401767, 34.471612174202761 ], [ 126.635418065309167, 34.465597482944403 ], [ 126.623981631008334, 34.45573390514771 ], [ 126.6207807457792, 34.455423158769776 ], [ 126.613994687571576, 34.461607409079775 ], [ 126.610595596812104, 34.471343312152207 ], [ 126.606924550192915, 34.47361007705652 ], [ 126.603278328809452, 34.473736366483209 ], [ 126.606346156542827, 34.481945920138301 ], [ 126.606555153277171, 34.490167035071124 ], [ 126.600675905586399, 34.49424132770551 ], [ 126.60007821283584, 34.496188110933986 ], [ 126.595746830318205, 34.49574726314367 ], [ 126.593752800925671, 34.499285514025118 ], [ 126.595344355939687, 34.502281886894323 ], [ 126.590009843420177, 34.507657370365621 ], [ 126.590961030879029, 34.511339475179447 ], [ 126.586136918250205, 34.511776292299743 ], [ 126.585234925362201, 34.508138894914353 ], [ 126.58213702909336, 34.505984600095886 ], [ 126.579525207539177, 34.506309080508736 ], [ 126.572763354521697, 34.512594703124073 ], [ 126.564910585103959, 34.512830832093996 ], [ 126.555290545413087, 34.509506273211116 ], [ 126.552438098219312, 34.505577294099297 ], [ 126.545692746144795, 34.504555056867197 ], [ 126.541105899466217, 34.508772500234727 ], [ 126.54201612393156, 34.511023659540889 ], [ 126.539706101218457, 34.512621345450619 ], [ 126.541069055732549, 34.528773678650019 ], [ 126.548011546151741, 34.533382303791456 ], [ 126.552948618339997, 34.531947188035232 ], [ 126.55559059156829, 34.535263874780654 ], [ 126.555050046102153, 34.539477868471131 ], [ 126.560773446524166, 34.54308830950945 ], [ 126.569571575134077, 34.540069922763365 ], [ 126.576390840907962, 34.539964551743708 ], [ 126.576978790629227, 34.541075644330071 ], [ 126.578524585096091, 34.539640409895817 ], [ 126.581065450096304, 34.542084965789392 ], [ 126.59019954356296, 34.539012843736415 ], [ 126.596779894327781, 34.542751426382537 ], [ 126.599858750222481, 34.53971212110762 ], [ 126.604540389833716, 34.541693516492145 ], [ 126.61175284038076, 34.538909948516142 ], [ 126.612679426149668, 34.540376469146338 ], [ 126.618460303181323, 34.539135223402369 ], [ 126.631288879263849, 34.548709191055075 ], [ 126.634177612570667, 34.548832620533716 ], [ 126.643393880356157, 34.541330290248034 ], [ 126.639908819071081, 34.53791036196354 ], [ 126.641140978863575, 34.536115601449914 ], [ 126.640064069732404, 34.533023956675265 ], [ 126.643359112606333, 34.530137815186443 ], [ 126.646439830408866, 34.523507196434778 ], [ 126.645601931573495, 34.520143727809469 ], [ 126.641808525427393, 34.517304458373545 ], [ 126.642617062347753, 34.511212721315289 ], [ 126.638138908911642, 34.508649364380531 ], [ 126.641251291758437, 34.5047879799735 ], [ 126.64088356189032, 34.499938757183756 ], [ 126.647469311933747, 34.493280082261833 ], [ 126.650053711231479, 34.486760776718242 ] ] ] ] } },
{ "type": "Feature", "properties": { "emd_cd": "46820320", "emd_nm": "화산면" }, "geometry": { "type": "MultiPolygon", "coordinates": [ [ [ [ 126.433335688413123, 34.43249170661722 ], [ 126.43769069120043, 34.43452897047127 ], [ 126.441280291157923, 34.432976675638898 ], [ 126.434851973203109, 34.431504994276537 ], [ 126.434866577134272, 34.429856477785833 ], [ 126.433335688413123, 34.43249170661722 ] ] ], [ [ [ 126.428141260764065, 34.434066913915004 ], [ 126.432430350526985, 34.435909847835923 ], [ 126.432803871579679, 34.435034027289625 ], [ 126.428141260764065, 34.434066913915004 ] ] ], [ [ [ 126.435176006654316, 34.435444148501766 ], [ 126.436189571929603, 34.434664128045405 ], [ 126.435006191641591, 34.435358968748446 ], [ 126.435176006654316, 34.435444148501766 ] ] ], [ [ [ 126.430713233108165, 34.439724201772847 ], [ 126.434062643479166, 34.438749936357027 ], [ 126.434954228889936, 34.437564927180944 ], [ 126.432045614360973, 34.436535517718994 ], [ 126.430713233108165, 34.439724201772847 ] ] ], [ [ [ 126.42329431293058, 34.446923833391416 ], [ 126.428418694194178, 34.444532749690865 ], [ 126.428887652886857, 34.443595352506044 ], [ 126.42386754320971, 34.445201881483527 ], [ 126.42329431293058, 34.446923833391416 ] ] ], [ [ [ 126.413279281043117, 34.456068047641118 ], [ 126.416392803861996, 34.455249088085942 ], [ 126.417624753907475, 34.455447001811443 ], [ 126.418402474243393, 34.457823191321467 ], [ 126.420163411311279, 34.453774418073003 ], [ 126.417921646837115, 34.451896969771617 ], [ 126.413279281043117, 34.456068047641118 ] ] ], [ [ [ 126.412433377612189, 34.461135413397585 ], [ 126.414258423219351, 34.463464194964018 ], [ 126.412282050928297, 34.466937059716678 ], [ 126.418074063733954, 34.459227134929058 ], [ 126.413326546523436, 34.459352398341281 ], [ 126.412433377612189, 34.461135413397585 ] ] ], [ [ [ 126.460260304081743, 34.426464338145159 ], [ 126.463234860604999, 34.429786951566584 ], [ 126.4654505775503, 34.42741551280217 ], [ 126.461255345573491, 34.425351805010713 ], [ 126.460260304081743, 34.426464338145159 ] ] ], [ [ [ 126.439973862177396, 34.429063579004648 ], [ 126.44023901586084, 34.428329557249249 ], [ 126.439450764055834, 34.42864102104479 ], [ 126.439973862177396, 34.429063579004648 ] ] ], [ [ [ 126.545692746144795, 34.504555056867197 ], [ 126.533771620960621, 34.498978415964181 ], [ 126.53282525047122, 34.49615873941319 ], [ 126.527286102439462, 34.496250252031601 ], [ 126.525900555553321, 34.493888327231261 ], [ 126.533666081040053, 34.485968099309929 ], [ 126.529680708327234, 34.484129557289471 ], [ 126.522692903506297, 34.474592058672755 ], [ 126.52722623459691, 34.464156939359825 ], [ 126.520476698150546, 34.459861068799924 ], [ 126.514394498851217, 34.459973362573429 ], [ 126.511057234862051, 34.456429334983575 ], [ 126.510022356306649, 34.452117721762839 ], [ 126.516119290463052, 34.446052075667879 ], [ 126.513484370973444, 34.445307576457154 ], [ 126.51542693364928, 34.44144086504798 ], [ 126.510661078654365, 34.439107063233827 ], [ 126.506740548597676, 34.440785000879302 ], [ 126.504196543245939, 34.43949903394325 ], [ 126.499297971319479, 34.436556069906914 ], [ 126.496331074513975, 34.431259301933615 ], [ 126.489785905379094, 34.435326625334376 ], [ 126.484008774703113, 34.434243713179278 ], [ 126.480937472796285, 34.430461947534432 ], [ 126.484168776352035, 34.425657450542346 ], [ 126.482262632840317, 34.425608151687264 ], [ 126.483354486568459, 34.424514940687978 ], [ 126.47661227539605, 34.427479454363059 ], [ 126.476134173382192, 34.430115773316558 ], [ 126.462185406301188, 34.445099084013805 ], [ 126.454317340890654, 34.448769572427189 ], [ 126.454675378444776, 34.450080622251562 ], [ 126.459481413045921, 34.4495049180751 ], [ 126.464734488482549, 34.454056877047883 ], [ 126.468134022148533, 34.448182534469439 ], [ 126.471766638576838, 34.446862352436547 ], [ 126.477626010631568, 34.45011365263489 ], [ 126.471447096217261, 34.455504292704831 ], [ 126.467322411181726, 34.45654551529077 ], [ 126.469054790409658, 34.459103122766706 ], [ 126.46818062122604, 34.461968114808151 ], [ 126.472235742144761, 34.468567113138384 ], [ 126.467278581360787, 34.471362292481167 ], [ 126.46396607531085, 34.469263421522427 ], [ 126.463078404727597, 34.468092462587542 ], [ 126.462691124115878, 34.467931778010282 ], [ 126.463055447817993, 34.469332052772003 ], [ 126.455776994751545, 34.477344996567126 ], [ 126.455751545263624, 34.480811238914924 ], [ 126.45589457250081, 34.482209552003397 ], [ 126.464250411589404, 34.481709068251064 ], [ 126.466428244793732, 34.485434981564111 ], [ 126.460075019302593, 34.490453293602613 ], [ 126.464884425473656, 34.494970855747603 ], [ 126.46465560475248, 34.496682900419742 ], [ 126.462695638483311, 34.498306780837083 ], [ 126.4591054144623, 34.496944430503049 ], [ 126.45652238332903, 34.501580925514141 ], [ 126.461025525359346, 34.503792057498849 ], [ 126.466780969593586, 34.504171965856337 ], [ 126.471528433403577, 34.506945033820429 ], [ 126.465111285746232, 34.516522635688681 ], [ 126.477956262019319, 34.526335401147058 ], [ 126.480352945942542, 34.53038110233387 ], [ 126.495983940007477, 34.525282547594436 ], [ 126.512894649486228, 34.522223361178774 ], [ 126.521928196605003, 34.523295806782556 ], [ 126.530100252785218, 34.520731467833642 ], [ 126.539726624590813, 34.520450561566747 ], [ 126.539706101218457, 34.512621345450619 ], [ 126.54201612393156, 34.511023659540889 ], [ 126.541105899466217, 34.508772500234727 ], [ 126.545692746144795, 34.504555056867197 ] ] ], [ [ [ 126.456984086115781, 34.490075922152513 ], [ 126.457963093119247, 34.489056091074687 ], [ 126.456353372679288, 34.48958865919127 ], [ 126.456984086115781, 34.490075922152513 ] ] ], [ [ [ 126.45934697343273, 34.490417596603734 ], [ 126.459771621310225, 34.49033346407434 ], [ 126.459261144683254, 34.490156113923909 ], [ 126.45934697343273, 34.490417596603734 ] ] ], [ [ [ 126.463043480308045, 34.495602970085024 ], [ 126.46268388136572, 34.495372735309651 ], [ 126.46269407557169, 34.495697262198092 ], [ 126.463043480308045, 34.495602970085024 ] ] ] ] } },
{ "type": "Feature", "properties": { "emd_cd": "46820330", "emd_nm": "현산면" }, "geometry": { "type": "MultiPolygon", "coordinates": [ [ [ [ 126.509704603246618, 34.439027472426716 ], [ 126.51542693364928, 34.44144086504798 ], [ 126.513484370973444, 34.445307576457154 ], [ 126.516119290463052, 34.446052075667879 ], [ 126.510588079145109, 34.450712031582086 ], [ 126.511057234862051, 34.456429334983575 ], [ 126.514394498851217, 34.459973362573429 ], [ 126.520476698150546, 34.459861068799924 ], [ 126.52722623459691, 34.464156939359825 ], [ 126.522692903506297, 34.474592058672755 ], [ 126.529680708327234, 34.484129557289471 ], [ 126.533666081040053, 34.485968099309929 ], [ 126.525900555553321, 34.493888327231261 ], [ 126.527286102439462, 34.496250252031601 ], [ 126.53282525047122, 34.49615873941319 ], [ 126.533771620960621, 34.498978415964181 ], [ 126.540288469600412, 34.502698427252056 ], [ 126.552438098219312, 34.505577294099297 ], [ 126.554157871695253, 34.508773704365872 ], [ 126.560304797465534, 34.511608179317179 ], [ 126.570054808427159, 34.513349799835339 ], [ 126.580138696678901, 34.506119820939155 ], [ 126.585234925362201, 34.508138894914353 ], [ 126.586136918250205, 34.511776292299743 ], [ 126.590961030879029, 34.511339475179447 ], [ 126.590009843420177, 34.507657370365621 ], [ 126.595344355939687, 34.502281886894323 ], [ 126.593752800925671, 34.499285514025118 ], [ 126.595746830318205, 34.49574726314367 ], [ 126.60007821283584, 34.496188110933986 ], [ 126.600675905586399, 34.49424132770551 ], [ 126.606555153277171, 34.490167035071124 ], [ 126.606346156542827, 34.481945920138301 ], [ 126.603278328809452, 34.473736366483209 ], [ 126.606924550192915, 34.47361007705652 ], [ 126.610595596812104, 34.471343312152207 ], [ 126.613994687571576, 34.461607409079775 ], [ 126.6207807457792, 34.455423158769776 ], [ 126.620036933218529, 34.451561507047614 ], [ 126.624915108778993, 34.446047471274959 ], [ 126.623796433823344, 34.439187399640922 ], [ 126.618414385160307, 34.426831001351438 ], [ 126.609148190369666, 34.417293197762042 ], [ 126.610039443804411, 34.414949684738133 ], [ 126.608649031836549, 34.412766296999862 ], [ 126.602203468843328, 34.411107773506089 ], [ 126.603455840235739, 34.401505152707117 ], [ 126.598687046241466, 34.39678206469965 ], [ 126.595982641028428, 34.396168200440336 ], [ 126.595329182030596, 34.3934814585214 ], [ 126.590715768753142, 34.390019310413315 ], [ 126.588787852162454, 34.384180165539405 ], [ 126.58139418197969, 34.388747307502676 ], [ 126.578249090888249, 34.394361050080235 ], [ 126.570080396773605, 34.396765828035107 ], [ 126.572437648358374, 34.402923611064885 ], [ 126.567710355306801, 34.402638915332204 ], [ 126.560632890905879, 34.404867041303007 ], [ 126.55986542545071, 34.40784438214618 ], [ 126.563030405392524, 34.418742322665828 ], [ 126.569303303300089, 34.419763012668021 ], [ 126.570237374426071, 34.421993533883281 ], [ 126.565134436027563, 34.423439231109512 ], [ 126.564469439788837, 34.421425342505202 ], [ 126.561706029512337, 34.421106322437993 ], [ 126.559794603930655, 34.424146505878376 ], [ 126.555689193929737, 34.424245080853531 ], [ 126.554484881177615, 34.422891290866751 ], [ 126.54117512139878, 34.427399728815239 ], [ 126.530512263224665, 34.425346703242951 ], [ 126.522845338125279, 34.419471475950203 ], [ 126.517324941037472, 34.422769948701344 ], [ 126.512373345561471, 34.422223993506435 ], [ 126.510710702233595, 34.425113276466909 ], [ 126.508763048422281, 34.424111101118498 ], [ 126.50845235888616, 34.428526087185091 ], [ 126.514059085442071, 34.433614710897672 ], [ 126.509704603246618, 34.439027472426716 ] ] ] ] } },
{ "type": "Feature", "properties": { "emd_cd": "46820340", "emd_nm": "송지면" }, "geometry": { "type": "MultiPolygon", "coordinates": [ [ [ [ 126.476968313762825, 34.332958609259038 ], [ 126.476315288077274, 34.333105949831896 ], [ 126.477188655762873, 34.333447956582468 ], [ 126.476968313762825, 34.332958609259038 ] ] ], [ [ [ 126.477231918487163, 34.336843954008984 ], [ 126.477003345938499, 34.336329402894698 ], [ 126.476706245701408, 34.336804923121171 ], [ 126.477231918487163, 34.336843954008984 ] ] ], [ [ [ 126.463945961894439, 34.34539443149751 ], [ 126.474098918334903, 34.342619695473488 ], [ 126.476587447393882, 34.345313579021848 ], [ 126.477676739160572, 34.343554884260847 ], [ 126.474966243611775, 34.34059831048522 ], [ 126.476898266375059, 34.337933061194533 ], [ 126.47490421543597, 34.337341825629728 ], [ 126.474558284749776, 34.338774907604268 ], [ 126.473255439931648, 34.337456540451761 ], [ 126.473532594635245, 34.335784692472707 ], [ 126.475186389465662, 34.335600483469356 ], [ 126.473781584405742, 34.331503580264958 ], [ 126.470872498968859, 34.334694272277716 ], [ 126.471953805442482, 34.337263045915996 ], [ 126.467054974419696, 34.339908103920514 ], [ 126.463945961894439, 34.34539443149751 ] ] ], [ [ [ 126.462618903000234, 34.363465723484587 ], [ 126.462500755479141, 34.36222873599921 ], [ 126.461570861696117, 34.362960247007649 ], [ 126.462618903000234, 34.363465723484587 ] ] ], [ [ [ 126.475028565980097, 34.371237585414903 ], [ 126.472542219287746, 34.371068571995657 ], [ 126.4721012006585, 34.371888326352817 ], [ 126.473715096891937, 34.372518274066458 ], [ 126.475028565980097, 34.371237585414903 ] ] ], [ [ [ 126.467923383156261, 34.380401918265903 ], [ 126.468506623633075, 34.380113018405957 ], [ 126.46771569074815, 34.38015865628315 ], [ 126.467923383156261, 34.380401918265903 ] ] ], [ [ [ 126.470509577065357, 34.382578497690517 ], [ 126.470806717595451, 34.38101466923117 ], [ 126.468869571688401, 34.380732248941698 ], [ 126.468722435201386, 34.381322116454676 ], [ 126.470509577065357, 34.382578497690517 ] ] ], [ [ [ 126.488838789885037, 34.410399829329435 ], [ 126.488246543017766, 34.4102576123326 ], [ 126.488640176804552, 34.41076788052537 ], [ 126.488838789885037, 34.410399829329435 ] ] ], [ [ [ 126.530250830568335, 34.297821869510571 ], [ 126.530292159796488, 34.297806532133848 ], [ 126.530220670896412, 34.29779771128846 ], [ 126.530250830568335, 34.297821869510571 ] ] ], [ [ [ 126.530303180576169, 34.298062204769934 ], [ 126.53034502682803, 34.297954261202179 ], [ 126.530289062498269, 34.297964421966626 ], [ 126.530303180576169, 34.298062204769934 ] ] ], [ [ [ 126.516798174981048, 34.339588084080482 ], [ 126.516771885693871, 34.338841873749708 ], [ 126.516100930587569, 34.339147499466506 ], [ 126.516798174981048, 34.339588084080482 ] ] ], [ [ [ 126.51403987720974, 34.34329098980205 ], [ 126.513789173674354, 34.343707901384604 ], [ 126.514140355884351, 34.343621018991925 ], [ 126.51403987720974, 34.34329098980205 ] ] ], [ [ [ 126.514672641502401, 34.344843510722441 ], [ 126.514084496754407, 34.344439722544344 ], [ 126.513754729200784, 34.344737407192461 ], [ 126.514672641502401, 34.344843510722441 ] ] ], [ [ [ 126.502121417719565, 34.354875175046601 ], [ 126.502219965643135, 34.354729458968343 ], [ 126.502088685191453, 34.354758608763689 ], [ 126.502121417719565, 34.354875175046601 ] ] ], [ [ [ 126.502137749632411, 34.355363671599264 ], [ 126.502505312768577, 34.355519923883989 ], [ 126.502436875199848, 34.355305755183011 ], [ 126.502137749632411, 34.355363671599264 ] ] ], [ [ [ 126.465050634459914, 34.362081259706962 ], [ 126.469159661596336, 34.36252936995345 ], [ 126.475809728811981, 34.355265302295315 ], [ 126.481449828349994, 34.358573162126518 ], [ 126.47627330517787, 34.364641272441069 ], [ 126.480392242998619, 34.361249021377176 ], [ 126.482189874046142, 34.361748161687807 ], [ 126.482615793226472, 34.364768648585489 ], [ 126.484994955378681, 34.363937818000529 ], [ 126.486734229554969, 34.362194949798528 ], [ 126.487161924203505, 34.362296782165451 ], [ 126.486776109369671, 34.36511540425056 ], [ 126.480545923581417, 34.36813485787701 ], [ 126.480138225910991, 34.370179036435175 ], [ 126.4780934229086, 34.370219522058669 ], [ 126.475811059035522, 34.372790400620602 ], [ 126.481256268479086, 34.373714506445367 ], [ 126.480840615498479, 34.376808957709962 ], [ 126.474175784201705, 34.37873416589224 ], [ 126.480822371288809, 34.381108830190584 ], [ 126.480959336331139, 34.383312797922983 ], [ 126.476828618479573, 34.383247655180739 ], [ 126.475960632972971, 34.381173340569298 ], [ 126.470889637622747, 34.383431309474204 ], [ 126.471873772663898, 34.384668952496959 ], [ 126.474361367970388, 34.383312497668754 ], [ 126.478003155777543, 34.386422987673903 ], [ 126.482432203381677, 34.385131520707269 ], [ 126.484346744426276, 34.386398364043949 ], [ 126.483273739933239, 34.389268721782614 ], [ 126.486370473866714, 34.385723972509808 ], [ 126.490167260980229, 34.386114060012048 ], [ 126.496346162109816, 34.383551759698427 ], [ 126.498169364832165, 34.388944645659997 ], [ 126.49134392687894, 34.392244400021788 ], [ 126.494808974986668, 34.393244166377215 ], [ 126.494493532246437, 34.394277253263482 ], [ 126.491978199749425, 34.395788346623419 ], [ 126.490449898398623, 34.394860254520147 ], [ 126.489580580659052, 34.396919709369428 ], [ 126.491031471689666, 34.399416525234571 ], [ 126.486897649887666, 34.401044357338243 ], [ 126.492335321953703, 34.405054396050595 ], [ 126.490408075112754, 34.406131757086314 ], [ 126.489521720595619, 34.404146864101037 ], [ 126.487201503208681, 34.408293537863479 ], [ 126.492003802705412, 34.408571172923615 ], [ 126.498665026743865, 34.40536422088968 ], [ 126.508245605118219, 34.406127802843528 ], [ 126.507416952152738, 34.407423329287532 ], [ 126.510430920393006, 34.410642916590191 ], [ 126.516854082877941, 34.414308254144835 ], [ 126.512373345561471, 34.422223993506435 ], [ 126.517324941037472, 34.422769948701344 ], [ 126.522845338125279, 34.419471475950203 ], [ 126.530512263224665, 34.425346703242951 ], [ 126.540671618808432, 34.427359097775728 ], [ 126.554484881177615, 34.422891290866751 ], [ 126.555689193929737, 34.424245080853531 ], [ 126.559794603930655, 34.424146505878376 ], [ 126.561706029512337, 34.421106322437993 ], [ 126.564469439788837, 34.421425342505202 ], [ 126.565134436027563, 34.423439231109512 ], [ 126.570137044045367, 34.422046627451714 ], [ 126.569303303300089, 34.419763012668021 ], [ 126.563030405392524, 34.418742322665828 ], [ 126.55986542545071, 34.40784438214618 ], [ 126.560632890905879, 34.404867041303007 ], [ 126.567710355306801, 34.402638915332204 ], [ 126.572437648358374, 34.402923611064885 ], [ 126.570080396773605, 34.396765828035107 ], [ 126.578249090888249, 34.394361050080235 ], [ 126.58139418197969, 34.388747307502676 ], [ 126.588787852162454, 34.384180165539405 ], [ 126.582241084950269, 34.379910168617414 ], [ 126.579618484621051, 34.374295047426983 ], [ 126.575636593481619, 34.370329168129921 ], [ 126.575612131505324, 34.366575129181705 ], [ 126.572639430959327, 34.36470386204882 ], [ 126.565300334630976, 34.353562307789339 ], [ 126.565721743280278, 34.350784023308321 ], [ 126.561542154455708, 34.344040702282598 ], [ 126.566428174971364, 34.337455561073092 ], [ 126.564007484254617, 34.333953455056033 ], [ 126.573329471309776, 34.329495828606319 ], [ 126.586242371512569, 34.32980082426986 ], [ 126.593663500312587, 34.32140646570933 ], [ 126.598793799952432, 34.312579115508768 ], [ 126.593824678842878, 34.313654762716602 ], [ 126.58526367867465, 34.320200498787806 ], [ 126.557933178534498, 34.321773181604868 ], [ 126.554019626790051, 34.316638350963579 ], [ 126.551981077881877, 34.316549341701602 ], [ 126.549155467895375, 34.309247941842955 ], [ 126.54458218347709, 34.303285024816034 ], [ 126.537453739287571, 34.304044248542823 ], [ 126.529895167778491, 34.300794905697202 ], [ 126.528897259065346, 34.301611562075365 ], [ 126.529517671929312, 34.298349473844183 ], [ 126.530065308832036, 34.298332659878184 ], [ 126.530379041236714, 34.298978968285063 ], [ 126.532272882267293, 34.299753079855613 ], [ 126.527969437254029, 34.296765367398422 ], [ 126.528053354725301, 34.293525711959752 ], [ 126.522287917679748, 34.292919438918084 ], [ 126.521651477585635, 34.295840916831487 ], [ 126.516697565623033, 34.296086290263986 ], [ 126.517163457613847, 34.303983084916815 ], [ 126.514905707034757, 34.30610943353291 ], [ 126.517490095944652, 34.306422373455433 ], [ 126.516112078951934, 34.3088607068157 ], [ 126.519596086646246, 34.310175783529452 ], [ 126.519904663446624, 34.312550339213473 ], [ 126.517828129459261, 34.316205745377196 ], [ 126.514457696709542, 34.315795423006911 ], [ 126.515482228594678, 34.317339297954675 ], [ 126.513038771029144, 34.319118858561914 ], [ 126.516372486718836, 34.321051491275036 ], [ 126.516753010861649, 34.324082468089713 ], [ 126.518600254317036, 34.32409672289166 ], [ 126.518299956146834, 34.323064584961372 ], [ 126.521213638141973, 34.324086235774509 ], [ 126.521229911288543, 34.326196751039191 ], [ 126.524533378782181, 34.328505324141624 ], [ 126.51893555053509, 34.328562729353784 ], [ 126.518882502129941, 34.328737377800152 ], [ 126.524564712269111, 34.328552196200583 ], [ 126.526709241650536, 34.331329886287236 ], [ 126.527176085617626, 34.335267874493034 ], [ 126.525502618306845, 34.338840480051815 ], [ 126.519288514798632, 34.344679513981859 ], [ 126.522221712663196, 34.346117540621499 ], [ 126.522190728367221, 34.349573207552474 ], [ 126.520114462380604, 34.351539042753437 ], [ 126.521645159436403, 34.352971038595847 ], [ 126.521673571807028, 34.357065566155036 ], [ 126.517996322917597, 34.357766069219416 ], [ 126.520738284748887, 34.358401596665622 ], [ 126.520530587687603, 34.360463632407367 ], [ 126.514393988394573, 34.364165257259963 ], [ 126.505184435481198, 34.36576512563331 ], [ 126.501382576032995, 34.364118210496379 ], [ 126.50121454985873, 34.359121142371535 ], [ 126.499468209455046, 34.359604849285709 ], [ 126.498283152265898, 34.357205190604276 ], [ 126.495506050511594, 34.358862440617763 ], [ 126.493193872302697, 34.356198494559422 ], [ 126.492476623649111, 34.355952652476425 ], [ 126.495000953203586, 34.359404762474306 ], [ 126.490881268239647, 34.359645523777957 ], [ 126.484408759035063, 34.354592025010284 ], [ 126.480608867464412, 34.353250772727755 ], [ 126.479196658733869, 34.354245901615343 ], [ 126.478079586457341, 34.349296104989286 ], [ 126.476440139116789, 34.34826783933147 ], [ 126.475044558962267, 34.348206065418637 ], [ 126.476678254841829, 34.350418015589561 ], [ 126.474536789255353, 34.350860811728523 ], [ 126.472878083877163, 34.349891596733748 ], [ 126.472754157614744, 34.348733081010032 ], [ 126.473934329642688, 34.348136670896913 ], [ 126.473660864692633, 34.347997884464988 ], [ 126.471079981507046, 34.348596211012072 ], [ 126.471566814663788, 34.354595853061355 ], [ 126.466045458759453, 34.357684763317152 ], [ 126.465050634459914, 34.362081259706962 ] ] ] ] } },
{ "type": "Feature", "properties": { "emd_cd": "46820350", "emd_nm": "북평면" }, "geometry": { "type": "MultiPolygon", "coordinates": [ [ [ [ 126.59966357933142, 34.312056773173865 ], [ 126.59951892789023, 34.31178251250936 ], [ 126.599511437767205, 34.311986455099102 ], [ 126.59966357933142, 34.312056773173865 ] ] ], [ [ [ 126.609998691710018, 34.320870615035197 ], [ 126.610119536225824, 34.320467439334799 ], [ 126.609681111269495, 34.320520333659871 ], [ 126.609998691710018, 34.320870615035197 ] ] ], [ [ [ 126.6033905017118, 34.335485690412426 ], [ 126.604042906385985, 34.337536505553096 ], [ 126.604582888130423, 34.3375096979685 ], [ 126.604992013542457, 34.336700349998488 ], [ 126.604706456421169, 34.336231634986859 ], [ 126.6033905017118, 34.335485690412426 ] ] ], [ [ [ 126.610844035380424, 34.341891637532974 ], [ 126.611179628358855, 34.341843892914682 ], [ 126.611053074381445, 34.341702635099885 ], [ 126.610844035380424, 34.341891637532974 ] ] ], [ [ [ 126.61688567448212, 34.365359095731769 ], [ 126.616624131653836, 34.36489763416273 ], [ 126.616421641187443, 34.365089983211099 ], [ 126.61688567448212, 34.365359095731769 ] ] ], [ [ [ 126.589171508462798, 34.385224818763128 ], [ 126.590715768753142, 34.390019310413315 ], [ 126.595329182030596, 34.3934814585214 ], [ 126.595982641028428, 34.396168200440336 ], [ 126.598687046241466, 34.39678206469965 ], [ 126.603455840235739, 34.401505152707117 ], [ 126.602203468843328, 34.411107773506089 ], [ 126.608649031836549, 34.412766296999862 ], [ 126.610039443804411, 34.414949684738133 ], [ 126.609148190369666, 34.417293197762042 ], [ 126.613978430948634, 34.42100827954453 ], [ 126.619679407367286, 34.429357004713921 ], [ 126.624919788997957, 34.44292777917773 ], [ 126.624915108778993, 34.446047471274959 ], [ 126.620036933218529, 34.451561507047614 ], [ 126.6207807457792, 34.455423158769776 ], [ 126.623981631008334, 34.45573390514771 ], [ 126.635418065309167, 34.465597482944403 ], [ 126.64654820016969, 34.457077860132316 ], [ 126.646674676414122, 34.453843552176195 ], [ 126.651261003126521, 34.449352288775003 ], [ 126.656892191165767, 34.44689261085324 ], [ 126.657777504790005, 34.445649751145908 ], [ 126.65222863076238, 34.441894220019662 ], [ 126.652191546419289, 34.440061455311572 ], [ 126.66443271332264, 34.427263766846174 ], [ 126.660245322262469, 34.425941096642681 ], [ 126.659095735262071, 34.421719817791086 ], [ 126.660716371496875, 34.42136861774501 ], [ 126.654921078992103, 34.421157894959642 ], [ 126.650684144197058, 34.423522694826609 ], [ 126.651102195954039, 34.417738531310697 ], [ 126.646259783381083, 34.418445888657871 ], [ 126.64752484374398, 34.413274188956315 ], [ 126.643823383449359, 34.412031671748018 ], [ 126.645743527549641, 34.408721033269053 ], [ 126.63489730588924, 34.412256726951583 ], [ 126.632258900439382, 34.408777373989814 ], [ 126.63398168873853, 34.406670106540943 ], [ 126.631255605442036, 34.407140167786487 ], [ 126.628557658110608, 34.402579900637143 ], [ 126.627100379339382, 34.402264086826555 ], [ 126.623501985453302, 34.408236581140279 ], [ 126.615638358059655, 34.401922439597762 ], [ 126.616876507872902, 34.40000324342305 ], [ 126.620656467211589, 34.399210709185752 ], [ 126.621627383954177, 34.396503818683115 ], [ 126.620057545636399, 34.392733930064864 ], [ 126.610787683336042, 34.386060234386669 ], [ 126.612482138591503, 34.384674404563661 ], [ 126.613733475714838, 34.379093353632889 ], [ 126.62070613815709, 34.378545678077202 ], [ 126.618202847479097, 34.372818718312189 ], [ 126.621421671350859, 34.370519480480752 ], [ 126.620067333486318, 34.370680272816756 ], [ 126.618500303799564, 34.366519312434477 ], [ 126.614928182856588, 34.364591842269888 ], [ 126.616118732177384, 34.363140611863393 ], [ 126.619027640989742, 34.364283262386124 ], [ 126.619938419239134, 34.359083680896724 ], [ 126.614748781215027, 34.356899355967357 ], [ 126.614073919427256, 34.35412229215094 ], [ 126.610873495122746, 34.353648762501599 ], [ 126.606372001377125, 34.349547007202496 ], [ 126.604176430950872, 34.35059452115857 ], [ 126.600649149539791, 34.348725626266862 ], [ 126.60454689817152, 34.344991642382425 ], [ 126.60860701486439, 34.345240918617968 ], [ 126.609464961201724, 34.344943812509115 ], [ 126.607902042131855, 34.341113094949783 ], [ 126.604138229493699, 34.340112292824919 ], [ 126.603184409109844, 34.337824233234649 ], [ 126.600602303680247, 34.336860387757149 ], [ 126.603228004324052, 34.334830704562819 ], [ 126.600260797250755, 34.336075893117979 ], [ 126.59833141975065, 34.33542526914313 ], [ 126.600958517513988, 34.333391681319249 ], [ 126.603714833324432, 34.333656265598684 ], [ 126.603584783879271, 34.327765963676889 ], [ 126.60167421259915, 34.325491327997007 ], [ 126.602934801125727, 34.323740073751253 ], [ 126.600972577217689, 34.31919318976081 ], [ 126.605956131322259, 34.316105152519938 ], [ 126.604780424515582, 34.314827508140517 ], [ 126.602018755737575, 34.315473707198969 ], [ 126.599381339296443, 34.312543002949617 ], [ 126.586242371512569, 34.32980082426986 ], [ 126.573329471309776, 34.329495828606319 ], [ 126.56429519112406, 34.333524581331432 ], [ 126.566428174971364, 34.337455561073092 ], [ 126.561542154455708, 34.344040702282598 ], [ 126.565721743280278, 34.350784023308321 ], [ 126.565830238240068, 34.354564612755823 ], [ 126.572639430959327, 34.36470386204882 ], [ 126.575612131505324, 34.366575129181705 ], [ 126.575636593481619, 34.370329168129921 ], [ 126.579618484621051, 34.374295047426983 ], [ 126.582241084950269, 34.379910168617414 ], [ 126.589171508462798, 34.385224818763128 ] ] ], [ [ [ 126.619467382758828, 34.336521173528418 ], [ 126.618940421049174, 34.336380089579208 ], [ 126.618809336094486, 34.336675632587685 ], [ 126.619467382758828, 34.336521173528418 ] ] ], [ [ [ 126.619246742414418, 34.338506115950189 ], [ 126.618596978682888, 34.337362483705348 ], [ 126.616576852075298, 34.338113116021567 ], [ 126.616842810352736, 34.340565595916125 ], [ 126.619246742414418, 34.338506115950189 ] ] ], [ [ [ 126.62544609656247, 34.404013373220835 ], [ 126.625744500892708, 34.403477551534955 ], [ 126.625487674519775, 34.403446888336887 ], [ 126.62544609656247, 34.404013373220835 ] ] ], [ [ [ 126.645873846498517, 34.404795760070769 ], [ 126.646954750826083, 34.403768824236217 ], [ 126.644970534590072, 34.4043145284068 ], [ 126.645873846498517, 34.404795760070769 ] ] ], [ [ [ 126.651590686374149, 34.412208908957695 ], [ 126.652889398162273, 34.41216432444412 ], [ 126.652454631027794, 34.411617729022687 ], [ 126.651590686374149, 34.412208908957695 ] ] ], [ [ [ 126.648488605336183, 34.413459383338974 ], [ 126.648791264309452, 34.412761552936587 ], [ 126.648309873336942, 34.41338402844201 ], [ 126.648488605336183, 34.413459383338974 ] ] ] ] } },
{ "type": "Feature", "properties": { "emd_cd": "46820360", "emd_nm": "북일면" }, "geometry": { "type": "MultiPolygon", "coordinates": [ [ [ [ 126.681041853081837, 34.423741695273264 ], [ 126.682060124052356, 34.424473917682647 ], [ 126.68162043924994, 34.423469490279274 ], [ 126.681041853081837, 34.423741695273264 ] ] ], [ [ [ 126.702328444201157, 34.435134746596397 ], [ 126.706546275167355, 34.433721279449273 ], [ 126.713865861538338, 34.434826929768512 ], [ 126.707366939824439, 34.433049640524054 ], [ 126.702328444201157, 34.435134746596397 ] ] ], [ [ [ 126.733480824042587, 34.434936730011472 ], [ 126.733591999859016, 34.434662479298453 ], [ 126.733387873772244, 34.434821725568042 ], [ 126.733480824042587, 34.434936730011472 ] ] ], [ [ [ 126.733169199051318, 34.445856877039702 ], [ 126.734263063412513, 34.446074566652499 ], [ 126.733590264563546, 34.445365883757646 ], [ 126.733169199051318, 34.445856877039702 ] ] ], [ [ [ 126.635056894412742, 34.467625396026754 ], [ 126.636728733401767, 34.471612174202761 ], [ 126.633926658520394, 34.47501177727387 ], [ 126.633926576027093, 34.481868668309218 ], [ 126.637398710639118, 34.484407919318187 ], [ 126.642629774686043, 34.483649394389339 ], [ 126.651650433348991, 34.487504400242784 ], [ 126.658075046230593, 34.487673294763262 ], [ 126.66939899220543, 34.501845128499419 ], [ 126.672596561710805, 34.50284738583543 ], [ 126.6787350746269, 34.50966854554941 ], [ 126.688026953332653, 34.511190692483197 ], [ 126.689801488498347, 34.51015423207307 ], [ 126.685053759456224, 34.503528702255323 ], [ 126.686307943513924, 34.500010636563317 ], [ 126.682948348406669, 34.489423834955318 ], [ 126.683776373657722, 34.475064074028523 ], [ 126.682270007948617, 34.473961190953474 ], [ 126.683593081493811, 34.471209927716089 ], [ 126.681641578062255, 34.470752129257441 ], [ 126.689865017573112, 34.468079283204354 ], [ 126.691969618602911, 34.470314281319212 ], [ 126.69771264749339, 34.471089239458671 ], [ 126.716603536307204, 34.470527944054297 ], [ 126.719391954218167, 34.466318040525486 ], [ 126.734863678042444, 34.455606778506116 ], [ 126.728713271775803, 34.445952320607262 ], [ 126.724613673565813, 34.443403290274489 ], [ 126.725491398422065, 34.44222346314281 ], [ 126.725146686930344, 34.441659544367518 ], [ 126.72461949867008, 34.443306468913526 ], [ 126.724442602712912, 34.441813579403785 ], [ 126.718930547674546, 34.445668600944828 ], [ 126.711594557733747, 34.442664286119857 ], [ 126.711582777288839, 34.440558192734663 ], [ 126.713279775273932, 34.439561720157791 ], [ 126.6988680213137, 34.440742450045114 ], [ 126.687928401188103, 34.434155849933404 ], [ 126.690044655324371, 34.432408695759236 ], [ 126.684947580677971, 34.428738857969151 ], [ 126.685419183451984, 34.430088253094418 ], [ 126.683308332646178, 34.42995700099074 ], [ 126.682473517987106, 34.42717624417665 ], [ 126.673247690923958, 34.427525124578153 ], [ 126.678075390828198, 34.42037209656791 ], [ 126.675404006614713, 34.419238659949535 ], [ 126.67705936534432, 34.416375255697211 ], [ 126.674046290048395, 34.416316351362624 ], [ 126.67395195837851, 34.418892749868562 ], [ 126.667187370802154, 34.423630172986627 ], [ 126.660197174662855, 34.433044076828594 ], [ 126.657447884943934, 34.433701137001847 ], [ 126.65289741452942, 34.438743061781878 ], [ 126.652089373443829, 34.441639071050638 ], [ 126.657777504790005, 34.445649751145908 ], [ 126.656892191165767, 34.44689261085324 ], [ 126.651261003126521, 34.449352288775003 ], [ 126.646674676414122, 34.453843552176195 ], [ 126.64654820016969, 34.457077860132316 ], [ 126.636180053248339, 34.464451412055645 ], [ 126.635056894412742, 34.467625396026754 ] ] ], [ [ [ 126.685597154606199, 34.492648070502447 ], [ 126.684603997859227, 34.492761786796848 ], [ 126.685255379536116, 34.493316566607923 ], [ 126.685597154606199, 34.492648070502447 ] ] ] ] } },
{ "type": "Feature", "properties": { "emd_cd": "46820370", "emd_nm": "옥천면" }, "geometry": { "type": "MultiPolygon", "coordinates": [ [ [ [ 126.609678070747577, 34.597646105054814 ], [ 126.608900317124878, 34.600119970509688 ], [ 126.611450031854275, 34.600720150289874 ], [ 126.613620016364152, 34.60780996881401 ], [ 126.623078457188242, 34.611617453501324 ], [ 126.629582776653507, 34.611201309933612 ], [ 126.629171477170189, 34.615371148249039 ], [ 126.63587434967765, 34.617598986515425 ], [ 126.638145794655642, 34.623253165111251 ], [ 126.639873429256738, 34.625475737522642 ], [ 126.642567085374395, 34.625599371063906 ], [ 126.646469887974391, 34.632863438619651 ], [ 126.649896531848725, 34.629619344900583 ], [ 126.64953195182764, 34.627045304094985 ], [ 126.652918459045864, 34.621009245243236 ], [ 126.66386418164511, 34.622934500352521 ], [ 126.666777145943001, 34.620379744467215 ], [ 126.666281545588518, 34.610587826564853 ], [ 126.670325679352374, 34.606653600581524 ], [ 126.673432541028859, 34.605845284959074 ], [ 126.67422994078639, 34.602892180264519 ], [ 126.671600472412621, 34.597836791723047 ], [ 126.672935132005065, 34.594596151806215 ], [ 126.672136502695025, 34.591330278392704 ], [ 126.676842973693113, 34.585793177890444 ], [ 126.680260057649022, 34.584825322692197 ], [ 126.680859394128092, 34.583014580802391 ], [ 126.679425744298527, 34.581590641007004 ], [ 126.683367349985829, 34.577916590159163 ], [ 126.682766249563244, 34.576077823332398 ], [ 126.687834366537118, 34.572537681973436 ], [ 126.695085830123745, 34.56396076545893 ], [ 126.692766952332292, 34.556352846350208 ], [ 126.689433290224088, 34.55244301481347 ], [ 126.690299136150102, 34.551332666383715 ], [ 126.687761694752794, 34.55026451288964 ], [ 126.688248784644159, 34.549153682947519 ], [ 126.679354741695761, 34.541881929518766 ], [ 126.671598774250057, 34.538762047835746 ], [ 126.667108774660548, 34.538610134803193 ], [ 126.667701004315049, 34.535615425391661 ], [ 126.673332520188296, 34.533520928925896 ], [ 126.674128480464375, 34.531553872068216 ], [ 126.679331514754139, 34.529879507340766 ], [ 126.683282437345312, 34.53044621411415 ], [ 126.685256033378906, 34.528598403538062 ], [ 126.686314566807425, 34.523706045915574 ], [ 126.680402968303227, 34.515915504654096 ], [ 126.681978123449511, 34.510883130223668 ], [ 126.6787350746269, 34.50966854554941 ], [ 126.672596561710805, 34.50284738583543 ], [ 126.66939899220543, 34.501845128499419 ], [ 126.658075046230593, 34.487673294763262 ], [ 126.650053711231479, 34.486760776718242 ], [ 126.647469311933747, 34.493280082261833 ], [ 126.64088356189032, 34.499938757183756 ], [ 126.641251291758437, 34.5047879799735 ], [ 126.638138908911642, 34.508649364380531 ], [ 126.642617062347753, 34.511212721315289 ], [ 126.641808525427393, 34.517304458373545 ], [ 126.645601931573495, 34.520143727809469 ], [ 126.646439830408866, 34.523507196434778 ], [ 126.643359112606333, 34.530137815186443 ], [ 126.640064069732404, 34.533023956675265 ], [ 126.641140978863575, 34.536115601449914 ], [ 126.639908819071081, 34.53791036196354 ], [ 126.643393880356157, 34.541330290248034 ], [ 126.634177612570667, 34.548832620533716 ], [ 126.631288879263849, 34.548709191055075 ], [ 126.630044625090747, 34.552798060688787 ], [ 126.629184937623947, 34.56675839520743 ], [ 126.631757509545992, 34.570017708509894 ], [ 126.629269186517845, 34.576558794203443 ], [ 126.632730675322051, 34.577723278252428 ], [ 126.631879996950374, 34.58159411430843 ], [ 126.625584539981787, 34.590603969731518 ], [ 126.620747405156649, 34.591543531972242 ], [ 126.619929577881024, 34.593709111057294 ], [ 126.609678070747577, 34.597646105054814 ] ] ] ] } },
{ "type": "Feature", "properties": { "emd_cd": "46820380", "emd_nm": "계곡면" }, "geometry": { "type": "MultiPolygon", "coordinates": [ [ [ [ 126.543914957336369, 34.657836541919878 ], [ 126.549769266110545, 34.664007321911576 ], [ 126.554146504456355, 34.661174415462177 ], [ 126.557934324630992, 34.665263511002266 ], [ 126.562853616085803, 34.666904461876008 ], [ 126.563553051164178, 34.671315622524382 ], [ 126.56716012921261, 34.676006989445071 ], [ 126.569996370579176, 34.678505214282367 ], [ 126.575054211921042, 34.678735337626961 ], [ 126.578032255167599, 34.680906026183862 ], [ 126.587526534613531, 34.679476730531384 ], [ 126.593316940211977, 34.680481502129162 ], [ 126.596238852467707, 34.6829982174715 ], [ 126.605195895715724, 34.683576200170791 ], [ 126.608471812438424, 34.680773433487268 ], [ 126.614128920139152, 34.681927126285039 ], [ 126.622895364142906, 34.678828947661323 ], [ 126.62487142672073, 34.680037848830281 ], [ 126.634818422086525, 34.674254587278078 ], [ 126.638093518607121, 34.673901236378391 ], [ 126.643148155480418, 34.682672209373209 ], [ 126.647133414331165, 34.685097307752592 ], [ 126.647554568270962, 34.688450736269623 ], [ 126.665735312807129, 34.691938414715622 ], [ 126.668588003541657, 34.691907927527815 ], [ 126.677481713624516, 34.6855223183695 ], [ 126.682786825171235, 34.687698888719162 ], [ 126.687233370310437, 34.685619956604285 ], [ 126.693773121025288, 34.685520552231928 ], [ 126.696018631623673, 34.683464108807328 ], [ 126.70089316411439, 34.68423833896297 ], [ 126.705701658067227, 34.68182947637407 ], [ 126.702446092696277, 34.674740785977392 ], [ 126.698609317035206, 34.671824012916559 ], [ 126.701873262863941, 34.665392903212819 ], [ 126.701741047359619, 34.661995048322169 ], [ 126.695220363393574, 34.661671733031142 ], [ 126.691985306498935, 34.658140674316058 ], [ 126.696290133194964, 34.653992807197945 ], [ 126.697339193845409, 34.650138308736274 ], [ 126.693184003136238, 34.649113313682001 ], [ 126.68866052375698, 34.638746578946225 ], [ 126.684689411203379, 34.636851717652988 ], [ 126.682786840658594, 34.632470412149161 ], [ 126.687858297657584, 34.631842494244886 ], [ 126.693404200444419, 34.628372475875771 ], [ 126.700807791135787, 34.630238621904212 ], [ 126.691208673745876, 34.620643888584745 ], [ 126.687110308425844, 34.606348539511963 ], [ 126.674395014190551, 34.597001219987327 ], [ 126.671600472412621, 34.597836791723047 ], [ 126.673893800126223, 34.600630233943917 ], [ 126.673432541028859, 34.605845284959074 ], [ 126.670325679352374, 34.606653600581524 ], [ 126.666281545588518, 34.610587826564853 ], [ 126.666777145943001, 34.620379744467215 ], [ 126.66386418164511, 34.622934500352521 ], [ 126.652918459045864, 34.621009245243236 ], [ 126.64953195182764, 34.627045304094985 ], [ 126.649896531848725, 34.629619344900583 ], [ 126.646469887974391, 34.632863438619651 ], [ 126.642567085374395, 34.625599371063906 ], [ 126.639873429256738, 34.625475737522642 ], [ 126.638318146085524, 34.623376795224758 ], [ 126.635082315191042, 34.626657142547678 ], [ 126.632944880573959, 34.626832586117985 ], [ 126.631184806322381, 34.630338666194859 ], [ 126.62716738748729, 34.630414701592407 ], [ 126.624990956860515, 34.632216428081179 ], [ 126.621535268590691, 34.630442742067608 ], [ 126.579684002080853, 34.63704067955878 ], [ 126.572604599040758, 34.643674310732877 ], [ 126.56128982482592, 34.646632636778421 ], [ 126.543914957336369, 34.657836541919878 ] ] ] ] } },
{ "type": "Feature", "properties": { "emd_cd": "46820390", "emd_nm": "마산면" }, "geometry": { "type": "MultiPolygon", "coordinates": [ [ [ [ 126.497011147623724, 34.608896898578806 ], [ 126.500201606066298, 34.608995293543472 ], [ 126.503218820394409, 34.613277253622961 ], [ 126.509497718290277, 34.615263119714122 ], [ 126.514433715004586, 34.621671579220994 ], [ 126.517042754849214, 34.621628574712233 ], [ 126.516808603387275, 34.62310601447394 ], [ 126.524219982146647, 34.630746130431824 ], [ 126.525509480126402, 34.635158714977798 ], [ 126.505945821903893, 34.653575763715651 ], [ 126.497625819753736, 34.655828579749802 ], [ 126.489036611453372, 34.654428948228443 ], [ 126.483119963822816, 34.655565806979588 ], [ 126.474920609533598, 34.660877896144065 ], [ 126.468670671089683, 34.672635808323967 ], [ 126.467217986870963, 34.686545576012847 ], [ 126.472426776725982, 34.697768082270606 ], [ 126.476638332609085, 34.701403141155041 ], [ 126.520748026068105, 34.669700931942465 ], [ 126.543914957336369, 34.657836541919878 ], [ 126.56128982482592, 34.646632636778421 ], [ 126.572604599040758, 34.643674310732877 ], [ 126.578190757765228, 34.637581382399169 ], [ 126.621535268590691, 34.630442742067608 ], [ 126.624990956860515, 34.632216428081179 ], [ 126.62716738748729, 34.630414701592407 ], [ 126.631184806322381, 34.630338666194859 ], [ 126.632944880573959, 34.626832586117985 ], [ 126.635082315191042, 34.626657142547678 ], [ 126.638318146085524, 34.623376795224758 ], [ 126.63587434967765, 34.617598986515425 ], [ 126.629171477170189, 34.615371148249039 ], [ 126.629582776653507, 34.611201309933612 ], [ 126.623078457188242, 34.611617453501324 ], [ 126.613620016364152, 34.60780996881401 ], [ 126.611450031854275, 34.600720150289874 ], [ 126.608900317124878, 34.600119970509688 ], [ 126.609678070747577, 34.597646105054814 ], [ 126.605167219511898, 34.591855073703698 ], [ 126.601078393303979, 34.591129382975211 ], [ 126.584884041166703, 34.596260890669136 ], [ 126.57659923064044, 34.592491281747598 ], [ 126.573552414135733, 34.588515832725847 ], [ 126.569061383011544, 34.586653777577091 ], [ 126.568638422053212, 34.583392840004642 ], [ 126.563368551743167, 34.583768876905964 ], [ 126.556244892990549, 34.58136929403414 ], [ 126.547820297121277, 34.582099563130342 ], [ 126.544034707402602, 34.585169778300916 ], [ 126.536160859386811, 34.581027579380695 ], [ 126.53451370058994, 34.577423772393686 ], [ 126.527045653569346, 34.579320604825647 ], [ 126.525976976357953, 34.588632094181129 ], [ 126.530404350283945, 34.590478141518986 ], [ 126.531574581238999, 34.593058131505799 ], [ 126.52498263103611, 34.594499441791712 ], [ 126.519264921221975, 34.600158742429407 ], [ 126.518452277882517, 34.604520657137769 ], [ 126.50600896270771, 34.60233756821119 ], [ 126.505150687369323, 34.600669760946488 ], [ 126.501129867018037, 34.604485201994848 ], [ 126.49697757136299, 34.605510550757991 ], [ 126.497011147623724, 34.608896898578806 ] ] ] ] } },
{ "type": "Feature", "properties": { "emd_cd": "46820400", "emd_nm": "황산면" }, "geometry": { "type": "MultiPolygon", "coordinates": [ [ [ [ 126.41562166498845, 34.546407151243685 ], [ 126.415492007702468, 34.546154399579095 ], [ 126.415360617631549, 34.546341680936443 ], [ 126.41562166498845, 34.546407151243685 ] ] ], [ [ [ 126.418453669105162, 34.546898848448663 ], [ 126.418643607482352, 34.54666818696785 ], [ 126.418317593302163, 34.546346659499882 ], [ 126.418453669105162, 34.546898848448663 ] ] ], [ [ [ 126.383239954801411, 34.54875309228462 ], [ 126.3845163750551, 34.548543114773857 ], [ 126.384372638937208, 34.54836069700567 ], [ 126.383239954801411, 34.54875309228462 ] ] ], [ [ [ 126.386735265660377, 34.549753598245644 ], [ 126.387345179698812, 34.549776345043 ], [ 126.38657275007732, 34.549403936999617 ], [ 126.386735265660377, 34.549753598245644 ] ] ], [ [ [ 126.354878635093087, 34.552246914874267 ], [ 126.356154190971907, 34.551934693126995 ], [ 126.35598642288295, 34.55149120710491 ], [ 126.354878635093087, 34.552246914874267 ] ] ], [ [ [ 126.360533498672069, 34.553638020847885 ], [ 126.360395784220401, 34.553403531575704 ], [ 126.360233414208764, 34.553688953407217 ], [ 126.360533498672069, 34.553638020847885 ] ] ], [ [ [ 126.367531461520628, 34.554600944366499 ], [ 126.36787641378757, 34.554101290127029 ], [ 126.367363185832815, 34.554255933768523 ], [ 126.367531461520628, 34.554600944366499 ] ] ], [ [ [ 126.357924316493779, 34.554984402998592 ], [ 126.358094696547809, 34.554978936749109 ], [ 126.35803193942823, 34.554889752719404 ], [ 126.357924316493779, 34.554984402998592 ] ] ], [ [ [ 126.44082393614535, 34.525005799377354 ], [ 126.440509915839201, 34.523890645860611 ], [ 126.440478018986624, 34.524957481067183 ], [ 126.44082393614535, 34.525005799377354 ] ] ], [ [ [ 126.426804749498814, 34.531387581891771 ], [ 126.427102718905928, 34.531179914272293 ], [ 126.426797281826865, 34.531201401126324 ], [ 126.426804749498814, 34.531387581891771 ] ] ], [ [ [ 126.425294696189084, 34.532046392054191 ], [ 126.426654962025481, 34.531697744829138 ], [ 126.425764248969799, 34.531254589026666 ], [ 126.425294696189084, 34.532046392054191 ] ] ], [ [ [ 126.451283570457889, 34.532441096275754 ], [ 126.450997707926859, 34.532984093502385 ], [ 126.451506367632703, 34.532536849181341 ], [ 126.451283570457889, 34.532441096275754 ] ] ], [ [ [ 126.423014875904187, 34.534550267449831 ], [ 126.423618772652944, 34.53499289793362 ], [ 126.42359060981255, 34.534544230688311 ], [ 126.423014875904187, 34.534550267449831 ] ] ], [ [ [ 126.423679486969021, 34.5354994287271 ], [ 126.4235516996021, 34.535384793183319 ], [ 126.423465909591727, 34.535434939491495 ], [ 126.423679486969021, 34.5354994287271 ] ] ], [ [ [ 126.424051243849419, 34.537671543367679 ], [ 126.424883913659997, 34.5368975783107 ], [ 126.423820588765366, 34.537503291468063 ], [ 126.424051243849419, 34.537671543367679 ] ] ], [ [ [ 126.49693293131773, 34.606773649339971 ], [ 126.502498570124686, 34.602040489171273 ], [ 126.504935834623396, 34.602198957544609 ], [ 126.505155854168024, 34.601584440385999 ], [ 126.505036217381402, 34.600815380398799 ], [ 126.505150687369323, 34.600669760946488 ], [ 126.50600896270771, 34.60233756821119 ], [ 126.518452277882517, 34.604520657137769 ], [ 126.519264921221975, 34.600158742429407 ], [ 126.52498263103611, 34.594499441791712 ], [ 126.531574581238999, 34.593058131505799 ], [ 126.530404350283945, 34.590478141518986 ], [ 126.526014679967872, 34.588702732744117 ], [ 126.525602904066716, 34.584233692796992 ], [ 126.527811094599258, 34.578150915942494 ], [ 126.53451370058994, 34.577423772393686 ], [ 126.533499669157365, 34.57077895837002 ], [ 126.531720046788195, 34.568327442232274 ], [ 126.5260633967291, 34.565974896873705 ], [ 126.522892152690261, 34.556675412443909 ], [ 126.519465837356165, 34.55352999765298 ], [ 126.513050620924545, 34.550503998222077 ], [ 126.491691808184171, 34.549515547306392 ], [ 126.477956262019319, 34.526335401147058 ], [ 126.465111285746232, 34.516522635688681 ], [ 126.462346627513526, 34.52065085100844 ], [ 126.459193548155511, 34.51952386735816 ], [ 126.455778907351231, 34.519875060747133 ], [ 126.458354775705146, 34.522275584712354 ], [ 126.456310589556509, 34.523979548037694 ], [ 126.453887181258736, 34.522153365091881 ], [ 126.454642807010643, 34.520510089887807 ], [ 126.452458003150113, 34.523375037998974 ], [ 126.442106082999629, 34.521906805746227 ], [ 126.443006033795584, 34.526571704220906 ], [ 126.457661217373769, 34.529535624857338 ], [ 126.460584460613774, 34.532124035126067 ], [ 126.456855061349088, 34.535557257534919 ], [ 126.446828973351998, 34.535834774521547 ], [ 126.447523320084258, 34.53722974549963 ], [ 126.443260204322428, 34.53948730804715 ], [ 126.434385697281613, 34.53427140939958 ], [ 126.434771090129189, 34.536635309059889 ], [ 126.43832399797779, 34.537700421591154 ], [ 126.438548536058079, 34.539738546936178 ], [ 126.437073077740493, 34.540890851819299 ], [ 126.436392651807154, 34.539575564888281 ], [ 126.434217159422531, 34.539429932499004 ], [ 126.436201758866744, 34.542203830591085 ], [ 126.432321177933218, 34.545227441416323 ], [ 126.43634417186513, 34.549783208398672 ], [ 126.432485695110074, 34.551899200348679 ], [ 126.430336994542941, 34.555539532069162 ], [ 126.424105630719382, 34.555998586207885 ], [ 126.419863233598932, 34.554498922603749 ], [ 126.414526549266071, 34.557991046186324 ], [ 126.414005890493442, 34.556973093870411 ], [ 126.418128309096687, 34.553163285743011 ], [ 126.418031830936883, 34.54712341708273 ], [ 126.409478442204701, 34.548515895809317 ], [ 126.407004009724361, 34.546699739861467 ], [ 126.402202350822137, 34.546823250770451 ], [ 126.40323215101651, 34.545428021193985 ], [ 126.401663867506457, 34.544909498739422 ], [ 126.399120929699805, 34.547023622965497 ], [ 126.403868102667005, 34.540113021357179 ], [ 126.402456394874577, 34.54032039361185 ], [ 126.40298295297238, 34.539163439762142 ], [ 126.398338581310639, 34.535473255840309 ], [ 126.399028025917019, 34.537255863280087 ], [ 126.39698087908566, 34.537466941646336 ], [ 126.397820778190521, 34.53546131404498 ], [ 126.390721193415231, 34.534002673730754 ], [ 126.388744503155479, 34.53222281800366 ], [ 126.378556732740662, 34.539068801299386 ], [ 126.380702403928026, 34.538758105054193 ], [ 126.379296839092049, 34.540265964594056 ], [ 126.381672944334625, 34.542655533409039 ], [ 126.385269220086798, 34.542724544194712 ], [ 126.385897715522248, 34.546224295876087 ], [ 126.387886210959238, 34.546930483677968 ], [ 126.38947183977416, 34.550813133034971 ], [ 126.389107880407209, 34.552515536303346 ], [ 126.384372034721039, 34.55381055459182 ], [ 126.385916351262154, 34.555668011481941 ], [ 126.383633301832361, 34.561736413211669 ], [ 126.379628303058396, 34.563060718773698 ], [ 126.376940284375166, 34.562148279594894 ], [ 126.375003414342345, 34.5587191290007 ], [ 126.372657639851568, 34.561045609263175 ], [ 126.369014792524965, 34.561087514681354 ], [ 126.368583194402547, 34.559755380702278 ], [ 126.363619067058707, 34.560736719579594 ], [ 126.364593484210545, 34.558371872770337 ], [ 126.362612756420305, 34.55865577752828 ], [ 126.36290582015603, 34.561084456581945 ], [ 126.360589544261288, 34.56417939107552 ], [ 126.355957875542103, 34.56602159427792 ], [ 126.353732205576961, 34.564604778119168 ], [ 126.355224717540764, 34.566666829958471 ], [ 126.354697061884409, 34.569944616409245 ], [ 126.353139740081659, 34.570576365624461 ], [ 126.352750270969054, 34.568120104494426 ], [ 126.350874101365264, 34.567501652567522 ], [ 126.341506867122874, 34.571146887424703 ], [ 126.34146482684757, 34.576467454898079 ], [ 126.358546889856356, 34.576558613296278 ], [ 126.368248368991843, 34.572667142105551 ], [ 126.373903398667679, 34.574059725658039 ], [ 126.374151538352464, 34.578192659247641 ], [ 126.376136849871202, 34.58101259407907 ], [ 126.370455050903018, 34.586428206190092 ], [ 126.372107860936495, 34.588545837111837 ], [ 126.368607441657232, 34.590028078760859 ], [ 126.370249055457364, 34.594168289011442 ], [ 126.36805440109697, 34.601199384923703 ], [ 126.374125951443091, 34.611679004584218 ], [ 126.373077899157693, 34.617767004696788 ], [ 126.38223795035762, 34.623361502354634 ], [ 126.412952058514819, 34.612714656085117 ], [ 126.421423721280746, 34.607612036233689 ], [ 126.423599446428824, 34.601159848520496 ], [ 126.44131780567767, 34.593993687836743 ], [ 126.442653901259618, 34.598591426621681 ], [ 126.445232250110067, 34.593742389122511 ], [ 126.44772873266443, 34.593893407534665 ], [ 126.465825290975204, 34.601221869777056 ], [ 126.469679520452857, 34.604106739278365 ], [ 126.473346426576427, 34.613643057525238 ], [ 126.476532240169462, 34.615982536455249 ], [ 126.483910394977599, 34.615343766600922 ], [ 126.488385404531542, 34.609840134081011 ], [ 126.496202588765087, 34.610098901283841 ], [ 126.49693293131773, 34.606773649339971 ] ] ] ] } },
{ "type": "Feature", "properties": { "emd_cd": "46820410", "emd_nm": "산이면" }, "geometry": { "type": "MultiPolygon", "coordinates": [ [ [ [ 126.340357264804908, 34.686660706450986 ], [ 126.342182251363241, 34.693378210501017 ], [ 126.349111265078264, 34.697933980495591 ], [ 126.355889216030988, 34.692988122858502 ], [ 126.36300843747847, 34.694480532221107 ], [ 126.363643102422614, 34.697145916270358 ], [ 126.368798814678627, 34.698291780934561 ], [ 126.371806251792606, 34.704841086577105 ], [ 126.370000646061058, 34.706238437180836 ], [ 126.372685758156891, 34.706835113403351 ], [ 126.375474322809112, 34.710408025860509 ], [ 126.373756944708546, 34.710709869040372 ], [ 126.376304297286254, 34.712583196299896 ], [ 126.376384041456546, 34.714672333621031 ], [ 126.37868570139517, 34.714285365580189 ], [ 126.385277387111273, 34.71977100491268 ], [ 126.387899995681735, 34.725841294420597 ], [ 126.423300360507213, 34.719305910870737 ], [ 126.465944840960603, 34.70868391019193 ], [ 126.476638332609085, 34.701403141155041 ], [ 126.472426776725982, 34.697768082270606 ], [ 126.467217986870963, 34.686545576012847 ], [ 126.468670671089683, 34.672635808323967 ], [ 126.474920609533598, 34.660877896144065 ], [ 126.483119963822816, 34.655565806979588 ], [ 126.489036611453372, 34.654428948228443 ], [ 126.497625819753736, 34.655828579749802 ], [ 126.505945821903893, 34.653575763715651 ], [ 126.525509480126402, 34.635158714977798 ], [ 126.524219982146647, 34.630746130431824 ], [ 126.516808603387275, 34.62310601447394 ], [ 126.517042754849214, 34.621628574712233 ], [ 126.514433715004586, 34.621671579220994 ], [ 126.509497718290277, 34.615263119714122 ], [ 126.503218820394409, 34.613277253622961 ], [ 126.500201606066298, 34.608995293543472 ], [ 126.488385404531542, 34.609840134081011 ], [ 126.483910394977599, 34.615343766600922 ], [ 126.476532240169462, 34.615982536455249 ], [ 126.473346426576427, 34.613643057525238 ], [ 126.469679520452857, 34.604106739278365 ], [ 126.465825290975204, 34.601221869777056 ], [ 126.44772873266443, 34.593893407534665 ], [ 126.445232250110067, 34.593742389122511 ], [ 126.442959549811874, 34.598665858998814 ], [ 126.44131780567767, 34.593993687836743 ], [ 126.435917719113633, 34.595188761551562 ], [ 126.423599446428824, 34.601159848520496 ], [ 126.421423721280746, 34.607612036233689 ], [ 126.412952058514819, 34.612714656085117 ], [ 126.38223795035762, 34.623361502354634 ], [ 126.376416012421288, 34.6346029986383 ], [ 126.371271835185127, 34.636778115101606 ], [ 126.367299268011379, 34.641695426550612 ], [ 126.365129291751501, 34.649620364666106 ], [ 126.355232398289573, 34.668310600242222 ], [ 126.344836252805152, 34.677598722616104 ], [ 126.340357264804908, 34.686660706450986 ] ] ] ] } },
{ "type": "Feature", "properties": { "emd_cd": "46820420", "emd_nm": "문내면" }, "geometry": { "type": "MultiPolygon", "coordinates": [ [ [ [ 126.275793420890878, 34.596672212350427 ], [ 126.27641143499855, 34.596705145413495 ], [ 126.276559747094367, 34.596606384331139 ], [ 126.275793420890878, 34.596672212350427 ] ] ], [ [ [ 126.278675427039019, 34.600745408591443 ], [ 126.278805079549358, 34.600811682034397 ], [ 126.278845529247221, 34.60069392674027 ], [ 126.278675427039019, 34.600745408591443 ] ] ], [ [ [ 126.272847832259657, 34.61046535244521 ], [ 126.272896062480839, 34.610309624377336 ], [ 126.27271671082859, 34.610421301720578 ], [ 126.272847832259657, 34.61046535244521 ] ] ], [ [ [ 126.258955684984613, 34.610244944104629 ], [ 126.260715700914261, 34.610477586431742 ], [ 126.259005043538707, 34.610076807144935 ], [ 126.258955684984613, 34.610244944104629 ] ] ], [ [ [ 126.270342221168605, 34.611641091147497 ], [ 126.263468640983604, 34.608847428781502 ], [ 126.259004786298988, 34.612151109874908 ], [ 126.263385991149732, 34.610521801815203 ], [ 126.271083542105785, 34.61505187632433 ], [ 126.270342221168605, 34.611641091147497 ] ] ], [ [ [ 126.270948729707939, 34.611878468384454 ], [ 126.275775009090651, 34.613238398096534 ], [ 126.277797419936263, 34.611667668776299 ], [ 126.273009418138699, 34.610864884691857 ], [ 126.270948729707939, 34.611878468384454 ] ] ], [ [ [ 126.317516694181535, 34.562510978965676 ], [ 126.319401755739563, 34.562840608622317 ], [ 126.31929283602453, 34.562273331243823 ], [ 126.317516694181535, 34.562510978965676 ] ] ], [ [ [ 126.320654849068589, 34.559080781652703 ], [ 126.320903190943397, 34.56442260515422 ], [ 126.323313208517291, 34.566802387050366 ], [ 126.331026716158817, 34.567882748115103 ], [ 126.331123055927932, 34.563370999570211 ], [ 126.328259955350831, 34.563760408464717 ], [ 126.320654849068589, 34.559080781652703 ] ] ], [ [ [ 126.298111895417762, 34.582499525272617 ], [ 126.301405989731222, 34.588383865941417 ], [ 126.306628296622961, 34.587041274609504 ], [ 126.305129340821026, 34.584276418590655 ], [ 126.302758054750527, 34.584227550453775 ], [ 126.302402138059236, 34.585545573094052 ], [ 126.299706806682778, 34.581259846930578 ], [ 126.298111895417762, 34.582499525272617 ] ] ], [ [ [ 126.279237124879387, 34.60075681979626 ], [ 126.279502085697089, 34.600727198748764 ], [ 126.279569872290949, 34.600603421242603 ], [ 126.279237124879387, 34.60075681979626 ] ] ], [ [ [ 126.259949780841524, 34.64523682413914 ], [ 126.268726308892496, 34.642542224005304 ], [ 126.280425218339801, 34.643501912991908 ], [ 126.281899363619644, 34.640457808886993 ], [ 126.285545329804719, 34.641384203711702 ], [ 126.286439131805182, 34.638916617785455 ], [ 126.297760083111442, 34.634979719261821 ], [ 126.301343755589926, 34.635875788686882 ], [ 126.302804142976981, 34.638355913724524 ], [ 126.306836252769031, 34.637682325159211 ], [ 126.306805733415288, 34.639426610843913 ], [ 126.311079890922088, 34.63586955396574 ], [ 126.318609315299966, 34.635700574496781 ], [ 126.321774197667096, 34.637270415092942 ], [ 126.342362969571738, 34.634855621505508 ], [ 126.346575357516784, 34.637499451339593 ], [ 126.347492745069729, 34.640320678646397 ], [ 126.351164163527145, 34.638592498924524 ], [ 126.355755068154266, 34.639341785461298 ], [ 126.355322735142224, 34.637874035240515 ], [ 126.360049274992406, 34.639373510672172 ], [ 126.366019195858925, 34.631323412887518 ], [ 126.369302095197355, 34.629862421711131 ], [ 126.373077899157693, 34.617767004696788 ], [ 126.374125951443091, 34.611679004584218 ], [ 126.368852761659355, 34.604302626999335 ], [ 126.367953128908567, 34.600129435071622 ], [ 126.370249055457364, 34.594168289011442 ], [ 126.368607441657232, 34.590028078760859 ], [ 126.372107860936495, 34.588545837111837 ], [ 126.370455050903018, 34.586428206190092 ], [ 126.376136849871202, 34.58101259407907 ], [ 126.374151538352464, 34.578192659247641 ], [ 126.373903398667679, 34.574059725658039 ], [ 126.368248368991843, 34.572667142105551 ], [ 126.358546889856356, 34.576558613296278 ], [ 126.34146482684757, 34.576467454898079 ], [ 126.341504940840622, 34.569750639517878 ], [ 126.333990861715009, 34.573431635659567 ], [ 126.327637486351165, 34.56921717509455 ], [ 126.321655531599902, 34.57031251777007 ], [ 126.313944065321095, 34.566945026925019 ], [ 126.313483044847004, 34.568832750984285 ], [ 126.310873399525576, 34.569577778151071 ], [ 126.31138186851183, 34.571214276280273 ], [ 126.305774176175902, 34.573347583606385 ], [ 126.308943904945991, 34.573589535901412 ], [ 126.309459102495893, 34.576537677883543 ], [ 126.306090855253103, 34.577474364684164 ], [ 126.304815145884959, 34.575333499418143 ], [ 126.303911461777787, 34.577398074208865 ], [ 126.313600768081102, 34.585654050639256 ], [ 126.312708528623205, 34.58799236813686 ], [ 126.306062613370557, 34.590719217894488 ], [ 126.299359125208454, 34.590227293095616 ], [ 126.297193923334689, 34.59270521973103 ], [ 126.299026981411217, 34.594132599632985 ], [ 126.297514365418351, 34.59548286530336 ], [ 126.298970951665169, 34.598325943535436 ], [ 126.295361829331171, 34.600756742747379 ], [ 126.29378106945876, 34.599544443078216 ], [ 126.294660835848731, 34.596644493444245 ], [ 126.291814950263685, 34.592013587104333 ], [ 126.279604730323314, 34.596452939276539 ], [ 126.280478294184149, 34.599377192184555 ], [ 126.281803084228201, 34.598746135737628 ], [ 126.283794218918644, 34.600700513210263 ], [ 126.282986460728182, 34.603833386087622 ], [ 126.287974974011647, 34.605125280941408 ], [ 126.280661173676179, 34.609957120419928 ], [ 126.280267451920835, 34.612335301919494 ], [ 126.284650120652131, 34.617692004794804 ], [ 126.281097915401546, 34.622151330779374 ], [ 126.285016619603397, 34.622724752688782 ], [ 126.289356077841305, 34.620232531098729 ], [ 126.289049689184083, 34.623950075244167 ], [ 126.287565367273842, 34.624446124401707 ], [ 126.289955433042834, 34.627768898132651 ], [ 126.29419877291383, 34.629400334774502 ], [ 126.293655170109247, 34.631474009297015 ], [ 126.290573831324537, 34.635569468098367 ], [ 126.288408869608659, 34.636047683964179 ], [ 126.285425060241721, 34.634227876886001 ], [ 126.286941916689571, 34.631896257270874 ], [ 126.285549031643995, 34.630937745195993 ], [ 126.277713340538938, 34.630484422652344 ], [ 126.278283049225152, 34.632062767486552 ], [ 126.2720351549806, 34.633030653540168 ], [ 126.267689970120458, 34.637926008422902 ], [ 126.260849310136066, 34.640676450981161 ], [ 126.259949780841524, 34.64523682413914 ] ] ] ] } },
{ "type": "Feature", "properties": { "emd_cd": "46820430", "emd_nm": "화원면" }, "geometry": { "type": "MultiPolygon", "coordinates": [ [ [ [ 126.251608366851954, 34.652539676468813 ], [ 126.25231989346436, 34.653592551644138 ], [ 126.251788016947785, 34.652488121050617 ], [ 126.251608366851954, 34.652539676468813 ] ] ], [ [ [ 126.253103868049422, 34.668889140670551 ], [ 126.253110191774255, 34.668502541937954 ], [ 126.252759894996998, 34.668554132851739 ], [ 126.253103868049422, 34.668889140670551 ] ] ], [ [ [ 126.251116075890323, 34.675773485536673 ], [ 126.250238402800264, 34.67489711281592 ], [ 126.250267121467218, 34.675808252536434 ], [ 126.251116075890323, 34.675773485536673 ] ] ], [ [ [ 126.255591671557383, 34.680167560352579 ], [ 126.257689615806711, 34.680956500658112 ], [ 126.257650387570436, 34.683220312872535 ], [ 126.261007640012309, 34.68396342094794 ], [ 126.26096976615348, 34.688082760661125 ], [ 126.259278089725868, 34.689343821390757 ], [ 126.260514058119554, 34.692375105396387 ], [ 126.258264000119738, 34.694371161019376 ], [ 126.260645668465202, 34.696842696380017 ], [ 126.258999597507909, 34.700686364808931 ], [ 126.260757561248155, 34.701875492663774 ], [ 126.261627999413264, 34.707699188230656 ], [ 126.264819940387383, 34.702704025072272 ], [ 126.269219786705619, 34.701736011722147 ], [ 126.271804916769199, 34.703638247470948 ], [ 126.27017439641827, 34.705621947765515 ], [ 126.271698151097311, 34.708952175550316 ], [ 126.274850512652037, 34.711709182022425 ], [ 126.274824955728718, 34.717516023156286 ], [ 126.277961877093134, 34.719432242628429 ], [ 126.279375100905412, 34.717279829658949 ], [ 126.280926252812634, 34.717996075322063 ], [ 126.279569940936753, 34.721354836983515 ], [ 126.275451075464218, 34.722568509333954 ], [ 126.274556996185765, 34.727462215497766 ], [ 126.284457281424352, 34.747807066860119 ], [ 126.286504558121806, 34.755320084268838 ], [ 126.28561315203325, 34.757340099096652 ], [ 126.289061449861151, 34.759848199404068 ], [ 126.298517299581178, 34.762101015473021 ], [ 126.310601172144644, 34.753385508637045 ], [ 126.307280902877309, 34.747818814376359 ], [ 126.314074883537003, 34.746129448060785 ], [ 126.317796698860988, 34.750613227500018 ], [ 126.322980977140475, 34.745705746087523 ], [ 126.322289150407769, 34.745464616609105 ], [ 126.318643146083801, 34.741183614361496 ], [ 126.322293840111783, 34.740455758366096 ], [ 126.322039100200072, 34.738234022737153 ], [ 126.324240396327014, 34.737737046465575 ], [ 126.329146821191443, 34.739526767150558 ], [ 126.327153714586615, 34.737916702839605 ], [ 126.327156024557524, 34.735119794171951 ], [ 126.330884286819284, 34.733454790654768 ], [ 126.330602667852887, 34.72061691530083 ], [ 126.339366947279473, 34.718034015157762 ], [ 126.348907951242509, 34.708648556041744 ], [ 126.349715077177933, 34.703592544032816 ], [ 126.34889720646288, 34.700844300512266 ], [ 126.346978237399256, 34.699983961562715 ], [ 126.349111265078264, 34.697933980495591 ], [ 126.342182251363241, 34.693378210501017 ], [ 126.340687312046782, 34.684534750637994 ], [ 126.344836252805152, 34.677598722616104 ], [ 126.355232398289573, 34.668310600242222 ], [ 126.365129291751501, 34.649620364666106 ], [ 126.367299268011379, 34.641695426550612 ], [ 126.355322735142224, 34.637874035240515 ], [ 126.355755068154266, 34.639341785461298 ], [ 126.351164163527145, 34.638592498924524 ], [ 126.347492745069729, 34.640320678646397 ], [ 126.346575357516784, 34.637499451339593 ], [ 126.342362969571738, 34.634855621505508 ], [ 126.321774197667096, 34.637270415092942 ], [ 126.318609315299966, 34.635700574496781 ], [ 126.311079890922088, 34.63586955396574 ], [ 126.306805733415288, 34.639426610843913 ], [ 126.306836252769031, 34.637682325159211 ], [ 126.302804142976981, 34.638355913724524 ], [ 126.301343755589926, 34.635875788686882 ], [ 126.298123564818766, 34.634974108607061 ], [ 126.286439131805182, 34.638916617785455 ], [ 126.285545329804719, 34.641384203711702 ], [ 126.281656697517363, 34.640915751704817 ], [ 126.280425218339801, 34.643501912991908 ], [ 126.268239954256828, 34.642603183754431 ], [ 126.267847394870714, 34.648792300604377 ], [ 126.265282243332464, 34.648608857661841 ], [ 126.263058425667367, 34.653555070341767 ], [ 126.259573026506487, 34.653596996532599 ], [ 126.262884873406662, 34.655491269387163 ], [ 126.263213910761692, 34.658466682353982 ], [ 126.258898696703412, 34.663044363208009 ], [ 126.257470311891325, 34.66141912797687 ], [ 126.255343017184629, 34.66422635249657 ], [ 126.256188053912595, 34.667942118483971 ], [ 126.260215527460232, 34.669753976103884 ], [ 126.260441679522756, 34.6728118729038 ], [ 126.257993769344736, 34.674911157825953 ], [ 126.260397601799241, 34.676027646232619 ], [ 126.25875782489193, 34.677572887919276 ], [ 126.25588431086112, 34.677334288898436 ], [ 126.255591671557383, 34.680167560352579 ] ] ], [ [ [ 126.239479622283298, 34.700993758251229 ], [ 126.243698682712647, 34.700304852354421 ], [ 126.244094708891154, 34.698072819009049 ], [ 126.241003447614531, 34.69739947290563 ], [ 126.239479622283298, 34.700993758251229 ] ] ], [ [ [ 126.245780781751421, 34.701596210514424 ], [ 126.246497901792623, 34.701957030434016 ], [ 126.246795977734024, 34.701964122698911 ], [ 126.245780781751421, 34.701596210514424 ] ] ], [ [ [ 126.34061945858187, 34.724109398521435 ], [ 126.340432438585808, 34.725115317585086 ], [ 126.340847899389033, 34.724976457129159 ], [ 126.34061945858187, 34.724109398521435 ] ] ], [ [ [ 126.331357452944928, 34.736930958942537 ], [ 126.332459517500709, 34.739319142934377 ], [ 126.331937038542094, 34.740533967026217 ], [ 126.334695545704605, 34.737957991418888 ], [ 126.33350086843221, 34.735913823548813 ], [ 126.331357452944928, 34.736930958942537 ] ] ], [ [ [ 126.327957748201584, 34.741715572573973 ], [ 126.327656689451501, 34.741634882349288 ], [ 126.327789500396094, 34.741813254761531 ], [ 126.327957748201584, 34.741715572573973 ] ] ], [ [ [ 126.321955360081304, 34.744561811945921 ], [ 126.323883002974412, 34.743108569210129 ], [ 126.323323249800623, 34.742176477387702 ], [ 126.321955360081304, 34.744561811945921 ] ] ] ] } }
]
}
