{
"type": "FeatureCollection",
"name": "46840",
"crs": { "type": "name", "properties": { "name": "urn:ogc:def:crs:OGC:1.3:CRS84" } },
"features": [
{ "type": "Feature", "properties": { "emd_cd": "46840250", "emd_nm": "무안읍" }, "geometry": { "type": "MultiPolygon", "coordinates": [ [ [ [ 126.415908685198602, 34.978683894850725 ], [ 126.420481116727728, 34.986041494613993 ], [ 126.425477183960382, 34.989206747653633 ], [ 126.424379996310137, 34.990863932369507 ], [ 126.431208578921556, 34.987906134590403 ], [ 126.430277882564681, 34.98856063057103 ], [ 126.433884302921257, 34.993024781873785 ], [ 126.44482606137467, 34.991529054788536 ], [ 126.447823713723082, 34.992575985147582 ], [ 126.448507589002418, 34.994783397350439 ], [ 126.450645054314975, 34.993513003895174 ], [ 126.453332522317936, 34.99495604606421 ], [ 126.454681813146522, 34.998428795231938 ], [ 126.447956046870743, 35.008174755665671 ], [ 126.449409639158873, 35.014682077825256 ], [ 126.455200901321973, 35.020492348960218 ], [ 126.453139676030077, 35.030068316217807 ], [ 126.45608531966603, 35.037696972209709 ], [ 126.458795525407169, 35.039173207462511 ], [ 126.464841661517028, 35.03766733399263 ], [ 126.464047966855773, 35.031230595283986 ], [ 126.468354556376397, 35.028022773697778 ], [ 126.466875935578912, 35.027701893386705 ], [ 126.466350333236022, 35.024854937195144 ], [ 126.470371359984128, 35.021401726781342 ], [ 126.480388947197767, 35.026825300745415 ], [ 126.483523922176005, 35.017176992242241 ], [ 126.485546980433398, 35.018790150510718 ], [ 126.491804034677457, 35.016210400305837 ], [ 126.496675402437646, 35.01807883913019 ], [ 126.500457407233327, 35.014857476513257 ], [ 126.4978684287058, 35.007903382545074 ], [ 126.500555711265434, 35.005435078976866 ], [ 126.490842492281416, 35.001568886603387 ], [ 126.492654009373382, 34.999568717809076 ], [ 126.491487293035192, 34.998818321112786 ], [ 126.498483435335572, 34.991413239420389 ], [ 126.499900611941342, 34.985552314434507 ], [ 126.506410092274479, 34.986014035647393 ], [ 126.511065887972734, 34.990322665379828 ], [ 126.517755048797724, 34.983230312745341 ], [ 126.509457640147318, 34.979745149410768 ], [ 126.508004434574261, 34.97706043653659 ], [ 126.515645531860244, 34.971664207152422 ], [ 126.514362329289156, 34.968287253964171 ], [ 126.509116661963304, 34.967018587778917 ], [ 126.505363893177616, 34.968634015767137 ], [ 126.501592237061274, 34.96358457384212 ], [ 126.495147574848815, 34.963318026643243 ], [ 126.493671114269631, 34.95983019854701 ], [ 126.490660107144976, 34.957985995952441 ], [ 126.484916969724068, 34.963206726937607 ], [ 126.475515029260976, 34.96434175906348 ], [ 126.4723903003391, 34.966803927474643 ], [ 126.467926795455014, 34.96735825093652 ], [ 126.466349364884906, 34.973658234656668 ], [ 126.461590537475033, 34.974195688853797 ], [ 126.460608054967295, 34.978985394745443 ], [ 126.454066881390858, 34.979091129873119 ], [ 126.446989396133333, 34.968498809473914 ], [ 126.423153754714434, 34.977898162112318 ], [ 126.418201954627591, 34.975148427476284 ], [ 126.415908685198602, 34.978683894850725 ] ] ] ] } },
{ "type": "Feature", "properties": { "emd_cd": "46840253", "emd_nm": "일로읍" }, "geometry": { "type": "MultiPolygon", "coordinates": [ [ [ [ 126.550788197624584, 34.875304456680716 ], [ 126.552926733513218, 34.867908365224828 ], [ 126.553147818543835, 34.858867979654271 ], [ 126.54563342963398, 34.819080634159228 ], [ 126.542587984463466, 34.812176758343654 ], [ 126.532661494440518, 34.803109460753547 ], [ 126.522962979536644, 34.798912225330568 ], [ 126.519275468175792, 34.795615416593598 ], [ 126.520420327127098, 34.788081915135294 ], [ 126.516496443993404, 34.776695827266231 ], [ 126.513358101657843, 34.772623019847991 ], [ 126.50565250849759, 34.7685729941986 ], [ 126.49239893066445, 34.770129562376724 ], [ 126.484144812327813, 34.778111817684 ], [ 126.463420885969271, 34.792215567510745 ], [ 126.483194185404912, 34.810626620872149 ], [ 126.483708698564129, 34.815767923023309 ], [ 126.495434188622269, 34.822787623023004 ], [ 126.493961798263555, 34.829001454514092 ], [ 126.497396786268737, 34.835713373733839 ], [ 126.487493397887121, 34.840380944403435 ], [ 126.486170235520902, 34.848645316808337 ], [ 126.484273224159693, 34.84763583336251 ], [ 126.478241154198372, 34.849962209064749 ], [ 126.480385573155388, 34.853983542107301 ], [ 126.477502813953976, 34.857983256655736 ], [ 126.472374204354651, 34.860643516354187 ], [ 126.467452615244483, 34.857683058332775 ], [ 126.463311871279146, 34.857757353660254 ], [ 126.462027945307923, 34.861836950618098 ], [ 126.458908542293386, 34.864727407939256 ], [ 126.454161339751906, 34.866054427748061 ], [ 126.452728297558181, 34.870591320818008 ], [ 126.453601876079887, 34.875717041744636 ], [ 126.461020624784894, 34.877759456808384 ], [ 126.463652683190361, 34.880440434673709 ], [ 126.467807977652356, 34.880546789204651 ], [ 126.469333038722269, 34.876569721983294 ], [ 126.471094064026417, 34.875355067808925 ], [ 126.472528378336463, 34.877648818038885 ], [ 126.480579872335454, 34.874619833812147 ], [ 126.489611583971396, 34.87995188573138 ], [ 126.495559014635049, 34.881359714098394 ], [ 126.50503355342768, 34.888335739280009 ], [ 126.520971240751166, 34.881024073857418 ], [ 126.52461018792475, 34.876326488067519 ], [ 126.530756768874525, 34.877796429665601 ], [ 126.531387977418206, 34.875130264127428 ], [ 126.550788197624584, 34.875304456680716 ] ] ] ] } },
{ "type": "Feature", "properties": { "emd_cd": "46840256", "emd_nm": "삼향읍" }, "geometry": { "type": "MultiPolygon", "coordinates": [ [ [ [ 126.39305463967969, 34.882644716554246 ], [ 126.397126081486334, 34.885424598210491 ], [ 126.419992820645717, 34.889141646953163 ], [ 126.425308581115686, 34.886149398320832 ], [ 126.434044866195904, 34.884833031726444 ], [ 126.436486233116028, 34.87982171071134 ], [ 126.438751463821461, 34.879570733030953 ], [ 126.43923968636193, 34.875743536471241 ], [ 126.448410641850643, 34.874539566441996 ], [ 126.449818801120514, 34.87180635484021 ], [ 126.452828926645736, 34.870463066359108 ], [ 126.454161339751906, 34.866054427748061 ], [ 126.458285956278885, 34.865157149111006 ], [ 126.462027945307923, 34.861836950618098 ], [ 126.463311871279146, 34.857757353660254 ], [ 126.467452615244483, 34.857683058332775 ], [ 126.472374204354651, 34.860643516354187 ], [ 126.478221222085068, 34.857274046839947 ], [ 126.480385573155388, 34.853983542107301 ], [ 126.478241154198372, 34.849962209064749 ], [ 126.484273224159693, 34.84763583336251 ], [ 126.486170235520902, 34.848645316808337 ], [ 126.487493397887121, 34.840380944403435 ], [ 126.497396786268737, 34.835713373733839 ], [ 126.493961798263555, 34.829001454514092 ], [ 126.495434188622269, 34.822787623023004 ], [ 126.483708698564129, 34.815767923023309 ], [ 126.483194185404912, 34.810626620872149 ], [ 126.463420885969271, 34.792215567510745 ], [ 126.458336664959319, 34.793281244063188 ], [ 126.459425673330813, 34.808583829469839 ], [ 126.457969683097787, 34.808144848325938 ], [ 126.457576596231945, 34.810820858366881 ], [ 126.455099176515034, 34.810809761855133 ], [ 126.454516556365334, 34.817495198806114 ], [ 126.438411594070317, 34.82118745068783 ], [ 126.437323984637615, 34.824451355501445 ], [ 126.439028171772136, 34.827803937708453 ], [ 126.439048576425975, 34.834115776812972 ], [ 126.436106942704086, 34.837510180362408 ], [ 126.427845026106453, 34.83785794980183 ], [ 126.424878186964762, 34.838975796078643 ], [ 126.422724480642245, 34.84253754530809 ], [ 126.420190861113539, 34.841296670236261 ], [ 126.419205690907702, 34.844355208695397 ], [ 126.412427355076744, 34.843841408699411 ], [ 126.412252981590754, 34.845722150447429 ], [ 126.40549895554291, 34.847980450278506 ], [ 126.407416148017631, 34.85206381090272 ], [ 126.40524694865276, 34.857472256476349 ], [ 126.401809852243929, 34.861030537495488 ], [ 126.403890516689572, 34.864179766875083 ], [ 126.397250134547932, 34.866528288969555 ], [ 126.395153353692862, 34.869509209856346 ], [ 126.395859579218566, 34.873480439827716 ], [ 126.39839733978117, 34.87437110334411 ], [ 126.402206399249863, 34.879590378137443 ], [ 126.39305463967969, 34.882644716554246 ] ] ], [ [ [ 126.403158391740845, 34.854731082570154 ], [ 126.403771594028484, 34.855089061741076 ], [ 126.40322036048029, 34.854608510896881 ], [ 126.403158391740845, 34.854731082570154 ] ] ], [ [ [ 126.396642395903413, 34.860057391237056 ], [ 126.39813340227083, 34.859573579671405 ], [ 126.399576785297683, 34.857094936247144 ], [ 126.397084476947427, 34.856996035938636 ], [ 126.396642395903413, 34.860057391237056 ] ] ], [ [ [ 126.394252264581326, 34.861742151864782 ], [ 126.394766429881443, 34.858710740536694 ], [ 126.393055033552301, 34.858492836995964 ], [ 126.392566574746297, 34.861034054366058 ], [ 126.394252264581326, 34.861742151864782 ] ] ], [ [ [ 126.385226035191366, 34.863655398441281 ], [ 126.387365855922184, 34.862727127712233 ], [ 126.38871853163964, 34.858092884220376 ], [ 126.386252695916085, 34.859120251902034 ], [ 126.385226035191366, 34.863655398441281 ] ] ] ] } },
{ "type": "Feature", "properties": { "emd_cd": "46840320", "emd_nm": "몽탄면" }, "geometry": { "type": "MultiPolygon", "coordinates": [ [ [ [ 126.463652683190361, 34.880440434673709 ], [ 126.465753487294819, 34.885762587694792 ], [ 126.462584589598393, 34.890026592361203 ], [ 126.46425133354262, 34.896449587091006 ], [ 126.462363937720042, 34.897691130179027 ], [ 126.462193436679698, 34.901207393312994 ], [ 126.456397549326681, 34.907173338303465 ], [ 126.457550816301094, 34.909948437575267 ], [ 126.453541888190259, 34.911254870743058 ], [ 126.453463927726219, 34.916557110440934 ], [ 126.447876167461899, 34.922794760756084 ], [ 126.453687582525177, 34.925165047505836 ], [ 126.460303598523566, 34.92295703330479 ], [ 126.46342265943268, 34.925859583422969 ], [ 126.461440910440132, 34.932986075486554 ], [ 126.46196006430182, 34.939039357657499 ], [ 126.464247305293981, 34.941607498960011 ], [ 126.464314767036669, 34.946867243592166 ], [ 126.471096782065018, 34.953808976677671 ], [ 126.475515029260976, 34.96434175906348 ], [ 126.484916969724068, 34.963206726937607 ], [ 126.490660107144976, 34.957985995952441 ], [ 126.493671114269631, 34.95983019854701 ], [ 126.495147574848815, 34.963318026643243 ], [ 126.501592237061274, 34.96358457384212 ], [ 126.505363893177616, 34.968634015767137 ], [ 126.509116661963304, 34.967018587778917 ], [ 126.514362329289156, 34.968287253964171 ], [ 126.515645531860244, 34.971664207152422 ], [ 126.508004434574261, 34.97706043653659 ], [ 126.509457640147318, 34.979745149410768 ], [ 126.51814749288414, 34.983473631584097 ], [ 126.524956409921714, 34.983351245830008 ], [ 126.53283000409796, 34.977865804032554 ], [ 126.537376891466351, 34.977415425457046 ], [ 126.540870539844505, 34.975077948348449 ], [ 126.528329464216554, 34.948984924455921 ], [ 126.530112795798402, 34.941508509156222 ], [ 126.534016366623931, 34.934312574004657 ], [ 126.540971774979383, 34.927128104565959 ], [ 126.541783857372579, 34.92352566234851 ], [ 126.541187635646097, 34.918694335743062 ], [ 126.535719826070689, 34.918012632113481 ], [ 126.530205706803415, 34.925449595553772 ], [ 126.524714464230911, 34.928758571702609 ], [ 126.51924182732769, 34.9288121355588 ], [ 126.514674505329424, 34.925757662313039 ], [ 126.513042069470686, 34.91980803731272 ], [ 126.533447557619255, 34.893679334357671 ], [ 126.544451219788527, 34.886281383450729 ], [ 126.542929660118574, 34.885717391118199 ], [ 126.550788197624584, 34.875304456680716 ], [ 126.531387977418206, 34.875130264127428 ], [ 126.530756768874525, 34.877796429665601 ], [ 126.52461018792475, 34.876326488067519 ], [ 126.520971240751166, 34.881024073857418 ], [ 126.50503355342768, 34.888335739280009 ], [ 126.495559014635049, 34.881359714098394 ], [ 126.489611583971396, 34.87995188573138 ], [ 126.480579872335454, 34.874619833812147 ], [ 126.472528378336463, 34.877648818038885 ], [ 126.471094064026417, 34.875355067808925 ], [ 126.46818083414334, 34.880361343106166 ], [ 126.463652683190361, 34.880440434673709 ] ] ] ] } },
{ "type": "Feature", "properties": { "emd_cd": "46840330", "emd_nm": "청계면" }, "geometry": { "type": "MultiPolygon", "coordinates": [ [ [ [ 126.385292641765872, 34.885983603770498 ], [ 126.385922620401317, 34.88681874757529 ], [ 126.38761128942248, 34.886966637892407 ], [ 126.387109114628657, 34.886194568959489 ], [ 126.385292641765872, 34.885983603770498 ] ] ], [ [ [ 126.383100779600923, 34.921621507932159 ], [ 126.384258337413101, 34.922430252868459 ], [ 126.384504225282626, 34.922077226350574 ], [ 126.384256135769448, 34.921056389184415 ], [ 126.383100779600923, 34.921621507932159 ] ] ], [ [ [ 126.451893052384648, 34.870703962760714 ], [ 126.44793901773825, 34.874863135032903 ], [ 126.443915893155946, 34.874137450498701 ], [ 126.43923968636193, 34.875743536471241 ], [ 126.438751463821461, 34.879570733030953 ], [ 126.436486233116028, 34.87982171071134 ], [ 126.434044866195904, 34.884833031726444 ], [ 126.425308581115686, 34.886149398320832 ], [ 126.419992820645717, 34.889141646953163 ], [ 126.395784125186779, 34.885052367014822 ], [ 126.392789163865984, 34.882346428957213 ], [ 126.389259499581655, 34.881727408508702 ], [ 126.389273502638176, 34.878804445416407 ], [ 126.386968981528796, 34.877988179034539 ], [ 126.386616140332208, 34.880370648385259 ], [ 126.388011134075512, 34.881005521932764 ], [ 126.386833025211544, 34.882190860265297 ], [ 126.390865816257005, 34.885169004097037 ], [ 126.389664011455793, 34.889698123747927 ], [ 126.393779786269718, 34.894086375943402 ], [ 126.393117475626241, 34.896014964784563 ], [ 126.391978353690035, 34.894357920446758 ], [ 126.391674483344119, 34.894432076193354 ], [ 126.393188265963772, 34.896163910817307 ], [ 126.391667358635885, 34.899664634241191 ], [ 126.396155918666409, 34.897326904952081 ], [ 126.400128996233391, 34.899588497789047 ], [ 126.405084755858795, 34.910551856658039 ], [ 126.403875586774348, 34.914757047220306 ], [ 126.39938532675211, 34.918182495149075 ], [ 126.393360177644183, 34.919846870685909 ], [ 126.391416493934472, 34.921745523785553 ], [ 126.390449599153314, 34.927268228064783 ], [ 126.387237056523688, 34.927241730156439 ], [ 126.398969704152535, 34.934975532207616 ], [ 126.397581241079095, 34.937585704971411 ], [ 126.396252528599803, 34.935767331190505 ], [ 126.396299806555149, 34.937531340558209 ], [ 126.389553799561924, 34.940672105123156 ], [ 126.387837368231061, 34.947389270874929 ], [ 126.394656678259153, 34.962104037547185 ], [ 126.394014812837057, 34.964813697513954 ], [ 126.390175219527109, 34.967553568081755 ], [ 126.394778179825806, 34.971547313486532 ], [ 126.399457223005015, 34.980946786838267 ], [ 126.407592627843371, 34.977770424163268 ], [ 126.415908685198602, 34.978683894850725 ], [ 126.418811902423997, 34.975012067218117 ], [ 126.423153754714434, 34.977898162112318 ], [ 126.446989396133333, 34.968498809473914 ], [ 126.454066881390858, 34.979091129873119 ], [ 126.460608054967295, 34.978985394745443 ], [ 126.461590537475033, 34.974195688853797 ], [ 126.466349364884906, 34.973658234656668 ], [ 126.467543771112233, 34.967689434541256 ], [ 126.4723903003391, 34.966803927474643 ], [ 126.475515029260976, 34.96434175906348 ], [ 126.471096782065018, 34.953808976677671 ], [ 126.464314767036669, 34.946867243592166 ], [ 126.464247305293981, 34.941607498960011 ], [ 126.46196006430182, 34.939039357657499 ], [ 126.461440910440132, 34.932986075486554 ], [ 126.46342265943268, 34.925859583422969 ], [ 126.460303598523566, 34.92295703330479 ], [ 126.453687582525177, 34.925165047505836 ], [ 126.447876167461899, 34.922794760756084 ], [ 126.453463927726219, 34.916557110440934 ], [ 126.453541888190259, 34.911254870743058 ], [ 126.457550816301094, 34.909948437575267 ], [ 126.456397549326681, 34.907173338303465 ], [ 126.462193436679698, 34.901207393312994 ], [ 126.462363937720042, 34.897691130179027 ], [ 126.464464318696471, 34.895595650436533 ], [ 126.462584589598393, 34.890026592361203 ], [ 126.465753487294819, 34.885762587694792 ], [ 126.461020624784894, 34.877759456808384 ], [ 126.453601876079887, 34.875717041744636 ], [ 126.451893052384648, 34.870703962760714 ] ] ] ] } },
{ "type": "Feature", "properties": { "emd_cd": "46840340", "emd_nm": "현경면" }, "geometry": { "type": "MultiPolygon", "coordinates": [ [ [ [ 126.386530448032261, 35.029415134910614 ], [ 126.386487359474685, 35.028811089307993 ], [ 126.386300085609363, 35.0291450840379 ], [ 126.386530448032261, 35.029415134910614 ] ] ], [ [ [ 126.331335376129971, 35.061793367715453 ], [ 126.33499246442156, 35.061628079906548 ], [ 126.339438228700956, 35.063098887891286 ], [ 126.344767135725462, 35.070787459692717 ], [ 126.332673644765691, 35.0880033340324 ], [ 126.333568915782564, 35.091321291677033 ], [ 126.343535580303964, 35.091640958775344 ], [ 126.34551810327369, 35.093680209174472 ], [ 126.34870460075858, 35.093716196726668 ], [ 126.349868957958691, 35.099743821686346 ], [ 126.351278512447607, 35.100161129664208 ], [ 126.353050133230056, 35.098013638383591 ], [ 126.35030179155207, 35.095245747629988 ], [ 126.351834680936534, 35.087907488914176 ], [ 126.35039207380683, 35.086180599203146 ], [ 126.348589404075042, 35.088896322761428 ], [ 126.342461718842415, 35.086468694516356 ], [ 126.343390647240739, 35.082726991702373 ], [ 126.342037713677072, 35.081391438732908 ], [ 126.344898387373789, 35.079636355167167 ], [ 126.345430659023037, 35.075387711631279 ], [ 126.35007415163652, 35.076109596096558 ], [ 126.350451440251319, 35.079402004974284 ], [ 126.357748084106547, 35.074908121642373 ], [ 126.362237357899545, 35.075352387206657 ], [ 126.362733416239593, 35.07928235979518 ], [ 126.366827101932145, 35.078123417661118 ], [ 126.363670766418267, 35.074773570230192 ], [ 126.367363680983047, 35.071284308252174 ], [ 126.365027007336678, 35.065194248983147 ], [ 126.367098082933964, 35.062639378613376 ], [ 126.372427566357615, 35.061939308208963 ], [ 126.376456810394117, 35.070332546119026 ], [ 126.383086474388506, 35.077180803997628 ], [ 126.380983862620013, 35.081979478791247 ], [ 126.388568987813841, 35.086476374122249 ], [ 126.391258642767497, 35.085673343019252 ], [ 126.39158347650104, 35.083287549721312 ], [ 126.394972477645439, 35.082893826984062 ], [ 126.390073970889546, 35.082674270749948 ], [ 126.386347372058751, 35.078873731270747 ], [ 126.387520538548856, 35.07639087133397 ], [ 126.384989783217549, 35.074829526742043 ], [ 126.386601561443896, 35.072725972822774 ], [ 126.383816039420964, 35.069868604353317 ], [ 126.384869354118649, 35.065713737112134 ], [ 126.390812055974536, 35.064668116529361 ], [ 126.392884090275928, 35.071521788673465 ], [ 126.396362380895539, 35.075912232576037 ], [ 126.403837305249013, 35.070796633893977 ], [ 126.402520370533693, 35.065870601168477 ], [ 126.406390020672404, 35.063594389273256 ], [ 126.406952708065731, 35.060307861851086 ], [ 126.405350600553518, 35.057316271052883 ], [ 126.400601990146171, 35.055445875264923 ], [ 126.398121406916857, 35.052325871515926 ], [ 126.402550578105846, 35.050919738628373 ], [ 126.397694866995153, 35.048638089013551 ], [ 126.392483936724872, 35.048714350822564 ], [ 126.392793035684704, 35.046678058879387 ], [ 126.39002160495329, 35.042568679943145 ], [ 126.395276417678559, 35.041061227908848 ], [ 126.398142786813054, 35.043097305407194 ], [ 126.400903868300006, 35.042900887366429 ], [ 126.401226342567512, 35.036599631310999 ], [ 126.398536820959848, 35.032879924063501 ], [ 126.403832866420075, 35.026455623615313 ], [ 126.410409380828966, 35.029180246291723 ], [ 126.417164367657676, 35.026547911035053 ], [ 126.427536470101018, 35.027395157814496 ], [ 126.422903340714839, 35.035985685116458 ], [ 126.418103467649246, 35.040114128468737 ], [ 126.418559607823255, 35.04179647482416 ], [ 126.424046416908553, 35.048269292747769 ], [ 126.445350859185154, 35.058353355458166 ], [ 126.451829622104668, 35.072301967641174 ], [ 126.458624881480787, 35.073780573880931 ], [ 126.464690325974232, 35.071311267670161 ], [ 126.469096919137513, 35.06699372154344 ], [ 126.473273209296892, 35.066774542504746 ], [ 126.474931504635478, 35.065175086004281 ], [ 126.475707752534618, 35.065282018411622 ], [ 126.479106026307761, 35.064814022840778 ], [ 126.479772957156925, 35.064660507549689 ], [ 126.479793372208874, 35.064577400220841 ], [ 126.478612118077919, 35.064578984857405 ], [ 126.479733881613328, 35.061485223552488 ], [ 126.476206960640113, 35.059779718784696 ], [ 126.472735661058522, 35.052839761751422 ], [ 126.470971656876131, 35.052952411003702 ], [ 126.465501582998129, 35.046012834655251 ], [ 126.463461343030019, 35.04197240178808 ], [ 126.464841661517028, 35.03766733399263 ], [ 126.457574415094115, 35.039044461880167 ], [ 126.453139676030077, 35.030068316217807 ], [ 126.455200901321973, 35.020492348960218 ], [ 126.449409639158873, 35.014682077825256 ], [ 126.447956046870743, 35.008174755665671 ], [ 126.454681813146522, 34.998428795231938 ], [ 126.453332522317936, 34.99495604606421 ], [ 126.450645054314975, 34.993513003895174 ], [ 126.448507589002418, 34.994783397350439 ], [ 126.447823713723082, 34.992575985147582 ], [ 126.44482606137467, 34.991529054788536 ], [ 126.433884302921257, 34.993024781873785 ], [ 126.430277882564681, 34.98856063057103 ], [ 126.431208578921556, 34.987906134590403 ], [ 126.424379996310137, 34.990863932369507 ], [ 126.425477183960382, 34.989206747653633 ], [ 126.420481116727728, 34.986041494613993 ], [ 126.415908685198602, 34.978683894850725 ], [ 126.410992381243062, 34.977656357842747 ], [ 126.399457223005015, 34.980946786838267 ], [ 126.401361298396779, 34.984402286024412 ], [ 126.402920283120679, 34.998075706310118 ], [ 126.408819005737016, 35.00260441886482 ], [ 126.406509920680591, 35.009551446862183 ], [ 126.403911773720608, 35.00942844930443 ], [ 126.403802745658453, 35.011073434666656 ], [ 126.408048097014898, 35.012169223385712 ], [ 126.409226308260344, 35.015021506392443 ], [ 126.407341061820361, 35.016788728059801 ], [ 126.404190296123389, 35.016612327907211 ], [ 126.404009036356456, 35.022080706580375 ], [ 126.396518187727835, 35.024532619684813 ], [ 126.393453250558309, 35.022701737190026 ], [ 126.390218253757098, 35.02356433878122 ], [ 126.39090124299311, 35.029657899392703 ], [ 126.389434518665212, 35.036187537758643 ], [ 126.381684187006869, 35.048885761350924 ], [ 126.377203583005638, 35.047944196207958 ], [ 126.374618001712918, 35.044304652457264 ], [ 126.373024046083486, 35.047057899509731 ], [ 126.370193521444463, 35.047678109769208 ], [ 126.364173775799586, 35.044045992711204 ], [ 126.356722838670279, 35.042027857114107 ], [ 126.357056820184226, 35.03851870136328 ], [ 126.35289400840729, 35.038857001823764 ], [ 126.348187327243792, 35.045444520690253 ], [ 126.346830832248273, 35.051464712318044 ], [ 126.351312258687102, 35.051506935290298 ], [ 126.352789895968371, 35.052911297441256 ], [ 126.34736458688171, 35.058386143543004 ], [ 126.337641476948079, 35.060851869466674 ], [ 126.334441009559654, 35.059145197291315 ], [ 126.331335376129971, 35.061793367715453 ] ] ], [ [ [ 126.33319463674512, 35.077035101761354 ], [ 126.333671166426029, 35.076899189547738 ], [ 126.333654916934904, 35.076807730683505 ], [ 126.33319463674512, 35.077035101761354 ] ] ], [ [ [ 126.40100387269743, 35.079798951352501 ], [ 126.400294558940061, 35.080024136967651 ], [ 126.400972798264746, 35.08077776174315 ], [ 126.40100387269743, 35.079798951352501 ] ] ], [ [ [ 126.344685114692311, 35.081391769980691 ], [ 126.344496913801905, 35.08142182907703 ], [ 126.344531681839044, 35.08149316060679 ], [ 126.344685114692311, 35.081391769980691 ] ] ], [ [ [ 126.397172745880752, 35.083396837872264 ], [ 126.397568658257271, 35.082329459036487 ], [ 126.396679897115675, 35.082938749619522 ], [ 126.397172745880752, 35.083396837872264 ] ] ], [ [ [ 126.381649948108603, 35.091527500331821 ], [ 126.382380663748904, 35.090813409617624 ], [ 126.381322840088146, 35.091271918771007 ], [ 126.381649948108603, 35.091527500331821 ] ] ], [ [ [ 126.374410924242682, 35.097713498313908 ], [ 126.37547990213163, 35.096490208675654 ], [ 126.374206987303708, 35.097328795080145 ], [ 126.374410924242682, 35.097713498313908 ] ] ], [ [ [ 126.35147937864285, 35.104773828177173 ], [ 126.351397085086504, 35.105109614781497 ], [ 126.351621793874941, 35.105234600706375 ], [ 126.35147937864285, 35.104773828177173 ] ] ] ] } },
{ "type": "Feature", "properties": { "emd_cd": "46840350", "emd_nm": "망운면" }, "geometry": { "type": "MultiPolygon", "coordinates": [ [ [ [ 126.390332779035745, 35.024288741053773 ], [ 126.393453250558309, 35.022701737190026 ], [ 126.394624811161961, 35.024188034331793 ], [ 126.398456257580705, 35.024276715168902 ], [ 126.404009036356456, 35.022080706580375 ], [ 126.404190296123389, 35.016612327907211 ], [ 126.407341061820361, 35.016788728059801 ], [ 126.409226308260344, 35.015021506392443 ], [ 126.408048097014898, 35.012169223385712 ], [ 126.403802745658453, 35.011073434666656 ], [ 126.403911773720608, 35.00942844930443 ], [ 126.406509920680591, 35.009551446862183 ], [ 126.408819005737016, 35.00260441886482 ], [ 126.402920283120679, 34.998075706310118 ], [ 126.401361298396779, 34.984402286024412 ], [ 126.394898349312257, 34.97172391419241 ], [ 126.390504914643572, 34.967597951655968 ], [ 126.383163888179752, 34.968614255142469 ], [ 126.379479014928577, 34.971625736801599 ], [ 126.379245055223222, 34.975283362630016 ], [ 126.380539863871647, 34.980033547896419 ], [ 126.380687861757366, 34.987862391443123 ], [ 126.373841887489249, 34.989597878370809 ], [ 126.374087641355501, 34.998811212300829 ], [ 126.372157002902938, 34.999496213744486 ], [ 126.36750347241987, 34.995637233448008 ], [ 126.367792561149784, 34.991223457742599 ], [ 126.360647718247918, 34.989823680961166 ], [ 126.358187752779159, 34.990569627585721 ], [ 126.35873447511598, 34.992895245560057 ], [ 126.354900666391899, 34.99266731684348 ], [ 126.350662602778897, 34.995538027878169 ], [ 126.34485079845291, 34.995393841565111 ], [ 126.340766769697169, 34.997465829200443 ], [ 126.337394358248062, 34.996410391470846 ], [ 126.333479184174337, 34.992081442884164 ], [ 126.334109212299012, 34.994999997831876 ], [ 126.343301792334671, 34.999588756821282 ], [ 126.344999063592468, 35.001937040757085 ], [ 126.366916077110147, 35.011533109070442 ], [ 126.372768134715528, 35.016676011599479 ], [ 126.383664935706506, 35.02084500770011 ], [ 126.385498087093879, 35.023776036324804 ], [ 126.390332779035745, 35.024288741053773 ] ] ], [ [ [ 126.310827520688733, 35.014214061249682 ], [ 126.31617516667734, 35.01504493377729 ], [ 126.319123445805957, 35.013815511300628 ], [ 126.316690732244751, 35.010750476418679 ], [ 126.318601309436715, 35.00766736656827 ], [ 126.315439523789934, 35.005790081261935 ], [ 126.313980668557164, 35.000138668986239 ], [ 126.311673627040562, 35.007367032504973 ], [ 126.314534764413665, 35.011047504821825 ], [ 126.310827520688733, 35.014214061249682 ] ] ], [ [ [ 126.31454418128898, 35.017752051052021 ], [ 126.314794407838917, 35.018014868284006 ], [ 126.314824957759569, 35.017927934350858 ], [ 126.31454418128898, 35.017752051052021 ] ] ], [ [ [ 126.37129773667894, 35.022006687928986 ], [ 126.371836071054389, 35.021734081394712 ], [ 126.37148249363527, 35.021259449413662 ], [ 126.37129773667894, 35.022006687928986 ] ] ], [ [ [ 126.373141012717724, 35.024363212550114 ], [ 126.374561267255601, 35.028714792709138 ], [ 126.374862938314408, 35.0257878739407 ], [ 126.373141012717724, 35.024363212550114 ] ] ] ] } },
{ "type": "Feature", "properties": { "emd_cd": "46840360", "emd_nm": "해제면" }, "geometry": { "type": "MultiPolygon", "coordinates": [ [ [ [ 126.313441932637133, 35.04291565942605 ], [ 126.31387189674706, 35.042232341031031 ], [ 126.313048575592006, 35.042657201849806 ], [ 126.313441932637133, 35.04291565942605 ] ] ], [ [ [ 126.272424387274853, 35.05008403434951 ], [ 126.272555309539683, 35.049511835627236 ], [ 126.272296579153817, 35.049982468852271 ], [ 126.272424387274853, 35.05008403434951 ] ] ], [ [ [ 126.242083952308306, 35.112139969773885 ], [ 126.245627841025069, 35.115613748143517 ], [ 126.246544230989059, 35.121190375626668 ], [ 126.253365523429864, 35.130418608169769 ], [ 126.252133847684235, 35.133328638571562 ], [ 126.255382189909469, 35.134107103568518 ], [ 126.25709844560626, 35.130124429675895 ], [ 126.261033585637492, 35.131996462862595 ], [ 126.256498777602744, 35.138664966438427 ], [ 126.257811554944581, 35.141693885212597 ], [ 126.262632868424234, 35.145158427708886 ], [ 126.267096857076737, 35.144081691952614 ], [ 126.26895834598507, 35.14589284425103 ], [ 126.271757409930146, 35.145139534453072 ], [ 126.270968114194048, 35.150005679946176 ], [ 126.273968559626297, 35.150430383798124 ], [ 126.273254336923685, 35.148661035650427 ], [ 126.275694324408974, 35.14700115352624 ], [ 126.27362208854214, 35.145761156833586 ], [ 126.278178547183444, 35.142006664831449 ], [ 126.278949848109846, 35.135657698584076 ], [ 126.283071055279052, 35.134371143617741 ], [ 126.290217955511551, 35.135404067912688 ], [ 126.292266564036879, 35.136867878433812 ], [ 126.292373665524963, 35.139103858074478 ], [ 126.29053395626822, 35.139928544310131 ], [ 126.29158690895558, 35.14132361711556 ], [ 126.291964419239235, 35.139591040326145 ], [ 126.296585473868234, 35.137523043350264 ], [ 126.301200241487706, 35.138500792743152 ], [ 126.308044391248487, 35.137243132759501 ], [ 126.308515075396997, 35.132712522653506 ], [ 126.305712734591367, 35.131694490082097 ], [ 126.307901832395387, 35.12744306751145 ], [ 126.310806166008192, 35.128794935862956 ], [ 126.321039687296434, 35.127383824042056 ], [ 126.322234400144069, 35.128350953566482 ], [ 126.321560711840675, 35.130282842890395 ], [ 126.327466464390184, 35.13529414441043 ], [ 126.330964536547341, 35.141398873442853 ], [ 126.329694279760787, 35.144956990455526 ], [ 126.325767196356082, 35.14637440049853 ], [ 126.326124967327971, 35.149400579590882 ], [ 126.329891667027709, 35.151128910796992 ], [ 126.329795874588427, 35.148645834254083 ], [ 126.334063652498571, 35.148987008369723 ], [ 126.342178916848852, 35.155197283313349 ], [ 126.344410322350626, 35.158791026991672 ], [ 126.346250379821626, 35.159710752789046 ], [ 126.347404652672694, 35.158023706545926 ], [ 126.345682319400382, 35.153948089286736 ], [ 126.347279979593651, 35.154969717437616 ], [ 126.346618856331332, 35.15385394418832 ], [ 126.345210886675076, 35.153914864589701 ], [ 126.344392084249193, 35.150777449814868 ], [ 126.34464789327609, 35.140408316268108 ], [ 126.346589252515685, 35.138734051749552 ], [ 126.341073859030672, 35.130779168904176 ], [ 126.341080528602106, 35.129076334097647 ], [ 126.342820953867701, 35.128626779182426 ], [ 126.338259081946504, 35.122434846851682 ], [ 126.340620098396343, 35.120574379277542 ], [ 126.330896655196568, 35.114947226412646 ], [ 126.333309566218077, 35.113072277540191 ], [ 126.332896601132319, 35.110532502533069 ], [ 126.329632797358499, 35.109177466199029 ], [ 126.331567463181543, 35.104766417902461 ], [ 126.33479945739073, 35.103524417534004 ], [ 126.335451903058313, 35.097495824796596 ], [ 126.331146483666174, 35.094825822331558 ], [ 126.33434418720573, 35.090632507046031 ], [ 126.332736322544378, 35.088172924997671 ], [ 126.322186552931868, 35.08943283084097 ], [ 126.316029697402342, 35.086931681560522 ], [ 126.317028200925165, 35.084810430510899 ], [ 126.315518859378003, 35.083653627779221 ], [ 126.317853415666733, 35.078510184802624 ], [ 126.31118077312199, 35.075813337154699 ], [ 126.311899060249033, 35.073478172595074 ], [ 126.316422393279865, 35.07056665320389 ], [ 126.312476757774277, 35.067005398638415 ], [ 126.305450078360522, 35.066660936674062 ], [ 126.300076953712662, 35.06113660414492 ], [ 126.301337722428258, 35.059579853469302 ], [ 126.312443766136667, 35.058634237334836 ], [ 126.314407512322703, 35.054308379645086 ], [ 126.306343331811945, 35.049364296723574 ], [ 126.304823412201458, 35.045483000715414 ], [ 126.298016529886723, 35.042193629993072 ], [ 126.296425707909691, 35.041774247693944 ], [ 126.300728893830552, 35.044231444857061 ], [ 126.30198526613286, 35.046952553927525 ], [ 126.296611341254291, 35.049963790665387 ], [ 126.290975856991196, 35.049343188952889 ], [ 126.295863414794283, 35.05282059768038 ], [ 126.295975641810102, 35.054750726711134 ], [ 126.291765122524424, 35.057468153907493 ], [ 126.291540336429705, 35.059820855694696 ], [ 126.285560036681275, 35.062093713528249 ], [ 126.281686743372504, 35.061824159085376 ], [ 126.280921526103469, 35.057332037826427 ], [ 126.276941368424644, 35.054440091610076 ], [ 126.273399677438462, 35.053660840326884 ], [ 126.270141117075383, 35.054960215665652 ], [ 126.267171020277104, 35.052897386375918 ], [ 126.261842061472066, 35.053718517849177 ], [ 126.260978575371695, 35.065478375993948 ], [ 126.257004566346282, 35.069319889411545 ], [ 126.245138542740079, 35.07599698029081 ], [ 126.244403637644695, 35.079728492226067 ], [ 126.244854642412164, 35.084958990272924 ], [ 126.248942623217573, 35.091519000930333 ], [ 126.248311709633043, 35.097031601574599 ], [ 126.259743368148378, 35.093174901476708 ], [ 126.262810520682379, 35.095855698672082 ], [ 126.262039972660617, 35.102063318081541 ], [ 126.260159133312669, 35.104337190895187 ], [ 126.249179739611165, 35.108547556149404 ], [ 126.24869170500412, 35.110972029397949 ], [ 126.242083952308306, 35.112139969773885 ] ] ], [ [ [ 126.254097503038111, 35.139145436743654 ], [ 126.254490659974408, 35.139377312438548 ], [ 126.254245261596679, 35.138870189009126 ], [ 126.254097503038111, 35.139145436743654 ] ] ], [ [ [ 126.348149292941613, 35.157588755892995 ], [ 126.348086136114546, 35.157467348096503 ], [ 126.347994593720486, 35.157538627703502 ], [ 126.348149292941613, 35.157588755892995 ] ] ], [ [ [ 126.33513587043953, 35.1642248378716 ], [ 126.337641687414191, 35.166363142479774 ], [ 126.336799103745747, 35.162704330578975 ], [ 126.33513587043953, 35.1642248378716 ] ] ] ] } },
{ "type": "Feature", "properties": { "emd_cd": "46840370", "emd_nm": "운남면" }, "geometry": { "type": "MultiPolygon", "coordinates": [ [ [ [ 126.375727011791952, 34.909815958063156 ], [ 126.375822942494068, 34.910943780733732 ], [ 126.376317571565878, 34.910756316386987 ], [ 126.375727011791952, 34.909815958063156 ] ] ], [ [ [ 126.371349331453757, 34.920030086961226 ], [ 126.371451205673793, 34.919686075032892 ], [ 126.371156160971864, 34.919870894648987 ], [ 126.371349331453757, 34.920030086961226 ] ] ], [ [ [ 126.324317070063429, 34.924991493056503 ], [ 126.325520588781757, 34.922852613926828 ], [ 126.322347888199843, 34.922651163816646 ], [ 126.322037016035026, 34.924392670809063 ], [ 126.324317070063429, 34.924991493056503 ] ] ], [ [ [ 126.301986972996502, 34.927562423365629 ], [ 126.302455213350484, 34.927778200524799 ], [ 126.302176596917661, 34.927449915619846 ], [ 126.301986972996502, 34.927562423365629 ] ] ], [ [ [ 126.295378429319314, 34.965983672115549 ], [ 126.298346439427192, 34.973369761654567 ], [ 126.297663159125193, 34.976117921099032 ], [ 126.303913774263478, 34.977130407912419 ], [ 126.306072362436367, 34.986036169536767 ], [ 126.310189727337914, 34.985551024839936 ], [ 126.313375255474099, 34.988163720359282 ], [ 126.308894155403408, 34.975982161663055 ], [ 126.315822189182441, 34.974528903132352 ], [ 126.318750832818111, 34.981079111392091 ], [ 126.320889928295017, 34.973191595303383 ], [ 126.32226970042592, 34.971774999024973 ], [ 126.326458931230377, 34.97168020401697 ], [ 126.326707210390424, 34.967367210475899 ], [ 126.329878438982789, 34.966842275320708 ], [ 126.335738223078067, 34.971777067186373 ], [ 126.342829954711675, 34.971827369493887 ], [ 126.345346023231258, 34.973360611817498 ], [ 126.348810414393199, 34.976531222621112 ], [ 126.351710075257003, 34.983180112008284 ], [ 126.358188844669229, 34.984337475178044 ], [ 126.359333958236476, 34.986790838156601 ], [ 126.358187752779159, 34.990569627585721 ], [ 126.367792561149784, 34.991223457742599 ], [ 126.365490662687833, 34.981687301408542 ], [ 126.370291725850123, 34.97357814869298 ], [ 126.360930725180452, 34.972197420608929 ], [ 126.359188049221785, 34.968411831291654 ], [ 126.36119412430385, 34.965956581053092 ], [ 126.360169776755129, 34.962107283757547 ], [ 126.367422601163014, 34.96305220391028 ], [ 126.371260456262675, 34.958774765767764 ], [ 126.375562964416446, 34.957489390991967 ], [ 126.371390544504024, 34.953788959434036 ], [ 126.371618437046081, 34.948001421362278 ], [ 126.366952157053049, 34.946034658453286 ], [ 126.365228233568658, 34.942559949391978 ], [ 126.373387259122211, 34.941339837139353 ], [ 126.374095863613093, 34.942768533813428 ], [ 126.373577833498956, 34.939407937255574 ], [ 126.368878653287453, 34.936712069279771 ], [ 126.368453633096138, 34.934077841474384 ], [ 126.366252187010659, 34.93266282274854 ], [ 126.366111711045008, 34.927718646007307 ], [ 126.371208022757216, 34.924012241104641 ], [ 126.368690076172641, 34.92289190411261 ], [ 126.368271510259504, 34.919756983213624 ], [ 126.352988006944301, 34.922356499918685 ], [ 126.351056468418136, 34.920940158519365 ], [ 126.351023333035812, 34.916994684917583 ], [ 126.343502907454777, 34.914050206499219 ], [ 126.334632450002559, 34.91700877684454 ], [ 126.329182951071346, 34.916014596586862 ], [ 126.329964083667562, 34.919970488481013 ], [ 126.327809347414927, 34.925117579250326 ], [ 126.329891000286509, 34.927132678730473 ], [ 126.32637531837706, 34.930691111555234 ], [ 126.32182629207837, 34.930616376869516 ], [ 126.321623061406598, 34.928681493402394 ], [ 126.319290047455937, 34.932246013397368 ], [ 126.311368127177928, 34.92657233237162 ], [ 126.306253663443144, 34.927984599659716 ], [ 126.304608836661203, 34.934550384699442 ], [ 126.308133731708153, 34.932737731448555 ], [ 126.31014503176641, 34.933595230534301 ], [ 126.310697869518123, 34.935647997598146 ], [ 126.316538610068591, 34.937349119269236 ], [ 126.317014604164811, 34.94090265606382 ], [ 126.321384731697222, 34.943544344396081 ], [ 126.308686501864003, 34.949236674263084 ], [ 126.306764677549481, 34.955983076468826 ], [ 126.300465477383455, 34.95755376325296 ], [ 126.300866657244882, 34.959515789502042 ], [ 126.297732159847442, 34.961059881035823 ], [ 126.295378429319314, 34.965983672115549 ] ] ], [ [ [ 126.378434657521964, 34.959523537383518 ], [ 126.377649133761224, 34.958668418401828 ], [ 126.377425899181588, 34.959548762307804 ], [ 126.378434657521964, 34.959523537383518 ] ] ] ] } }
]
}
