{
"type": "FeatureCollection",
"name": "46860",
"crs": { "type": "name", "properties": { "name": "urn:ogc:def:crs:OGC:1.3:CRS84" } },
"features": [
{ "type": "Feature", "properties": { "emd_cd": "46860250", "emd_nm": "함평읍" }, "geometry": { "type": "MultiPolygon", "coordinates": [ [ [ [ 126.436011687861026, 35.085293536902583 ], [ 126.457808134712195, 35.08989693692812 ], [ 126.461500718594237, 35.095904440221574 ], [ 126.465247969404373, 35.096128468646427 ], [ 126.470326810671367, 35.101971738524398 ], [ 126.470991680465346, 35.106477762873546 ], [ 126.476101866560242, 35.104704993510232 ], [ 126.47778846299309, 35.107472933179295 ], [ 126.479478899218932, 35.107565994887707 ], [ 126.479382793362547, 35.11054525145876 ], [ 126.485743098174623, 35.110691063090705 ], [ 126.488173957266071, 35.114232232627657 ], [ 126.491549584748483, 35.113763759865883 ], [ 126.489765199514721, 35.11136780232551 ], [ 126.490081354855917, 35.105864711774437 ], [ 126.497469645323534, 35.104460841745308 ], [ 126.498314199244447, 35.100454708021005 ], [ 126.497109041661588, 35.100009679767417 ], [ 126.498829635338765, 35.097229746225757 ], [ 126.506906779646854, 35.094940235229167 ], [ 126.507648552201758, 35.092726129058597 ], [ 126.504348786578021, 35.092001435182972 ], [ 126.508940000007883, 35.086635051227589 ], [ 126.511634869377062, 35.079983451583097 ], [ 126.516037145158862, 35.077045876810132 ], [ 126.522552253781427, 35.076043526855763 ], [ 126.522431398455581, 35.077562609289735 ], [ 126.527256742834481, 35.079428204811151 ], [ 126.531032080539532, 35.073361446790074 ], [ 126.527406084364486, 35.070679683824729 ], [ 126.529336977589168, 35.064529140168887 ], [ 126.531507541314966, 35.062672297508371 ], [ 126.531431909826651, 35.054014019273566 ], [ 126.530373304069613, 35.052098003572425 ], [ 126.52619391649803, 35.053720412275347 ], [ 126.518837236666826, 35.049821529906033 ], [ 126.513638519560828, 35.052738486050799 ], [ 126.510318608587866, 35.049941659935151 ], [ 126.502957448382901, 35.034534699417556 ], [ 126.498176409995494, 35.032300240858476 ], [ 126.499463963671289, 35.03137272752123 ], [ 126.4923136967289, 35.029436093331846 ], [ 126.488221046024066, 35.030561817078535 ], [ 126.483492822699077, 35.026614544402783 ], [ 126.478161469841723, 35.026304356964189 ], [ 126.474329306967505, 35.022495981228396 ], [ 126.470338218484372, 35.021409694019695 ], [ 126.466375305990638, 35.024775763596075 ], [ 126.466874506397403, 35.027657161587953 ], [ 126.46836148234992, 35.027985541879218 ], [ 126.464008572060152, 35.031205462179955 ], [ 126.465002170615563, 35.037821328735575 ], [ 126.463456836190161, 35.04193598496559 ], [ 126.471028387528648, 35.052942906352449 ], [ 126.472784531198343, 35.052786199748077 ], [ 126.476217316589484, 35.059838423876357 ], [ 126.479744743182039, 35.061616525727558 ], [ 126.478612118077919, 35.064578984857405 ], [ 126.479801812203405, 35.064665498954092 ], [ 126.469103165313086, 35.066989079937485 ], [ 126.464770546661882, 35.071353147998842 ], [ 126.457677135415167, 35.073764250649255 ], [ 126.454740494266701, 35.077256942380544 ], [ 126.446252800868947, 35.079600750345271 ], [ 126.441602677997665, 35.083971712702763 ], [ 126.436011687861026, 35.085293536902583 ] ] ] ] } },
{ "type": "Feature", "properties": { "emd_cd": "46860310", "emd_nm": "손불면" }, "geometry": { "type": "MultiPolygon", "coordinates": [ [ [ [ 126.370382173782133, 35.163860485469613 ], [ 126.371760753479123, 35.16765850978426 ], [ 126.375168186712429, 35.167073242395759 ], [ 126.376396561950202, 35.170662877576547 ], [ 126.378734768680971, 35.170297043505705 ], [ 126.391970613537168, 35.179578138715769 ], [ 126.396184137517494, 35.179420666305056 ], [ 126.396615940140876, 35.176995565884518 ], [ 126.399843170751708, 35.176108156414109 ], [ 126.400952625414419, 35.177996477297043 ], [ 126.404890016104957, 35.178319654581323 ], [ 126.408087264445129, 35.182008143465382 ], [ 126.407982408515167, 35.186388158342083 ], [ 126.419686503311155, 35.185604760369145 ], [ 126.435265169492709, 35.172830800501892 ], [ 126.437246099440117, 35.168350091992004 ], [ 126.436171238634344, 35.161777542243556 ], [ 126.44094057092542, 35.159934684524238 ], [ 126.440637757084659, 35.155835729831374 ], [ 126.442459649246956, 35.153276347018036 ], [ 126.446528605686566, 35.151645586525504 ], [ 126.453465444295148, 35.154605837374021 ], [ 126.455240371493829, 35.153986734204189 ], [ 126.459335358905761, 35.156804094326404 ], [ 126.466349978252325, 35.153437650266405 ], [ 126.470697553108977, 35.155242446211773 ], [ 126.473268482696312, 35.15104561123254 ], [ 126.473017580405781, 35.148050428430935 ], [ 126.476548437838829, 35.14343807864789 ], [ 126.481053899798241, 35.14496623248214 ], [ 126.48020333793481, 35.140755094403076 ], [ 126.482270749023613, 35.140122166269265 ], [ 126.481482173062403, 35.137444045356695 ], [ 126.485796406819063, 35.130864087394571 ], [ 126.482446848969232, 35.123566488642879 ], [ 126.484031227020012, 35.111312288946706 ], [ 126.479382793362547, 35.11054525145876 ], [ 126.479478899218932, 35.107565994887707 ], [ 126.47778846299309, 35.107472933179295 ], [ 126.476101866560242, 35.104704993510232 ], [ 126.470991680465346, 35.106477762873546 ], [ 126.470326810671367, 35.101971738524398 ], [ 126.465247969404373, 35.096128468646427 ], [ 126.462801683445022, 35.095591779150823 ], [ 126.465180165441453, 35.099918336052831 ], [ 126.462273913537345, 35.103323472231267 ], [ 126.460619642009974, 35.101955960114054 ], [ 126.45562653659556, 35.10219307547694 ], [ 126.451968509833293, 35.105053612368728 ], [ 126.446385213375677, 35.104821907362144 ], [ 126.445745460081099, 35.106253183456573 ], [ 126.437602293979239, 35.105152754656146 ], [ 126.4307664193325, 35.107612915222816 ], [ 126.421755269348267, 35.106691289688456 ], [ 126.403612844336664, 35.135719259367804 ], [ 126.402259879272378, 35.135161317967579 ], [ 126.40214461210897, 35.135343188485571 ], [ 126.403536117191848, 35.135849638411656 ], [ 126.402651332003728, 35.137731452057942 ], [ 126.396719889348631, 35.134489199965202 ], [ 126.393264163247878, 35.137372097362558 ], [ 126.391674805333935, 35.137931820317903 ], [ 126.390582616586087, 35.137515868068533 ], [ 126.390350234175187, 35.137649131427082 ], [ 126.391600781500387, 35.138019094158842 ], [ 126.390331473308052, 35.140431346460055 ], [ 126.386806180106618, 35.142946597229873 ], [ 126.387817518051563, 35.145203086521569 ], [ 126.386671853038621, 35.147456647019801 ], [ 126.383351176420859, 35.150493641051369 ], [ 126.383466805903794, 35.158558628691885 ], [ 126.378059715766668, 35.159424938218976 ], [ 126.37449121116822, 35.157387469933902 ], [ 126.370382173782133, 35.163860485469613 ] ] ] ] } },
{ "type": "Feature", "properties": { "emd_cd": "46860320", "emd_nm": "신광면" }, "geometry": { "type": "MultiPolygon", "coordinates": [ [ [ [ 126.447886288106616, 35.18185824592932 ], [ 126.450417515680059, 35.186943418091289 ], [ 126.45829379812821, 35.186775463143007 ], [ 126.462013273501228, 35.188252583777455 ], [ 126.464083202085078, 35.186729530794345 ], [ 126.468125909396264, 35.187106464330412 ], [ 126.472787626755874, 35.192452457261126 ], [ 126.476937904116511, 35.193882922908088 ], [ 126.481609014957996, 35.19083769730166 ], [ 126.487699782482181, 35.191868505414938 ], [ 126.489383692100731, 35.187509927422688 ], [ 126.491640456218448, 35.187977876623293 ], [ 126.493513078228617, 35.185255726159689 ], [ 126.500748753860904, 35.183313227299287 ], [ 126.503859261402823, 35.184871039040786 ], [ 126.509832298262822, 35.184344890939769 ], [ 126.514297794978262, 35.187617677207861 ], [ 126.521556652918406, 35.185130303933178 ], [ 126.527566434692503, 35.186211750226349 ], [ 126.530725178046339, 35.182688695572864 ], [ 126.533491957104573, 35.174997321062463 ], [ 126.532026345256853, 35.17240720640384 ], [ 126.528504701291112, 35.172064636860398 ], [ 126.527543749259806, 35.168392311065659 ], [ 126.529301613414475, 35.156344806680053 ], [ 126.523197413420363, 35.156442585159176 ], [ 126.521577372420765, 35.154091486782008 ], [ 126.528637039159776, 35.148536073557494 ], [ 126.523676443085236, 35.14142990418388 ], [ 126.509729299275932, 35.13349455040791 ], [ 126.500584050735299, 35.138954926463377 ], [ 126.49681080404099, 35.138229527757744 ], [ 126.497124150932507, 35.135903467460615 ], [ 126.50114535690912, 35.133191992575 ], [ 126.501657265691733, 35.128010603157847 ], [ 126.493650942207523, 35.127005836995018 ], [ 126.494085399513736, 35.124326860418016 ], [ 126.490590517173288, 35.123237938374608 ], [ 126.491642234864401, 35.115288465422552 ], [ 126.487556732477117, 35.113826895315114 ], [ 126.487244295333085, 35.111720605659734 ], [ 126.485176602410931, 35.110631317298079 ], [ 126.483379991366164, 35.112866461557459 ], [ 126.482446848969232, 35.123566488642879 ], [ 126.485796406819063, 35.130864087394571 ], [ 126.481482173062403, 35.137444045356695 ], [ 126.482270749023613, 35.140122166269265 ], [ 126.48020333793481, 35.140755094403076 ], [ 126.481053899798241, 35.14496623248214 ], [ 126.476548437838829, 35.14343807864789 ], [ 126.473017580405781, 35.148050428430935 ], [ 126.471289616678661, 35.155079623874656 ], [ 126.466349978252325, 35.153437650266405 ], [ 126.459335358905761, 35.156804094326404 ], [ 126.455240371493829, 35.153986734204189 ], [ 126.453465444295148, 35.154605837374021 ], [ 126.446528605686566, 35.151645586525504 ], [ 126.442459649246956, 35.153276347018036 ], [ 126.440637757084659, 35.155835729831374 ], [ 126.44094057092542, 35.159934684524238 ], [ 126.436171238634344, 35.161777542243556 ], [ 126.437246099440117, 35.168350091992004 ], [ 126.435265169492709, 35.172830800501892 ], [ 126.447886288106616, 35.18185824592932 ] ] ] ] } },
{ "type": "Feature", "properties": { "emd_cd": "46860330", "emd_nm": "학교면" }, "geometry": { "type": "MultiPolygon", "coordinates": [ [ [ [ 126.588024372414651, 35.056459500286422 ], [ 126.588821722808945, 35.052532907737486 ], [ 126.591088100606001, 35.050595057469529 ], [ 126.588012702491824, 35.04627834747734 ], [ 126.591508376640107, 35.045805184219375 ], [ 126.590073620371285, 35.042213018864629 ], [ 126.591709854260074, 35.043582381284708 ], [ 126.590348664162633, 35.041423716269158 ], [ 126.588715803750077, 35.041334112282293 ], [ 126.591248894979699, 35.038627116630053 ], [ 126.590454256246886, 35.036648474738136 ], [ 126.593263194978064, 35.03438643463339 ], [ 126.594614792036111, 35.027934914928395 ], [ 126.592533103913325, 35.027148570962815 ], [ 126.593986471275485, 35.025844738181867 ], [ 126.592311450504951, 35.024935717866981 ], [ 126.592089310269046, 35.022314957424534 ], [ 126.585826843453333, 35.015167078759461 ], [ 126.589680481210692, 35.012653326162031 ], [ 126.599099026768585, 35.012331203105376 ], [ 126.598778631439401, 35.007216485343719 ], [ 126.595716523551886, 35.004224496826204 ], [ 126.594281188965326, 35.006476170727524 ], [ 126.59341903189528, 35.005389830142313 ], [ 126.596466953293714, 34.999737936306126 ], [ 126.59200232507925, 34.996315619387566 ], [ 126.595555266948125, 34.995415127077187 ], [ 126.598527093094603, 34.998044445216024 ], [ 126.598542268837193, 34.996002782436925 ], [ 126.588574900626682, 34.990080992355331 ], [ 126.584121345297447, 34.984972035067287 ], [ 126.582320111841454, 34.978901559813238 ], [ 126.57919924429001, 34.975294766140649 ], [ 126.573886862786892, 34.972782134178715 ], [ 126.570532365127306, 34.974108105838511 ], [ 126.567429327565691, 34.984913522903938 ], [ 126.562738871231332, 34.988084979401101 ], [ 126.555902054660265, 34.98847725840178 ], [ 126.545605389191721, 34.982934336063593 ], [ 126.541472978839892, 34.983713582155858 ], [ 126.53947519485574, 34.986290046517468 ], [ 126.537204919632458, 34.984200990050269 ], [ 126.534286809585637, 34.98479054410884 ], [ 126.536416034314641, 34.986370525701659 ], [ 126.536375520561805, 34.989690430302232 ], [ 126.538653698436889, 34.993222064031706 ], [ 126.53406876716511, 34.994730365745433 ], [ 126.533213008466561, 34.99765194550767 ], [ 126.530930042172585, 34.997581925795032 ], [ 126.531099530025017, 35.001066467802978 ], [ 126.528830265644402, 35.001415038297182 ], [ 126.527858862677462, 35.004654109966502 ], [ 126.53195926520506, 35.00411398309744 ], [ 126.529980046391074, 35.005747548672538 ], [ 126.530100736998008, 35.01143937918723 ], [ 126.528414565457311, 35.014263099161525 ], [ 126.529480574692187, 35.015688061714052 ], [ 126.527199113165551, 35.015935508740995 ], [ 126.531289386829471, 35.018495559390274 ], [ 126.527439745598599, 35.02197371673028 ], [ 126.52948980579086, 35.034529782667256 ], [ 126.525257190620934, 35.044132622922639 ], [ 126.52806945653073, 35.045633233627754 ], [ 126.525834586448497, 35.050836357086553 ], [ 126.529475361673832, 35.052806759325634 ], [ 126.535995746532578, 35.052098196620946 ], [ 126.536541028184629, 35.054094329790885 ], [ 126.54584978327064, 35.061921572018313 ], [ 126.548739045732404, 35.060686150941244 ], [ 126.55149318750361, 35.056425727457686 ], [ 126.554630140249898, 35.059537575771067 ], [ 126.558177357245071, 35.059982808466209 ], [ 126.561371816002051, 35.053462540390548 ], [ 126.567428206102633, 35.052174282184836 ], [ 126.574091150466145, 35.061112249919134 ], [ 126.573854685059501, 35.064087013731054 ], [ 126.576816114486178, 35.065076391899375 ], [ 126.58057937105653, 35.061757042259998 ], [ 126.581332013653494, 35.058645719958392 ], [ 126.588024372414651, 35.056459500286422 ] ] ] ] } },
{ "type": "Feature", "properties": { "emd_cd": "46860340", "emd_nm": "엄다면" }, "geometry": { "type": "MultiPolygon", "coordinates": [ [ [ [ 126.480382301364017, 35.026826164560553 ], [ 126.483492822699077, 35.026614544402783 ], [ 126.488221046024066, 35.030561817078535 ], [ 126.4923136967289, 35.029436093331846 ], [ 126.499463963671289, 35.03137272752123 ], [ 126.498176409995494, 35.032300240858476 ], [ 126.502957448382901, 35.034534699417556 ], [ 126.510318608587866, 35.049941659935151 ], [ 126.513638519560828, 35.052738486050799 ], [ 126.518837236666826, 35.049821529906033 ], [ 126.525030582995299, 35.0534146695354 ], [ 126.527206589518499, 35.052984196451014 ], [ 126.525627309843614, 35.050419647956645 ], [ 126.52806945653073, 35.045633233627754 ], [ 126.525257190620934, 35.044132622922639 ], [ 126.529043781929218, 35.037474654201695 ], [ 126.52953122780842, 35.032800905095421 ], [ 126.528186866635721, 35.031539359659057 ], [ 126.527439745598599, 35.02197371673028 ], [ 126.531289386829471, 35.018495559390274 ], [ 126.527199113165551, 35.015935508740995 ], [ 126.529480574692187, 35.015688061714052 ], [ 126.528414565457311, 35.014263099161525 ], [ 126.530100736998008, 35.01143937918723 ], [ 126.529980046391074, 35.005747548672538 ], [ 126.53195926520506, 35.00411398309744 ], [ 126.527858862677462, 35.004654109966502 ], [ 126.528830265644402, 35.001415038297182 ], [ 126.531099530025017, 35.001066467802978 ], [ 126.530930042172585, 34.997581925795032 ], [ 126.533745731940883, 34.997292676401614 ], [ 126.534597658498029, 34.994413108701593 ], [ 126.538495474654425, 34.993837591558695 ], [ 126.536688477693716, 34.986945371770403 ], [ 126.534286809585637, 34.98479054410884 ], [ 126.537204919632458, 34.984200990050269 ], [ 126.53947519485574, 34.986290046517468 ], [ 126.541472978839892, 34.983713582155858 ], [ 126.545821963231347, 34.982756217723185 ], [ 126.540872476884658, 34.975076216046993 ], [ 126.537420686643202, 34.977366594261831 ], [ 126.532849573495312, 34.977812031642436 ], [ 126.524952730373826, 34.98333607035201 ], [ 126.517775731948802, 34.983264683222707 ], [ 126.512028593628159, 34.990120938456201 ], [ 126.509253222472111, 34.989728792974233 ], [ 126.506405674074657, 34.986012954020623 ], [ 126.499893318493847, 34.985570158443331 ], [ 126.498497236684543, 34.991432838233202 ], [ 126.495409829418563, 34.993548273184253 ], [ 126.491535082235742, 34.998848807728038 ], [ 126.4925263178623, 34.999979241492476 ], [ 126.49060558958891, 35.000936835001276 ], [ 126.502143682811166, 35.006036999391476 ], [ 126.497865792463486, 35.007904525356359 ], [ 126.499874183165957, 35.014042434261043 ], [ 126.502322983152567, 35.014009001188434 ], [ 126.496698273825317, 35.018065521954739 ], [ 126.491822008461369, 35.016216577999678 ], [ 126.485576563369108, 35.018791880669653 ], [ 126.483510126960084, 35.017187596500584 ], [ 126.480382301364017, 35.026826164560553 ] ] ] ] } },
{ "type": "Feature", "properties": { "emd_cd": "46860350", "emd_nm": "대동면" }, "geometry": { "type": "MultiPolygon", "coordinates": [ [ [ [ 126.530477856559088, 35.052690855219396 ], [ 126.531507541314966, 35.062672297508371 ], [ 126.529336977589168, 35.064529140168887 ], [ 126.527406084364486, 35.070679683824729 ], [ 126.531032080539532, 35.073361446790074 ], [ 126.527256742834481, 35.079428204811151 ], [ 126.522431398455581, 35.077562609289735 ], [ 126.522552253781427, 35.076043526855763 ], [ 126.516037145158862, 35.077045876810132 ], [ 126.511634869377062, 35.079983451583097 ], [ 126.508940000007883, 35.086635051227589 ], [ 126.504348786578021, 35.092001435182972 ], [ 126.504584340516345, 35.093074379205966 ], [ 126.507504619717594, 35.092618344997476 ], [ 126.507426539428181, 35.094287530282863 ], [ 126.504567297722957, 35.096366805095663 ], [ 126.498829635338765, 35.097229746225757 ], [ 126.497109041661588, 35.100009679767417 ], [ 126.498314199244447, 35.100454708021005 ], [ 126.497469645323534, 35.104460841745308 ], [ 126.490081354855917, 35.105864711774437 ], [ 126.489749637634489, 35.110670615173156 ], [ 126.491379271891276, 35.11289114159576 ], [ 126.490120035489042, 35.113968537348704 ], [ 126.491642234864401, 35.115288465422552 ], [ 126.492008876205816, 35.119402480556097 ], [ 126.490590517173288, 35.123237938374608 ], [ 126.494085399513736, 35.124326860418016 ], [ 126.493650942207523, 35.127005836995018 ], [ 126.501657265691733, 35.128010603157847 ], [ 126.50114535690912, 35.133191992575 ], [ 126.497124150932507, 35.135903467460615 ], [ 126.49681080404099, 35.138229527757744 ], [ 126.500584050735299, 35.138954926463377 ], [ 126.509729299275932, 35.13349455040791 ], [ 126.523676443085236, 35.14142990418388 ], [ 126.528637039159776, 35.148536073557494 ], [ 126.521577372420765, 35.154091486782008 ], [ 126.523197413420363, 35.156442585159176 ], [ 126.529301613414475, 35.156344806680053 ], [ 126.527543749259806, 35.168392311065659 ], [ 126.529240664648057, 35.172315295636409 ], [ 126.530620826421838, 35.172153513527533 ], [ 126.532212369550905, 35.166474948675315 ], [ 126.536997407644918, 35.165319585463713 ], [ 126.538735440891386, 35.161437821256762 ], [ 126.537867727574763, 35.157861395988853 ], [ 126.540186487505892, 35.14842427358073 ], [ 126.537239190202371, 35.146231167288072 ], [ 126.540574438494218, 35.142560914168754 ], [ 126.540579604504259, 35.137909883381958 ], [ 126.546090216105256, 35.137055233531981 ], [ 126.548807960758964, 35.13372099728759 ], [ 126.554295682021106, 35.13387162078233 ], [ 126.554681808451463, 35.131001229860914 ], [ 126.557954233183452, 35.129793730846586 ], [ 126.55844201592808, 35.124926630134048 ], [ 126.560382942981462, 35.123573525121294 ], [ 126.55924646865391, 35.119330692715444 ], [ 126.553364208351965, 35.118428635692666 ], [ 126.547956270783502, 35.113274042869833 ], [ 126.547921956237388, 35.106669059638115 ], [ 126.563627729486271, 35.094762568738055 ], [ 126.56746713119432, 35.093793847753552 ], [ 126.574906891738422, 35.095266379080726 ], [ 126.588357791011887, 35.090101691929156 ], [ 126.5963630546659, 35.090060355129182 ], [ 126.590419650644122, 35.070177514702138 ], [ 126.592345119061264, 35.066703737710299 ], [ 126.589099243967155, 35.062739363075565 ], [ 126.591002673787003, 35.059285970666636 ], [ 126.589161308053775, 35.056610047761559 ], [ 126.581504634963068, 35.058523092535587 ], [ 126.58057937105653, 35.061757042259998 ], [ 126.576816114486178, 35.065076391899375 ], [ 126.573854685059501, 35.064087013731054 ], [ 126.574091150466145, 35.061112249919134 ], [ 126.567428206102633, 35.052174282184836 ], [ 126.561371816002051, 35.053462540390548 ], [ 126.558177357245071, 35.059982808466209 ], [ 126.554630140249898, 35.059537575771067 ], [ 126.55149318750361, 35.056425727457686 ], [ 126.548739045732404, 35.060686150941244 ], [ 126.54584978327064, 35.061921572018313 ], [ 126.536541028184629, 35.054094329790885 ], [ 126.535995746532578, 35.052098196620946 ], [ 126.530477856559088, 35.052690855219396 ] ] ], [ [ [ 126.538887542203724, 35.158438341149242 ], [ 126.539096093064359, 35.158599774708875 ], [ 126.53910147188661, 35.158434723027085 ], [ 126.538887542203724, 35.158438341149242 ] ] ] ] } },
{ "type": "Feature", "properties": { "emd_cd": "46860360", "emd_nm": "나산면" }, "geometry": { "type": "MultiPolygon", "coordinates": [ [ [ [ 126.634461851984184, 35.094730676284826 ], [ 126.629966809998962, 35.091702903758978 ], [ 126.627846344311962, 35.091954872119551 ], [ 126.623198825912667, 35.086907020886805 ], [ 126.619665028422332, 35.088033894643424 ], [ 126.617669564671658, 35.090685015559465 ], [ 126.606098979329303, 35.094763046171892 ], [ 126.604571609256112, 35.099321298869022 ], [ 126.59963493850374, 35.099897718165806 ], [ 126.595035077757814, 35.09840576069746 ], [ 126.59442786400453, 35.09712084253502 ], [ 126.596860627755504, 35.095555369468848 ], [ 126.597278144862727, 35.092326652089397 ], [ 126.594501095553866, 35.089174721523754 ], [ 126.575233927376175, 35.095219369557277 ], [ 126.571132612356152, 35.095532771049989 ], [ 126.56746713119432, 35.093793847753552 ], [ 126.563627729486271, 35.094762568738055 ], [ 126.56074787106219, 35.09803167037564 ], [ 126.559033671283828, 35.097251633641122 ], [ 126.556397173623196, 35.101102259437688 ], [ 126.547711869723472, 35.107258515233383 ], [ 126.547956270783502, 35.113274042869833 ], [ 126.553364208351965, 35.118428635692666 ], [ 126.558130615737596, 35.11862534812586 ], [ 126.560480100527641, 35.121572078003346 ], [ 126.557954233183452, 35.129793730846586 ], [ 126.554494555235408, 35.13141488969562 ], [ 126.554073571418542, 35.140126743598302 ], [ 126.560381504349081, 35.142009353795721 ], [ 126.560918136198055, 35.146654822079064 ], [ 126.565615853928705, 35.148774344249262 ], [ 126.566704461900969, 35.147174199200293 ], [ 126.565656964614362, 35.143122620548439 ], [ 126.570539641981611, 35.142855677416676 ], [ 126.578486865138188, 35.147943444673601 ], [ 126.588593692720067, 35.151439752935723 ], [ 126.589587032119255, 35.154096762662085 ], [ 126.594129448328772, 35.154678000477496 ], [ 126.602988775227885, 35.148911023071122 ], [ 126.603259564007629, 35.150392837374 ], [ 126.60852442756088, 35.147587837296378 ], [ 126.611776877275034, 35.151386076455168 ], [ 126.616188819634061, 35.150250873782483 ], [ 126.617131594910077, 35.153222828135497 ], [ 126.615643205433258, 35.154530569536448 ], [ 126.617667329697724, 35.156318412221033 ], [ 126.624052578687881, 35.155455939527123 ], [ 126.625356847422452, 35.150670570831039 ], [ 126.629863243843545, 35.148573404725958 ], [ 126.641192695596487, 35.154934716915768 ], [ 126.647318169352218, 35.151276169304481 ], [ 126.651035815342837, 35.150867722618123 ], [ 126.650157130638078, 35.147642230448071 ], [ 126.644683300750359, 35.146611021792552 ], [ 126.647655674885058, 35.144008721606511 ], [ 126.653327545749477, 35.143922771181565 ], [ 126.652796236742503, 35.14091355240253 ], [ 126.654851404182736, 35.137036171739467 ], [ 126.651592773599617, 35.120493622980064 ], [ 126.655292310661594, 35.116944658150921 ], [ 126.655589281174699, 35.110763991966046 ], [ 126.653893044245166, 35.107356612174414 ], [ 126.647032220638536, 35.103833359510723 ], [ 126.647672193542718, 35.099538017883617 ], [ 126.645879456416537, 35.097676897418133 ], [ 126.639939423519536, 35.09668897806754 ], [ 126.636194292417045, 35.094079177528279 ], [ 126.634461851984184, 35.094730676284826 ] ] ] ] } },
{ "type": "Feature", "properties": { "emd_cd": "46860370", "emd_nm": "해보면" }, "geometry": { "type": "MultiPolygon", "coordinates": [ [ [ [ 126.617597421804888, 35.175231845327616 ], [ 126.620316231953282, 35.173146910961123 ], [ 126.618487153768001, 35.172563885202131 ], [ 126.61999018561653, 35.172086236006116 ], [ 126.615980556236693, 35.164525213858646 ], [ 126.616188819634061, 35.150250873782483 ], [ 126.611776877275034, 35.151386076455168 ], [ 126.60852442756088, 35.147587837296378 ], [ 126.603259564007629, 35.150392837374 ], [ 126.602988775227885, 35.148911023071122 ], [ 126.595683959380423, 35.154151907701134 ], [ 126.589587032119255, 35.154096762662085 ], [ 126.588593692720067, 35.151439752935723 ], [ 126.568871077755119, 35.142665596832529 ], [ 126.565656964614362, 35.143122620548439 ], [ 126.566704461900969, 35.147174199200293 ], [ 126.565615853928705, 35.148774344249262 ], [ 126.560918136198055, 35.146654822079064 ], [ 126.560381504349081, 35.142009353795721 ], [ 126.554073571418542, 35.140126743598302 ], [ 126.553778448178335, 35.134244654495518 ], [ 126.548807960758964, 35.13372099728759 ], [ 126.546090216105256, 35.137055233531981 ], [ 126.540579604504259, 35.137909883381958 ], [ 126.540574438494218, 35.142560914168754 ], [ 126.537239190202371, 35.146231167288072 ], [ 126.540186487505892, 35.14842427358073 ], [ 126.537867727574763, 35.157861395988853 ], [ 126.538735440891386, 35.161437821256762 ], [ 126.536997407644918, 35.165319585463713 ], [ 126.53338428421435, 35.165515711823772 ], [ 126.530919859630487, 35.168575959066239 ], [ 126.530620826421838, 35.172153513527533 ], [ 126.533491957104573, 35.174997321062463 ], [ 126.530725178046339, 35.182688695572864 ], [ 126.535461312909746, 35.183072519524046 ], [ 126.543721511741936, 35.187799593322701 ], [ 126.547117468699639, 35.187989095831206 ], [ 126.549230060390514, 35.185345672253973 ], [ 126.561202046691776, 35.188392405368653 ], [ 126.564973068916373, 35.190783808305262 ], [ 126.562336250213292, 35.196779906375333 ], [ 126.56425949222762, 35.198239814664063 ], [ 126.57189778553753, 35.198550771823989 ], [ 126.5805365798889, 35.196104383222817 ], [ 126.583423727184652, 35.201049301593429 ], [ 126.592984906967686, 35.194875574623801 ], [ 126.599009455603806, 35.196993245001259 ], [ 126.607880600120168, 35.195264151077794 ], [ 126.610923006595172, 35.191181356619587 ], [ 126.618801744246028, 35.191418932087636 ], [ 126.622345566960234, 35.189921850028163 ], [ 126.618182662067696, 35.181098026317635 ], [ 126.621444490850351, 35.18063829667723 ], [ 126.622538351519296, 35.178118760651017 ], [ 126.619350632276905, 35.177184923705042 ], [ 126.620755147094641, 35.175441457509251 ], [ 126.617597421804888, 35.175231845327616 ] ], [ [ 126.539096093064359, 35.158599774708875 ], [ 126.538887542203724, 35.158438341149242 ], [ 126.53910147188661, 35.158434723027085 ], [ 126.539096093064359, 35.158599774708875 ] ], [ [ 126.619234256784466, 35.19052875262696 ], [ 126.619120086672325, 35.190761533607066 ], [ 126.61903289080314, 35.19058000732403 ], [ 126.619234256784466, 35.19052875262696 ] ] ] ] } },
{ "type": "Feature", "properties": { "emd_cd": "46860380", "emd_nm": "월야면" }, "geometry": { "type": "MultiPolygon", "coordinates": [ [ [ [ 126.61903289080314, 35.19058000732403 ], [ 126.619120086672325, 35.190761533607066 ], [ 126.619234256784466, 35.19052875262696 ], [ 126.61903289080314, 35.19058000732403 ] ] ], [ [ [ 126.641192695596487, 35.154934716915768 ], [ 126.628530393235593, 35.148806185121707 ], [ 126.625356847422452, 35.150670570831039 ], [ 126.624052578687881, 35.155455939527123 ], [ 126.616383124855332, 35.155796450643336 ], [ 126.6154203633332, 35.157734394483612 ], [ 126.616876760476856, 35.158695265120073 ], [ 126.616422521147712, 35.166375010223433 ], [ 126.61999018561653, 35.172086236006116 ], [ 126.618487153768001, 35.172563885202131 ], [ 126.620316231953282, 35.173146910961123 ], [ 126.617760530399892, 35.173179548464667 ], [ 126.617597421804888, 35.175231845327616 ], [ 126.620495107955165, 35.175013222217686 ], [ 126.619350632276905, 35.177184923705042 ], [ 126.622538351519296, 35.178118760651017 ], [ 126.621444490850351, 35.18063829667723 ], [ 126.618182662067696, 35.181098026317635 ], [ 126.622345566960234, 35.189921850028163 ], [ 126.618801744246028, 35.191418932087636 ], [ 126.610923006595172, 35.191181356619587 ], [ 126.607880600120168, 35.195264151077794 ], [ 126.599009455603806, 35.196993245001259 ], [ 126.592984906967686, 35.194875574623801 ], [ 126.583423727184652, 35.201049301593429 ], [ 126.590415035337358, 35.213693936494145 ], [ 126.590006429125111, 35.222016031912553 ], [ 126.592953989122492, 35.22452489714393 ], [ 126.589347666090262, 35.229382468891238 ], [ 126.596509217009327, 35.234691283807329 ], [ 126.601985719360357, 35.23528643324542 ], [ 126.612630801509781, 35.230221170172726 ], [ 126.614343000837636, 35.225815721303682 ], [ 126.621974983583641, 35.220379262374742 ], [ 126.626085986941078, 35.219324630834436 ], [ 126.634066563590096, 35.210651424927462 ], [ 126.642449589800989, 35.207151622577513 ], [ 126.647286626574299, 35.199708992849622 ], [ 126.65195554741922, 35.19611602254794 ], [ 126.651086925843842, 35.193177711757215 ], [ 126.653344399469404, 35.192370172518153 ], [ 126.657925476037761, 35.186350969720444 ], [ 126.661267759015772, 35.185291136965233 ], [ 126.663699941418798, 35.182296228974018 ], [ 126.662688686137827, 35.180477076605612 ], [ 126.672130656181665, 35.173119795630534 ], [ 126.670534935725613, 35.169455364303282 ], [ 126.664466263384696, 35.16948991432929 ], [ 126.665938856636501, 35.168802631697687 ], [ 126.662577401467615, 35.16638985983667 ], [ 126.657092278038434, 35.166551806461769 ], [ 126.654243575383632, 35.164526829790148 ], [ 126.653671560922803, 35.161277722290471 ], [ 126.655355281846951, 35.158845612288495 ], [ 126.651709789866246, 35.155531998827662 ], [ 126.653578454121842, 35.153098723077889 ], [ 126.65184897668324, 35.151064231008903 ], [ 126.647318169352218, 35.151276169304481 ], [ 126.641192695596487, 35.154934716915768 ] ] ] ] } }
]
}
