{
"type": "FeatureCollection",
"name": "46870",
"crs": { "type": "name", "properties": { "name": "urn:ogc:def:crs:OGC:1.3:CRS84" } },
"features": [
{ "type": "Feature", "properties": { "emd_cd": "46870250", "emd_nm": "영광읍" }, "geometry": { "type": "MultiPolygon", "coordinates": [ [ [ [ 126.456193255712634, 35.324208716433638 ], [ 126.459773691535901, 35.327145513263602 ], [ 126.468414010648075, 35.32501037877261 ], [ 126.475460471560567, 35.327713936574675 ], [ 126.489614721237771, 35.327938152408798 ], [ 126.494135739242211, 35.325619332827678 ], [ 126.498149319707963, 35.32598300444856 ], [ 126.498449239534992, 35.330039116619155 ], [ 126.508924062128159, 35.335534747431375 ], [ 126.507208568985021, 35.335121325146744 ], [ 126.507211317385682, 35.336707851705384 ], [ 126.51289771563809, 35.341066565506118 ], [ 126.514198712582314, 35.344047960839113 ], [ 126.510762499422739, 35.351730164681001 ], [ 126.513875699455397, 35.35643465167486 ], [ 126.520529889648387, 35.348348135440986 ], [ 126.519942968802852, 35.342796804308826 ], [ 126.518910672779299, 35.343284175933 ], [ 126.51935491144279, 35.341188946253205 ], [ 126.517197112204343, 35.338519050555213 ], [ 126.517506292705718, 35.334138139876352 ], [ 126.515631884813899, 35.32946146462843 ], [ 126.513425575576662, 35.329492544114387 ], [ 126.513802023947477, 35.327020792445147 ], [ 126.521007636361844, 35.32512019394575 ], [ 126.524380184133648, 35.313492813170463 ], [ 126.529925727424839, 35.312306512656214 ], [ 126.529768109578626, 35.308726264452972 ], [ 126.532323429102064, 35.306743443823763 ], [ 126.539378010522114, 35.310625789847897 ], [ 126.544028576983067, 35.310048983718779 ], [ 126.548130370327527, 35.313471496690788 ], [ 126.557775090218925, 35.311744954280549 ], [ 126.545793758141031, 35.298591955373567 ], [ 126.532202943162986, 35.292688772915973 ], [ 126.529850864185548, 35.293479866450724 ], [ 126.529972054092013, 35.288542983979745 ], [ 126.535219888155822, 35.284050532154353 ], [ 126.531862981180893, 35.278771147646694 ], [ 126.525651355838363, 35.27606094554281 ], [ 126.527385886578273, 35.274477643032725 ], [ 126.526906752186392, 35.271184209500127 ], [ 126.531026116564234, 35.269016802414782 ], [ 126.530407333198184, 35.266996538855707 ], [ 126.534203620870102, 35.261915994008291 ], [ 126.53389929944494, 35.259341677777506 ], [ 126.529929670794004, 35.254471491000771 ], [ 126.530497853617902, 35.252903676979422 ], [ 126.527234506816399, 35.252767235751797 ], [ 126.528964006360283, 35.249523785647213 ], [ 126.528065761775281, 35.240660399532835 ], [ 126.521173143641604, 35.237728526255829 ], [ 126.514624511957095, 35.23722341701982 ], [ 126.514345599123345, 35.23976524815594 ], [ 126.510917903078308, 35.240280487370114 ], [ 126.515155569029062, 35.245256068069821 ], [ 126.515807291714069, 35.251118519291701 ], [ 126.513361660203898, 35.254941042527513 ], [ 126.506617885900098, 35.253204566409735 ], [ 126.492000190719679, 35.25733602846374 ], [ 126.494639625369075, 35.260483441722172 ], [ 126.492639295796565, 35.260944783363215 ], [ 126.492723380608751, 35.264634645710821 ], [ 126.488951384234582, 35.267664733507772 ], [ 126.488162559062076, 35.275431777607544 ], [ 126.48233087921686, 35.277388494471303 ], [ 126.480184249181079, 35.28164147126131 ], [ 126.47959107091701, 35.285135019875348 ], [ 126.483394288243545, 35.288006684314105 ], [ 126.478001568608292, 35.288859285098631 ], [ 126.477974653153765, 35.287404975326055 ], [ 126.476222043986382, 35.28731013078918 ], [ 126.475305915560838, 35.291882431460024 ], [ 126.46922107245031, 35.293052821133244 ], [ 126.467204418092166, 35.295836466475699 ], [ 126.467209221802293, 35.300407181709183 ], [ 126.46428532201395, 35.301772854336747 ], [ 126.470746285805021, 35.308457429893515 ], [ 126.470558973915303, 35.311500892591951 ], [ 126.471771694231379, 35.31168458100116 ], [ 126.465604690875779, 35.314692457620069 ], [ 126.464633987998212, 35.317251941070289 ], [ 126.458857727458735, 35.318832560798157 ], [ 126.456193255712634, 35.324208716433638 ] ], [ [ 126.46168493429586, 35.326021520933423 ], [ 126.461403450598411, 35.326028691379022 ], [ 126.4619857990171, 35.325954327549496 ], [ 126.46168493429586, 35.326021520933423 ] ] ] ] } },
{ "type": "Feature", "properties": { "emd_cd": "46870253", "emd_nm": "백수읍" }, "geometry": { "type": "MultiPolygon", "coordinates": [ [ [ [ 126.324240659240004, 35.252661395989044 ], [ 126.328572226767037, 35.259168426911593 ], [ 126.325392796862985, 35.262301560216386 ], [ 126.327900196996026, 35.264546177569706 ], [ 126.337537285054267, 35.270595370619503 ], [ 126.342126901742304, 35.268323567373805 ], [ 126.339212210107362, 35.271520251599625 ], [ 126.346424266570367, 35.274720682257751 ], [ 126.347522519664494, 35.272982357887329 ], [ 126.348886676313455, 35.271280392253246 ], [ 126.346289191367475, 35.274930561652283 ], [ 126.336800436164197, 35.270778817222286 ], [ 126.332058492595479, 35.267776518398044 ], [ 126.329658425775023, 35.269761526775355 ], [ 126.334858500070752, 35.283679773980445 ], [ 126.339256136165901, 35.285895004393673 ], [ 126.350252844831786, 35.28648042749365 ], [ 126.352612276002503, 35.282870572298492 ], [ 126.361343222811087, 35.284666286681585 ], [ 126.371333673319825, 35.284183001703887 ], [ 126.369845346418003, 35.29159111937529 ], [ 126.374761508808746, 35.300657126864138 ], [ 126.380333941135973, 35.29653497943049 ], [ 126.380936586274075, 35.296889919139559 ], [ 126.37409442606446, 35.30160698030511 ], [ 126.377419493132464, 35.306769118834083 ], [ 126.375790621104969, 35.312613698734332 ], [ 126.379792944241672, 35.320153613106996 ], [ 126.378310104057832, 35.324010878445584 ], [ 126.378966293749812, 35.328664186446005 ], [ 126.389142312078306, 35.345352289450496 ], [ 126.387299186272912, 35.347059996139215 ], [ 126.387693306705586, 35.352532921345336 ], [ 126.392268074696844, 35.35547830217147 ], [ 126.39199040069596, 35.357312974118486 ], [ 126.396396381581852, 35.362407766873879 ], [ 126.398597074332798, 35.368900293830698 ], [ 126.405093698453641, 35.368844279727142 ], [ 126.40298331881813, 35.365015524985893 ], [ 126.403775767607911, 35.362813028582487 ], [ 126.406723834606211, 35.362397611477995 ], [ 126.406887624042895, 35.365278860285208 ], [ 126.412607982812872, 35.362762835561846 ], [ 126.41944859216494, 35.364680956249146 ], [ 126.422827602948516, 35.363929807098103 ], [ 126.423252010192215, 35.36065804269078 ], [ 126.427310717356931, 35.358018069332822 ], [ 126.44391622974311, 35.355411010439589 ], [ 126.447879578061873, 35.348585119818431 ], [ 126.446712981383584, 35.344543020834656 ], [ 126.441161839739721, 35.341895367811006 ], [ 126.435635624171255, 35.342307216756446 ], [ 126.436497406570624, 35.343191738828359 ], [ 126.434607095417064, 35.345225532874657 ], [ 126.432497815946292, 35.34642491349657 ], [ 126.435456655419571, 35.343127086636258 ], [ 126.432155301894454, 35.340832473702946 ], [ 126.431860347009632, 35.337346809222261 ], [ 126.437828917716473, 35.336815237394426 ], [ 126.443474875467615, 35.332723585976893 ], [ 126.446206458691009, 35.327032760602897 ], [ 126.451984094681833, 35.324117855107502 ], [ 126.456193255712634, 35.324208716433645 ], [ 126.458857727458735, 35.318832560798171 ], [ 126.464633987998212, 35.317251941070282 ], [ 126.465604690875779, 35.31469245762004 ], [ 126.471771694231379, 35.31168458100116 ], [ 126.460118970504951, 35.293869000845845 ], [ 126.452197864991774, 35.295966573542792 ], [ 126.451274090206908, 35.294005213317547 ], [ 126.457587986641627, 35.284793323377926 ], [ 126.446950367874052, 35.282471540549004 ], [ 126.4456347446921, 35.278647973150761 ], [ 126.443142493424133, 35.278640130324852 ], [ 126.44086441854769, 35.271806712779266 ], [ 126.425102642411048, 35.263961935180909 ], [ 126.410110833575501, 35.267661283365058 ], [ 126.401349052133043, 35.266744811801175 ], [ 126.379968352440699, 35.254500833012727 ], [ 126.361858627104795, 35.248544518544755 ], [ 126.34252049778533, 35.248051318784341 ], [ 126.338899543490768, 35.254384144872816 ], [ 126.343342636589099, 35.259083667487332 ], [ 126.339471449799561, 35.255610455294445 ], [ 126.331816102663225, 35.253681913080868 ], [ 126.330633294783894, 35.251788135108264 ], [ 126.331254118265321, 35.246770006094835 ], [ 126.326213742254893, 35.247569898122208 ], [ 126.324240659240004, 35.252661395989044 ] ] ], [ [ [ 126.376411481385858, 35.32992844327817 ], [ 126.376330250143312, 35.330469539742374 ], [ 126.37680371734379, 35.330028352638323 ], [ 126.376411481385858, 35.32992844327817 ] ] ], [ [ [ 126.393496038907458, 35.373376301642921 ], [ 126.396439669821703, 35.374541149198087 ], [ 126.398323963742683, 35.376341876166975 ], [ 126.396872764146224, 35.372244609577301 ], [ 126.393496038907458, 35.373376301642921 ] ] ] ] } },
{ "type": "Feature", "properties": { "emd_cd": "46870256", "emd_nm": "홍농읍" }, "geometry": { "type": "MultiPolygon", "coordinates": [ [ [ [ 126.397642205253732, 35.382894451974074 ], [ 126.398923583134618, 35.382345257483536 ], [ 126.398594134119904, 35.381371719934606 ], [ 126.397642205253732, 35.382894451974074 ] ] ], [ [ [ 126.400849687476153, 35.389883913763569 ], [ 126.400841471784091, 35.390992151168589 ], [ 126.400945959789212, 35.391097347867742 ], [ 126.400849687476153, 35.389883913763569 ] ] ], [ [ [ 126.403224274650967, 35.391340573481415 ], [ 126.403444461899753, 35.397811835100768 ], [ 126.40491579789699, 35.396903818791053 ], [ 126.409475151111138, 35.398858304477308 ], [ 126.407956919556412, 35.402449889073672 ], [ 126.404088423284918, 35.403209005206257 ], [ 126.40702156534158, 35.40280779363713 ], [ 126.411111281299213, 35.405355458569616 ], [ 126.40310612343238, 35.4045087771852 ], [ 126.411077152162605, 35.413085658471836 ], [ 126.407051037420615, 35.417116984684498 ], [ 126.417209016741552, 35.422432119810026 ], [ 126.420098988841815, 35.427162562776893 ], [ 126.423249708106425, 35.428015653089957 ], [ 126.422633184789063, 35.429243810420886 ], [ 126.423510155075363, 35.429948950286835 ], [ 126.423708692035248, 35.427854633551327 ], [ 126.427192033492446, 35.425808137977121 ], [ 126.429335215107443, 35.427158803047099 ], [ 126.431737054310389, 35.426508351443204 ], [ 126.432440995679698, 35.428722674216957 ], [ 126.434423182410242, 35.427582940076398 ], [ 126.434900741975127, 35.428958049344807 ], [ 126.43911283391185, 35.429982549710658 ], [ 126.444853330220766, 35.427160910846332 ], [ 126.44767801506066, 35.429688757167206 ], [ 126.45335595478403, 35.426883694552998 ], [ 126.468551004735247, 35.425150061693053 ], [ 126.47602797654605, 35.429328529277001 ], [ 126.479663085368188, 35.426503604154853 ], [ 126.478966944041474, 35.424745895047529 ], [ 126.480999559165198, 35.421096763121902 ], [ 126.479641165607291, 35.420939834603587 ], [ 126.485842528947686, 35.416309903119959 ], [ 126.487422399546929, 35.413142226903837 ], [ 126.490760958794894, 35.412876749647801 ], [ 126.492875274492576, 35.409238135578988 ], [ 126.490939587017522, 35.404145770886565 ], [ 126.491524624283201, 35.400040693426725 ], [ 126.489392575803123, 35.398239689250751 ], [ 126.490614157749661, 35.395214667781701 ], [ 126.48484316463616, 35.390143755995744 ], [ 126.482300777720766, 35.390326612646717 ], [ 126.476488713882631, 35.385336359778861 ], [ 126.46489153099462, 35.38786483177644 ], [ 126.462143855788327, 35.385659088437635 ], [ 126.46043580143936, 35.381312379633556 ], [ 126.453908489199776, 35.377437820709552 ], [ 126.429570154147058, 35.372479961696357 ], [ 126.430755620434951, 35.370119696769741 ], [ 126.429354857234941, 35.36767208905961 ], [ 126.419387844798365, 35.369671960354495 ], [ 126.417723450641702, 35.373767275656178 ], [ 126.410960343178672, 35.375788277995333 ], [ 126.410883858670587, 35.379087412429008 ], [ 126.41485753352184, 35.377160452152687 ], [ 126.421297006801893, 35.381555427777599 ], [ 126.415998105959218, 35.383465990652738 ], [ 126.413316839423061, 35.381470774833041 ], [ 126.408476644017853, 35.381604225716814 ], [ 126.409541539258655, 35.383724015708609 ], [ 126.406987618699475, 35.384727274882756 ], [ 126.407710090891854, 35.387164240002264 ], [ 126.406437327093769, 35.386993608123106 ], [ 126.406560723840997, 35.388944429641874 ], [ 126.403782877916797, 35.389069521296669 ], [ 126.407295705151512, 35.388961412527301 ], [ 126.407034125594379, 35.392536506468531 ], [ 126.403731818476885, 35.39410456921307 ], [ 126.403224274650967, 35.391340573481415 ] ] ] ] } },
{ "type": "Feature", "properties": { "emd_cd": "46870310", "emd_nm": "대마면" }, "geometry": { "type": "MultiPolygon", "coordinates": [ [ [ [ 126.591450777609836, 35.271791033911519 ], [ 126.591958399489215, 35.271500965451096 ], [ 126.591201664293806, 35.271725591256896 ], [ 126.591450777609836, 35.271791033911519 ] ] ], [ [ [ 126.604315764939741, 35.335609107080025 ], [ 126.60814625921428, 35.331721900961213 ], [ 126.615531283090533, 35.328508294207907 ], [ 126.619159649469495, 35.324419091523019 ], [ 126.626415900452955, 35.32135435855281 ], [ 126.644798939001802, 35.319775286721239 ], [ 126.63976688483227, 35.317017755366585 ], [ 126.641551708304604, 35.315869772138527 ], [ 126.638783770692044, 35.312000308002041 ], [ 126.639738544562078, 35.308708497929473 ], [ 126.631547548854115, 35.302491271617534 ], [ 126.622920389025609, 35.302169774601339 ], [ 126.619742350392173, 35.30484515243667 ], [ 126.612810021808258, 35.300975622927538 ], [ 126.612682151858664, 35.301787757360238 ], [ 126.611916735939801, 35.30262719617577 ], [ 126.611033198449888, 35.297358593066598 ], [ 126.615578048664048, 35.29652404578399 ], [ 126.618510329877438, 35.293842001513134 ], [ 126.614720919675094, 35.288335435271748 ], [ 126.614056722323582, 35.283407361562162 ], [ 126.615792509126948, 35.27887750931508 ], [ 126.611708390118665, 35.275462173461747 ], [ 126.608723416059306, 35.269917462386402 ], [ 126.597317828497253, 35.26768516753603 ], [ 126.59518706284851, 35.270648456059554 ], [ 126.58744376996502, 35.273348965884708 ], [ 126.580105221583665, 35.273158456012986 ], [ 126.572222153301539, 35.275888488754731 ], [ 126.560853444041854, 35.275733452382404 ], [ 126.555650255081417, 35.278179559535772 ], [ 126.54837324603686, 35.277902697816295 ], [ 126.548162365063632, 35.282844160975898 ], [ 126.544805155520208, 35.286676501475469 ], [ 126.5460052171059, 35.292689186351872 ], [ 126.542353967591922, 35.297526058332998 ], [ 126.545793758141031, 35.298591955373567 ], [ 126.557453283895597, 35.311400297376416 ], [ 126.560963535016981, 35.311865137531584 ], [ 126.563582392319191, 35.309063548230235 ], [ 126.567652380815716, 35.311199009718131 ], [ 126.572710106848916, 35.310148824339258 ], [ 126.577325897590995, 35.303875427534933 ], [ 126.584914213727401, 35.300787297697511 ], [ 126.588053737034215, 35.305651648321707 ], [ 126.58874514595577, 35.310764093291958 ], [ 126.590677337831082, 35.310817594258374 ], [ 126.5886110285645, 35.313889371130152 ], [ 126.589447528778194, 35.317506483780321 ], [ 126.584997375160214, 35.31736266695043 ], [ 126.582935803910559, 35.31570909494944 ], [ 126.581254940078921, 35.31671394635908 ], [ 126.583332304100267, 35.318188184090928 ], [ 126.580396229167192, 35.323891529980344 ], [ 126.584962928393011, 35.330182387663378 ], [ 126.592457534110991, 35.330631483456571 ], [ 126.595404569639186, 35.32905492875949 ], [ 126.599335249284223, 35.330599959138702 ], [ 126.604315764939741, 35.335609107080025 ] ] ] ] } },
{ "type": "Feature", "properties": { "emd_cd": "46870320", "emd_nm": "묘량면" }, "geometry": { "type": "MultiPolygon", "coordinates": [ [ [ [ 126.519259735681771, 35.236336140321797 ], [ 126.528065761775281, 35.240660399532835 ], [ 126.528964006360283, 35.249523785647213 ], [ 126.527234506816399, 35.252767235751797 ], [ 126.530497853617902, 35.252903676979422 ], [ 126.530953327766326, 35.256578231697588 ], [ 126.533940556608314, 35.259534126717142 ], [ 126.534072851895814, 35.262924138879356 ], [ 126.530407333198184, 35.266996538855707 ], [ 126.531026116564234, 35.269016802414782 ], [ 126.526906752186392, 35.271184209500127 ], [ 126.527385886578273, 35.274477643032725 ], [ 126.525651355838363, 35.27606094554281 ], [ 126.531862981180893, 35.278771147646694 ], [ 126.535201417641133, 35.28397252335715 ], [ 126.529972054092013, 35.288542983979745 ], [ 126.529850864185548, 35.293479866450724 ], [ 126.532202943162986, 35.292688772915973 ], [ 126.542353967591922, 35.297526058332998 ], [ 126.5460052171059, 35.292689186351872 ], [ 126.544805155520208, 35.286676501475469 ], [ 126.548162365063632, 35.282844160975898 ], [ 126.54837324603686, 35.277902697816295 ], [ 126.555650255081417, 35.278179559535772 ], [ 126.560853444041854, 35.275733452382404 ], [ 126.572222153301539, 35.275888488754731 ], [ 126.580105221583665, 35.273158456012986 ], [ 126.58744376996502, 35.273348965884708 ], [ 126.59518706284851, 35.270648456059554 ], [ 126.597317828497253, 35.26768516753603 ], [ 126.591918144612094, 35.260535296714338 ], [ 126.584280872085998, 35.257918694334073 ], [ 126.584121570062777, 35.253688240485367 ], [ 126.587520408110123, 35.246184916139171 ], [ 126.584330657033092, 35.243322786836423 ], [ 126.583300590998206, 35.239405686354509 ], [ 126.592079387667056, 35.231990233878783 ], [ 126.589410401906775, 35.229314901973964 ], [ 126.592961135383476, 35.224433724006239 ], [ 126.589491565496374, 35.220219043014517 ], [ 126.59099195150668, 35.21701481833454 ], [ 126.590159008912636, 35.213017964758315 ], [ 126.580554936996691, 35.196155895533678 ], [ 126.567662600650991, 35.198955844708884 ], [ 126.561496650175883, 35.19719709987902 ], [ 126.560292517214137, 35.200539193999894 ], [ 126.553285822531237, 35.205719399430876 ], [ 126.552330951716783, 35.20839444816275 ], [ 126.543089951636887, 35.214088456440152 ], [ 126.541947762230322, 35.21803317740271 ], [ 126.5363164535744, 35.224464187505191 ], [ 126.534235942900523, 35.226348455541178 ], [ 126.531594155646133, 35.226207682413524 ], [ 126.531003105298055, 35.228814991610768 ], [ 126.527624795178269, 35.230130498829091 ], [ 126.521807860330966, 35.236123346190126 ], [ 126.519259735681771, 35.236336140321797 ] ], [ [ 126.591756738267975, 35.271641863673942 ], [ 126.591201664293806, 35.271725591256896 ], [ 126.591958399489215, 35.271500965451096 ], [ 126.591756738267975, 35.271641863673942 ] ] ] ] } },
{ "type": "Feature", "properties": { "emd_cd": "46870330", "emd_nm": "불갑면" }, "geometry": { "type": "MultiPolygon", "coordinates": [ [ [ [ 126.560292517214137, 35.200539193999894 ], [ 126.564973070755372, 35.190606884154725 ], [ 126.561172463185954, 35.188267137647202 ], [ 126.549215636887538, 35.185473987359202 ], [ 126.547002549667752, 35.188032235508885 ], [ 126.544008426944998, 35.187757620214498 ], [ 126.53310133976386, 35.182244622026857 ], [ 126.529649385250039, 35.182966278196091 ], [ 126.527519606482272, 35.186250009149873 ], [ 126.521546230008738, 35.185151516226647 ], [ 126.514313798083563, 35.187649730088516 ], [ 126.508509747769239, 35.184043155643074 ], [ 126.497707068382041, 35.183819507748403 ], [ 126.49354380301267, 35.185258324664879 ], [ 126.492724211970128, 35.187605764231115 ], [ 126.489422717087351, 35.187538908168548 ], [ 126.487721842474599, 35.191950242095295 ], [ 126.481618224007008, 35.190832977767791 ], [ 126.477005723454141, 35.193856284670836 ], [ 126.473298470459284, 35.192779094919878 ], [ 126.471725805954875, 35.194330501499415 ], [ 126.470108806624381, 35.200582011534117 ], [ 126.474590593257062, 35.207773773008547 ], [ 126.470525138210604, 35.211153169803382 ], [ 126.469582312695849, 35.217469610551284 ], [ 126.478367761583669, 35.222254282718673 ], [ 126.477946528293913, 35.230895247795033 ], [ 126.481911168266123, 35.233350102800621 ], [ 126.482180013506223, 35.236956577662092 ], [ 126.485470016212986, 35.240223329797672 ], [ 126.487147452827443, 35.239596329000555 ], [ 126.488489051922357, 35.24201743243416 ], [ 126.491685567405298, 35.241285320605897 ], [ 126.492330848134543, 35.239496994507263 ], [ 126.50052425069812, 35.239746767989644 ], [ 126.500303009963304, 35.232542775013584 ], [ 126.502662296227456, 35.232223442761359 ], [ 126.509466464963353, 35.236992985395723 ], [ 126.510917903078308, 35.240280487370114 ], [ 126.514345599123345, 35.23976524815594 ], [ 126.514624511957095, 35.23722341701982 ], [ 126.519604191350169, 35.237414360095606 ], [ 126.519259735681771, 35.236336140321797 ], [ 126.521807860330966, 35.236123346190126 ], [ 126.527624795178269, 35.230130498829091 ], [ 126.531003105298055, 35.228814991610768 ], [ 126.531594155646133, 35.226207682413524 ], [ 126.534235942900523, 35.226348455541178 ], [ 126.541947762230322, 35.21803317740271 ], [ 126.543854672715241, 35.213280353438684 ], [ 126.552330951716783, 35.20839444816275 ], [ 126.553285822531237, 35.205719399430876 ], [ 126.560292517214137, 35.200539193999894 ] ] ] ] } },
{ "type": "Feature", "properties": { "emd_cd": "46870340", "emd_nm": "군서면" }, "geometry": { "type": "MultiPolygon", "coordinates": [ [ [ [ 126.425102642411048, 35.263961935180895 ], [ 126.44086441854769, 35.271806712779252 ], [ 126.443142493424133, 35.278640130324852 ], [ 126.4456347446921, 35.278647973150782 ], [ 126.446950367874052, 35.28247154054899 ], [ 126.457587986641627, 35.28479332337794 ], [ 126.451301415301799, 35.294066050514139 ], [ 126.452197864991774, 35.295966573542778 ], [ 126.460118970504965, 35.293869000845838 ], [ 126.465184891508372, 35.301224337162552 ], [ 126.467209221802293, 35.300407181709183 ], [ 126.467204418092166, 35.295836466475699 ], [ 126.46922107245031, 35.293052821133244 ], [ 126.475305915560838, 35.291882431460024 ], [ 126.476222043986382, 35.28731013078918 ], [ 126.477974653153765, 35.287404975326055 ], [ 126.478001568608292, 35.288859285098631 ], [ 126.483394288243545, 35.288006684314105 ], [ 126.47959107091701, 35.285135019875348 ], [ 126.480184249181079, 35.28164147126131 ], [ 126.48233087921686, 35.277388494471303 ], [ 126.488162559062076, 35.275431777607544 ], [ 126.488951384234582, 35.267664733507772 ], [ 126.492723380608751, 35.264634645710821 ], [ 126.492639295796565, 35.260944783363215 ], [ 126.494639625369075, 35.260483441722172 ], [ 126.492000190719679, 35.25733602846374 ], [ 126.506617885900098, 35.253204566409735 ], [ 126.513361660203898, 35.254941042527513 ], [ 126.515807291714069, 35.251118519291701 ], [ 126.515155569029062, 35.245256068069821 ], [ 126.511543087490608, 35.242173885158749 ], [ 126.509466464963353, 35.236992985395723 ], [ 126.502662296227456, 35.232223442761359 ], [ 126.500303009963304, 35.232542775013584 ], [ 126.50052425069812, 35.239746767989644 ], [ 126.492330848134543, 35.239496994507263 ], [ 126.491685567405298, 35.241285320605897 ], [ 126.488489051922357, 35.24201743243416 ], [ 126.486329038035237, 35.239917147398216 ], [ 126.483623117575632, 35.244883364236379 ], [ 126.477877351866766, 35.247128506746961 ], [ 126.476440893476138, 35.249374802424803 ], [ 126.469320418675906, 35.24816596775478 ], [ 126.459841944800388, 35.24997204986024 ], [ 126.451446252873623, 35.246408197091974 ], [ 126.44635402748753, 35.246177996257352 ], [ 126.425102642411048, 35.263961935180895 ] ] ] ] } },
{ "type": "Feature", "properties": { "emd_cd": "46870350", "emd_nm": "군남면" }, "geometry": { "type": "MultiPolygon", "coordinates": [ [ [ [ 126.486329038035237, 35.239917147398216 ], [ 126.48201084201402, 35.236729122261274 ], [ 126.481911168266123, 35.233350102800621 ], [ 126.477946528293913, 35.230895247795033 ], [ 126.478367761583669, 35.222254282718673 ], [ 126.469582312695849, 35.217469610551284 ], [ 126.470525138210604, 35.211153169803382 ], [ 126.474590593257062, 35.207773773008547 ], [ 126.470108806624381, 35.200582011534117 ], [ 126.473298470459284, 35.192779094919878 ], [ 126.471822753581591, 35.189856106554998 ], [ 126.467317553194121, 35.187004981103605 ], [ 126.464091552883673, 35.186723510860098 ], [ 126.461969946997712, 35.188261223903531 ], [ 126.458227552743494, 35.186781691735774 ], [ 126.450240688518946, 35.187095903710912 ], [ 126.447840677655648, 35.18102365216361 ], [ 126.435271502621504, 35.172862575197342 ], [ 126.419581535739596, 35.18563223358629 ], [ 126.421029648806893, 35.193626595750843 ], [ 126.420256093542392, 35.195272244748253 ], [ 126.415276639389546, 35.19710122433883 ], [ 126.415806105441987, 35.199986751469716 ], [ 126.412468157697489, 35.204678146361822 ], [ 126.414824464655624, 35.210143258304335 ], [ 126.41829072739948, 35.212090588519601 ], [ 126.419368369870995, 35.215163685820798 ], [ 126.418669902156495, 35.218615195181009 ], [ 126.420110675185725, 35.220391557523975 ], [ 126.417924189263474, 35.2250832269104 ], [ 126.414427018225879, 35.230068041624961 ], [ 126.411560109035634, 35.231061384153115 ], [ 126.410708757363736, 35.236366940139028 ], [ 126.407513130886585, 35.238985617451014 ], [ 126.397722713713776, 35.238078047928433 ], [ 126.39839427169521, 35.242143713350785 ], [ 126.39636592535463, 35.24385876202669 ], [ 126.395499015475835, 35.242248949637379 ], [ 126.393651666708308, 35.245245162573539 ], [ 126.398000060111471, 35.248450253499428 ], [ 126.397292821053, 35.25064000641531 ], [ 126.385434937566615, 35.258135665848563 ], [ 126.401349052133043, 35.266744811801146 ], [ 126.407342216257462, 35.267735555197454 ], [ 126.418340165954149, 35.266622689130884 ], [ 126.425102642411048, 35.263961935180895 ], [ 126.44635402748753, 35.246177996257352 ], [ 126.451446252873623, 35.246408197091974 ], [ 126.459841944800388, 35.24997204986024 ], [ 126.469320418675906, 35.24816596775478 ], [ 126.476440893476138, 35.249374802424803 ], [ 126.485853427508971, 35.242514773357307 ], [ 126.486329038035237, 35.239917147398216 ] ] ] ] } },
{ "type": "Feature", "properties": { "emd_cd": "46870360", "emd_nm": "염산면" }, "geometry": { "type": "MultiPolygon", "coordinates": [ [ [ [ 126.356880093756786, 35.1703145466062 ], [ 126.358447919065313, 35.169970610112301 ], [ 126.358490171866649, 35.169656431277268 ], [ 126.356880093756786, 35.1703145466062 ] ] ], [ [ [ 126.356138463279393, 35.170642974021753 ], [ 126.356602681927157, 35.17145959297541 ], [ 126.357068779546026, 35.170632504174108 ], [ 126.356138463279393, 35.170642974021753 ] ] ], [ [ [ 126.339829372685472, 35.172356557432785 ], [ 126.340319804815437, 35.172562881834104 ], [ 126.339937377274609, 35.172218170895427 ], [ 126.339829372685472, 35.172356557432785 ] ] ], [ [ [ 126.340738172310864, 35.173484594831002 ], [ 126.342096317109821, 35.175110993567351 ], [ 126.344332360028574, 35.175083349796324 ], [ 126.340738172310864, 35.173484594831002 ] ] ], [ [ [ 126.36091444023134, 35.189657112656398 ], [ 126.362576748563072, 35.189324315156 ], [ 126.36230089875238, 35.188625148700787 ], [ 126.36091444023134, 35.189657112656398 ] ] ], [ [ [ 126.299756679573576, 35.211013645465265 ], [ 126.300135618433387, 35.231693619382874 ], [ 126.307020473897353, 35.244338694486416 ], [ 126.308051416861119, 35.250904852939847 ], [ 126.310234254274604, 35.251151871603433 ], [ 126.311411034945422, 35.253418281729964 ], [ 126.315261012282988, 35.250761976583085 ], [ 126.316255354477022, 35.246843204149087 ], [ 126.324400700137076, 35.242428211676923 ], [ 126.323226353934587, 35.240391935276364 ], [ 126.323991027744626, 35.235986927801811 ], [ 126.325569453050164, 35.236439976678504 ], [ 126.324102831220472, 35.240397645406823 ], [ 126.336540402277251, 35.245527813852249 ], [ 126.333015754657453, 35.250379314119705 ], [ 126.33331942174766, 35.25302122657439 ], [ 126.338022818510325, 35.254193219400378 ], [ 126.343204870400086, 35.247089097232056 ], [ 126.347732884441058, 35.247670393837218 ], [ 126.345906173324167, 35.248426356933514 ], [ 126.361858627104795, 35.248544518544755 ], [ 126.379968352440699, 35.254500833012727 ], [ 126.385434937566615, 35.258135665848563 ], [ 126.397292821053, 35.25064000641531 ], [ 126.398000060111471, 35.248450253499421 ], [ 126.393651666708294, 35.245245162573561 ], [ 126.395499015475835, 35.242248949637379 ], [ 126.39636592535463, 35.243858762026711 ], [ 126.398394271695182, 35.242143713350778 ], [ 126.397722713713776, 35.238078047928433 ], [ 126.407513130886556, 35.238985617451014 ], [ 126.410708757363736, 35.236366940139021 ], [ 126.411560109035634, 35.231061384153129 ], [ 126.414427018225851, 35.230068041624932 ], [ 126.419140739954955, 35.22257468361331 ], [ 126.420110675185711, 35.220391557523975 ], [ 126.418669902156495, 35.218615195181016 ], [ 126.41829072739948, 35.212090588519601 ], [ 126.414874862871031, 35.210208803854442 ], [ 126.412316317656618, 35.205520458869813 ], [ 126.415806105441987, 35.199986751469716 ], [ 126.415276639389518, 35.19710122433883 ], [ 126.420256093542392, 35.195272244748253 ], [ 126.421029648806893, 35.193626595750821 ], [ 126.419581535739596, 35.18563223358629 ], [ 126.407910378455966, 35.186410365778855 ], [ 126.408038529045129, 35.182026571357461 ], [ 126.404847883746811, 35.17831051485615 ], [ 126.401003672942551, 35.178024788885473 ], [ 126.399778583220694, 35.176067275572549 ], [ 126.396580480777487, 35.176976469821383 ], [ 126.3961596005757, 35.179405987153793 ], [ 126.392258551704359, 35.179705485437495 ], [ 126.37874329905803, 35.170296862019278 ], [ 126.376402393770803, 35.170665341268091 ], [ 126.375173467480067, 35.167070232196011 ], [ 126.37175794771359, 35.167660811630597 ], [ 126.370340422113699, 35.163766592252834 ], [ 126.365819053869089, 35.168591990250441 ], [ 126.358944247758004, 35.168906812771468 ], [ 126.361269366039721, 35.170978956990517 ], [ 126.360402747441867, 35.17680009404264 ], [ 126.355991490292382, 35.182606005471477 ], [ 126.352895428955563, 35.183930377958589 ], [ 126.364666021009356, 35.185504975976322 ], [ 126.372498894121506, 35.190148479500571 ], [ 126.367841320378332, 35.195679499760487 ], [ 126.367859824928217, 35.197803264993617 ], [ 126.37228238167701, 35.198652147328779 ], [ 126.378854066849158, 35.208315464645466 ], [ 126.376834275875851, 35.211902489978854 ], [ 126.365738170995769, 35.205193527274062 ], [ 126.353696084633398, 35.201833779574898 ], [ 126.353997186030824, 35.196259544981032 ], [ 126.337411525905452, 35.192527526688806 ], [ 126.338899454391779, 35.204226123710164 ], [ 126.342184459913511, 35.207541980847047 ], [ 126.343302358892217, 35.211719518201399 ], [ 126.34238506541449, 35.213968862242297 ], [ 126.340354486360624, 35.212274422251895 ], [ 126.337923631071988, 35.216379281866388 ], [ 126.335616852241628, 35.215659465670242 ], [ 126.339823136459174, 35.208601211685639 ], [ 126.335403374075611, 35.204674003614109 ], [ 126.330280088687388, 35.204860078505455 ], [ 126.328478308297065, 35.202807474650378 ], [ 126.325705514785213, 35.204658995895819 ], [ 126.32150472801662, 35.203922884036317 ], [ 126.316605775962103, 35.205205462435487 ], [ 126.315045855575391, 35.207569152548302 ], [ 126.319021384462062, 35.215139811767521 ], [ 126.31479010598899, 35.220969065884439 ], [ 126.313744369429003, 35.220703351051718 ], [ 126.317140236952795, 35.214032589526823 ], [ 126.315555257907064, 35.214034482271309 ], [ 126.314405151854004, 35.209495300562537 ], [ 126.306111749624705, 35.211950657257354 ], [ 126.304370707846758, 35.211996321303793 ], [ 126.302867427784193, 35.211459220498256 ], [ 126.305464107296658, 35.211432109194035 ], [ 126.30403297209071, 35.209305060397256 ], [ 126.299756679573576, 35.211013645465265 ] ] ], [ [ [ 126.299099282234849, 35.247020233077457 ], [ 126.29895099588299, 35.24828950087349 ], [ 126.300132908312364, 35.247001918331364 ], [ 126.299099282234849, 35.247020233077457 ] ] ] ] } },
{ "type": "Feature", "properties": { "emd_cd": "46870370", "emd_nm": "법성면" }, "geometry": { "type": "MultiPolygon", "coordinates": [ [ [ [ 126.428663177281877, 35.364679471209662 ], [ 126.430755620434951, 35.370119696769741 ], [ 126.429570154147058, 35.372479961696357 ], [ 126.453908489199776, 35.377437820709552 ], [ 126.46043580143936, 35.381312379633556 ], [ 126.462143855788327, 35.385659088437635 ], [ 126.46489153099462, 35.38786483177644 ], [ 126.481253588702387, 35.385669955712402 ], [ 126.486214853352294, 35.377579705312755 ], [ 126.492409238637194, 35.373993733229298 ], [ 126.497414234492723, 35.373200657560076 ], [ 126.496015059677575, 35.370667565817996 ], [ 126.49725736772109, 35.364841171940512 ], [ 126.495227653445724, 35.36239143939811 ], [ 126.496148488708926, 35.357600563128649 ], [ 126.492135636523457, 35.354111836654553 ], [ 126.493547132500865, 35.35038475190602 ], [ 126.496948395425832, 35.350045643955546 ], [ 126.498882838267605, 35.354592726546066 ], [ 126.503757156877001, 35.35866172873925 ], [ 126.508236033680305, 35.361643586941923 ], [ 126.512757720539582, 35.362034737060128 ], [ 126.51387569945534, 35.356434651674853 ], [ 126.510762133510511, 35.351330439304199 ], [ 126.514198712582314, 35.344047960839099 ], [ 126.512301591943398, 35.339929884837602 ], [ 126.507211317385682, 35.336707851705391 ], [ 126.507208568985021, 35.335121325146758 ], [ 126.508924062128131, 35.33553474743136 ], [ 126.498449239534992, 35.330039116619155 ], [ 126.498149319707935, 35.325983004448538 ], [ 126.494135739242211, 35.325619332827671 ], [ 126.489614721237771, 35.327938152408798 ], [ 126.475460471560524, 35.327713936574668 ], [ 126.468414010648047, 35.32501037877261 ], [ 126.459773691535901, 35.327145513263602 ], [ 126.454187846213969, 35.323567383875542 ], [ 126.446206458691009, 35.327032760602897 ], [ 126.443474875467615, 35.332723585976893 ], [ 126.437828917716473, 35.336815237394426 ], [ 126.431860347009632, 35.337346809222261 ], [ 126.435022610167849, 35.341336490136186 ], [ 126.441741532564706, 35.341001751868511 ], [ 126.44630848819385, 35.342809084946573 ], [ 126.449358387873048, 35.345390440431082 ], [ 126.450010060232827, 35.348266797863509 ], [ 126.446632652506167, 35.357444788544562 ], [ 126.439312373165777, 35.359112728432045 ], [ 126.440858310961545, 35.36175585156532 ], [ 126.431339421673613, 35.359892781684024 ], [ 126.428663177281877, 35.364679471209662 ] ] ] ] } },
{ "type": "Feature", "properties": { "emd_cd": "46870380", "emd_nm": "낙월면" }, "geometry": { "type": "MultiPolygon", "coordinates": [ [ [ [ 125.994694218124053, 35.321430650429939 ], [ 125.994900852047692, 35.31981453112676 ], [ 125.993414423758068, 35.319615249246851 ], [ 125.99329154421325, 35.320435032456579 ], [ 125.994694218124053, 35.321430650429939 ] ] ], [ [ [ 126.002021592326457, 35.326441386181159 ], [ 126.002239895057116, 35.326265205110289 ], [ 126.002020515830225, 35.326256316814082 ], [ 126.002021592326457, 35.326441386181159 ] ] ], [ [ [ 126.009675994921054, 35.326760543229753 ], [ 126.00983340363112, 35.326363376748787 ], [ 126.009358294505503, 35.326374512607167 ], [ 126.009675994921054, 35.326760543229753 ] ] ], [ [ [ 125.996599916851082, 35.327122638573464 ], [ 125.999726758115315, 35.330348508281773 ], [ 125.998422339041269, 35.332397222128812 ], [ 126.001716445313647, 35.330796646798568 ], [ 126.002128369551698, 35.332254911416932 ], [ 126.006843372205509, 35.332567061955437 ], [ 126.009941419652179, 35.330411070916469 ], [ 126.009782968908581, 35.328275207745946 ], [ 126.002197843241547, 35.330183752745164 ], [ 125.997159045765599, 35.325174474962211 ], [ 125.996599916851082, 35.327122638573464 ] ] ], [ [ [ 125.988618896784345, 35.338854397586935 ], [ 125.991847951333199, 35.336944069929359 ], [ 125.997037787539682, 35.337322983037886 ], [ 125.997011575710516, 35.33522353704285 ], [ 125.986435006038292, 35.335274149324214 ], [ 125.988618896784345, 35.338854397586935 ] ] ], [ [ [ 126.044681948679425, 35.348183065258446 ], [ 126.044896871679271, 35.348006248969213 ], [ 126.044681906938152, 35.348001888856139 ], [ 126.044681948679425, 35.348183065258446 ] ] ], [ [ [ 126.007758075472765, 35.356977667666662 ], [ 126.008428296606951, 35.358731062896133 ], [ 126.017584084460154, 35.355856225219569 ], [ 126.02159747527584, 35.356465441193336 ], [ 126.022251323420733, 35.359099261494841 ], [ 126.020589421827694, 35.360515260372196 ], [ 126.021892823335961, 35.36356995807536 ], [ 126.024832096931746, 35.359360487888708 ], [ 126.029823791857467, 35.359559526847505 ], [ 126.027797995797101, 35.356480662273775 ], [ 126.028908298834338, 35.354313737214 ], [ 126.036744718299474, 35.352630439347251 ], [ 126.036176103315782, 35.348378911302724 ], [ 126.040984130993152, 35.347092685088022 ], [ 126.03992081788094, 35.343774194703791 ], [ 126.037741673409855, 35.343743754811506 ], [ 126.032407114754648, 35.337573081207751 ], [ 126.030853140998474, 35.338185718346658 ], [ 126.030952888319561, 35.335124405861905 ], [ 126.02624922528129, 35.336905246722573 ], [ 126.025004162070644, 35.335098361183128 ], [ 126.021246254897662, 35.336389872139321 ], [ 126.019320068466428, 35.333419885902011 ], [ 126.014920282490294, 35.332992374349701 ], [ 126.015613779096867, 35.33497314860201 ], [ 126.020978807941674, 35.336878641421833 ], [ 126.020762027332651, 35.339759186440411 ], [ 126.016982299744356, 35.342173292114296 ], [ 126.012808629964226, 35.340134373165014 ], [ 126.00951382265572, 35.343907780236712 ], [ 126.008343042699906, 35.347898754762419 ], [ 126.009658645466061, 35.344733298391269 ], [ 126.01192079270281, 35.344212763276921 ], [ 126.018235403426132, 35.345708999826435 ], [ 126.022601241553289, 35.344335791305518 ], [ 126.023522154930248, 35.347893368683366 ], [ 126.019177686763783, 35.348800648194938 ], [ 126.01843579499355, 35.352306233515961 ], [ 126.012521197180362, 35.352431112687441 ], [ 126.007758075472765, 35.356977667666662 ] ] ], [ [ [ 126.054485705370965, 35.352274399015165 ], [ 126.05444436745438, 35.352101569370966 ], [ 126.054111980348438, 35.352115728564058 ], [ 126.054485705370965, 35.352274399015165 ] ] ], [ [ [ 125.997466389568999, 35.355986675695384 ], [ 126.002748084682807, 35.354517358238624 ], [ 126.003420366880988, 35.356488970501076 ], [ 126.00727094947429, 35.355937659190339 ], [ 126.00294675122116, 35.352082345988649 ], [ 126.00592192796627, 35.348264613623847 ], [ 126.002432226488921, 35.35263677041813 ], [ 125.998723976417253, 35.353052385720119 ], [ 125.997466389568999, 35.355986675695384 ] ] ], [ [ [ 126.007610064706498, 35.360182561303056 ], [ 126.008268978654613, 35.360200830193371 ], [ 126.008358657467795, 35.360105553897 ], [ 126.007610064706498, 35.360182561303056 ] ] ], [ [ [ 126.059792726620174, 35.362174021958623 ], [ 126.06000151745269, 35.362541046779334 ], [ 126.060082028678949, 35.36245902627487 ], [ 126.059792726620174, 35.362174021958623 ] ] ], [ [ [ 126.019242727956296, 35.367293948129394 ], [ 126.020154994398538, 35.366809477394995 ], [ 126.020261068100851, 35.366525426386971 ], [ 126.019242727956296, 35.367293948129394 ] ] ], [ [ [ 126.054990958280982, 35.367484154102577 ], [ 126.058956855369132, 35.369173724815923 ], [ 126.059963907354472, 35.365512337308992 ], [ 126.054990958280982, 35.367484154102577 ] ] ], [ [ [ 126.027002784902194, 35.367934698025685 ], [ 126.027528948645156, 35.368310140558791 ], [ 126.02755173427802, 35.368007106775586 ], [ 126.027002784902194, 35.367934698025685 ] ] ], [ [ [ 126.026565173289882, 35.368181129319211 ], [ 126.026683060905668, 35.368194031250006 ], [ 126.026708507457514, 35.368128461142987 ], [ 126.026565173289882, 35.368181129319211 ] ] ], [ [ [ 126.042024009700114, 35.370210743018475 ], [ 126.044952542183907, 35.37378287603115 ], [ 126.057080328261719, 35.37360262687907 ], [ 126.056700074354936, 35.372165508790346 ], [ 126.053858085524055, 35.372967739071022 ], [ 126.047440372901434, 35.370553372611411 ], [ 126.046760470110513, 35.367786667639116 ], [ 126.043659563504988, 35.368536970706273 ], [ 126.042024009700114, 35.370210743018475 ] ] ], [ [ [ 126.122226515999515, 35.190392359914767 ], [ 126.124867686592978, 35.196487852508106 ], [ 126.122407172518137, 35.199135675878857 ], [ 126.124239785370335, 35.201799976264091 ], [ 126.127960588887277, 35.202440125554581 ], [ 126.128921756853316, 35.200026643534073 ], [ 126.127577331214013, 35.195829576070452 ], [ 126.130756385810272, 35.191949713932942 ], [ 126.13268411274565, 35.192143964687027 ], [ 126.129776230514466, 35.190598065103593 ], [ 126.127849386336138, 35.19236359140092 ], [ 126.122226515999515, 35.190392359914767 ] ] ], [ [ [ 126.092988193602253, 35.249465591094655 ], [ 126.099078007800443, 35.25183612494444 ], [ 126.102492154018492, 35.249621390655541 ], [ 126.099341581319479, 35.244978722862299 ], [ 126.094912649720271, 35.243206583337418 ], [ 126.091966791891224, 35.24360400334119 ], [ 126.091088720377641, 35.245464991773765 ], [ 126.092988193602253, 35.249465591094655 ] ] ], [ [ [ 126.090717834577603, 35.248971404826356 ], [ 126.090737837963829, 35.248597442795116 ], [ 126.090339658486386, 35.248943700436627 ], [ 126.090717834577603, 35.248971404826356 ] ] ], [ [ [ 126.093302792356113, 35.25215325603935 ], [ 126.093146652480627, 35.251950877566152 ], [ 126.093092432718265, 35.252125854969812 ], [ 126.093302792356113, 35.25215325603935 ] ] ], [ [ [ 126.099950455792893, 35.252674565494402 ], [ 126.099774902899412, 35.252584515372639 ], [ 126.099673157951813, 35.252882088372566 ], [ 126.099950455792893, 35.252674565494402 ] ] ], [ [ [ 126.10012927754606, 35.253443131189627 ], [ 126.100004682540046, 35.25320930660736 ], [ 126.099909813250676, 35.253494222629136 ], [ 126.10012927754606, 35.253443131189627 ] ] ], [ [ [ 126.102643001341335, 35.255160809322547 ], [ 126.101539198826998, 35.253401213206459 ], [ 126.100254879447263, 35.25498386047645 ], [ 126.10144731763036, 35.255832847534471 ], [ 126.102643001341335, 35.255160809322547 ] ] ], [ [ [ 126.11888185712661, 35.260141501002529 ], [ 126.119607605413279, 35.258747753300391 ], [ 126.113986100835035, 35.255634808552777 ], [ 126.112995764732091, 35.257553166671222 ], [ 126.11888185712661, 35.260141501002529 ] ] ], [ [ [ 126.082802514266405, 35.25815361085133 ], [ 126.083059651843968, 35.25813820360932 ], [ 126.082706008237054, 35.257975943926589 ], [ 126.082802514266405, 35.25815361085133 ] ] ], [ [ [ 126.083589881438328, 35.2575928119089 ], [ 126.089588327972223, 35.258866733587546 ], [ 126.083475892636812, 35.256902470431562 ], [ 126.083589881438328, 35.2575928119089 ] ] ], [ [ [ 126.091429605425986, 35.259935314822862 ], [ 126.091552728643123, 35.259724353902975 ], [ 126.091027412646824, 35.259779816456408 ], [ 126.091429605425986, 35.259935314822862 ] ] ], [ [ [ 126.101622095453294, 35.261662550301658 ], [ 126.101573036362296, 35.261349848501553 ], [ 126.101507211832526, 35.261383761639266 ], [ 126.101622095453294, 35.261662550301658 ] ] ], [ [ [ 126.132223793484002, 35.282060211863083 ], [ 126.133797909213612, 35.290014744393353 ], [ 126.137322961467802, 35.288206111215601 ], [ 126.137522773931607, 35.289748725815798 ], [ 126.139206929997783, 35.289567918228528 ], [ 126.138273543292385, 35.291991833259068 ], [ 126.141179936971298, 35.29254240376477 ], [ 126.141710065883601, 35.299510893138923 ], [ 126.145605812038951, 35.29342961152571 ], [ 126.152018860295058, 35.289653724493846 ], [ 126.151651666947842, 35.284159586384781 ], [ 126.154235554910272, 35.278304406827878 ], [ 126.15058178729079, 35.272271776498023 ], [ 126.149027998317194, 35.273100827282676 ], [ 126.148096911027366, 35.271523183502921 ], [ 126.150251646954018, 35.271635134747328 ], [ 126.147081174835932, 35.27070816774178 ], [ 126.142624999194055, 35.271335688008648 ], [ 126.140289468911476, 35.273460880424139 ], [ 126.143520271259547, 35.275224050910978 ], [ 126.142939746389786, 35.277526248937136 ], [ 126.132223793484002, 35.282060211863083 ] ] ], [ [ [ 126.134980978718971, 35.292599328465549 ], [ 126.135181349808647, 35.29242394667417 ], [ 126.134974735199577, 35.292431128286566 ], [ 126.134980978718971, 35.292599328465549 ] ] ], [ [ [ 126.130776005383865, 35.370301488018711 ], [ 126.130964089775574, 35.371465756508002 ], [ 126.131334901722568, 35.371492860971948 ], [ 126.130776005383865, 35.370301488018711 ] ] ], [ [ [ 126.130881438023081, 35.376881221328105 ], [ 126.132227687085759, 35.377391289477714 ], [ 126.132504359899954, 35.377171040086758 ], [ 126.131765965311061, 35.376388412995276 ], [ 126.130881438023081, 35.376881221328105 ] ] ], [ [ [ 126.184544334448503, 35.173908978686683 ], [ 126.185390363298893, 35.173814724545522 ], [ 126.185144783535904, 35.173341300515538 ], [ 126.184544334448503, 35.173908978686683 ] ] ], [ [ [ 126.207605028564544, 35.186115823983499 ], [ 126.213377195845382, 35.186815295515721 ], [ 126.213960373993785, 35.184232927330122 ], [ 126.205910280059186, 35.183632074876137 ], [ 126.207605028564544, 35.186115823983499 ] ] ], [ [ [ 126.219730484540804, 35.192010924797501 ], [ 126.222950836736203, 35.194388135285394 ], [ 126.223029928916418, 35.191671044021703 ], [ 126.219730484540804, 35.192010924797501 ] ] ], [ [ [ 126.244893655817904, 35.201542114094309 ], [ 126.247564503363719, 35.203440945857139 ], [ 126.249474376425383, 35.202370694507124 ], [ 126.247813599940812, 35.200841228967754 ], [ 126.244893655817904, 35.201542114094309 ] ] ], [ [ [ 126.132373665794688, 35.203425313599361 ], [ 126.13853842371249, 35.204266873676005 ], [ 126.140952952509167, 35.206105771357791 ], [ 126.140257689317579, 35.207843354068103 ], [ 126.141740428280769, 35.206080053285277 ], [ 126.146370301247472, 35.205580520670502 ], [ 126.151065134472859, 35.210712527651765 ], [ 126.156236481640008, 35.210906655930735 ], [ 126.155634366101182, 35.208264514463565 ], [ 126.150225325207074, 35.206254013729826 ], [ 126.144235213674463, 35.200026105569009 ], [ 126.140286830155134, 35.202189220536752 ], [ 126.133712919460123, 35.201585415464152 ], [ 126.132373665794688, 35.203425313599361 ] ] ], [ [ [ 126.222046836022756, 35.264591324244662 ], [ 126.222610533620511, 35.26513955252981 ], [ 126.222632392403995, 35.264577861460957 ], [ 126.222046836022756, 35.264591324244662 ] ] ], [ [ [ 126.210561153995499, 35.284559534455191 ], [ 126.211919612292363, 35.283500711169602 ], [ 126.211757093447204, 35.282043895622103 ], [ 126.210561153995499, 35.284559534455191 ] ] ], [ [ [ 126.206295566004997, 35.288665186069885 ], [ 126.206929825069778, 35.288223567824012 ], [ 126.207048444074971, 35.287845663259652 ], [ 126.206295566004997, 35.288665186069885 ] ] ], [ [ [ 126.231625078779487, 35.292763346951425 ], [ 126.231865287988114, 35.291321153000673 ], [ 126.231162314760994, 35.291002266609723 ], [ 126.230820687652354, 35.291978747775453 ], [ 126.231625078779487, 35.292763346951425 ] ] ], [ [ [ 126.199416802135275, 35.294765815381751 ], [ 126.20263735871157, 35.294940420908439 ], [ 126.203882543966316, 35.292841712047753 ], [ 126.199416802135275, 35.294765815381751 ] ] ], [ [ [ 126.205542299615473, 35.295404301217786 ], [ 126.205948288393756, 35.294769812717405 ], [ 126.205280288635137, 35.295073294274182 ], [ 126.205542299615473, 35.295404301217786 ] ] ], [ [ [ 126.269827047404831, 35.308650270331036 ], [ 126.270260894930189, 35.308226017029533 ], [ 126.26968671047166, 35.308440543349391 ], [ 126.269827047404831, 35.308650270331036 ] ] ], [ [ [ 126.261931937203371, 35.312528124675922 ], [ 126.262816520975164, 35.313266499870522 ], [ 126.262689740222996, 35.312262373553587 ], [ 126.261931937203371, 35.312528124675922 ] ] ], [ [ [ 126.266092604949662, 35.31929747159689 ], [ 126.267454488174451, 35.319588160861592 ], [ 126.26772187190889, 35.319034822807566 ], [ 126.266092604949662, 35.31929747159689 ] ] ], [ [ [ 126.26975429916358, 35.319818862761196 ], [ 126.271388118128556, 35.321139434362451 ], [ 126.270805580100642, 35.318712647818423 ], [ 126.26975429916358, 35.319818862761196 ] ] ], [ [ [ 126.274669181330495, 35.320783904810646 ], [ 126.274693695969901, 35.322571926839267 ], [ 126.278278118382701, 35.323728178945352 ], [ 126.274669181330495, 35.320783904810646 ] ] ] ] } }
]
}
