{
"type": "FeatureCollection",
"name": "46880",
"crs": { "type": "name", "properties": { "name": "urn:ogc:def:crs:OGC:1.3:CRS84" } },
"features": [
{ "type": "Feature", "properties": { "emd_cd": "46880250", "emd_nm": "장성읍" }, "geometry": { "type": "MultiPolygon", "coordinates": [ [ [ [ 126.843477785092276, 35.390526308321661 ], [ 126.842858619554548, 35.382220166567436 ], [ 126.847711971241566, 35.380486602792693 ], [ 126.84651002703572, 35.373437786706084 ], [ 126.842683827188665, 35.3701168689472 ], [ 126.844157201872278, 35.36574742053174 ], [ 126.848089047854373, 35.362225616485851 ], [ 126.85322270721592, 35.362399018098891 ], [ 126.856738019981691, 35.359719282015448 ], [ 126.858880739652392, 35.355559389695969 ], [ 126.856559484441718, 35.352435614678491 ], [ 126.857233528868591, 35.348933774046735 ], [ 126.853694562187115, 35.342297206138554 ], [ 126.853775676821101, 35.333003628191122 ], [ 126.855362553178409, 35.332589431048639 ], [ 126.857487772408049, 35.322479231884287 ], [ 126.861529250080736, 35.320893021585164 ], [ 126.862651723242536, 35.317953998333863 ], [ 126.862493043414347, 35.313912415024497 ], [ 126.860260847533908, 35.310312872306895 ], [ 126.861691016496209, 35.307297201716096 ], [ 126.861322994598083, 35.301143646086217 ], [ 126.855105580718345, 35.294993576766849 ], [ 126.847826948059748, 35.292173637272278 ], [ 126.838705685875311, 35.299159756290514 ], [ 126.833265538168916, 35.299646533248435 ], [ 126.831155731818882, 35.297542053644392 ], [ 126.825288424345857, 35.29996618420919 ], [ 126.819492046722473, 35.28929304723944 ], [ 126.815857339525465, 35.287777170659751 ], [ 126.814288657933318, 35.278709370182156 ], [ 126.811695123715751, 35.278371295914901 ], [ 126.810846836016665, 35.275669004233194 ], [ 126.807124807371238, 35.275058828816832 ], [ 126.805390775418019, 35.272464647366292 ], [ 126.800356599424447, 35.272348505069438 ], [ 126.798304089194701, 35.270849247227702 ], [ 126.795331469986436, 35.274194799190447 ], [ 126.79174256846315, 35.271910084137957 ], [ 126.790596599580979, 35.268906789458455 ], [ 126.78500094806526, 35.267614570423774 ], [ 126.781741699950288, 35.270144415251387 ], [ 126.781089265410145, 35.273024887644787 ], [ 126.785831597188121, 35.278655235629266 ], [ 126.780142758433769, 35.283756139220202 ], [ 126.782310717495321, 35.2883582269721 ], [ 126.77695889092233, 35.290996754322229 ], [ 126.774522249733863, 35.290551970475398 ], [ 126.772698881290211, 35.298050770137188 ], [ 126.766936306590836, 35.299136718219479 ], [ 126.764601050774274, 35.302326961158208 ], [ 126.766616620775395, 35.309717207062889 ], [ 126.77506711183824, 35.307531768099594 ], [ 126.773631026153282, 35.309133708613729 ], [ 126.773917509725692, 35.315196847883364 ], [ 126.77642837464667, 35.320390627197668 ], [ 126.781837914774201, 35.324849966432943 ], [ 126.775336543330752, 35.330164239358332 ], [ 126.767784608328753, 35.340749665693984 ], [ 126.769028530235261, 35.347250772298331 ], [ 126.772851229369167, 35.34992336491409 ], [ 126.77591424016147, 35.348001610983005 ], [ 126.778920368376689, 35.350250449978219 ], [ 126.785940961447338, 35.34954348085575 ], [ 126.790212460430041, 35.347197339173754 ], [ 126.791820255774041, 35.352723629452946 ], [ 126.796370223441286, 35.350615099545472 ], [ 126.799009893695896, 35.353087624960388 ], [ 126.801734382671228, 35.353085198673398 ], [ 126.805548316070428, 35.357752469783428 ], [ 126.807984026597012, 35.366045194732841 ], [ 126.813779277070566, 35.368749229209911 ], [ 126.814230634362914, 35.37401426491936 ], [ 126.816828284360298, 35.377263816263294 ], [ 126.816241823424434, 35.381066334880046 ], [ 126.819867719954416, 35.387475483945074 ], [ 126.825376269563677, 35.387088903876865 ], [ 126.827862831635812, 35.38139421773252 ], [ 126.831762059700068, 35.381790568159232 ], [ 126.833241181611371, 35.383475868261655 ], [ 126.836159976304089, 35.383295702348818 ], [ 126.83999262831378, 35.388786275833795 ], [ 126.843477785092276, 35.390526308321661 ] ] ] ] } },
{ "type": "Feature", "properties": { "emd_cd": "46880310", "emd_nm": "진원면" }, "geometry": { "type": "MultiPolygon", "coordinates": [ [ [ [ 126.794388634421267, 35.273656354254548 ], [ 126.798304089194701, 35.270849247227702 ], [ 126.800356599424447, 35.272348505069438 ], [ 126.805390775418019, 35.272464647366292 ], [ 126.807124807371238, 35.275058828816832 ], [ 126.810846836016665, 35.275669004233194 ], [ 126.811695123715751, 35.278371295914901 ], [ 126.814288657933318, 35.278709370182156 ], [ 126.815857339525465, 35.287777170659751 ], [ 126.819492046722473, 35.28929304723944 ], [ 126.823550372989843, 35.2983963236249 ], [ 126.825288424345857, 35.29996618420919 ], [ 126.831155731818882, 35.297542053644392 ], [ 126.833265538168916, 35.299646533248435 ], [ 126.836379660986907, 35.299822670872381 ], [ 126.847826948059748, 35.292173637272278 ], [ 126.854196272538189, 35.294475531825661 ], [ 126.860032830526308, 35.290122123788493 ], [ 126.865176258250841, 35.273742314309622 ], [ 126.867905015846148, 35.272311772006354 ], [ 126.876417061885803, 35.260396071875924 ], [ 126.879578980501435, 35.251531255843389 ], [ 126.874208410788967, 35.250045954597283 ], [ 126.869108244677818, 35.246165975864173 ], [ 126.863409112702087, 35.245731852679334 ], [ 126.860001670440752, 35.240343813618288 ], [ 126.851584229270699, 35.238316862359383 ], [ 126.848093940056557, 35.235747471412992 ], [ 126.846382862876894, 35.242489766743162 ], [ 126.842510099912545, 35.240669993236985 ], [ 126.836551078980548, 35.240667529748201 ], [ 126.835744245308717, 35.242334629358723 ], [ 126.832112994562991, 35.243378277646926 ], [ 126.836869674526326, 35.248206313708558 ], [ 126.837737181735022, 35.252470978755731 ], [ 126.833531328620708, 35.257296157704559 ], [ 126.829614336205523, 35.257425590079841 ], [ 126.821314164771266, 35.262236488821372 ], [ 126.81622357711322, 35.255573236309544 ], [ 126.817804423296508, 35.253022243546638 ], [ 126.816675415092391, 35.2498626844122 ], [ 126.812514719441182, 35.24948880335576 ], [ 126.805027043511899, 35.264268505327117 ], [ 126.801411969409926, 35.264870616348212 ], [ 126.799486022260865, 35.267901108249752 ], [ 126.795640210887498, 35.269082724544745 ], [ 126.794388634421267, 35.273656354254548 ] ] ] ] } },
{ "type": "Feature", "properties": { "emd_cd": "46880320", "emd_nm": "남면" }, "geometry": { "type": "MultiPolygon", "coordinates": [ [ [ [ 126.846994923113627, 35.237946384202914 ], [ 126.84430237951446, 35.236992192983777 ], [ 126.844493315365895, 35.234391736375372 ], [ 126.840313062990589, 35.233963920848453 ], [ 126.840083025876709, 35.230734006417855 ], [ 126.835043944158642, 35.228758914661725 ], [ 126.825262852401551, 35.231927940624566 ], [ 126.823951099817961, 35.225791407002909 ], [ 126.819792037357587, 35.226147415842291 ], [ 126.817809492563768, 35.223855239460683 ], [ 126.815643041026348, 35.224712220966637 ], [ 126.805388763769557, 35.218295720461192 ], [ 126.804409384154781, 35.221320147851408 ], [ 126.801149413353698, 35.219731282991809 ], [ 126.795066810665688, 35.21987337710447 ], [ 126.789425237792841, 35.223965000898701 ], [ 126.781515380638268, 35.224834224490522 ], [ 126.77535304785826, 35.230568133527846 ], [ 126.771900814743262, 35.230892735718356 ], [ 126.77031779743993, 35.232821468696521 ], [ 126.767250589633306, 35.231872825537671 ], [ 126.757082835588449, 35.233712050049654 ], [ 126.753782288204178, 35.237097148308614 ], [ 126.755549050293581, 35.24333883850592 ], [ 126.760746812219452, 35.247434612600401 ], [ 126.763658753579321, 35.253401493363363 ], [ 126.763382383060659, 35.256519487016639 ], [ 126.768309743648217, 35.256168454170158 ], [ 126.770099592530812, 35.259905875608681 ], [ 126.773305312681003, 35.259621397411436 ], [ 126.774535620953046, 35.263017386984139 ], [ 126.790596599580979, 35.268906789458455 ], [ 126.794388634421267, 35.273656354254548 ], [ 126.795640210887498, 35.269082724544745 ], [ 126.799486022260865, 35.267901108249752 ], [ 126.801411969409926, 35.264870616348212 ], [ 126.805027043511899, 35.264268505327117 ], [ 126.812514719441182, 35.24948880335576 ], [ 126.816675415092391, 35.2498626844122 ], [ 126.817804423296508, 35.253022243546638 ], [ 126.81622357711322, 35.255573236309544 ], [ 126.821314164771266, 35.262236488821372 ], [ 126.829614336205523, 35.257425590079841 ], [ 126.833531328620708, 35.257296157704559 ], [ 126.837737181735022, 35.252470978755731 ], [ 126.836869674526326, 35.248206313708558 ], [ 126.832112994562991, 35.243378277646926 ], [ 126.835744245308717, 35.242334629358723 ], [ 126.836551078980548, 35.240667529748201 ], [ 126.842510099912545, 35.240669993236985 ], [ 126.846382862876894, 35.242489766743162 ], [ 126.846994923113627, 35.237946384202914 ] ] ] ] } },
{ "type": "Feature", "properties": { "emd_cd": "46880330", "emd_nm": "동화면" }, "geometry": { "type": "MultiPolygon", "coordinates": [ [ [ [ 126.690430338913572, 35.214995961442007 ], [ 126.692699293738187, 35.221363757470996 ], [ 126.695018708819333, 35.223112337557581 ], [ 126.701473617613161, 35.226917637618186 ], [ 126.70458779032667, 35.225412188877506 ], [ 126.702901135601877, 35.235851005268316 ], [ 126.709816156601264, 35.240932176046599 ], [ 126.711019200560443, 35.247545758014937 ], [ 126.709917878642131, 35.248482015138201 ], [ 126.711063167553107, 35.249380760282378 ], [ 126.70732456714596, 35.252407659678731 ], [ 126.709921099110147, 35.257775980486322 ], [ 126.714352268384474, 35.260684015495862 ], [ 126.714545860299779, 35.265025745277448 ], [ 126.710085228683042, 35.268736975825 ], [ 126.709521170706211, 35.271642940283684 ], [ 126.711630629137645, 35.273787605336217 ], [ 126.709194697503676, 35.283125823647502 ], [ 126.706235250068261, 35.282960779275307 ], [ 126.704500444150611, 35.285296849923228 ], [ 126.69864711222165, 35.286697656341424 ], [ 126.697284096700798, 35.291803104590031 ], [ 126.693734924921174, 35.295557901351593 ], [ 126.691621223216089, 35.305754473533497 ], [ 126.692895805582339, 35.308499741908676 ], [ 126.694796585434659, 35.309555037271686 ], [ 126.719633145151136, 35.303282031185411 ], [ 126.724662321152024, 35.297664949324044 ], [ 126.729616474267999, 35.297289495258774 ], [ 126.731571332415115, 35.299785572273741 ], [ 126.741213635266178, 35.300886945152421 ], [ 126.748168784765923, 35.294118357886958 ], [ 126.749065215277469, 35.289816932700788 ], [ 126.743462091763973, 35.287216713827554 ], [ 126.745755543629656, 35.286004054355686 ], [ 126.744830898603354, 35.283799195148532 ], [ 126.746719724011456, 35.282045497796204 ], [ 126.746353901305369, 35.279702486955969 ], [ 126.741718494804829, 35.275060437987634 ], [ 126.743628413856925, 35.273075449849493 ], [ 126.73945424970492, 35.269747491526175 ], [ 126.73971802895079, 35.267270194051299 ], [ 126.73623166740704, 35.262859391631189 ], [ 126.739841080332326, 35.258113611500214 ], [ 126.737151520432064, 35.251934557860032 ], [ 126.729964356182109, 35.243598186199712 ], [ 126.72910263059147, 35.237268961123839 ], [ 126.725488238731728, 35.234677735532948 ], [ 126.723216586697177, 35.22872541452039 ], [ 126.71985077923722, 35.226795515237761 ], [ 126.718429830618831, 35.221819126093777 ], [ 126.72073561521259, 35.218825415448286 ], [ 126.718523485987291, 35.213216370777602 ], [ 126.710685620089251, 35.212300905231203 ], [ 126.702600786103872, 35.207565262697322 ], [ 126.696940031877674, 35.209295411748585 ], [ 126.690430338913572, 35.214995961442007 ] ] ] ] } },
{ "type": "Feature", "properties": { "emd_cd": "46880340", "emd_nm": "삼서면" }, "geometry": { "type": "MultiPolygon", "coordinates": [ [ [ [ 126.708628714119556, 35.240033117910308 ], [ 126.702901135601877, 35.235851005268316 ], [ 126.70458779032667, 35.225412188877506 ], [ 126.701473617613161, 35.226917637618186 ], [ 126.695018708819333, 35.223112337557581 ], [ 126.692699293738187, 35.221363757470996 ], [ 126.690430338913572, 35.214995961442007 ], [ 126.687065857871659, 35.215210210537023 ], [ 126.684544036432172, 35.209838905485874 ], [ 126.680742554073476, 35.208087612601375 ], [ 126.67999490657941, 35.204057440739867 ], [ 126.677566639209402, 35.202510819338286 ], [ 126.67710905763127, 35.190968104297426 ], [ 126.669638385188932, 35.194462128580675 ], [ 126.668097448945005, 35.192637552002296 ], [ 126.662094227760988, 35.193747019764274 ], [ 126.65908861343182, 35.192252434583828 ], [ 126.656273344285609, 35.194101824930264 ], [ 126.65318369547245, 35.192514628568283 ], [ 126.651068792989051, 35.193227422474578 ], [ 126.651748700050518, 35.196476782907496 ], [ 126.647309246693567, 35.199623106988604 ], [ 126.643597755839778, 35.20608899569401 ], [ 126.634052408649197, 35.210655996843776 ], [ 126.625685356050951, 35.219318656119121 ], [ 126.614506437264666, 35.225702531051063 ], [ 126.61268662962479, 35.230190767114422 ], [ 126.60106843410631, 35.235610830941425 ], [ 126.592069567279708, 35.232020764958811 ], [ 126.584531177513156, 35.238129279295002 ], [ 126.583817396422191, 35.242530268018349 ], [ 126.587474258908657, 35.246202821025825 ], [ 126.58412014195163, 35.253668874949085 ], [ 126.584261476322837, 35.257914526415291 ], [ 126.591932771334356, 35.260554914114316 ], [ 126.597423752237674, 35.267793365437626 ], [ 126.61175805524239, 35.271561403822268 ], [ 126.613201850823543, 35.267310060405968 ], [ 126.62045491165847, 35.263130204960397 ], [ 126.626995008026768, 35.263111329908199 ], [ 126.63254853429045, 35.260548556814797 ], [ 126.637316778665749, 35.254662094761045 ], [ 126.644488854805232, 35.258747466728046 ], [ 126.648586803607103, 35.257622911958478 ], [ 126.650651920868881, 35.255558596558579 ], [ 126.650465820217747, 35.248412284913982 ], [ 126.657251203078019, 35.245245423610839 ], [ 126.655979172065372, 35.24029506829811 ], [ 126.657879061470339, 35.239401482455342 ], [ 126.661147415371474, 35.238443868712118 ], [ 126.660678197080472, 35.242063389624619 ], [ 126.664868184114596, 35.24620638779961 ], [ 126.667307536166788, 35.245907593567615 ], [ 126.668555759626912, 35.242266046582273 ], [ 126.672094130010109, 35.240023375059387 ], [ 126.679417196080763, 35.243041854206432 ], [ 126.686481669234723, 35.242139798964075 ], [ 126.689199714707399, 35.243492780798391 ], [ 126.692792593636867, 35.242601397649373 ], [ 126.695336104226541, 35.239006021144192 ], [ 126.701220912985221, 35.242290146519544 ], [ 126.708628714119556, 35.240033117910308 ] ] ] ] } },
{ "type": "Feature", "properties": { "emd_cd": "46880350", "emd_nm": "삼계면" }, "geometry": { "type": "MultiPolygon", "coordinates": [ [ [ [ 126.710961013196012, 35.24738501812957 ], [ 126.708628714119556, 35.240033117910308 ], [ 126.701220912985221, 35.242290146519544 ], [ 126.695336104226541, 35.239006021144192 ], [ 126.692792593636867, 35.242601397649373 ], [ 126.689199714707399, 35.243492780798391 ], [ 126.686481669234723, 35.242139798964075 ], [ 126.679417196080763, 35.243041854206432 ], [ 126.672094130010109, 35.240023375059387 ], [ 126.668555759626912, 35.242266046582273 ], [ 126.667307536166788, 35.245907593567615 ], [ 126.664664467169828, 35.246177933803153 ], [ 126.660678197080472, 35.242063389624619 ], [ 126.661147415371474, 35.238443868712118 ], [ 126.655979172065372, 35.24029506829811 ], [ 126.657251203078019, 35.245245423610839 ], [ 126.650465820217747, 35.248412284913982 ], [ 126.650651920868881, 35.255558596558579 ], [ 126.648586803607103, 35.257622911958478 ], [ 126.644488854805232, 35.258747466728046 ], [ 126.637316778665749, 35.254662094761045 ], [ 126.634705005406445, 35.256333429015072 ], [ 126.632907542223236, 35.260341289561012 ], [ 126.626995008026768, 35.263111329908199 ], [ 126.62045491165847, 35.263130204960397 ], [ 126.613201850823543, 35.267310060405968 ], [ 126.61262339421863, 35.270573580357215 ], [ 126.610055351431669, 35.271670178781704 ], [ 126.611719415588851, 35.275464182888328 ], [ 126.615797483216866, 35.278899454515262 ], [ 126.614077818725008, 35.283342236007144 ], [ 126.614705510585836, 35.288327886962669 ], [ 126.618524639746084, 35.293842812940582 ], [ 126.615574053375425, 35.296550468953697 ], [ 126.611020119580004, 35.297378343982366 ], [ 126.611485604511728, 35.300384164363876 ], [ 126.618681343779329, 35.304796309450424 ], [ 126.621482906151698, 35.30445057947437 ], [ 126.622920192451673, 35.302186015884402 ], [ 126.631536722968704, 35.302466235713325 ], [ 126.639723093976698, 35.308745937860557 ], [ 126.638827045313093, 35.311977003305287 ], [ 126.641554449172332, 35.315874124680796 ], [ 126.639810602410847, 35.317026412638441 ], [ 126.64466329139033, 35.319541957337691 ], [ 126.647002314186608, 35.324324339048346 ], [ 126.642867070784305, 35.331166582816117 ], [ 126.645570408276456, 35.332299717734294 ], [ 126.652975341878829, 35.327886226988717 ], [ 126.657691109757721, 35.334641540590475 ], [ 126.659596380021569, 35.334548346895829 ], [ 126.659126476399777, 35.338867631760827 ], [ 126.660927482879885, 35.340671936453724 ], [ 126.660075544405387, 35.344239695056594 ], [ 126.664402657026471, 35.345705847717859 ], [ 126.66644470399666, 35.351486889345601 ], [ 126.682309247237825, 35.347129708947911 ], [ 126.685725899506352, 35.344235523198442 ], [ 126.683440187990797, 35.340695610420745 ], [ 126.681362147896408, 35.341323197269439 ], [ 126.679508797689621, 35.338370329970864 ], [ 126.678087186136111, 35.332563584168994 ], [ 126.679002497732441, 35.327551378136754 ], [ 126.677089178104652, 35.325944796831536 ], [ 126.678457825937855, 35.32184814476669 ], [ 126.682249367727891, 35.321705086311077 ], [ 126.687261925194619, 35.318801497076031 ], [ 126.68836993401024, 35.313335736040045 ], [ 126.693066860097773, 35.308709556548692 ], [ 126.691621223216089, 35.305754473533497 ], [ 126.693734924921174, 35.295557901351593 ], [ 126.697284096700798, 35.291803104590031 ], [ 126.69864711222165, 35.286697656341424 ], [ 126.709487250481743, 35.282673818076866 ], [ 126.711630629137645, 35.273787605336217 ], [ 126.709521170706211, 35.271642940283684 ], [ 126.710085228683042, 35.268736975825 ], [ 126.714545860299779, 35.265025745277448 ], [ 126.714352268384474, 35.260684015495862 ], [ 126.709921099110147, 35.257775980486322 ], [ 126.70732456714596, 35.252407659678731 ], [ 126.711063167553107, 35.249380760282378 ], [ 126.709917878642131, 35.248482015138201 ], [ 126.710961013196012, 35.24738501812957 ] ] ] ] } },
{ "type": "Feature", "properties": { "emd_cd": "46880360", "emd_nm": "황룡면" }, "geometry": { "type": "MultiPolygon", "coordinates": [ [ [ [ 126.765872285683855, 35.30822484377039 ], [ 126.764601050774274, 35.302326961158208 ], [ 126.766936306590836, 35.299136718219479 ], [ 126.772698881290211, 35.298050770137188 ], [ 126.774522249733863, 35.290551970475398 ], [ 126.77695889092233, 35.290996754322229 ], [ 126.782310717495321, 35.2883582269721 ], [ 126.780142758433769, 35.283756139220202 ], [ 126.785831597188121, 35.278655235629266 ], [ 126.781089265410145, 35.273024887644787 ], [ 126.781741699950288, 35.270144415251387 ], [ 126.78500094806526, 35.267614570423774 ], [ 126.778929495054982, 35.263783344565887 ], [ 126.774535620953046, 35.263017386984139 ], [ 126.773305312681003, 35.259621397411436 ], [ 126.770099592530812, 35.259905875608681 ], [ 126.768309743648217, 35.256168454170158 ], [ 126.757871737705472, 35.258507848977018 ], [ 126.755028528215647, 35.256586482206927 ], [ 126.75051103718701, 35.256535954632355 ], [ 126.747922773231295, 35.253067569611794 ], [ 126.740442096973197, 35.251163177697158 ], [ 126.737232206985283, 35.252889123805737 ], [ 126.739931791294822, 35.258702650519865 ], [ 126.73623166740704, 35.262859391631189 ], [ 126.73971802895079, 35.267270194051299 ], [ 126.73945424970492, 35.269747491526175 ], [ 126.743628413856925, 35.273075449849493 ], [ 126.741718494804829, 35.275060437987634 ], [ 126.746353901305369, 35.279702486955969 ], [ 126.746719724011456, 35.282045497796204 ], [ 126.744830898603354, 35.283799195148532 ], [ 126.745755543629656, 35.286004054355686 ], [ 126.74342758737231, 35.287126020321111 ], [ 126.749065215277469, 35.289816932700788 ], [ 126.748168784765923, 35.294118357886958 ], [ 126.741213635266178, 35.300886945152421 ], [ 126.731571332415115, 35.299785572273741 ], [ 126.729616474267999, 35.297289495258774 ], [ 126.724662321152024, 35.297664949324044 ], [ 126.719633145151136, 35.303282031185411 ], [ 126.691307917875932, 35.309533549983932 ], [ 126.68836993401024, 35.313335736040045 ], [ 126.687261925194619, 35.318801497076031 ], [ 126.678095524353779, 35.322194024423574 ], [ 126.677089178104652, 35.325944796831536 ], [ 126.679002497732441, 35.327551378136754 ], [ 126.678087186136111, 35.332563584168994 ], [ 126.679508797689621, 35.338370329970864 ], [ 126.681362147896408, 35.341323197269439 ], [ 126.683440187990797, 35.340695610420745 ], [ 126.6870521043152, 35.347092275679039 ], [ 126.691819831473026, 35.351431130926187 ], [ 126.699367113696283, 35.349588908167632 ], [ 126.704614774023199, 35.365130497172132 ], [ 126.719351724374235, 35.364988610681877 ], [ 126.718626471320661, 35.360682815055455 ], [ 126.71346518847345, 35.357450822773401 ], [ 126.713593556303223, 35.352311687394987 ], [ 126.717000083397778, 35.348241260769733 ], [ 126.717516449073941, 35.342980913823709 ], [ 126.726233530122386, 35.342848910880143 ], [ 126.725583634445343, 35.337061220166369 ], [ 126.728867257415047, 35.336096337168669 ], [ 126.73500129377878, 35.326683825730733 ], [ 126.742247348518504, 35.330554419460036 ], [ 126.748619569201722, 35.312828706198943 ], [ 126.756328280300721, 35.31257743094816 ], [ 126.765872285683855, 35.30822484377039 ] ] ] ] } },
{ "type": "Feature", "properties": { "emd_cd": "46880370", "emd_nm": "서삼면" }, "geometry": { "type": "MultiPolygon", "coordinates": [ [ [ [ 126.719351724374235, 35.364988610681877 ], [ 126.731259742168916, 35.37688302733973 ], [ 126.731251240844287, 35.381051045065647 ], [ 126.736675646295268, 35.380928575688998 ], [ 126.741505739605799, 35.384251927593318 ], [ 126.746033208121247, 35.383732121395212 ], [ 126.747910356492355, 35.385806851549951 ], [ 126.755510708332622, 35.38670125438675 ], [ 126.762760675955036, 35.382857711370598 ], [ 126.762715429434238, 35.380915524495748 ], [ 126.765568286107367, 35.378983994964294 ], [ 126.77215982482123, 35.378978889533776 ], [ 126.769434971911153, 35.367722650209778 ], [ 126.776720423549051, 35.366621365470849 ], [ 126.785740185774401, 35.357506320484532 ], [ 126.784893724071395, 35.353965889760204 ], [ 126.7919197209673, 35.351854827084935 ], [ 126.790212460430041, 35.347197339173754 ], [ 126.785940961447338, 35.34954348085575 ], [ 126.778920368376689, 35.350250449978219 ], [ 126.77591424016147, 35.348001610983005 ], [ 126.772851229369167, 35.34992336491409 ], [ 126.769028530235261, 35.347250772298331 ], [ 126.767784608328753, 35.340749665693984 ], [ 126.775336543330752, 35.330164239358332 ], [ 126.781837914774201, 35.324849966432943 ], [ 126.77642837464667, 35.320390627197668 ], [ 126.773917509725692, 35.315196847883364 ], [ 126.773631026153282, 35.309133708613729 ], [ 126.77506711183824, 35.307531768099594 ], [ 126.769847536653785, 35.309681101701123 ], [ 126.764773833201758, 35.308331111171121 ], [ 126.761717441015222, 35.31075880644191 ], [ 126.755615479988592, 35.312702521673508 ], [ 126.754250989395928, 35.311897440879733 ], [ 126.751614360814713, 35.313729786540911 ], [ 126.748619569201722, 35.312828706198943 ], [ 126.742247348518504, 35.330554419460036 ], [ 126.73500129377878, 35.326683825730733 ], [ 126.728867257415047, 35.336096337168669 ], [ 126.725583634445343, 35.337061220166369 ], [ 126.726233530122386, 35.342848910880143 ], [ 126.717516449073941, 35.342980913823709 ], [ 126.717000083397778, 35.348241260769733 ], [ 126.713593556303223, 35.352311687394987 ], [ 126.71346518847345, 35.357450822773401 ], [ 126.718626471320661, 35.360682815055455 ], [ 126.719351724374235, 35.364988610681877 ] ] ] ] } },
{ "type": "Feature", "properties": { "emd_cd": "46880380", "emd_nm": "북일면" }, "geometry": { "type": "MultiPolygon", "coordinates": [ [ [ [ 126.77215982482123, 35.378978889533776 ], [ 126.765568286107367, 35.378983994964294 ], [ 126.762715429434238, 35.380915524495748 ], [ 126.762760675955036, 35.382857711370598 ], [ 126.755510708332622, 35.38670125438675 ], [ 126.747910356492355, 35.385806851549951 ], [ 126.746033208121247, 35.383732121395212 ], [ 126.741505739605799, 35.384251927593318 ], [ 126.736380155057304, 35.380852893167706 ], [ 126.731251240844287, 35.381051045065647 ], [ 126.732185144626229, 35.383187341367801 ], [ 126.729768758845083, 35.389127027594689 ], [ 126.729631404406661, 35.394610036682806 ], [ 126.726566150934048, 35.397156924476626 ], [ 126.722505626666759, 35.397916457317322 ], [ 126.722468356126569, 35.39993254022847 ], [ 126.736802936901015, 35.40339289683989 ], [ 126.737689469694899, 35.40598670001522 ], [ 126.744513960083822, 35.408753552063992 ], [ 126.748683776769909, 35.415587607909082 ], [ 126.754200015065621, 35.416504150815435 ], [ 126.756962340025851, 35.411613875829005 ], [ 126.761784119263154, 35.410495030729038 ], [ 126.762972430273777, 35.40618835212193 ], [ 126.769467329241721, 35.409562379384759 ], [ 126.774985041953897, 35.407532607022837 ], [ 126.783838385879662, 35.40785194688435 ], [ 126.788817252182795, 35.401384041912834 ], [ 126.799360659910946, 35.39908203343871 ], [ 126.79960254556012, 35.397682927568304 ], [ 126.803320964853455, 35.396292375084421 ], [ 126.804542680963323, 35.393363514303715 ], [ 126.80858192627997, 35.395268474220678 ], [ 126.808232317385318, 35.402352597806463 ], [ 126.814126263327111, 35.400083100334655 ], [ 126.814747376697355, 35.393557507919844 ], [ 126.819311884348437, 35.390111048547006 ], [ 126.822864926572677, 35.389564988778403 ], [ 126.817662345868314, 35.385119428538204 ], [ 126.815702735768426, 35.379114060446405 ], [ 126.816828284360298, 35.377263816263294 ], [ 126.814230634362914, 35.37401426491936 ], [ 126.813779277070566, 35.368749229209911 ], [ 126.807984026597012, 35.366045194732841 ], [ 126.805262105866007, 35.357236530080492 ], [ 126.801734382671228, 35.353085198673398 ], [ 126.799009893695896, 35.353087624960388 ], [ 126.796370223441286, 35.350615099545472 ], [ 126.784893724071395, 35.353965889760204 ], [ 126.785740185774401, 35.357506320484532 ], [ 126.781307511981836, 35.362830360038821 ], [ 126.775885472064942, 35.367172536054575 ], [ 126.769434971911153, 35.367722650209778 ], [ 126.77215982482123, 35.378978889533776 ] ] ] ] } },
{ "type": "Feature", "properties": { "emd_cd": "46880390", "emd_nm": "북이면" }, "geometry": { "type": "MultiPolygon", "coordinates": [ [ [ [ 126.769467329241721, 35.409562379384759 ], [ 126.762972430273777, 35.40618835212193 ], [ 126.761784119263154, 35.410495030729038 ], [ 126.756962340025851, 35.411613875829005 ], [ 126.754084200521987, 35.414867534889254 ], [ 126.754331166682192, 35.419880592075181 ], [ 126.751505392853645, 35.422759399870102 ], [ 126.752668393820784, 35.42948787334241 ], [ 126.751169485663823, 35.43252789842586 ], [ 126.751728185141658, 35.435904993322858 ], [ 126.748184676382181, 35.439927125131526 ], [ 126.743817501861585, 35.440683106978653 ], [ 126.737715068874124, 35.449493577863983 ], [ 126.741008141015101, 35.452976590857084 ], [ 126.744427225839331, 35.451164142406299 ], [ 126.749499744345854, 35.451346830633206 ], [ 126.755596849484093, 35.455768018586149 ], [ 126.757775491997194, 35.462285655258633 ], [ 126.764902340817471, 35.467058283732385 ], [ 126.771111493722557, 35.467160034284866 ], [ 126.781936866521434, 35.470599298860762 ], [ 126.792622215779531, 35.467561623143951 ], [ 126.814005410305455, 35.468805985402199 ], [ 126.818731889027973, 35.462206410122349 ], [ 126.827834958015472, 35.456406291828607 ], [ 126.832866369080989, 35.447353643852296 ], [ 126.832745631559703, 35.440304246459426 ], [ 126.836074173014694, 35.43576839652885 ], [ 126.83641539502112, 35.430442064691157 ], [ 126.835136476424367, 35.428799308706139 ], [ 126.839932431733516, 35.425125045232406 ], [ 126.837193704042406, 35.421280746915322 ], [ 126.838502553984611, 35.418109813403092 ], [ 126.834665979983242, 35.414613019888115 ], [ 126.837932280826195, 35.41086266132217 ], [ 126.839070361200569, 35.405652599762533 ], [ 126.83540169687447, 35.394897534604958 ], [ 126.839850687990889, 35.392616067232083 ], [ 126.840700743987654, 35.390496011744155 ], [ 126.843477785092276, 35.390526308321661 ], [ 126.83999262831378, 35.388786275833795 ], [ 126.836159976304089, 35.383295702348818 ], [ 126.827862831635812, 35.38139421773252 ], [ 126.825505082106162, 35.386959608064963 ], [ 126.822534379896055, 35.388156955952276 ], [ 126.822864926572677, 35.389564988778403 ], [ 126.819311884348437, 35.390111048547006 ], [ 126.814747376697355, 35.393557507919844 ], [ 126.814126263327111, 35.400083100334655 ], [ 126.808232317385318, 35.402352597806463 ], [ 126.80858192627997, 35.395268474220678 ], [ 126.804542680963323, 35.393363514303715 ], [ 126.803320964853455, 35.396292375084421 ], [ 126.79960254556012, 35.397682927568304 ], [ 126.799360659910946, 35.39908203343871 ], [ 126.788817252182795, 35.401384041912834 ], [ 126.783838385879662, 35.40785194688435 ], [ 126.774985041953897, 35.407532607022837 ], [ 126.769467329241721, 35.409562379384759 ] ] ] ] } },
{ "type": "Feature", "properties": { "emd_cd": "46880400", "emd_nm": "북하면" }, "geometry": { "type": "MultiPolygon", "coordinates": [ [ [ [ 126.843477785092276, 35.390526308321661 ], [ 126.840700743987654, 35.390496011744155 ], [ 126.839850687990889, 35.392616067232083 ], [ 126.83540169687447, 35.394897534604958 ], [ 126.839070361200569, 35.405652599762533 ], [ 126.837932280826195, 35.41086266132217 ], [ 126.834665979983242, 35.414613019888115 ], [ 126.838502553984611, 35.418109813403092 ], [ 126.837193704042406, 35.421280746915322 ], [ 126.839932431733516, 35.425125045232406 ], [ 126.835136476424367, 35.428799308706139 ], [ 126.83641539502112, 35.430442064691157 ], [ 126.836074173014694, 35.43576839652885 ], [ 126.832745631559703, 35.440304246459426 ], [ 126.832866369080989, 35.447353643852296 ], [ 126.827834958015472, 35.456406291828607 ], [ 126.818731889027973, 35.462206410122349 ], [ 126.814005410305455, 35.468805985402199 ], [ 126.815130390926186, 35.473787775376643 ], [ 126.812820568277544, 35.476135143496712 ], [ 126.813924606038398, 35.484224854914785 ], [ 126.819023895774023, 35.486835969137296 ], [ 126.821007237149672, 35.485656881978478 ], [ 126.826890950676415, 35.486687253386854 ], [ 126.830365069832581, 35.48089818505229 ], [ 126.842971430969214, 35.478899609452455 ], [ 126.840270257023391, 35.468970906500147 ], [ 126.841677454606497, 35.466958527826861 ], [ 126.83802401179517, 35.46447945904859 ], [ 126.840739958386024, 35.461385924184192 ], [ 126.842405923835656, 35.464081084261991 ], [ 126.849192810528592, 35.466234171183586 ], [ 126.869468329489521, 35.46188762709226 ], [ 126.87484058045986, 35.459400893706864 ], [ 126.876484255229173, 35.456831352746178 ], [ 126.881116801136841, 35.45590071638253 ], [ 126.884142870950058, 35.451313316272561 ], [ 126.89677460040312, 35.447985690815877 ], [ 126.899642985262517, 35.442699800879353 ], [ 126.905113197143862, 35.440817816890245 ], [ 126.898082051218708, 35.436047884528676 ], [ 126.897613998124285, 35.432951537662404 ], [ 126.90431654438197, 35.429695722224238 ], [ 126.90188235681893, 35.423325066127745 ], [ 126.903067243945316, 35.420626978903279 ], [ 126.907772977540489, 35.420020061335201 ], [ 126.908821820004519, 35.415414131436783 ], [ 126.916147971702458, 35.415844695585136 ], [ 126.920778448928701, 35.410862996017798 ], [ 126.916608060427279, 35.404924788602628 ], [ 126.917426875706695, 35.402139046487235 ], [ 126.925084248580106, 35.398742005792251 ], [ 126.924239894192681, 35.390025067865011 ], [ 126.926533252398386, 35.385077490639425 ], [ 126.924462947525029, 35.383488820218702 ], [ 126.923770131464778, 35.37930673551336 ], [ 126.914906073500987, 35.387130374737737 ], [ 126.913484427671818, 35.382416237166851 ], [ 126.902869202821037, 35.377817581474282 ], [ 126.903059632078779, 35.373322116731437 ], [ 126.898408398360075, 35.371893025584562 ], [ 126.895635789147178, 35.36610492478458 ], [ 126.886996017491171, 35.365069850854717 ], [ 126.884187082302773, 35.362118633359906 ], [ 126.882975362107302, 35.350915273511205 ], [ 126.879003157441247, 35.352365314500929 ], [ 126.875773462009363, 35.3423883121853 ], [ 126.879260125245764, 35.33985413883569 ], [ 126.887749427600895, 35.32603503536577 ], [ 126.880355586920047, 35.321428546978936 ], [ 126.874414173682169, 35.323087918697112 ], [ 126.862779100447199, 35.322451119571767 ], [ 126.861148224190202, 35.320976214470136 ], [ 126.857487772408049, 35.322479231884287 ], [ 126.855362553178409, 35.332589431048639 ], [ 126.853775676821101, 35.333003628191122 ], [ 126.853694562187115, 35.342297206138554 ], [ 126.857233528868591, 35.348933774046735 ], [ 126.856559484441718, 35.352435614678491 ], [ 126.858880739652392, 35.355559389695969 ], [ 126.856738019981691, 35.359719282015448 ], [ 126.85322270721592, 35.362399018098891 ], [ 126.848089047854373, 35.362225616485851 ], [ 126.844157201872278, 35.36574742053174 ], [ 126.842683827188665, 35.3701168689472 ], [ 126.84651002703572, 35.373437786706084 ], [ 126.847711971241566, 35.380486602792693 ], [ 126.842858619554548, 35.382220166567436 ], [ 126.843477785092276, 35.390526308321661 ] ] ] ] } }
]
}
