{
"type": "FeatureCollection",
"name": "27140",
"crs": { "type": "name", "properties": { "name": "urn:ogc:def:crs:OGC:1.3:CRS84" } },
"features": [
{ "type": "Feature", "properties": { "emd_cd": "27140101", "emd_nm": "신암동" }, "geometry": { "type": "MultiPolygon", "coordinates": [ [ [ [ 128.606631907381683, 35.876853743680179 ], [ 128.611704047106429, 35.880733436504308 ], [ 128.617344358296435, 35.889259529308092 ], [ 128.622084262575015, 35.892395312618874 ], [ 128.62788356774746, 35.88944138461445 ], [ 128.631581633672283, 35.893105929051679 ], [ 128.631961631778438, 35.890985176977608 ], [ 128.641347698561162, 35.888499992315694 ], [ 128.633023925657568, 35.885629066927294 ], [ 128.637352616447401, 35.881231839523778 ], [ 128.635168397351805, 35.879931810756204 ], [ 128.614174199075109, 35.875821897410255 ], [ 128.610677578510717, 35.877970450748208 ], [ 128.608375747316245, 35.875750350889874 ], [ 128.606631907381683, 35.876853743680179 ] ] ] ] } },
{ "type": "Feature", "properties": { "emd_cd": "27140102", "emd_nm": "신천동" }, "geometry": { "type": "MultiPolygon", "coordinates": [ [ [ [ 128.60867880199919, 35.876067371096724 ], [ 128.610677578510717, 35.877970450748208 ], [ 128.614174199075109, 35.875821897410255 ], [ 128.630058726073514, 35.878700230970594 ], [ 128.634201679579945, 35.875077784981492 ], [ 128.635143767743614, 35.872008301370606 ], [ 128.629806069824212, 35.866639511571421 ], [ 128.614697887474847, 35.868081174174897 ], [ 128.612480253102802, 35.874042431298165 ], [ 128.60867880199919, 35.876067371096724 ] ] ] ] } },
{ "type": "Feature", "properties": { "emd_cd": "27140103", "emd_nm": "효목동" }, "geometry": { "type": "MultiPolygon", "coordinates": [ [ [ [ 128.659398238934273, 35.876882888253469 ], [ 128.655761419772006, 35.876117525498579 ], [ 128.650071983453984, 35.878574124726995 ], [ 128.635143767743614, 35.872008301370606 ], [ 128.630499076935649, 35.878591288727442 ], [ 128.637352616447401, 35.881231839523778 ], [ 128.633023925657568, 35.885629066927294 ], [ 128.641013630119289, 35.887980777499159 ], [ 128.645982879106015, 35.886345235795723 ], [ 128.659398238934273, 35.876882888253469 ] ] ] ] } },
{ "type": "Feature", "properties": { "emd_cd": "27140104", "emd_nm": "평광동" }, "geometry": { "type": "MultiPolygon", "coordinates": [ [ [ [ 128.670519061678505, 35.943805550042818 ], [ 128.682788883443692, 35.94780875893467 ], [ 128.685686233316574, 35.945339027815962 ], [ 128.694865829312363, 35.946338318944107 ], [ 128.700162289339005, 35.942543840985373 ], [ 128.709819595650799, 35.943438823989666 ], [ 128.740503507808597, 35.937153718659509 ], [ 128.737804421438199, 35.934392961683685 ], [ 128.737520556509509, 35.929827831600356 ], [ 128.720324372366662, 35.929334509873577 ], [ 128.717904539648515, 35.92401044510023 ], [ 128.711582136853593, 35.921845898489892 ], [ 128.702793733819163, 35.913905334498956 ], [ 128.696974313484645, 35.919240831795584 ], [ 128.688759800191491, 35.919541885214322 ], [ 128.678636044671578, 35.924286577990017 ], [ 128.67689805872601, 35.926094150216315 ], [ 128.679310742238584, 35.93413187296666 ], [ 128.674129204771191, 35.940372893580545 ], [ 128.671381362186139, 35.941035859539959 ], [ 128.670519061678505, 35.943805550042818 ] ] ] ] } },
{ "type": "Feature", "properties": { "emd_cd": "27140105", "emd_nm": "봉무동" }, "geometry": { "type": "MultiPolygon", "coordinates": [ [ [ [ 128.633006215040297, 35.91655471486996 ], [ 128.630455942895736, 35.928096061275546 ], [ 128.628752262725385, 35.929695376149567 ], [ 128.624595493684751, 35.929781148157161 ], [ 128.627389119680061, 35.931094049878773 ], [ 128.624647104282076, 35.93565062239972 ], [ 128.631278369071623, 35.936104223225207 ], [ 128.637813103569641, 35.933573346982385 ], [ 128.641409248771254, 35.935209874575527 ], [ 128.642420241894797, 35.938262186168672 ], [ 128.64675494191485, 35.937705006679117 ], [ 128.648404532692695, 35.939195649980732 ], [ 128.660496260070204, 35.933978460333599 ], [ 128.660155559449379, 35.929530318560836 ], [ 128.6551193315332, 35.927075119840275 ], [ 128.655948187796554, 35.919821801671581 ], [ 128.651222104572867, 35.918188129746319 ], [ 128.651068383871177, 35.915498664437685 ], [ 128.633006215040297, 35.91655471486996 ] ] ] ] } },
{ "type": "Feature", "properties": { "emd_cd": "27140106", "emd_nm": "불로동" }, "geometry": { "type": "MultiPolygon", "coordinates": [ [ [ [ 128.626803863918155, 35.904143025036674 ], [ 128.63210533500316, 35.912405471149398 ], [ 128.632137558363496, 35.920546237837407 ], [ 128.633006215040297, 35.91655471486996 ], [ 128.651068383871177, 35.915498664437685 ], [ 128.645124375062949, 35.910071304737507 ], [ 128.642646125598475, 35.90966448837667 ], [ 128.635352231490799, 35.901363422718291 ], [ 128.63444406651152, 35.891057451857186 ], [ 128.631961631778438, 35.890985176977608 ], [ 128.626803863918155, 35.904143025036674 ] ] ] ] } },
{ "type": "Feature", "properties": { "emd_cd": "27140107", "emd_nm": "도동" }, "geometry": { "type": "MultiPolygon", "coordinates": [ [ [ [ 128.64254431779446, 35.909254662267692 ], [ 128.650492695366978, 35.914500675895404 ], [ 128.651222104572867, 35.918188129746319 ], [ 128.655948187796554, 35.919821801671581 ], [ 128.655520042421529, 35.927756337400751 ], [ 128.660155559449379, 35.929530318560836 ], [ 128.660012012412409, 35.93344093129226 ], [ 128.662495329428737, 35.933177246911953 ], [ 128.665306091490862, 35.940377422533189 ], [ 128.668963077779779, 35.944380409004111 ], [ 128.670519061678505, 35.943805550042818 ], [ 128.671381362186139, 35.941035859539959 ], [ 128.674129204771191, 35.940372893580545 ], [ 128.679310742238584, 35.93413187296666 ], [ 128.67689805872601, 35.926094150216315 ], [ 128.685518011192613, 35.920570947187585 ], [ 128.677336819226696, 35.916612307606037 ], [ 128.674120322136133, 35.913197935214413 ], [ 128.670910740075783, 35.912872340337245 ], [ 128.669861241235935, 35.91053515287642 ], [ 128.658520667596065, 35.909680680081614 ], [ 128.657895778218318, 35.907923031748197 ], [ 128.655378475496889, 35.908743445649939 ], [ 128.653443240095896, 35.90742480460046 ], [ 128.650429263435029, 35.909134673175124 ], [ 128.64254431779446, 35.909254662267692 ] ] ] ] } },
{ "type": "Feature", "properties": { "emd_cd": "27140108", "emd_nm": "지저동" }, "geometry": { "type": "MultiPolygon", "coordinates": [ [ [ [ 128.63444406651152, 35.891057451857186 ], [ 128.635285485494705, 35.90125670197034 ], [ 128.642099737656537, 35.908880635325652 ], [ 128.652945703111811, 35.908414307921845 ], [ 128.646860331837132, 35.902796601554741 ], [ 128.646197653321565, 35.895554338950816 ], [ 128.642738608559796, 35.893265239325977 ], [ 128.641347698561162, 35.888499992315694 ], [ 128.63444406651152, 35.891057451857186 ] ] ] ] } },
{ "type": "Feature", "properties": { "emd_cd": "27140109", "emd_nm": "입석동" }, "geometry": { "type": "MultiPolygon", "coordinates": [ [ [ [ 128.646860331837132, 35.902796601554741 ], [ 128.655378475496889, 35.908743445649939 ], [ 128.657811220235146, 35.907940967760339 ], [ 128.656041583256666, 35.903673839561662 ], [ 128.658423024852624, 35.903073528525205 ], [ 128.65858776795929, 35.900604894849756 ], [ 128.661086525432751, 35.899246166595987 ], [ 128.651622102981833, 35.889848356124141 ], [ 128.645012241740744, 35.888610753177794 ], [ 128.642066311036103, 35.889679884451738 ], [ 128.642738608559796, 35.893265239325977 ], [ 128.646883201654504, 35.897353416525299 ], [ 128.646860331837132, 35.902796601554741 ] ] ] ] } },
{ "type": "Feature", "properties": { "emd_cd": "27140110", "emd_nm": "검사동" }, "geometry": { "type": "MultiPolygon", "coordinates": [ [ [ [ 128.669245157007879, 35.91057150931583 ], [ 128.670578390036525, 35.90791556666278 ], [ 128.669132192356699, 35.905767835173009 ], [ 128.669114136494557, 35.900245835166317 ], [ 128.670733703215546, 35.895552633234765 ], [ 128.663100800501041, 35.89168369272285 ], [ 128.660778239981596, 35.884645317445965 ], [ 128.656377130354826, 35.884004355526599 ], [ 128.653923292760055, 35.881292242658624 ], [ 128.641013630119289, 35.887980777499159 ], [ 128.64235458955298, 35.889827747832506 ], [ 128.645012241740744, 35.888610753177794 ], [ 128.65127896929917, 35.889686178525878 ], [ 128.658923317986478, 35.896257970574133 ], [ 128.661021792689667, 35.899735148383265 ], [ 128.65600452344421, 35.903777195062091 ], [ 128.658520667596065, 35.909680680081614 ], [ 128.669245157007879, 35.91057150931583 ] ] ] ] } },
{ "type": "Feature", "properties": { "emd_cd": "27140111", "emd_nm": "방촌동" }, "geometry": { "type": "MultiPolygon", "coordinates": [ [ [ [ 128.676926933815281, 35.897910794200847 ], [ 128.680319466058307, 35.896415339066628 ], [ 128.677297289972074, 35.89315323103434 ], [ 128.679324804812467, 35.88928547938027 ], [ 128.674042495457599, 35.884328124822758 ], [ 128.673012985484405, 35.88083777112071 ], [ 128.675063829463085, 35.877742881113868 ], [ 128.672354385637675, 35.87312587677313 ], [ 128.66228481903471, 35.873857175928947 ], [ 128.653923292760055, 35.881292242658624 ], [ 128.656377130354826, 35.884004355526599 ], [ 128.660778239981596, 35.884645317445965 ], [ 128.663617745538176, 35.892148159807995 ], [ 128.669211908567632, 35.894147231025762 ], [ 128.671979934366931, 35.897092284003705 ], [ 128.676926933815281, 35.897910794200847 ] ] ] ] } },
{ "type": "Feature", "properties": { "emd_cd": "27140112", "emd_nm": "둔산동" }, "geometry": { "type": "MultiPolygon", "coordinates": [ [ [ [ 128.68030307702557, 35.896359508512845 ], [ 128.676926933815281, 35.897910794200847 ], [ 128.670521951713454, 35.895948252838927 ], [ 128.669114136494557, 35.900245835166317 ], [ 128.669860309821644, 35.910572524609684 ], [ 128.670910740075783, 35.912872340337245 ], [ 128.674120322136133, 35.913197935214413 ], [ 128.677336819226696, 35.916612307606037 ], [ 128.684326224501376, 35.920112095321535 ], [ 128.696974313484645, 35.919240831795584 ], [ 128.708430686003766, 35.908832598609877 ], [ 128.704894826627054, 35.902038770334194 ], [ 128.6985683673457, 35.896809030604992 ], [ 128.688342919465924, 35.896261359437034 ], [ 128.686724335024763, 35.897688432661447 ], [ 128.68030307702557, 35.896359508512845 ] ] ] ] } },
{ "type": "Feature", "properties": { "emd_cd": "27140113", "emd_nm": "부동" }, "geometry": { "type": "MultiPolygon", "coordinates": [ [ [ [ 128.686724335024763, 35.897688432661447 ], [ 128.688342919465924, 35.896261359437034 ], [ 128.695996208110131, 35.897067093347147 ], [ 128.700024279074057, 35.895787812157835 ], [ 128.701561813625716, 35.89130491589912 ], [ 128.698111545810747, 35.885875663981423 ], [ 128.686221322939417, 35.88535877430472 ], [ 128.679640487262219, 35.888324341242324 ], [ 128.677670984604418, 35.8943135760288 ], [ 128.680074089769136, 35.896360986867009 ], [ 128.686724335024763, 35.897688432661447 ] ] ] ] } },
{ "type": "Feature", "properties": { "emd_cd": "27140114", "emd_nm": "신평동" }, "geometry": { "type": "MultiPolygon", "coordinates": [ [ [ [ 128.698111545810747, 35.885875663981423 ], [ 128.69861786018231, 35.880530575215474 ], [ 128.690999003341943, 35.880175701994268 ], [ 128.689885318628853, 35.882767783038261 ], [ 128.687403806976363, 35.882995797010032 ], [ 128.684601163360071, 35.877982577755404 ], [ 128.675063829463085, 35.877742881113868 ], [ 128.673012985484405, 35.88083777112071 ], [ 128.674258784331954, 35.884766852584953 ], [ 128.679132456552367, 35.888914418269863 ], [ 128.686221322939417, 35.88535877430472 ], [ 128.698111545810747, 35.885875663981423 ] ] ] ] } },
{ "type": "Feature", "properties": { "emd_cd": "27140115", "emd_nm": "서호동" }, "geometry": { "type": "MultiPolygon", "coordinates": [ [ [ [ 128.713107180879035, 35.861021438987251 ], [ 128.703830733730939, 35.857787319395129 ], [ 128.709886712009336, 35.872704119622327 ], [ 128.713912644053693, 35.868015095150035 ], [ 128.713107180879035, 35.861021438987251 ] ] ] ] } },
{ "type": "Feature", "properties": { "emd_cd": "27140116", "emd_nm": "동호동" }, "geometry": { "type": "MultiPolygon", "coordinates": [ [ [ [ 128.709978532655583, 35.872443342176332 ], [ 128.718120670447661, 35.872916831631997 ], [ 128.718232129586482, 35.866579109676906 ], [ 128.723979872382159, 35.867998337910684 ], [ 128.727214365301364, 35.864457291212155 ], [ 128.722260526112819, 35.86469002915365 ], [ 128.72384870679889, 35.860223142237928 ], [ 128.713107180879035, 35.861021438987251 ], [ 128.713912644053693, 35.868015095150035 ], [ 128.709978532655583, 35.872443342176332 ] ] ] ] } },
{ "type": "Feature", "properties": { "emd_cd": "27140117", "emd_nm": "신기동" }, "geometry": { "type": "MultiPolygon", "coordinates": [ [ [ [ 128.709391725771837, 35.872549759877366 ], [ 128.708041582327382, 35.865637466815166 ], [ 128.704607349788745, 35.859908304017821 ], [ 128.704594917317195, 35.864700537549027 ], [ 128.701243919201971, 35.865644881055246 ], [ 128.702238413661064, 35.870030564535853 ], [ 128.700965542940196, 35.87016518784074 ], [ 128.700535207271457, 35.873505301074644 ], [ 128.709391725771837, 35.872549759877366 ] ] ] ] } },
{ "type": "Feature", "properties": { "emd_cd": "27140118", "emd_nm": "율하동" }, "geometry": { "type": "MultiPolygon", "coordinates": [ [ [ [ 128.679908399552801, 35.866154674104585 ], [ 128.697214086187927, 35.874805965278675 ], [ 128.700535207271457, 35.873505301074644 ], [ 128.700965542940196, 35.87016518784074 ], [ 128.702238413661064, 35.870030564535853 ], [ 128.701243919201971, 35.865644881055246 ], [ 128.704594917317195, 35.864700537549027 ], [ 128.704605499616633, 35.85949884545996 ], [ 128.703142066833209, 35.857715404546873 ], [ 128.686102194493543, 35.859115127944605 ], [ 128.680462950879161, 35.861779632619232 ], [ 128.679908399552801, 35.866154674104585 ] ] ] ] } },
{ "type": "Feature", "properties": { "emd_cd": "27140119", "emd_nm": "용계동" }, "geometry": { "type": "MultiPolygon", "coordinates": [ [ [ [ 128.675063829463085, 35.877742881113868 ], [ 128.684624518005251, 35.877985352093695 ], [ 128.687403806976363, 35.882995797010032 ], [ 128.689885318628853, 35.882767783038261 ], [ 128.690905472477823, 35.880189645788519 ], [ 128.69861786018231, 35.880530575215474 ], [ 128.699175821591126, 35.882077854581219 ], [ 128.702236031051967, 35.879787699405099 ], [ 128.695433674507854, 35.872955786756002 ], [ 128.680075447399872, 35.866834190465916 ], [ 128.675832921600886, 35.873410892566291 ], [ 128.673118165899467, 35.873941392391991 ], [ 128.675063829463085, 35.877742881113868 ] ] ] ] } },
{ "type": "Feature", "properties": { "emd_cd": "27140120", "emd_nm": "율암동" }, "geometry": { "type": "MultiPolygon", "coordinates": [ [ [ [ 128.711971691522422, 35.873349621766536 ], [ 128.697160160253844, 35.873797869075965 ], [ 128.702236031051967, 35.879787699405099 ], [ 128.698983471627514, 35.882077685829664 ], [ 128.697915611346247, 35.886818228216718 ], [ 128.69937791274225, 35.88839011979023 ], [ 128.707687248963794, 35.886356385271178 ], [ 128.70896709648855, 35.880192847918103 ], [ 128.711301175358301, 35.879072044812979 ], [ 128.711100995530217, 35.877590079622919 ], [ 128.707869082020835, 35.87845383479538 ], [ 128.708243848865834, 35.876042311234883 ], [ 128.710197158034475, 35.875989338264738 ], [ 128.710164400034387, 35.873778679417974 ], [ 128.711971691522422, 35.873349621766536 ] ] ] ] } },
{ "type": "Feature", "properties": { "emd_cd": "27140121", "emd_nm": "상매동" }, "geometry": { "type": "MultiPolygon", "coordinates": [ [ [ [ 128.69937791274225, 35.88839011979023 ], [ 128.701561813625716, 35.89130491589912 ], [ 128.698548502368709, 35.896804519367677 ], [ 128.704894826627054, 35.902038770334194 ], [ 128.708430686003766, 35.908832598609877 ], [ 128.702793733819163, 35.913905334498956 ], [ 128.711582136853593, 35.921845898489892 ], [ 128.717904539648515, 35.92401044510023 ], [ 128.719054052837208, 35.928667317819482 ], [ 128.721331476778346, 35.929271479267697 ], [ 128.723130020019966, 35.926398781812708 ], [ 128.722146937766155, 35.921787034525799 ], [ 128.717185548647763, 35.917460564898199 ], [ 128.717538769192487, 35.909643179028727 ], [ 128.715234425179403, 35.907302004457691 ], [ 128.715495233101791, 35.904782878491091 ], [ 128.708318295278332, 35.891619518843314 ], [ 128.707913781677462, 35.888236532751968 ], [ 128.707095482709605, 35.886876539243076 ], [ 128.704862813247701, 35.887897777568611 ], [ 128.702234840582491, 35.886752522991131 ], [ 128.69937791274225, 35.88839011979023 ] ] ] ] } },
{ "type": "Feature", "properties": { "emd_cd": "27140122", "emd_nm": "매여동" }, "geometry": { "type": "MultiPolygon", "coordinates": [ [ [ [ 128.710109127405104, 35.893550513053469 ], [ 128.715495233101791, 35.904782878491091 ], [ 128.715234425179403, 35.907302004457691 ], [ 128.717538769192487, 35.909643179028727 ], [ 128.717185548647763, 35.917460564898199 ], [ 128.722146937766155, 35.921787034525799 ], [ 128.723130020019966, 35.926398781812708 ], [ 128.721331476778346, 35.929271479267697 ], [ 128.736518317940039, 35.929868838344305 ], [ 128.743247552386237, 35.918450488114338 ], [ 128.740738864550224, 35.915348422233642 ], [ 128.739721388219237, 35.910673710135185 ], [ 128.733353619021528, 35.905286545948115 ], [ 128.726436050280427, 35.903443306533944 ], [ 128.722584431375878, 35.900352859925931 ], [ 128.71769120871798, 35.90082649041247 ], [ 128.712529271105041, 35.893394694669681 ], [ 128.710109127405104, 35.893550513053469 ] ] ] ] } },
{ "type": "Feature", "properties": { "emd_cd": "27140123", "emd_nm": "각산동" }, "geometry": { "type": "MultiPolygon", "coordinates": [ [ [ [ 128.707095482709605, 35.886876539243076 ], [ 128.709302999453797, 35.893166861389403 ], [ 128.712529271105041, 35.893394694669681 ], [ 128.71535502131826, 35.899046541401603 ], [ 128.71769120871798, 35.90082649041247 ], [ 128.722584431375878, 35.900352859925931 ], [ 128.725308947826932, 35.902596402655917 ], [ 128.727236294733444, 35.886476588234615 ], [ 128.726386483827582, 35.883970398714681 ], [ 128.723533665781957, 35.883397599304921 ], [ 128.724018186174703, 35.876446538098037 ], [ 128.721182514795714, 35.874944512909551 ], [ 128.720803195574945, 35.872994867343444 ], [ 128.722419429087608, 35.872956111501878 ], [ 128.721644516313916, 35.86838787414861 ], [ 128.723945952595187, 35.867987066102955 ], [ 128.718232129586482, 35.866579109676906 ], [ 128.718120670447661, 35.872916831631997 ], [ 128.709886712009336, 35.872704119622327 ], [ 128.711971691522422, 35.873349621766536 ], [ 128.710164400034387, 35.873778679417974 ], [ 128.710197158034475, 35.875989338264738 ], [ 128.708243848865834, 35.876042311234883 ], [ 128.707869082020835, 35.87845383479538 ], [ 128.711100995530217, 35.877590079622919 ], [ 128.711301175358301, 35.879072044812979 ], [ 128.70896709648855, 35.880192847918103 ], [ 128.707095482709605, 35.886876539243076 ] ] ] ] } },
{ "type": "Feature", "properties": { "emd_cd": "27140124", "emd_nm": "신서동" }, "geometry": { "type": "MultiPolygon", "coordinates": [ [ [ [ 128.720803195574945, 35.872994867343444 ], [ 128.721182514795714, 35.874944512909551 ], [ 128.724018186174703, 35.876446538098037 ], [ 128.723533665781957, 35.883397599304921 ], [ 128.726386483827582, 35.883970398714681 ], [ 128.727236294733444, 35.886476588234615 ], [ 128.725308947826932, 35.902596402655917 ], [ 128.733353619021528, 35.905286545948115 ], [ 128.739721388219237, 35.910673710135185 ], [ 128.740564299908016, 35.906379814296166 ], [ 128.737304391389102, 35.903053241520666 ], [ 128.734530619433997, 35.890982349738394 ], [ 128.735581716456096, 35.886430298733423 ], [ 128.733551675650148, 35.883298890524628 ], [ 128.735559409320643, 35.87921771825787 ], [ 128.732184312545627, 35.868029894201975 ], [ 128.73501543827453, 35.864881666581226 ], [ 128.732637785948384, 35.863333996241032 ], [ 128.728592338026289, 35.864881968213098 ], [ 128.727272844438687, 35.864432370050089 ], [ 128.726496441196076, 35.864662071669841 ], [ 128.723951758931179, 35.868360564454861 ], [ 128.721644516313916, 35.86838787414861 ], [ 128.722419429087608, 35.872956111501878 ], [ 128.720803195574945, 35.872994867343444 ] ] ] ] } },
{ "type": "Feature", "properties": { "emd_cd": "27140125", "emd_nm": "동내동" }, "geometry": { "type": "MultiPolygon", "coordinates": [ [ [ [ 128.73469729507687, 35.87550328599243 ], [ 128.735572920362216, 35.879568746489575 ], [ 128.733551675650148, 35.883298890524628 ], [ 128.735581716456096, 35.886430298733423 ], [ 128.734530619433997, 35.890982349738394 ], [ 128.735865618696465, 35.898125483472988 ], [ 128.737304391389102, 35.903053241520666 ], [ 128.740564299908016, 35.906379814296166 ], [ 128.74382766290276, 35.902131726891938 ], [ 128.74941142130038, 35.899287408477988 ], [ 128.751393850314685, 35.892748080086704 ], [ 128.745428022765253, 35.886407880193801 ], [ 128.743328950815879, 35.880161332403929 ], [ 128.739634827201144, 35.878573024859755 ], [ 128.737180968700926, 35.874247303775832 ], [ 128.73469729507687, 35.87550328599243 ] ] ] ] } },
{ "type": "Feature", "properties": { "emd_cd": "27140126", "emd_nm": "괴전동" }, "geometry": { "type": "MultiPolygon", "coordinates": [ [ [ [ 128.743328950815879, 35.880161332403929 ], [ 128.745570950636647, 35.878308196920834 ], [ 128.741297713871802, 35.875308465231008 ], [ 128.741109920256861, 35.873565114699879 ], [ 128.743219715373016, 35.871890225765021 ], [ 128.741298458549295, 35.869593205146863 ], [ 128.741789114678483, 35.865820688677225 ], [ 128.735745080824245, 35.865432609739955 ], [ 128.734029993251653, 35.863907717909548 ], [ 128.735064701772387, 35.865049137154706 ], [ 128.732184312545627, 35.868029894201975 ], [ 128.733678121119908, 35.873918947360522 ], [ 128.734696502188967, 35.87549866986172 ], [ 128.737180968700926, 35.874247303775832 ], [ 128.739634827201144, 35.878573024859755 ], [ 128.743328950815879, 35.880161332403929 ] ] ] ] } },
{ "type": "Feature", "properties": { "emd_cd": "27140127", "emd_nm": "금강동" }, "geometry": { "type": "MultiPolygon", "coordinates": [ [ [ [ 128.741307463602737, 35.865679331778573 ], [ 128.742896063543952, 35.862560745553985 ], [ 128.740647465762265, 35.858477564695647 ], [ 128.748483460794375, 35.864224380706794 ], [ 128.751844829125758, 35.859359208845603 ], [ 128.738562110345526, 35.851433241981205 ], [ 128.73504268053432, 35.851687402372484 ], [ 128.724695473200455, 35.85908666836518 ], [ 128.722224316644514, 35.863946273236358 ], [ 128.728455756126351, 35.864900746328516 ], [ 128.732637785948384, 35.863333996241032 ], [ 128.735745080824245, 35.865432609739955 ], [ 128.741307463602737, 35.865679331778573 ] ] ] ] } },
{ "type": "Feature", "properties": { "emd_cd": "27140128", "emd_nm": "대림동" }, "geometry": { "type": "MultiPolygon", "coordinates": [ [ [ [ 128.745570950636647, 35.878308196920834 ], [ 128.74723313130005, 35.877893711022502 ], [ 128.74753622934125, 35.87479569386096 ], [ 128.749587919636781, 35.87496512091829 ], [ 128.749989636342406, 35.872429174746124 ], [ 128.747748269387017, 35.868523737811785 ], [ 128.755371562593808, 35.864095577360864 ], [ 128.751808990458528, 35.859419599047513 ], [ 128.748483460794375, 35.864224380706794 ], [ 128.740647465762265, 35.858477564695647 ], [ 128.742968783955178, 35.864057186985377 ], [ 128.740992987177492, 35.866151777416675 ], [ 128.743219715373016, 35.871890225765021 ], [ 128.741222754123498, 35.875021770257803 ], [ 128.745570950636647, 35.878308196920834 ] ] ] ] } },
{ "type": "Feature", "properties": { "emd_cd": "27140129", "emd_nm": "사복동" }, "geometry": { "type": "MultiPolygon", "coordinates": [ [ [ [ 128.745234578933974, 35.879533487052164 ], [ 128.752356427389742, 35.877885157352885 ], [ 128.751855633291143, 35.875214001127475 ], [ 128.754487654719583, 35.874963739744715 ], [ 128.754938221174797, 35.876729085713997 ], [ 128.756732064086833, 35.871327023639658 ], [ 128.759874333137219, 35.868753198582802 ], [ 128.759802636260162, 35.866372368258155 ], [ 128.755371562593808, 35.864095577360864 ], [ 128.747871408711688, 35.868394470781361 ], [ 128.749989636342406, 35.872429174746124 ], [ 128.749587919636781, 35.87496512091829 ], [ 128.74753622934125, 35.87479569386096 ], [ 128.74723313130005, 35.877893711022502 ], [ 128.745234578933974, 35.879533487052164 ] ] ] ] } },
{ "type": "Feature", "properties": { "emd_cd": "27140130", "emd_nm": "숙천동" }, "geometry": { "type": "MultiPolygon", "coordinates": [ [ [ [ 128.757728592028769, 35.870317680918184 ], [ 128.756732064086833, 35.871327023639658 ], [ 128.756133987194886, 35.874799697770648 ], [ 128.754695067840345, 35.87690713202435 ], [ 128.754487654719583, 35.874963739744715 ], [ 128.751855633291143, 35.875214001127475 ], [ 128.752356427389742, 35.877885157352885 ], [ 128.749872350528676, 35.879430670143108 ], [ 128.743328950815879, 35.880161332403929 ], [ 128.745428022765253, 35.886407880193801 ], [ 128.74959984948606, 35.89142575150526 ], [ 128.753719682003492, 35.882774024955012 ], [ 128.756368270199005, 35.883836283260678 ], [ 128.757403630591483, 35.876401362162376 ], [ 128.761105668219813, 35.875014384169852 ], [ 128.757728592028769, 35.870317680918184 ] ] ] ] } },
{ "type": "Feature", "properties": { "emd_cd": "27140131", "emd_nm": "내곡동" }, "geometry": { "type": "MultiPolygon", "coordinates": [ [ [ [ 128.756892377789086, 35.87811150613507 ], [ 128.756368270199005, 35.883836283260678 ], [ 128.753719682003492, 35.882774024955012 ], [ 128.750497776901398, 35.889905973630022 ], [ 128.751543867254043, 35.893786046143241 ], [ 128.749644398458173, 35.898902905086793 ], [ 128.74382766290276, 35.902131726891938 ], [ 128.740025355185622, 35.907265786400728 ], [ 128.739341150975548, 35.911639468473879 ], [ 128.743247552386237, 35.918450488114338 ], [ 128.742625733663829, 35.920690383240412 ], [ 128.755280591010489, 35.915254798624339 ], [ 128.759810451253742, 35.907090074823373 ], [ 128.756721014292083, 35.904919923041611 ], [ 128.757180011081118, 35.897858374564784 ], [ 128.762651519556329, 35.888770303323007 ], [ 128.761216967202472, 35.888125063815593 ], [ 128.758703987658322, 35.878827181625702 ], [ 128.756892377789086, 35.87811150613507 ] ] ] ] } },
{ "type": "Feature", "properties": { "emd_cd": "27140132", "emd_nm": "능성동" }, "geometry": { "type": "MultiPolygon", "coordinates": [ [ [ [ 128.742566704328027, 35.960228153657823 ], [ 128.73618788626635, 35.954843234092777 ], [ 128.733411289490476, 35.955263771649989 ], [ 128.727416963517783, 35.9575637689179 ], [ 128.724067873402134, 35.960730437079242 ], [ 128.724823254214101, 35.96777925350731 ], [ 128.728556745543386, 35.974945483901955 ], [ 128.736582537922857, 35.980601420067664 ], [ 128.738368260025794, 35.977106166399345 ], [ 128.74576293566389, 35.97317001762282 ], [ 128.745505204307989, 35.967904824687118 ], [ 128.743017029659512, 35.965046772695437 ], [ 128.742566704328027, 35.960228153657823 ] ] ] ] } },
{ "type": "Feature", "properties": { "emd_cd": "27140133", "emd_nm": "진인동" }, "geometry": { "type": "MultiPolygon", "coordinates": [ [ [ [ 128.709796119453017, 35.943439523987443 ], [ 128.704918332203505, 35.946466918244816 ], [ 128.702341482062849, 35.955181449148284 ], [ 128.705464799551066, 35.95644739230827 ], [ 128.704368316831932, 35.95777428744163 ], [ 128.707511956881291, 35.962162784276714 ], [ 128.706609067160116, 35.964132686521054 ], [ 128.711455469338603, 35.965783148116081 ], [ 128.711318601261411, 35.970243615514342 ], [ 128.713729513012396, 35.972961444113579 ], [ 128.729523009229155, 35.979195204427263 ], [ 128.73277190065096, 35.983324353129774 ], [ 128.734962779271711, 35.982483013526569 ], [ 128.736582537922857, 35.980601420067664 ], [ 128.728556745543386, 35.974945483901955 ], [ 128.724823254214101, 35.96777925350731 ], [ 128.724067873402134, 35.960730437079242 ], [ 128.727416963517783, 35.9575637689179 ], [ 128.733411289490476, 35.955263771649989 ], [ 128.73618788626635, 35.954843234092777 ], [ 128.737529117109204, 35.956228293484969 ], [ 128.739394780964176, 35.955058472636324 ], [ 128.743185350320573, 35.947053313486599 ], [ 128.743432021518004, 35.943228638067865 ], [ 128.739373107197423, 35.937690266700713 ], [ 128.709796119453017, 35.943439523987443 ] ] ] ] } },
{ "type": "Feature", "properties": { "emd_cd": "27140134", "emd_nm": "도학동" }, "geometry": { "type": "MultiPolygon", "coordinates": [ [ [ [ 128.693018810472211, 35.982079349799783 ], [ 128.695327880866188, 35.987822165721902 ], [ 128.699094597750019, 35.989264270623252 ], [ 128.700251227847758, 35.992107943171398 ], [ 128.693966234798836, 36.001483879504171 ], [ 128.69484049269542, 36.004793870311701 ], [ 128.693403598087968, 36.010183441922237 ], [ 128.696311279380495, 36.013411906982554 ], [ 128.700878456014692, 36.011074456455418 ], [ 128.722147715538171, 36.006377178057761 ], [ 128.72731971152885, 36.002480318570356 ], [ 128.72773058676691, 35.998609098097326 ], [ 128.731395993644611, 35.997784357809273 ], [ 128.734394432275536, 35.993213500038891 ], [ 128.731140851720141, 35.989630353504822 ], [ 128.730542478390049, 35.985589054952975 ], [ 128.73277190065096, 35.983324353129774 ], [ 128.729523009229155, 35.979195204427263 ], [ 128.713729513012396, 35.972961444113579 ], [ 128.711318601261411, 35.970243615514342 ], [ 128.711455469338603, 35.965783148116081 ], [ 128.708167084842898, 35.964304736842045 ], [ 128.696181952747793, 35.963825089568665 ], [ 128.697915989121725, 35.975085802792321 ], [ 128.693018810472211, 35.982079349799783 ] ] ] ] } },
{ "type": "Feature", "properties": { "emd_cd": "27140135", "emd_nm": "백안동" }, "geometry": { "type": "MultiPolygon", "coordinates": [ [ [ [ 128.709796119453017, 35.943439523987443 ], [ 128.700162289339005, 35.942543840985373 ], [ 128.694865829312363, 35.946338318944107 ], [ 128.685686233316574, 35.945339027815962 ], [ 128.682788883443692, 35.94780875893467 ], [ 128.685226721188968, 35.951921046478468 ], [ 128.682096785141027, 35.95379596296322 ], [ 128.688290568223209, 35.956905136738257 ], [ 128.688121053306133, 35.960976182796408 ], [ 128.694323586320252, 35.968970477623891 ], [ 128.697381135855153, 35.967684549493775 ], [ 128.697064403115888, 35.963209447791186 ], [ 128.705286844843926, 35.964627288225437 ], [ 128.70706209133877, 35.963400251406881 ], [ 128.704368316831932, 35.95777428744163 ], [ 128.705464799551066, 35.95644739230827 ], [ 128.702341482062849, 35.955181449148284 ], [ 128.704918332203505, 35.946466918244816 ], [ 128.709796119453017, 35.943439523987443 ] ] ] ] } },
{ "type": "Feature", "properties": { "emd_cd": "27140136", "emd_nm": "미곡동" }, "geometry": { "type": "MultiPolygon", "coordinates": [ [ [ [ 128.682096987821268, 35.953748360481377 ], [ 128.670880257901302, 35.957063241392071 ], [ 128.67753175885619, 35.96059685083781 ], [ 128.678756863519084, 35.964623951927251 ], [ 128.673545745915789, 35.969073468388132 ], [ 128.681436217697353, 35.966484207070202 ], [ 128.686282807103822, 35.971078817803175 ], [ 128.686809055537395, 35.974545124017112 ], [ 128.68557370094743, 35.975992440655943 ], [ 128.687177873080714, 35.980491245359602 ], [ 128.693018810472211, 35.982079349799783 ], [ 128.697915989121725, 35.975085802792321 ], [ 128.697246739698926, 35.969929287817045 ], [ 128.691387491095639, 35.966289818432045 ], [ 128.690543232957225, 35.96264906375837 ], [ 128.688121053306133, 35.960976182796408 ], [ 128.688290568223209, 35.956905136738257 ], [ 128.682096987821268, 35.953748360481377 ] ] ] ] } },
{ "type": "Feature", "properties": { "emd_cd": "27140137", "emd_nm": "용수동" }, "geometry": { "type": "MultiPolygon", "coordinates": [ [ [ [ 128.696311279380495, 36.013411906982554 ], [ 128.693403598087968, 36.010183441922237 ], [ 128.69484049269542, 36.004793870311701 ], [ 128.693966234798836, 36.001483879504171 ], [ 128.700251227847758, 35.992107943171398 ], [ 128.699094597750019, 35.989264270623252 ], [ 128.695327880866188, 35.987822165721902 ], [ 128.693018810472211, 35.982079349799783 ], [ 128.687177873080714, 35.980491245359602 ], [ 128.68557370094743, 35.975992440655943 ], [ 128.686809055537395, 35.974545124017112 ], [ 128.686282807103822, 35.971078817803175 ], [ 128.681436217697353, 35.966484207070202 ], [ 128.668535612887581, 35.970724981087741 ], [ 128.665273550658696, 35.974635686420761 ], [ 128.66640216088976, 35.980699999776114 ], [ 128.669233824003385, 35.979842164188348 ], [ 128.672407040550752, 35.981279523644218 ], [ 128.674734383464227, 35.985732110490218 ], [ 128.677532110691175, 35.987274159696867 ], [ 128.680660344163584, 35.994756228057724 ], [ 128.689606302166453, 36.003482092377503 ], [ 128.690252103527541, 36.005734854698183 ], [ 128.687339785947501, 36.007703610043343 ], [ 128.687908106748267, 36.010349464939608 ], [ 128.685785435508876, 36.013490244767922 ], [ 128.69499957637629, 36.016386930603808 ], [ 128.696311279380495, 36.013411906982554 ] ] ] ] } },
{ "type": "Feature", "properties": { "emd_cd": "27140138", "emd_nm": "신무동" }, "geometry": { "type": "MultiPolygon", "coordinates": [ [ [ [ 128.660624961209066, 35.983710424219076 ], [ 128.660832248635472, 35.992508106409893 ], [ 128.649306341832101, 35.998435279059379 ], [ 128.650300040417505, 36.002602256808458 ], [ 128.649056967182901, 36.004573271145624 ], [ 128.650415306711807, 36.007377558556115 ], [ 128.653591171926422, 36.009532791344959 ], [ 128.664834250803352, 36.010607476295306 ], [ 128.668918357321132, 36.013367559001701 ], [ 128.676851802399796, 36.013362561478388 ], [ 128.679484714475848, 36.01493747758461 ], [ 128.686489667188113, 36.014262631954587 ], [ 128.685257509014832, 36.012618679161164 ], [ 128.687908106748267, 36.010349464939608 ], [ 128.687339785947501, 36.007703610043343 ], [ 128.690252103527541, 36.005734854698183 ], [ 128.689606302166453, 36.003482092377503 ], [ 128.680660344163584, 35.994756228057724 ], [ 128.677532110691175, 35.987274159696867 ], [ 128.674734383464227, 35.985732110490218 ], [ 128.672407040550752, 35.981279523644218 ], [ 128.669233824003385, 35.979842164188348 ], [ 128.660624961209066, 35.983710424219076 ] ] ] ] } },
{ "type": "Feature", "properties": { "emd_cd": "27140139", "emd_nm": "미대동" }, "geometry": { "type": "MultiPolygon", "coordinates": [ [ [ [ 128.668963077779779, 35.944380409004111 ], [ 128.661200715956653, 35.948571643920509 ], [ 128.66375799681046, 35.948511444702724 ], [ 128.664954580799076, 35.951541625803351 ], [ 128.664553513108501, 35.957969283203646 ], [ 128.66586548777812, 35.958790662696593 ], [ 128.666931800302365, 35.9663693724927 ], [ 128.66593957146705, 35.968688428397385 ], [ 128.667613979223432, 35.971587464321139 ], [ 128.673545745915789, 35.969073468388132 ], [ 128.678756863519084, 35.964623951927251 ], [ 128.67753175885619, 35.96059685083781 ], [ 128.670880257901302, 35.957063241392071 ], [ 128.675229196590493, 35.954795712849979 ], [ 128.683550573459172, 35.953868604318885 ], [ 128.685330182345325, 35.950671256912365 ], [ 128.678648472125417, 35.945761244679915 ], [ 128.668963077779779, 35.944380409004111 ] ] ] ] } },
{ "type": "Feature", "properties": { "emd_cd": "27140140", "emd_nm": "내동" }, "geometry": { "type": "MultiPolygon", "coordinates": [ [ [ [ 128.640424308328221, 35.971119195899405 ], [ 128.646553432956608, 35.976361477255963 ], [ 128.649210048499668, 35.975713743933177 ], [ 128.657963652710492, 35.978865422427475 ], [ 128.658535509776129, 35.983014726459494 ], [ 128.660624961209066, 35.983710424219076 ], [ 128.66640216088976, 35.980699999776114 ], [ 128.665273550658696, 35.974635686420761 ], [ 128.667613979223432, 35.971587464321139 ], [ 128.66593957146705, 35.968688428397385 ], [ 128.666931800302365, 35.9663693724927 ], [ 128.66375799681046, 35.948511444702724 ], [ 128.65909341367805, 35.950065904062249 ], [ 128.658640144330832, 35.956743078899606 ], [ 128.656229722220928, 35.960305939974852 ], [ 128.649066338712373, 35.962906461986663 ], [ 128.640424308328221, 35.971119195899405 ] ] ] ] } },
{ "type": "Feature", "properties": { "emd_cd": "27140141", "emd_nm": "신용동" }, "geometry": { "type": "MultiPolygon", "coordinates": [ [ [ [ 128.640424308328221, 35.971119195899405 ], [ 128.639289775435202, 35.977163467709374 ], [ 128.637282854180711, 35.978270813313124 ], [ 128.639940894723708, 35.981697930430052 ], [ 128.639520471009092, 35.987703156841086 ], [ 128.64140000685785, 35.991775794296707 ], [ 128.644170504507628, 35.992436779494959 ], [ 128.648891501047814, 35.998409754601539 ], [ 128.658312294797014, 35.99470105716177 ], [ 128.660832248635472, 35.992508106409893 ], [ 128.661692839617302, 35.988560775532342 ], [ 128.660624961209066, 35.983710424219076 ], [ 128.658316278137335, 35.982846192289365 ], [ 128.65824321429173, 35.979115582752613 ], [ 128.649210048499668, 35.975713743933177 ], [ 128.646553432956608, 35.976361477255963 ], [ 128.640424308328221, 35.971119195899405 ] ] ] ] } },
{ "type": "Feature", "properties": { "emd_cd": "27140142", "emd_nm": "중대동" }, "geometry": { "type": "MultiPolygon", "coordinates": [ [ [ [ 128.618677586888083, 35.97604951223331 ], [ 128.626652572956345, 35.972546233241253 ], [ 128.629347381951561, 35.97514212194617 ], [ 128.629008615863512, 35.978756239535358 ], [ 128.626212079182181, 35.981540856498754 ], [ 128.62694754544728, 35.986169357497594 ], [ 128.63464969043801, 35.993471888569594 ], [ 128.631085541985499, 35.999042338976288 ], [ 128.632844565217226, 36.000951562432142 ], [ 128.630000130716894, 36.007071250262854 ], [ 128.640226060967024, 36.010568596700409 ], [ 128.644082723433769, 36.010490667023198 ], [ 128.650415306711807, 36.007377558556115 ], [ 128.649056967182901, 36.004573271145624 ], [ 128.650300040417505, 36.002602256808458 ], [ 128.649306341832101, 35.998435279059379 ], [ 128.644170504507628, 35.992436779494959 ], [ 128.641633443920369, 35.99203711962943 ], [ 128.639531558635667, 35.987752036662371 ], [ 128.639940894723708, 35.981697930430052 ], [ 128.637282854180711, 35.978270813313124 ], [ 128.639289775435202, 35.977163467709374 ], [ 128.640424308328221, 35.971119195899405 ], [ 128.638034250817554, 35.9712173349007 ], [ 128.637767580210664, 35.968094225069912 ], [ 128.630915066600124, 35.96550386261049 ], [ 128.631907870145938, 35.964102675750915 ], [ 128.622373962364804, 35.965500204437191 ], [ 128.617493040960511, 35.970698302859255 ], [ 128.618677586888083, 35.97604951223331 ] ] ] ] } },
{ "type": "Feature", "properties": { "emd_cd": "27140143", "emd_nm": "송정동" }, "geometry": { "type": "MultiPolygon", "coordinates": [ [ [ [ 128.619986818603707, 36.005931457329247 ], [ 128.624470961351449, 36.007670219679127 ], [ 128.630000130716894, 36.007071250262854 ], [ 128.632844565217226, 36.000951562432142 ], [ 128.631085541985499, 35.999042338976288 ], [ 128.634463070926614, 35.992188344815986 ], [ 128.628035141627237, 35.988176655745235 ], [ 128.626212079182181, 35.981540856498754 ], [ 128.62197220845141, 35.983162776446321 ], [ 128.61649534000631, 35.989125483117853 ], [ 128.619655043475746, 35.998106787007949 ], [ 128.61841803127507, 36.001427109635543 ], [ 128.619986818603707, 36.005931457329247 ] ] ] ] } },
{ "type": "Feature", "properties": { "emd_cd": "27140144", "emd_nm": "덕곡동" }, "geometry": { "type": "MultiPolygon", "coordinates": [ [ [ [ 128.626652572956345, 35.972546233241253 ], [ 128.61479777772854, 35.978205042895205 ], [ 128.612595023326747, 35.982663836125248 ], [ 128.609085181795081, 35.985402450283303 ], [ 128.602989060433259, 35.987723495140401 ], [ 128.609471476484714, 35.996618326411891 ], [ 128.615141864233578, 36.000871833397987 ], [ 128.616910720463977, 36.006635366552565 ], [ 128.619986818603707, 36.005931457329247 ], [ 128.61841803127507, 36.001427109635543 ], [ 128.619655043475746, 35.998106787007949 ], [ 128.61649534000631, 35.989125483117853 ], [ 128.62197220845141, 35.983162776446321 ], [ 128.625458479593846, 35.98242211244434 ], [ 128.628563397339434, 35.97955014326233 ], [ 128.629347381951561, 35.97514212194617 ], [ 128.626652572956345, 35.972546233241253 ] ] ] ] } },
{ "type": "Feature", "properties": { "emd_cd": "27140145", "emd_nm": "지묘동" }, "geometry": { "type": "MultiPolygon", "coordinates": [ [ [ [ 128.668963077779779, 35.944380409004111 ], [ 128.665306091490862, 35.940377422533189 ], [ 128.662495329428737, 35.933177246911953 ], [ 128.648404532692695, 35.939195649980732 ], [ 128.64675494191485, 35.937705006679117 ], [ 128.642420241894797, 35.938262186168672 ], [ 128.641409248771254, 35.935209874575527 ], [ 128.637813103569641, 35.933573346982385 ], [ 128.631278369071623, 35.936104223225207 ], [ 128.624647104282076, 35.93565062239972 ], [ 128.626372180828241, 35.945364737200791 ], [ 128.622497090926515, 35.946169459233786 ], [ 128.622302043471223, 35.948439258354405 ], [ 128.622667631000382, 35.952234463508312 ], [ 128.626010480398435, 35.958153586619666 ], [ 128.621315918277503, 35.963446051303386 ], [ 128.623813587584948, 35.965711872364146 ], [ 128.631907870145938, 35.964102675750915 ], [ 128.630915066600124, 35.96550386261049 ], [ 128.637767580210664, 35.968094225069912 ], [ 128.638034250817554, 35.9712173349007 ], [ 128.640424308328221, 35.971119195899405 ], [ 128.649066338712373, 35.962906461986663 ], [ 128.656229722220928, 35.960305939974852 ], [ 128.658640144330832, 35.956743078899606 ], [ 128.65909341367805, 35.950065904062249 ], [ 128.668963077779779, 35.944380409004111 ] ] ] ] } }
]
}
