{
"type": "FeatureCollection",
"name": "27200",
"crs": { "type": "name", "properties": { "name": "urn:ogc:def:crs:OGC:1.3:CRS84" } },
"features": [
{ "type": "Feature", "properties": { "emd_cd": "27200101", "emd_nm": "이천동" }, "geometry": { "type": "MultiPolygon", "coordinates": [ [ [ [ 128.593860238266927, 35.854782467969891 ], [ 128.594764755551779, 35.856562180128904 ], [ 128.608300949763674, 35.854896005471971 ], [ 128.60808367569166, 35.844740694854785 ], [ 128.600583912241746, 35.847324023618867 ], [ 128.598874071247081, 35.850305535637204 ], [ 128.595598787144183, 35.850033626156375 ], [ 128.593860238266927, 35.854782467969891 ] ] ] ] } },
{ "type": "Feature", "properties": { "emd_cd": "27200102", "emd_nm": "봉덕동" }, "geometry": { "type": "MultiPolygon", "coordinates": [ [ [ [ 128.582070136981088, 35.812081070819389 ], [ 128.586276771418852, 35.819556668257057 ], [ 128.585928861051372, 35.82309137690963 ], [ 128.589775220169429, 35.828280249660779 ], [ 128.586318192438739, 35.838802357480546 ], [ 128.591370640536127, 35.839952875270846 ], [ 128.592343746434352, 35.842817789061812 ], [ 128.590450519201283, 35.842495569048197 ], [ 128.590533454088273, 35.847663786589841 ], [ 128.598874071247081, 35.850305535637204 ], [ 128.600583912241746, 35.847324023618867 ], [ 128.60808367569166, 35.844740694854785 ], [ 128.605745072830075, 35.835363071531198 ], [ 128.607667829927749, 35.827108726688742 ], [ 128.606416740471047, 35.828605072542835 ], [ 128.60501067590522, 35.826676685141649 ], [ 128.600786940936132, 35.815694982748887 ], [ 128.594281160067339, 35.813079175038311 ], [ 128.590153819062948, 35.808175332264298 ], [ 128.584818802892414, 35.807469353828381 ], [ 128.582070136981088, 35.812081070819389 ] ] ] ] } },
{ "type": "Feature", "properties": { "emd_cd": "27200103", "emd_nm": "대명동" }, "geometry": { "type": "MultiPolygon", "coordinates": [ [ [ [ 128.555507069524936, 35.83440403043906 ], [ 128.562110142754307, 35.843550419397182 ], [ 128.573617588452777, 35.851135561990411 ], [ 128.574457526339586, 35.860058775227259 ], [ 128.582866948935902, 35.856331492894377 ], [ 128.594727713725689, 35.856850263201586 ], [ 128.59389950120152, 35.85408241632161 ], [ 128.595806841052905, 35.849536697814017 ], [ 128.594474901402094, 35.847918192342568 ], [ 128.590533454088273, 35.847663786589855 ], [ 128.590450519201312, 35.842495569048197 ], [ 128.592343746434409, 35.842817789061826 ], [ 128.591370640536127, 35.839952875270868 ], [ 128.586318192438739, 35.838802357480553 ], [ 128.5897752201694, 35.828280249660786 ], [ 128.585928861051372, 35.82309137690963 ], [ 128.586276771418881, 35.819556668257022 ], [ 128.582070136981088, 35.812081070819367 ], [ 128.579502080573718, 35.812153963267995 ], [ 128.57505427489852, 35.817268536563127 ], [ 128.571168611298276, 35.818905768082061 ], [ 128.571075740773637, 35.822027726226672 ], [ 128.568604298220805, 35.824930880036057 ], [ 128.567365794987779, 35.823536556149243 ], [ 128.563488344217802, 35.824245083617313 ], [ 128.558163941512049, 35.83287210836707 ], [ 128.555507069524936, 35.83440403043906 ] ] ] ] } }
]
}
