{
"type": "FeatureCollection",
"name": "27230",
"crs": { "type": "name", "properties": { "name": "urn:ogc:def:crs:OGC:1.3:CRS84" } },
"features": [
{ "type": "Feature", "properties": { "emd_cd": "27230101", "emd_nm": "칠성동1가" }, "geometry": { "type": "MultiPolygon", "coordinates": [ [ [ [ 128.601605610582823, 35.87446065663751 ], [ 128.601629490277162, 35.878197232676051 ], [ 128.603533081983414, 35.878419301163149 ], [ 128.609988705691478, 35.874525847913034 ], [ 128.601605610582823, 35.87446065663751 ] ] ] ] } },
{ "type": "Feature", "properties": { "emd_cd": "27230102", "emd_nm": "칠성동2가" }, "geometry": { "type": "MultiPolygon", "coordinates": [ [ [ [ 128.584389769265556, 35.884357605695456 ], [ 128.586136381622083, 35.886046386335401 ], [ 128.592365773189812, 35.885263110835567 ], [ 128.592967573947675, 35.882750937291206 ], [ 128.597986828775788, 35.880871432278241 ], [ 128.602086079594443, 35.885284132963356 ], [ 128.604666082289356, 35.877769920241086 ], [ 128.601629490277077, 35.878197232676051 ], [ 128.601605610582737, 35.874460656637496 ], [ 128.588587929087339, 35.877053380896477 ], [ 128.590428091264357, 35.883138405173554 ], [ 128.584389769265556, 35.884357605695456 ] ] ] ] } },
{ "type": "Feature", "properties": { "emd_cd": "27230103", "emd_nm": "고성동1가" }, "geometry": { "type": "MultiPolygon", "coordinates": [ [ [ [ 128.581057103175084, 35.878661101148523 ], [ 128.587845590846968, 35.87936610223435 ], [ 128.589075923412878, 35.878099972168258 ], [ 128.588614009532563, 35.877217324891497 ], [ 128.581057103175084, 35.878661101148523 ] ] ] ] } },
{ "type": "Feature", "properties": { "emd_cd": "27230104", "emd_nm": "고성동2가" }, "geometry": { "type": "MultiPolygon", "coordinates": [ [ [ [ 128.589302366843413, 35.879498868903553 ], [ 128.588885859352843, 35.878135107781382 ], [ 128.587845590846968, 35.87936610223435 ], [ 128.580282473828873, 35.878829046388944 ], [ 128.580996984398865, 35.88118179102019 ], [ 128.589302366843413, 35.879498868903553 ] ] ] ] } },
{ "type": "Feature", "properties": { "emd_cd": "27230105", "emd_nm": "고성동3가" }, "geometry": { "type": "MultiPolygon", "coordinates": [ [ [ [ 128.580996984400144, 35.881181791020161 ], [ 128.58211094762774, 35.884829148599792 ], [ 128.590428091265693, 35.88313840517354 ], [ 128.589302366844748, 35.879498868903497 ], [ 128.580996984400144, 35.881181791020161 ] ] ] ] } },
{ "type": "Feature", "properties": { "emd_cd": "27230106", "emd_nm": "침산동" }, "geometry": { "type": "MultiPolygon", "coordinates": [ [ [ [ 128.577919792868016, 35.892965676542374 ], [ 128.57957402626144, 35.899219707140794 ], [ 128.578065871538712, 35.903141533816125 ], [ 128.579739613934777, 35.90519137017295 ], [ 128.594325374822091, 35.905330034174739 ], [ 128.592003641445388, 35.894106840947678 ], [ 128.598629737655187, 35.889623878613307 ], [ 128.601813659844083, 35.885011287116633 ], [ 128.597986828777238, 35.880871432278227 ], [ 128.592967573948897, 35.882750937291185 ], [ 128.592365773191148, 35.885263110835545 ], [ 128.586189572602308, 35.886050941241429 ], [ 128.584389769266892, 35.884357605695456 ], [ 128.58211094762774, 35.884829148599792 ], [ 128.583144570258582, 35.889736126271195 ], [ 128.580658395564427, 35.889998894754207 ], [ 128.577919792868016, 35.892965676542374 ] ] ] ] } },
{ "type": "Feature", "properties": { "emd_cd": "27230107", "emd_nm": "노원동1가" }, "geometry": { "type": "MultiPolygon", "coordinates": [ [ [ [ 128.577791331122796, 35.892991422434676 ], [ 128.58065839556312, 35.889998894754243 ], [ 128.583144570257218, 35.889736126271245 ], [ 128.582110947626518, 35.884829148599813 ], [ 128.576157108268802, 35.887303031215971 ], [ 128.577791331122796, 35.892991422434676 ] ] ] ] } },
{ "type": "Feature", "properties": { "emd_cd": "27230108", "emd_nm": "노원동2가" }, "geometry": { "type": "MultiPolygon", "coordinates": [ [ [ [ 128.577791331122796, 35.892991422434676 ], [ 128.576157108268802, 35.887303031215971 ], [ 128.569674481845169, 35.888287585467054 ], [ 128.571584676460475, 35.894348044483912 ], [ 128.577791331122796, 35.892991422434676 ] ] ] ] } },
{ "type": "Feature", "properties": { "emd_cd": "27230109", "emd_nm": "노원동3가" }, "geometry": { "type": "MultiPolygon", "coordinates": [ [ [ [ 128.551992335770223, 35.893622504463522 ], [ 128.556764166358334, 35.89616243788435 ], [ 128.561280104926396, 35.896442531718435 ], [ 128.570019136256292, 35.902382498765057 ], [ 128.579010890468254, 35.903112985046356 ], [ 128.577919792868016, 35.892965676542374 ], [ 128.571584676461697, 35.894348044483856 ], [ 128.569632827126526, 35.888161289552741 ], [ 128.555310064919809, 35.890397390880644 ], [ 128.551992335770223, 35.893622504463522 ] ] ] ] } },
{ "type": "Feature", "properties": { "emd_cd": "27230110", "emd_nm": "대현동" }, "geometry": { "type": "MultiPolygon", "coordinates": [ [ [ [ 128.604666082290777, 35.877769920240979 ], [ 128.602073849302002, 35.887636207966381 ], [ 128.604314312232617, 35.888323152340909 ], [ 128.617321030237605, 35.888803896533403 ], [ 128.611987689992816, 35.880649558804038 ], [ 128.607295237439502, 35.877403830951842 ], [ 128.608416941166695, 35.876021497685095 ], [ 128.604666082290777, 35.877769920240979 ] ] ] ] } },
{ "type": "Feature", "properties": { "emd_cd": "27230111", "emd_nm": "산격동" }, "geometry": { "type": "MultiPolygon", "coordinates": [ [ [ [ 128.592003641445388, 35.894106840947678 ], [ 128.594325374822091, 35.90533003417471 ], [ 128.601997710693325, 35.90781991293025 ], [ 128.603379906876199, 35.913206570286661 ], [ 128.606987646299331, 35.915941475143619 ], [ 128.61213325740971, 35.911375399398764 ], [ 128.614560038090275, 35.912520169019999 ], [ 128.619074513849938, 35.90608196165816 ], [ 128.616662988671862, 35.903631899328296 ], [ 128.615179497837602, 35.897463406101153 ], [ 128.612249884516046, 35.894806130240909 ], [ 128.612430720705049, 35.891802358264727 ], [ 128.615736954745358, 35.889585340105796 ], [ 128.602073849302002, 35.887636207966381 ], [ 128.601813659844112, 35.885011287116633 ], [ 128.598629737655187, 35.889623878613307 ], [ 128.592003641445388, 35.894106840947678 ] ] ] ] } },
{ "type": "Feature", "properties": { "emd_cd": "27230112", "emd_nm": "복현동" }, "geometry": { "type": "MultiPolygon", "coordinates": [ [ [ [ 128.612249884516046, 35.894806130240909 ], [ 128.615179497837602, 35.897463406101153 ], [ 128.617356505930417, 35.904656950745114 ], [ 128.623375936029674, 35.907508656250513 ], [ 128.627571907762757, 35.905786318326363 ], [ 128.627693207218698, 35.900777656918621 ], [ 128.631932853290806, 35.893884571726389 ], [ 128.628171158596331, 35.889347648622497 ], [ 128.622369429919388, 35.892302484199412 ], [ 128.617083248481634, 35.888633423573836 ], [ 128.612430720705049, 35.891802358264727 ], [ 128.612249884516046, 35.894806130240909 ] ] ] ] } },
{ "type": "Feature", "properties": { "emd_cd": "27230113", "emd_nm": "검단동" }, "geometry": { "type": "MultiPolygon", "coordinates": [ [ [ [ 128.606898728040335, 35.91608383037552 ], [ 128.615970135164474, 35.923429693845733 ], [ 128.627072376766108, 35.929370860597814 ], [ 128.629295272209134, 35.929504386006286 ], [ 128.631728730068403, 35.926309164545557 ], [ 128.632388510201594, 35.91231567749697 ], [ 128.627378871100916, 35.905771711965642 ], [ 128.62337593602831, 35.907508656250513 ], [ 128.61815758441756, 35.905396748615303 ], [ 128.619074513848489, 35.906081961658181 ], [ 128.614560038088854, 35.91252016902002 ], [ 128.612133257408374, 35.911375399398771 ], [ 128.606898728040335, 35.91608383037552 ] ] ] ] } },
{ "type": "Feature", "properties": { "emd_cd": "27230114", "emd_nm": "동변동" }, "geometry": { "type": "MultiPolygon", "coordinates": [ [ [ [ 128.625267433365735, 35.935446501165018 ], [ 128.628667295962288, 35.930188285062599 ], [ 128.610039059167093, 35.919011340151506 ], [ 128.603379906874807, 35.913206570286782 ], [ 128.603134867305101, 35.909100181892214 ], [ 128.600524238046404, 35.907244466479007 ], [ 128.601977913145021, 35.912122298327851 ], [ 128.600342386892493, 35.914717655870476 ], [ 128.599595847805517, 35.926904629571638 ], [ 128.601647374144306, 35.929783201410295 ], [ 128.607704365776527, 35.934570691107204 ], [ 128.612863502134388, 35.93290217083841 ], [ 128.618315778593853, 35.93561017898903 ], [ 128.620925516137504, 35.934438487602684 ], [ 128.625267433365735, 35.935446501165018 ] ] ] ] } },
{ "type": "Feature", "properties": { "emd_cd": "27230115", "emd_nm": "서변동" }, "geometry": { "type": "MultiPolygon", "coordinates": [ [ [ [ 128.581539386853564, 35.930020874834 ], [ 128.582008082100344, 35.93521057548287 ], [ 128.593082383641644, 35.939734930414758 ], [ 128.597857446964639, 35.944923599406678 ], [ 128.608138702627116, 35.944846245410218 ], [ 128.609657264226058, 35.941021946724668 ], [ 128.612393160015444, 35.940582690012555 ], [ 128.609959779233009, 35.93826561777697 ], [ 128.611085770016444, 35.93769338884961 ], [ 128.599610147221341, 35.927024000608526 ], [ 128.600342386893914, 35.914717655870461 ], [ 128.601977913146385, 35.912122298327809 ], [ 128.600524238047768, 35.9072444664789 ], [ 128.598273472036112, 35.905819503812928 ], [ 128.579163690470835, 35.905834035771427 ], [ 128.579302502406279, 35.90931330754227 ], [ 128.584668310152949, 35.912215189581993 ], [ 128.582820140310588, 35.917440070630896 ], [ 128.585326408265274, 35.925877696835627 ], [ 128.581539386853564, 35.930020874834 ] ] ] ] } },
{ "type": "Feature", "properties": { "emd_cd": "27230116", "emd_nm": "조야동" }, "geometry": { "type": "MultiPolygon", "coordinates": [ [ [ [ 128.581539386853564, 35.930020874834 ], [ 128.585326408265274, 35.925877696835627 ], [ 128.582820140310588, 35.917440070630896 ], [ 128.584668310152949, 35.912215189581993 ], [ 128.579302502406279, 35.90931330754227 ], [ 128.579915136713169, 35.904635879319891 ], [ 128.578065871538712, 35.903141533816111 ], [ 128.573822208057379, 35.903117368397695 ], [ 128.573540400377397, 35.905560423558882 ], [ 128.569580643460142, 35.904758641669282 ], [ 128.567433389823293, 35.911444420381599 ], [ 128.569617692404819, 35.918463844333722 ], [ 128.569057547908244, 35.921691133355267 ], [ 128.570956711216809, 35.925043583046438 ], [ 128.574312548800435, 35.925648903693116 ], [ 128.577372289657433, 35.929726079844293 ], [ 128.581539386853564, 35.930020874834 ] ] ] ] } },
{ "type": "Feature", "properties": { "emd_cd": "27230117", "emd_nm": "노곡동" }, "geometry": { "type": "MultiPolygon", "coordinates": [ [ [ [ 128.553463144630797, 35.895058711077439 ], [ 128.549619922946931, 35.90425035474977 ], [ 128.552655703052807, 35.908582442261746 ], [ 128.551975418561653, 35.910242772529124 ], [ 128.557235731418473, 35.91502213704883 ], [ 128.559832963821179, 35.919748939001842 ], [ 128.565844022067353, 35.922844549164111 ], [ 128.567525206695791, 35.926238636962886 ], [ 128.570292828128544, 35.926265505892786 ], [ 128.567433389822042, 35.911444420381684 ], [ 128.569580643458835, 35.904758641669304 ], [ 128.573540400376174, 35.90556042355896 ], [ 128.573822208056157, 35.903117368397744 ], [ 128.568831881245103, 35.901862739310403 ], [ 128.561280104925174, 35.896442531718449 ], [ 128.553463144630797, 35.895058711077439 ] ] ] ] } },
{ "type": "Feature", "properties": { "emd_cd": "27230118", "emd_nm": "읍내동" }, "geometry": { "type": "MultiPolygon", "coordinates": [ [ [ [ 128.553407128047496, 35.960741485983021 ], [ 128.556978813601773, 35.951094087173118 ], [ 128.553629371214726, 35.944374746216994 ], [ 128.557328450526484, 35.940001389696235 ], [ 128.553978498546371, 35.932012951719734 ], [ 128.548447826963297, 35.932774792817469 ], [ 128.550080946087576, 35.940832660321391 ], [ 128.547347131507053, 35.941353173234702 ], [ 128.547590867311811, 35.945146913324642 ], [ 128.544748173096082, 35.947429755270775 ], [ 128.545329562541781, 35.950982196818259 ], [ 128.541939312695149, 35.95696968380858 ], [ 128.534875628546843, 35.958403876701936 ], [ 128.533566256056986, 35.960942513983078 ], [ 128.530579868048136, 35.961937664281976 ], [ 128.527127991194732, 35.975196974465064 ], [ 128.529345561076553, 35.977054766734042 ], [ 128.528947832807773, 35.980229431967985 ], [ 128.535943163943841, 35.979138836199539 ], [ 128.537094473864499, 35.977057886659573 ], [ 128.543036317630708, 35.974524288698788 ], [ 128.545822409724224, 35.966109609872397 ], [ 128.549178165458045, 35.961961897641203 ], [ 128.553407128047496, 35.960741485983021 ] ] ] ] } },
{ "type": "Feature", "properties": { "emd_cd": "27230119", "emd_nm": "동호동" }, "geometry": { "type": "MultiPolygon", "coordinates": [ [ [ [ 128.574114274907714, 35.959848817106895 ], [ 128.571842078438692, 35.961454395912256 ], [ 128.56693229573213, 35.961080041774906 ], [ 128.563233660805992, 35.959363077965293 ], [ 128.562103628717466, 35.955583330266876 ], [ 128.558473850579617, 35.95432579972551 ], [ 128.555876596967579, 35.955544638762994 ], [ 128.553357464735313, 35.960514074537315 ], [ 128.556170424062117, 35.966921621766417 ], [ 128.556411691401564, 35.971826700970823 ], [ 128.564354771264561, 35.972566980549054 ], [ 128.573014137637983, 35.977705808330391 ], [ 128.582719449258491, 35.977727632480608 ], [ 128.582832233593194, 35.975997332816938 ], [ 128.578210277272262, 35.972541036964962 ], [ 128.579755244284172, 35.969580310097164 ], [ 128.575577780169482, 35.96466614397216 ], [ 128.574114274907714, 35.959848817106895 ] ] ] ] } },
{ "type": "Feature", "properties": { "emd_cd": "27230120", "emd_nm": "학정동" }, "geometry": { "type": "MultiPolygon", "coordinates": [ [ [ [ 128.555876596967579, 35.955544638762994 ], [ 128.558473850579617, 35.95432579972551 ], [ 128.562103628717466, 35.955583330266876 ], [ 128.563019464385491, 35.957096441253334 ], [ 128.561889173122296, 35.957570479718086 ], [ 128.564686340225876, 35.960415904659918 ], [ 128.571842078438692, 35.961454395912256 ], [ 128.576449513428827, 35.957317307956743 ], [ 128.577032676698195, 35.953587001613116 ], [ 128.573092745153474, 35.950492752754791 ], [ 128.571678552530528, 35.947210660665007 ], [ 128.553908465846348, 35.944956060849279 ], [ 128.556978813601773, 35.951094087173118 ], [ 128.555876596967579, 35.955544638762994 ] ] ] ] } },
{ "type": "Feature", "properties": { "emd_cd": "27230121", "emd_nm": "도남동" }, "geometry": { "type": "MultiPolygon", "coordinates": [ [ [ [ 128.576744258163728, 35.956458048923629 ], [ 128.574114274906407, 35.959848817106966 ], [ 128.575577780168175, 35.964666143972188 ], [ 128.579755244282836, 35.969580310097228 ], [ 128.578210277271012, 35.972541036964984 ], [ 128.579735428548275, 35.974752866020104 ], [ 128.587175644500292, 35.978812547290651 ], [ 128.590773115624927, 35.979076734078355 ], [ 128.593041384979472, 35.980569432297081 ], [ 128.593384528891136, 35.982899524780102 ], [ 128.602892556998796, 35.985905722132891 ], [ 128.601447155267806, 35.976366913614001 ], [ 128.603639699428783, 35.97363244073366 ], [ 128.603590307837464, 35.964724845330913 ], [ 128.600487799363918, 35.961154564542106 ], [ 128.600322027731096, 35.957261410238175 ], [ 128.58741309378874, 35.958809571646221 ], [ 128.579746752855073, 35.956056288544431 ], [ 128.576744258163728, 35.956458048923629 ] ] ] ] } },
{ "type": "Feature", "properties": { "emd_cd": "27230122", "emd_nm": "국우동" }, "geometry": { "type": "MultiPolygon", "coordinates": [ [ [ [ 128.576744258163728, 35.956458048923629 ], [ 128.592569029921776, 35.95852491325887 ], [ 128.600322027731096, 35.957261410238175 ], [ 128.606258392397194, 35.953742214523935 ], [ 128.607081428774308, 35.951522536391472 ], [ 128.603810152798872, 35.945965208728097 ], [ 128.597857446963246, 35.944923599406742 ], [ 128.593082383640393, 35.93973493041473 ], [ 128.584791163985642, 35.937320999408001 ], [ 128.580318307425102, 35.933794053465363 ], [ 128.578078264685189, 35.937927886773785 ], [ 128.579521798884741, 35.945575467391869 ], [ 128.572480171467049, 35.942565666079197 ], [ 128.563852008145176, 35.944118251592926 ], [ 128.564291323904314, 35.946517119870151 ], [ 128.571678552529249, 35.947210660665036 ], [ 128.573092745152252, 35.950492752754812 ], [ 128.577032676696916, 35.953587001613137 ], [ 128.576744258163728, 35.956458048923629 ] ] ] ] } },
{ "type": "Feature", "properties": { "emd_cd": "27230123", "emd_nm": "구암동" }, "geometry": { "type": "MultiPolygon", "coordinates": [ [ [ [ 128.581501435921041, 35.93390121767797 ], [ 128.581539386852256, 35.930020874834007 ], [ 128.577372289656097, 35.929726079844357 ], [ 128.572825385103727, 35.924936172822896 ], [ 128.567525206695791, 35.926238636962886 ], [ 128.565844022067353, 35.922844549164111 ], [ 128.558510015219611, 35.918323066175262 ], [ 128.555847191079948, 35.923162606589628 ], [ 128.551881358503437, 35.923382232797927 ], [ 128.551727044167194, 35.925010882429667 ], [ 128.550105085871735, 35.925161718376621 ], [ 128.553916867980178, 35.931896337146306 ], [ 128.56166528681797, 35.931324247442163 ], [ 128.563852008145176, 35.944118251592926 ], [ 128.572480171467049, 35.942565666079197 ], [ 128.579521798884741, 35.945575467391869 ], [ 128.578078264685189, 35.937927886773785 ], [ 128.578992564516, 35.934682217640415 ], [ 128.581501435921041, 35.93390121767797 ] ] ] ] } },
{ "type": "Feature", "properties": { "emd_cd": "27230124", "emd_nm": "동천동" }, "geometry": { "type": "MultiPolygon", "coordinates": [ [ [ [ 128.555722964881738, 35.945938743176072 ], [ 128.564291323904314, 35.946517119870151 ], [ 128.56166528681797, 35.931324247442163 ], [ 128.553916746088987, 35.931896336691906 ], [ 128.557412274513183, 35.940267445161652 ], [ 128.553782799940876, 35.943495143005357 ], [ 128.555722964881738, 35.945938743176072 ] ] ] ] } },
{ "type": "Feature", "properties": { "emd_cd": "27230125", "emd_nm": "관음동" }, "geometry": { "type": "MultiPolygon", "coordinates": [ [ [ [ 128.535365498207341, 35.938355475419911 ], [ 128.532414164291822, 35.950532096884871 ], [ 128.534875628545763, 35.958403876702064 ], [ 128.541939312694012, 35.956969683808616 ], [ 128.545329562540644, 35.95098219681833 ], [ 128.54474817309503, 35.947429755270804 ], [ 128.547590867310674, 35.945146913324699 ], [ 128.547347131505859, 35.941353173234724 ], [ 128.550080946086439, 35.940832660321448 ], [ 128.548447826962104, 35.932774792817519 ], [ 128.537498711962371, 35.933217731538932 ], [ 128.534488768308961, 35.934933717414097 ], [ 128.535365498207341, 35.938355475419911 ] ] ] ] } },
{ "type": "Feature", "properties": { "emd_cd": "27230126", "emd_nm": "태전동" }, "geometry": { "type": "MultiPolygon", "coordinates": [ [ [ [ 128.52946735513936, 35.923622297360339 ], [ 128.530547277108582, 35.929082890101597 ], [ 128.534373304130952, 35.935324401511998 ], [ 128.537498711963536, 35.933217731538861 ], [ 128.545180227420076, 35.933647110376725 ], [ 128.553978498546371, 35.932012951719734 ], [ 128.550105085872957, 35.925161718376557 ], [ 128.551727044168416, 35.925010882429618 ], [ 128.551881358504602, 35.923382232797898 ], [ 128.55584719108117, 35.92316260658955 ], [ 128.558510015220833, 35.918323066175219 ], [ 128.557235731419638, 35.915022137048837 ], [ 128.551975418562762, 35.91024277252906 ], [ 128.552408383026687, 35.908238021566149 ], [ 128.548650566693681, 35.907862669634191 ], [ 128.543394931627688, 35.911375399592607 ], [ 128.541877278155255, 35.916820055055851 ], [ 128.537144214872654, 35.917168945054406 ], [ 128.53410741288107, 35.925411996573196 ], [ 128.52946735513936, 35.923622297360339 ] ] ] ] } },
{ "type": "Feature", "properties": { "emd_cd": "27230127", "emd_nm": "매천동" }, "geometry": { "type": "MultiPolygon", "coordinates": [ [ [ [ 128.551264741212066, 35.907432038352823 ], [ 128.549885360111034, 35.902138346521212 ], [ 128.547198164604225, 35.902061313749186 ], [ 128.547479043393537, 35.899530366681027 ], [ 128.540994785202656, 35.901979541882064 ], [ 128.538702694692461, 35.899892152654765 ], [ 128.536376229753301, 35.901276023201092 ], [ 128.532034731997214, 35.911626573756777 ], [ 128.529512943596075, 35.923177602239917 ], [ 128.534107412879962, 35.925411996573253 ], [ 128.537144214871603, 35.917168945054421 ], [ 128.541877278154175, 35.916820055055894 ], [ 128.54339493162658, 35.911375399592615 ], [ 128.551264741212066, 35.907432038352823 ] ] ] ] } },
{ "type": "Feature", "properties": { "emd_cd": "27230128", "emd_nm": "팔달동" }, "geometry": { "type": "MultiPolygon", "coordinates": [ [ [ [ 128.549885360111034, 35.902138346521212 ], [ 128.552009865915124, 35.896979870373286 ], [ 128.535456604340624, 35.890072895518465 ], [ 128.528954326993698, 35.892426464996852 ], [ 128.530918860459764, 35.897600540927954 ], [ 128.530896588310242, 35.906979428995562 ], [ 128.5334345971186, 35.908111129733108 ], [ 128.538319269879253, 35.89990203021771 ], [ 128.540994785202656, 35.901979541882064 ], [ 128.547479043393537, 35.899530366681027 ], [ 128.547286550411741, 35.902173464164136 ], [ 128.549885360111034, 35.902138346521212 ] ] ] ] } },
{ "type": "Feature", "properties": { "emd_cd": "27230129", "emd_nm": "금호동" }, "geometry": { "type": "MultiPolygon", "coordinates": [ [ [ [ 128.516850279801417, 35.911890203076631 ], [ 128.523201838813804, 35.917697445189233 ], [ 128.525837177349047, 35.922911690563545 ], [ 128.529467355138223, 35.923622297360374 ], [ 128.533673361027411, 35.908577663916439 ], [ 128.530896588310242, 35.906979428995562 ], [ 128.530918860459764, 35.897600540927954 ], [ 128.528954326993698, 35.892426464996852 ], [ 128.533775458216695, 35.88993521362287 ], [ 128.538854861364172, 35.891380963029185 ], [ 128.536251646993321, 35.886343518013035 ], [ 128.528945722202479, 35.88587719824276 ], [ 128.516763019935723, 35.894426644307408 ], [ 128.517139581746648, 35.897356281423271 ], [ 128.521382463061713, 35.902387139468232 ], [ 128.517393567400632, 35.907643059068143 ], [ 128.518268830380038, 35.910499839442238 ], [ 128.516850279801417, 35.911890203076631 ] ] ] ] } },
{ "type": "Feature", "properties": { "emd_cd": "27230130", "emd_nm": "사수동" }, "geometry": { "type": "MultiPolygon", "coordinates": [ [ [ [ 128.520177717654576, 35.891116244425582 ], [ 128.512048400916541, 35.893349810467924 ], [ 128.504441364951902, 35.891641061134706 ], [ 128.505829425908871, 35.896682791766366 ], [ 128.504647806084648, 35.897962482515481 ], [ 128.505915979829183, 35.900343236640168 ], [ 128.505097342982594, 35.90283301681287 ], [ 128.510106317695289, 35.909950943423517 ], [ 128.513475470158369, 35.911548596131972 ], [ 128.516850279801417, 35.911890203076631 ], [ 128.518268830380038, 35.910499839442238 ], [ 128.517393567400632, 35.907643059068143 ], [ 128.521382463061713, 35.902387139468232 ], [ 128.516795530542566, 35.894955051895465 ], [ 128.520034484046164, 35.8932448371935 ], [ 128.520177717654576, 35.891116244425582 ] ] ] ] } },
{ "type": "Feature", "properties": { "emd_cd": "27230131", "emd_nm": "연경동" }, "geometry": { "type": "MultiPolygon", "coordinates": [ [ [ [ 128.603262670955075, 35.945771467938222 ], [ 128.607081428774308, 35.951522536391508 ], [ 128.606258392397194, 35.953742214523935 ], [ 128.600322027731096, 35.957261410238225 ], [ 128.600487799363862, 35.961154564542106 ], [ 128.603590307837408, 35.964724845330927 ], [ 128.603639699428783, 35.973632440733631 ], [ 128.601447155267806, 35.976366913614001 ], [ 128.603179117114706, 35.987835805800849 ], [ 128.60944364793707, 35.985299296332123 ], [ 128.612949081071122, 35.982499698488638 ], [ 128.615003359417358, 35.978079164140652 ], [ 128.619272582426561, 35.975918640196433 ], [ 128.618327774772411, 35.970522798321809 ], [ 128.622990192944428, 35.965905547789859 ], [ 128.622572121475628, 35.96211019539885 ], [ 128.62674990983669, 35.958060340160351 ], [ 128.624346508225614, 35.95456686831686 ], [ 128.623221143001331, 35.948357000829844 ], [ 128.623384906884894, 35.946099313250983 ], [ 128.626657303357575, 35.945278496823811 ], [ 128.625624383560222, 35.936103049156692 ], [ 128.620925516137504, 35.934438487602684 ], [ 128.618315778593853, 35.935610178989052 ], [ 128.612863502134388, 35.932902170838368 ], [ 128.607929370071844, 35.934046957131876 ], [ 128.612393160013994, 35.940582690012583 ], [ 128.609657264224637, 35.941021946724675 ], [ 128.608138702625666, 35.94484624541024 ], [ 128.603262670955075, 35.945771467938222 ] ] ] ] } }
]
}
