{
"type": "FeatureCollection",
"name": "27260",
"crs": { "type": "name", "properties": { "name": "urn:ogc:def:crs:OGC:1.3:CRS84" } },
"features": [
{ "type": "Feature", "properties": { "emd_cd": "27260101", "emd_nm": "범어동" }, "geometry": { "type": "MultiPolygon", "coordinates": [ [ [ [ 128.64319576544105, 35.848136477720963 ], [ 128.639271849767511, 35.847267459519962 ], [ 128.637092745410854, 35.850768249063364 ], [ 128.634555947554901, 35.851032616239387 ], [ 128.632580063641626, 35.850467632955585 ], [ 128.630747602759783, 35.846140594587652 ], [ 128.626180055617994, 35.848362290456052 ], [ 128.625492719142699, 35.850496480213913 ], [ 128.620677259675887, 35.850705186937127 ], [ 128.622255331534831, 35.862145068796742 ], [ 128.617089252303771, 35.864903939890297 ], [ 128.617815148775009, 35.867426944313465 ], [ 128.614795773489504, 35.868200714526097 ], [ 128.638865259887211, 35.866342781876519 ], [ 128.64047715052331, 35.859015794550238 ], [ 128.642800970128576, 35.859042896255467 ], [ 128.644610082067601, 35.855816654571811 ], [ 128.642231028402961, 35.852421443997962 ], [ 128.64319576544105, 35.848136477720963 ] ] ] ] } },
{ "type": "Feature", "properties": { "emd_cd": "27260102", "emd_nm": "만촌동" }, "geometry": { "type": "MultiPolygon", "coordinates": [ [ [ [ 128.661567259900153, 35.855773114732656 ], [ 128.658577810411629, 35.848405554247947 ], [ 128.646302862976938, 35.841452684629147 ], [ 128.645794838707928, 35.847605162977132 ], [ 128.643195765440993, 35.848136477721013 ], [ 128.642217703530349, 35.851932226333766 ], [ 128.644610082067601, 35.855816654571782 ], [ 128.642800970128604, 35.859042896255509 ], [ 128.64047715052331, 35.859015794550238 ], [ 128.63886525988724, 35.866342781876519 ], [ 128.634997575920409, 35.867608829060565 ], [ 128.629768910237033, 35.866834236241715 ], [ 128.634083745313859, 35.871777798401105 ], [ 128.649453313419258, 35.878578171549364 ], [ 128.655110330159971, 35.876354127759875 ], [ 128.658569711297048, 35.876728459714322 ], [ 128.662313678268362, 35.872796458864912 ], [ 128.6625928392003, 35.867223544928962 ], [ 128.659232694078725, 35.861842139110173 ], [ 128.656058830213112, 35.861517711868501 ], [ 128.656514232305682, 35.857477695755215 ], [ 128.661567259900153, 35.855773114732656 ] ] ] ] } },
{ "type": "Feature", "properties": { "emd_cd": "27260103", "emd_nm": "수성동1가" }, "geometry": { "type": "MultiPolygon", "coordinates": [ [ [ [ 128.608081229663753, 35.848152394332267 ], [ 128.608052881578601, 35.858833122054733 ], [ 128.609735921162098, 35.861294868041341 ], [ 128.614100890295617, 35.859847726085135 ], [ 128.613308807264787, 35.851151358852789 ], [ 128.612920048826595, 35.848773322486259 ], [ 128.608081229663753, 35.848152394332267 ] ] ] ] } },
{ "type": "Feature", "properties": { "emd_cd": "27260104", "emd_nm": "수성동2가" }, "geometry": { "type": "MultiPolygon", "coordinates": [ [ [ [ 128.617619368628795, 35.859612365255387 ], [ 128.616827333286381, 35.850946175525998 ], [ 128.613308807263337, 35.851151358852817 ], [ 128.614089923272331, 35.859744381237299 ], [ 128.617619368628795, 35.859612365255387 ] ] ] ] } },
{ "type": "Feature", "properties": { "emd_cd": "27260105", "emd_nm": "수성동3가" }, "geometry": { "type": "MultiPolygon", "coordinates": [ [ [ [ 128.621457893858036, 35.85954180502177 ], [ 128.620677259675887, 35.850705186937127 ], [ 128.616827333286381, 35.850946175525998 ], [ 128.617619368628795, 35.859612365255387 ], [ 128.621457893858036, 35.85954180502177 ] ] ] ] } },
{ "type": "Feature", "properties": { "emd_cd": "27260106", "emd_nm": "수성동4가" }, "geometry": { "type": "MultiPolygon", "coordinates": [ [ [ [ 128.621457893858036, 35.85954180502177 ], [ 128.612160558246558, 35.859978642353902 ], [ 128.609329244865251, 35.861501728561542 ], [ 128.612880443382721, 35.864127860532022 ], [ 128.614795773489504, 35.868200714526097 ], [ 128.617815148775009, 35.867426944313465 ], [ 128.61713275264583, 35.864860639162217 ], [ 128.621964331170574, 35.862785186103032 ], [ 128.621457893858036, 35.85954180502177 ] ] ] ] } },
{ "type": "Feature", "properties": { "emd_cd": "27260107", "emd_nm": "황금동" }, "geometry": { "type": "MultiPolygon", "coordinates": [ [ [ [ 128.616827333286381, 35.850946175525998 ], [ 128.625492719142699, 35.850496480213913 ], [ 128.626180055617994, 35.848362290456052 ], [ 128.630747602759783, 35.846140594587652 ], [ 128.632580063641626, 35.850467632955585 ], [ 128.634555947554901, 35.851032616239387 ], [ 128.637092745410854, 35.850768249063364 ], [ 128.639271849767511, 35.847267459519962 ], [ 128.644958151297999, 35.848358558677972 ], [ 128.647421990318293, 35.836262467996022 ], [ 128.642978583755252, 35.830788184938221 ], [ 128.640482631814393, 35.830315851022135 ], [ 128.63656554801608, 35.835593212570117 ], [ 128.631638201454962, 35.834409054055214 ], [ 128.629980430329198, 35.836183869055567 ], [ 128.630272015180452, 35.839451159091986 ], [ 128.616859269755707, 35.840493274601606 ], [ 128.616827333286381, 35.850946175525998 ] ] ] ] } },
{ "type": "Feature", "properties": { "emd_cd": "27260108", "emd_nm": "중동" }, "geometry": { "type": "MultiPolygon", "coordinates": [ [ [ [ 128.607110529846437, 35.839163797736006 ], [ 128.608072207632404, 35.848152454923031 ], [ 128.612920048826595, 35.848773322486259 ], [ 128.61314077002433, 35.851159251607939 ], [ 128.61682733328783, 35.850946175525927 ], [ 128.616859269757214, 35.840493274601599 ], [ 128.612186000301847, 35.840859365490921 ], [ 128.611979511393287, 35.838776953431456 ], [ 128.607110529846437, 35.839163797736006 ] ] ] ] } },
{ "type": "Feature", "properties": { "emd_cd": "27260109", "emd_nm": "상동" }, "geometry": { "type": "MultiPolygon", "coordinates": [ [ [ [ 128.616859269755707, 35.840493274601606 ], [ 128.616876527134821, 35.829018356621191 ], [ 128.61438335053225, 35.828859196392145 ], [ 128.613802268714409, 35.826244651122266 ], [ 128.608815070445672, 35.825108690087134 ], [ 128.606300768685315, 35.832523278063725 ], [ 128.606558799848159, 35.839147025445556 ], [ 128.611979511391837, 35.83877695343152 ], [ 128.612186000300454, 35.840859365490935 ], [ 128.616859269755707, 35.840493274601606 ] ] ] ] } },
{ "type": "Feature", "properties": { "emd_cd": "27260110", "emd_nm": "파동" }, "geometry": { "type": "MultiPolygon", "coordinates": [ [ [ [ 128.607838645438079, 35.827144344716785 ], [ 128.608815070445672, 35.825108690087134 ], [ 128.611768133498714, 35.826002451436594 ], [ 128.618520196956922, 35.821969551466076 ], [ 128.622266062919351, 35.816775872548462 ], [ 128.63698030403836, 35.808349752537914 ], [ 128.640588166253139, 35.803033704487213 ], [ 128.634822598377042, 35.80385667017741 ], [ 128.629447116205029, 35.802686014712201 ], [ 128.626634348925933, 35.805165635433333 ], [ 128.620801363286944, 35.806090342876729 ], [ 128.617230186082992, 35.802835144761993 ], [ 128.60269900703085, 35.806322806597223 ], [ 128.598725608463667, 35.805698334370646 ], [ 128.591767126245855, 35.809245577390115 ], [ 128.594559327108385, 35.813077079640678 ], [ 128.600923101486188, 35.81571171304558 ], [ 128.605139355389781, 35.826828708363657 ], [ 128.607838645438079, 35.827144344716785 ] ] ] ] } },
{ "type": "Feature", "properties": { "emd_cd": "27260111", "emd_nm": "두산동" }, "geometry": { "type": "MultiPolygon", "coordinates": [ [ [ [ 128.616859269755707, 35.840493274601606 ], [ 128.624217694380462, 35.839904858361713 ], [ 128.623418659559832, 35.830196736534482 ], [ 128.626959201921892, 35.830537496552338 ], [ 128.628117303232017, 35.828777284763767 ], [ 128.624862018625123, 35.822956455919993 ], [ 128.62610869812184, 35.81971163104653 ], [ 128.624520963428807, 35.815809028244793 ], [ 128.618520196956922, 35.821969551466076 ], [ 128.611661334463889, 35.824971780254693 ], [ 128.613802268714409, 35.826244651122266 ], [ 128.61438335053225, 35.828859196392145 ], [ 128.616876527134821, 35.829018356621191 ], [ 128.616859269755707, 35.840493274601606 ] ] ] ] } },
{ "type": "Feature", "properties": { "emd_cd": "27260112", "emd_nm": "지산동" }, "geometry": { "type": "MultiPolygon", "coordinates": [ [ [ [ 128.63698030403836, 35.808349752537914 ], [ 128.624520963428807, 35.815809028244793 ], [ 128.62610869812184, 35.81971163104653 ], [ 128.624862018625123, 35.822956455919993 ], [ 128.628169922757138, 35.828347958347457 ], [ 128.626959201921892, 35.830537496552338 ], [ 128.623418659559832, 35.830196736534482 ], [ 128.624217694380462, 35.839904858361713 ], [ 128.630272015180452, 35.839451159091986 ], [ 128.629980430329198, 35.836183869055567 ], [ 128.631638201454962, 35.834409054055214 ], [ 128.63656554801608, 35.835593212570117 ], [ 128.640482631814393, 35.830315851022135 ], [ 128.642978583755252, 35.830788184938221 ], [ 128.647499748697641, 35.83647295810507 ], [ 128.653403090432107, 35.830796040144598 ], [ 128.652329842592081, 35.828143940800828 ], [ 128.653940770302285, 35.825837932096952 ], [ 128.650321506865964, 35.826189599001196 ], [ 128.645913063366322, 35.824081875325682 ], [ 128.643901392238917, 35.825991297324862 ], [ 128.641501479539272, 35.82249101835918 ], [ 128.636761978159001, 35.820511287533485 ], [ 128.639519278983187, 35.814456189587759 ], [ 128.636738290253476, 35.811640343298791 ], [ 128.63881421205312, 35.810510776248634 ], [ 128.63698030403836, 35.808349752537914 ] ] ] ] } },
{ "type": "Feature", "properties": { "emd_cd": "27260113", "emd_nm": "범물동" }, "geometry": { "type": "MultiPolygon", "coordinates": [ [ [ [ 128.653940770302285, 35.825837932096952 ], [ 128.657048595950158, 35.81942798497478 ], [ 128.666398961609218, 35.81864640303867 ], [ 128.673058430615754, 35.815489887859776 ], [ 128.669535787043088, 35.807521742869291 ], [ 128.672419268387841, 35.803563560641152 ], [ 128.677564433653004, 35.802639921022369 ], [ 128.678548806241935, 35.798196682702219 ], [ 128.677444362134139, 35.794395302003075 ], [ 128.669529561341875, 35.795542407251006 ], [ 128.668785486883024, 35.797166574304612 ], [ 128.662845654422227, 35.798682125618946 ], [ 128.653807762441943, 35.799507748185128 ], [ 128.651594856794986, 35.803065154641644 ], [ 128.640137240343051, 35.803398934659945 ], [ 128.640044254620506, 35.805462252452365 ], [ 128.63698030403836, 35.808349752537914 ], [ 128.63881421205312, 35.810510776248634 ], [ 128.636738290253476, 35.811640343298791 ], [ 128.639519278983187, 35.814456189587759 ], [ 128.636761978159001, 35.820511287533485 ], [ 128.641501479539272, 35.82249101835918 ], [ 128.643901392238917, 35.825991297324862 ], [ 128.645913063366322, 35.824081875325682 ], [ 128.650321506865964, 35.826189599001196 ], [ 128.653940770302285, 35.825837932096952 ] ] ] ] } },
{ "type": "Feature", "properties": { "emd_cd": "27260114", "emd_nm": "시지동" }, "geometry": { "type": "MultiPolygon", "coordinates": [ [ [ [ 128.683777359647024, 35.840935796973717 ], [ 128.685613341825388, 35.843919296386062 ], [ 128.69133711395051, 35.845372783673973 ], [ 128.692229330826336, 35.848668790451455 ], [ 128.695316099996489, 35.850966753535424 ], [ 128.703584630212504, 35.848640190701978 ], [ 128.701642979115036, 35.84632295017235 ], [ 128.702853225974309, 35.845845309984817 ], [ 128.699105723519722, 35.842938716128884 ], [ 128.700470791853832, 35.842412965779076 ], [ 128.69786838168821, 35.836054346975573 ], [ 128.694140671081811, 35.839394670815722 ], [ 128.6943964100806, 35.837644648864426 ], [ 128.692135483373534, 35.837198771379569 ], [ 128.689483355146706, 35.841740877712972 ], [ 128.683777359647024, 35.840935796973717 ] ] ] ] } },
{ "type": "Feature", "properties": { "emd_cd": "27260115", "emd_nm": "매호동" }, "geometry": { "type": "MultiPolygon", "coordinates": [ [ [ [ 128.714941875406026, 35.861313082072435 ], [ 128.717567781768025, 35.85661939712822 ], [ 128.714992631327362, 35.854480142698428 ], [ 128.716018785615717, 35.848751967644624 ], [ 128.714981492934101, 35.845850310895145 ], [ 128.717899327575992, 35.842543421631369 ], [ 128.708554835281262, 35.841055444884688 ], [ 128.699038278546567, 35.842743876819831 ], [ 128.703712403223193, 35.847302848723999 ], [ 128.703584630212561, 35.848640190701978 ], [ 128.69850920667929, 35.850707860570957 ], [ 128.701779242925198, 35.855635046470262 ], [ 128.699614301067356, 35.858206019804378 ], [ 128.707548445866678, 35.858699762460525 ], [ 128.711446598533968, 35.861291844641499 ], [ 128.714941875406026, 35.861313082072435 ] ] ] ] } },
{ "type": "Feature", "properties": { "emd_cd": "27260116", "emd_nm": "성동" }, "geometry": { "type": "MultiPolygon", "coordinates": [ [ [ [ 128.726770761128591, 35.845048074919326 ], [ 128.717899327575992, 35.842543421631369 ], [ 128.714981492934101, 35.845850310895145 ], [ 128.716018785615717, 35.848751967644624 ], [ 128.714992631327362, 35.854480142698428 ], [ 128.717567781768025, 35.85661939712822 ], [ 128.715536568940934, 35.861756992364796 ], [ 128.724149752496771, 35.860444174076775 ], [ 128.725891339892513, 35.858497198866544 ], [ 128.721812427496786, 35.857378611021986 ], [ 128.725423447976567, 35.854183992319633 ], [ 128.726770761128591, 35.845048074919326 ] ] ] ] } },
{ "type": "Feature", "properties": { "emd_cd": "27260117", "emd_nm": "사월동" }, "geometry": { "type": "MultiPolygon", "coordinates": [ [ [ [ 128.713570999777431, 35.84198926361217 ], [ 128.724536998488674, 35.843817088089075 ], [ 128.726770761128591, 35.845048074919326 ], [ 128.724084561042844, 35.839836687989504 ], [ 128.725106369420701, 35.836482977831878 ], [ 128.721878341121197, 35.835159065530874 ], [ 128.715910103214298, 35.837195178878254 ], [ 128.713570999777431, 35.84198926361217 ] ] ] ] } },
{ "type": "Feature", "properties": { "emd_cd": "27260118", "emd_nm": "신매동" }, "geometry": { "type": "MultiPolygon", "coordinates": [ [ [ [ 128.721935474800119, 35.835742424257994 ], [ 128.722401994313572, 35.835462453565725 ], [ 128.722129014601421, 35.835260732568791 ], [ 128.721935474800119, 35.835742424257994 ] ] ], [ [ [ 128.72118590233606, 35.835924128035572 ], [ 128.721638657077875, 35.835754477253992 ], [ 128.721826963932898, 35.835184370268465 ], [ 128.72118590233606, 35.835924128035572 ] ] ], [ [ [ 128.702903078134455, 35.830924923873908 ], [ 128.703694935915536, 35.841634279582209 ], [ 128.713570999777431, 35.84198926361217 ], [ 128.715910103214298, 35.837195178878254 ], [ 128.719350881347566, 35.83637089231631 ], [ 128.714171984497852, 35.832206521495188 ], [ 128.712282991963804, 35.834287691314074 ], [ 128.709447212314302, 35.834555680164712 ], [ 128.707736862902522, 35.829466380425664 ], [ 128.702903078134455, 35.830924923873908 ] ] ] ] } },
{ "type": "Feature", "properties": { "emd_cd": "27260119", "emd_nm": "욱수동" }, "geometry": { "type": "MultiPolygon", "coordinates": [ [ [ [ 128.676946914601587, 35.79414587212387 ], [ 128.678548806241935, 35.798196682702219 ], [ 128.677564433653004, 35.802639921022369 ], [ 128.684112202633202, 35.806701423164675 ], [ 128.68658374760534, 35.809578763968815 ], [ 128.686198976240746, 35.811969508962015 ], [ 128.690724051675119, 35.812304343974688 ], [ 128.694819203739456, 35.814903742707521 ], [ 128.696569064259108, 35.821047142528919 ], [ 128.700307408056631, 35.823261612640728 ], [ 128.702065589133383, 35.830346572371852 ], [ 128.707736862902493, 35.829466380425636 ], [ 128.709447212314245, 35.834555680164669 ], [ 128.713342613852404, 35.833584052695414 ], [ 128.714171984497852, 35.832206521495188 ], [ 128.708714721406295, 35.827014444213169 ], [ 128.708677933586273, 35.823227153253974 ], [ 128.713893750085447, 35.817829285338618 ], [ 128.717686866737949, 35.807421452121922 ], [ 128.710368083511099, 35.804757765042723 ], [ 128.707868150610182, 35.802931783726208 ], [ 128.708036860652641, 35.8006771033291 ], [ 128.702545585860349, 35.798817798514023 ], [ 128.700296200883542, 35.795460498951229 ], [ 128.697570364063864, 35.7946152842499 ], [ 128.692938856008396, 35.797294610863318 ], [ 128.689839401105047, 35.793097386226648 ], [ 128.68241042632701, 35.790349561262609 ], [ 128.679934164473167, 35.793358764488275 ], [ 128.676946914601587, 35.79414587212387 ] ] ] ] } },
{ "type": "Feature", "properties": { "emd_cd": "27260120", "emd_nm": "노변동" }, "geometry": { "type": "MultiPolygon", "coordinates": [ [ [ [ 128.689186164828612, 35.830692641713831 ], [ 128.69359172398191, 35.832990810706249 ], [ 128.693838172207222, 35.83466920760705 ], [ 128.691307634066163, 35.836424790330739 ], [ 128.6943964100806, 35.837644648864426 ], [ 128.693421367259361, 35.838985248692616 ], [ 128.69786838168821, 35.836054346975573 ], [ 128.700470791853832, 35.842412965779076 ], [ 128.703734946521905, 35.841596544295619 ], [ 128.704066901596434, 35.834596391605864 ], [ 128.698615366160539, 35.821787321769747 ], [ 128.695562818923037, 35.821232488047521 ], [ 128.6900429236496, 35.823403100546152 ], [ 128.689186164828612, 35.830692641713831 ] ] ] ] } },
{ "type": "Feature", "properties": { "emd_cd": "27260122", "emd_nm": "삼덕동" }, "geometry": { "type": "MultiPolygon", "coordinates": [ [ [ [ 128.683777359647024, 35.840935796973717 ], [ 128.678722676641286, 35.834866724427613 ], [ 128.680727726539345, 35.834039508908717 ], [ 128.682872151695648, 35.826722099395873 ], [ 128.678993968377256, 35.818875906217031 ], [ 128.674076746955819, 35.817547716914191 ], [ 128.673058430615697, 35.815489887859805 ], [ 128.668750597744463, 35.8180205988387 ], [ 128.655741516700004, 35.820649329723175 ], [ 128.655147873477659, 35.825173157387454 ], [ 128.652329842592025, 35.828143940800842 ], [ 128.655987115488045, 35.832798877517035 ], [ 128.65961021856134, 35.833032989821547 ], [ 128.663479398089237, 35.830380300180764 ], [ 128.66721161552627, 35.831115548427277 ], [ 128.672500822471079, 35.833248887049642 ], [ 128.676112995101789, 35.840783728849203 ], [ 128.679181381209162, 35.841073672182247 ], [ 128.681078306595765, 35.839300482371101 ], [ 128.683777359647024, 35.840935796973717 ] ] ] ] } },
{ "type": "Feature", "properties": { "emd_cd": "27260123", "emd_nm": "연호동" }, "geometry": { "type": "MultiPolygon", "coordinates": [ [ [ [ 128.659924782247742, 35.83278966374624 ], [ 128.661935194603217, 35.836387447264592 ], [ 128.669654350700227, 35.8426519945642 ], [ 128.668741504689223, 35.846632072583986 ], [ 128.670908327987348, 35.847580332724064 ], [ 128.668302903335615, 35.853838159459087 ], [ 128.673638472259256, 35.852958572738629 ], [ 128.675446438163448, 35.847193098860195 ], [ 128.684536313702239, 35.843081319784446 ], [ 128.681078306595765, 35.839300482371101 ], [ 128.679181381209162, 35.841073672182247 ], [ 128.676112995101789, 35.840783728849203 ], [ 128.672500822471079, 35.833248887049642 ], [ 128.663479398089237, 35.830380300180764 ], [ 128.659924782247742, 35.83278966374624 ] ] ] ] } },
{ "type": "Feature", "properties": { "emd_cd": "27260124", "emd_nm": "이천동" }, "geometry": { "type": "MultiPolygon", "coordinates": [ [ [ [ 128.668302903335672, 35.85383815945908 ], [ 128.670908327987462, 35.847580332724078 ], [ 128.66874150468928, 35.846632072583986 ], [ 128.669654350700227, 35.8426519945642 ], [ 128.66193519460316, 35.836387447264592 ], [ 128.659924782247742, 35.83278966374624 ], [ 128.65598711548796, 35.832798877517035 ], [ 128.653403090432107, 35.830796040144598 ], [ 128.646807132210824, 35.837018280030726 ], [ 128.646302862976938, 35.841452684629104 ], [ 128.658577810411686, 35.848405554247918 ], [ 128.660747219127956, 35.851879034247474 ], [ 128.659907575271319, 35.854115957428832 ], [ 128.662727658779602, 35.8566418571911 ], [ 128.668302903335672, 35.85383815945908 ] ] ] ] } },
{ "type": "Feature", "properties": { "emd_cd": "27260125", "emd_nm": "고모동" }, "geometry": { "type": "MultiPolygon", "coordinates": [ [ [ [ 128.673638472259256, 35.852958572738629 ], [ 128.656514232305682, 35.857477695755215 ], [ 128.656058830213112, 35.861517711868501 ], [ 128.659232694078725, 35.861842139110173 ], [ 128.6625928392003, 35.867223544928962 ], [ 128.662313678268362, 35.872796458864912 ], [ 128.658569711297048, 35.876728459714322 ], [ 128.667369227090461, 35.872807082315276 ], [ 128.674518353186528, 35.874159580669534 ], [ 128.677696310259165, 35.871244464503135 ], [ 128.679895227587593, 35.867077395623788 ], [ 128.68005726576834, 35.862531601197304 ], [ 128.682003800035915, 35.860766495046562 ], [ 128.680486093006266, 35.859971896194061 ], [ 128.679940684708214, 35.856350847401565 ], [ 128.673638472259256, 35.852958572738629 ] ] ] ] } },
{ "type": "Feature", "properties": { "emd_cd": "27260126", "emd_nm": "가천동" }, "geometry": { "type": "MultiPolygon", "coordinates": [ [ [ [ 128.680486093006266, 35.859971896194061 ], [ 128.697849197130893, 35.859156397595328 ], [ 128.70160285639048, 35.854711126293907 ], [ 128.698522731039503, 35.850819297804591 ], [ 128.695316099996489, 35.850966753535424 ], [ 128.692418199653957, 35.848863486050305 ], [ 128.69133711395051, 35.845372783673973 ], [ 128.689530915332199, 35.844512095073178 ], [ 128.684536313702239, 35.843081319784446 ], [ 128.68208861610043, 35.845144473881547 ], [ 128.678988956988405, 35.84453210841469 ], [ 128.675446438163448, 35.847193098860195 ], [ 128.673528322221159, 35.852493571732737 ], [ 128.679940684708214, 35.856350847401565 ], [ 128.680486093006266, 35.859971896194061 ] ] ] ] } },
{ "type": "Feature", "properties": { "emd_cd": "27260127", "emd_nm": "대흥동" }, "geometry": { "type": "MultiPolygon", "coordinates": [ [ [ [ 128.669535787043031, 35.807521742869291 ], [ 128.674076746955819, 35.817547716914191 ], [ 128.678993968377256, 35.818875906217031 ], [ 128.682706760679082, 35.825924910659147 ], [ 128.681362679590734, 35.832708407363114 ], [ 128.678722676641286, 35.834866724427613 ], [ 128.683550557666479, 35.840487790657484 ], [ 128.689483355146706, 35.841740877712972 ], [ 128.691459719412961, 35.835961066510606 ], [ 128.693838172207222, 35.83466920760705 ], [ 128.69359172398191, 35.832990810706249 ], [ 128.689186164828612, 35.830692641713831 ], [ 128.68970560154483, 35.82423851481817 ], [ 128.696569064259165, 35.821047142528954 ], [ 128.696480837586847, 35.817325929920244 ], [ 128.692059420455053, 35.812875712367486 ], [ 128.686198976240746, 35.811969508962065 ], [ 128.686583747605397, 35.809578763968851 ], [ 128.684112202633258, 35.806701423164618 ], [ 128.677979180826071, 35.80259491141009 ], [ 128.672419268387898, 35.803563560641187 ], [ 128.669535787043031, 35.807521742869291 ] ] ] ] } }
]
}
