{
"type": "FeatureCollection",
"name": "27710",
"crs": { "type": "name", "properties": { "name": "urn:ogc:def:crs:OGC:1.3:CRS84" } },
"features": [
{ "type": "Feature", "properties": { "emd_cd": "27710250", "emd_nm": "화원읍" }, "geometry": { "type": "MultiPolygon", "coordinates": [ [ [ [ 128.472526432837242, 35.812039775421702 ], [ 128.479922064248143, 35.818999167692986 ], [ 128.479125933774128, 35.829029240873695 ], [ 128.48417858566367, 35.83114958047625 ], [ 128.486516103806139, 35.824585384938615 ], [ 128.482781116988718, 35.81560101331587 ], [ 128.490128216052, 35.82019196517286 ], [ 128.501821682160283, 35.817326663937202 ], [ 128.512673457876588, 35.811043727770553 ], [ 128.513321737944693, 35.80971398577271 ], [ 128.508472880679761, 35.807798995985202 ], [ 128.507871928911356, 35.806082575009846 ], [ 128.510959584774554, 35.804662192196112 ], [ 128.514547207138207, 35.805705044128636 ], [ 128.514018497877004, 35.803980843168773 ], [ 128.517334266783081, 35.798315024798605 ], [ 128.524134991290595, 35.792502677589745 ], [ 128.527272905892744, 35.792793137167052 ], [ 128.528679318557636, 35.788026113283699 ], [ 128.537031475701156, 35.786592747803631 ], [ 128.541258163398453, 35.789582260381991 ], [ 128.541918642289545, 35.787301394442224 ], [ 128.545860061935002, 35.78555994229562 ], [ 128.548354747065702, 35.780585830655845 ], [ 128.553220049834295, 35.777286315985037 ], [ 128.553573189785624, 35.773292185409005 ], [ 128.54982562372885, 35.766060576307581 ], [ 128.551897642007532, 35.761416356287313 ], [ 128.546825235695167, 35.758202755960284 ], [ 128.539815098790228, 35.756464078179107 ], [ 128.536448298718597, 35.753565055345241 ], [ 128.530757742183596, 35.754326530703835 ], [ 128.525619148068614, 35.758377294218967 ], [ 128.523809554710567, 35.76356393495724 ], [ 128.508918052081953, 35.768994449743545 ], [ 128.506271669438036, 35.768678257557113 ], [ 128.499134950911809, 35.775781909674272 ], [ 128.490660050501816, 35.777672728276251 ], [ 128.484563675263956, 35.781863602891647 ], [ 128.482655207144859, 35.78626122285835 ], [ 128.481158410491304, 35.785214832101623 ], [ 128.478830602644763, 35.788003484755926 ], [ 128.472526432837242, 35.812039775421702 ] ] ] ] } },
{ "type": "Feature", "properties": { "emd_cd": "27710253", "emd_nm": "논공읍" }, "geometry": { "type": "MultiPolygon", "coordinates": [ [ [ [ 128.41262716809922, 35.798133083699817 ], [ 128.422556811198859, 35.789181208441811 ], [ 128.420369382896212, 35.788059088912725 ], [ 128.420422528778516, 35.785554846805631 ], [ 128.430121628312747, 35.781043920479988 ], [ 128.441300485795068, 35.768725844184303 ], [ 128.448545857566756, 35.769751338018018 ], [ 128.449503871872196, 35.767780540764704 ], [ 128.453492313304508, 35.767973511386501 ], [ 128.461870366169961, 35.762655126420476 ], [ 128.464056416852287, 35.759162305704102 ], [ 128.47045730094149, 35.756066223215612 ], [ 128.472636093188015, 35.750175035568887 ], [ 128.480045149445402, 35.749981277194372 ], [ 128.482274540107795, 35.743345579732768 ], [ 128.480381722265747, 35.740237357763938 ], [ 128.486009133079165, 35.736216029078363 ], [ 128.492192956605635, 35.725543098681975 ], [ 128.489140282362371, 35.724364048423112 ], [ 128.482884786824712, 35.726441818856976 ], [ 128.472575304790524, 35.723783727910693 ], [ 128.452392111778664, 35.712785765306784 ], [ 128.447980470772706, 35.715810395994552 ], [ 128.445653087383732, 35.719870559814872 ], [ 128.435592680916955, 35.717268957074893 ], [ 128.435994767494918, 35.720794273896743 ], [ 128.435804268089868, 35.721389776059539 ], [ 128.43515882526512, 35.719769715357586 ], [ 128.432736527298289, 35.719752750165462 ], [ 128.430891106394455, 35.726187742223331 ], [ 128.427534099380921, 35.726222555525482 ], [ 128.425918705103101, 35.729516704887608 ], [ 128.423104426380235, 35.729545778060604 ], [ 128.420945779754163, 35.732845545952522 ], [ 128.415947707115265, 35.734563795259014 ], [ 128.415972551997783, 35.73617417628251 ], [ 128.410965451074162, 35.737332863918326 ], [ 128.410998790327085, 35.739502504555382 ], [ 128.405967851443592, 35.73955378534469 ], [ 128.395997948944313, 35.744399418462429 ], [ 128.396025423833493, 35.746209493428609 ], [ 128.391020239179255, 35.747546306576574 ], [ 128.39105033524126, 35.749536977927001 ], [ 128.386101627595764, 35.754651708555841 ], [ 128.386222717495372, 35.762695219769917 ], [ 128.388048038716846, 35.76595434094282 ], [ 128.391298028403213, 35.765921744033122 ], [ 128.392560786608612, 35.77231268453221 ], [ 128.395917899898052, 35.769767514662156 ], [ 128.396473161021788, 35.775702016690012 ], [ 128.401499751483641, 35.775651221457423 ], [ 128.401649657529646, 35.785482063581973 ], [ 128.403544017527537, 35.788740340728317 ], [ 128.406727035408494, 35.788708025711919 ], [ 128.406805162674459, 35.793809752794246 ], [ 128.409922381266625, 35.798507855877887 ], [ 128.41262716809922, 35.798133083699817 ] ] ] ] } },
{ "type": "Feature", "properties": { "emd_cd": "27710256", "emd_nm": "다사읍" }, "geometry": { "type": "MultiPolygon", "coordinates": [ [ [ [ 128.493386402248035, 35.864949669655324 ], [ 128.487120130686975, 35.868159773552037 ], [ 128.482120195466706, 35.86834682865117 ], [ 128.474382380868462, 35.858242754761889 ], [ 128.473567092117747, 35.86057922978307 ], [ 128.468839245858078, 35.838699892021559 ], [ 128.466237059108124, 35.838708492420665 ], [ 128.465145123222499, 35.841959498188309 ], [ 128.456191136428203, 35.84201830655843 ], [ 128.456421801959976, 35.845193597944146 ], [ 128.451175652000302, 35.84531153603784 ], [ 128.450426909133512, 35.848591045787082 ], [ 128.426041098565094, 35.850321736108953 ], [ 128.425642103557749, 35.851944042138399 ], [ 128.419454505156381, 35.851962160200586 ], [ 128.417939078080565, 35.855244483185515 ], [ 128.417924113076793, 35.860095010724443 ], [ 128.420126619597966, 35.863963439514336 ], [ 128.418099749382691, 35.868339595847175 ], [ 128.418184620718705, 35.872473144256972 ], [ 128.422989393884365, 35.872553757380146 ], [ 128.425670298523301, 35.880002031002491 ], [ 128.428903463317027, 35.882897380713999 ], [ 128.431264189787896, 35.882205720950139 ], [ 128.434268466599974, 35.883754715147475 ], [ 128.437427955528051, 35.887406801660383 ], [ 128.445716316012863, 35.887920880459326 ], [ 128.453007116752559, 35.894568351405603 ], [ 128.456382389421549, 35.894213238576683 ], [ 128.461843323200725, 35.89979735920204 ], [ 128.4671093218914, 35.897624865039276 ], [ 128.46963204708797, 35.899445933468229 ], [ 128.47577561905257, 35.894918858212279 ], [ 128.479001300787559, 35.897237978801833 ], [ 128.484968280740588, 35.894775313256368 ], [ 128.485508391099415, 35.896933202718174 ], [ 128.49113188709029, 35.897997152252401 ], [ 128.493170770475047, 35.896562375114257 ], [ 128.495219600994773, 35.891187268026719 ], [ 128.496846899504988, 35.88954605628598 ], [ 128.500723788870857, 35.889462063782247 ], [ 128.501713473359956, 35.886677766157149 ], [ 128.504851665905818, 35.891010605624615 ], [ 128.509227402574282, 35.893330288555482 ], [ 128.513682146103292, 35.893199695771273 ], [ 128.526889109052718, 35.888197000280854 ], [ 128.52608598364489, 35.887118560358871 ], [ 128.52334812274421, 35.888793562798377 ], [ 128.521130362675024, 35.889234025417466 ], [ 128.526123311654231, 35.886326323637213 ], [ 128.517187067269049, 35.883173957384159 ], [ 128.521639884145145, 35.872062866780141 ], [ 128.518869856288063, 35.868593100125892 ], [ 128.51462046264254, 35.867751692735091 ], [ 128.509867838882798, 35.869558572519239 ], [ 128.508109820633592, 35.865794214037166 ], [ 128.504011850169263, 35.865630667483472 ], [ 128.50152589120674, 35.863357836165342 ], [ 128.493386402248035, 35.864949669655324 ] ] ] ] } },
{ "type": "Feature", "properties": { "emd_cd": "27710259", "emd_nm": "유가읍" }, "geometry": { "type": "MultiPolygon", "coordinates": [ [ [ [ 128.444793927383756, 35.679097495587719 ], [ 128.447405293918649, 35.68490032488198 ], [ 128.456314418097463, 35.689224027225798 ], [ 128.456375755677783, 35.69993070401032 ], [ 128.462412022715512, 35.6986281382313 ], [ 128.459548982048688, 35.700801859453776 ], [ 128.462617179493833, 35.703934030140061 ], [ 128.457660037821029, 35.705741511349061 ], [ 128.456903338682537, 35.710961428890741 ], [ 128.454201982131991, 35.714781219793082 ], [ 128.472575304790467, 35.723783727910693 ], [ 128.482884786824741, 35.726441818856941 ], [ 128.489140282362342, 35.724364048423055 ], [ 128.506409534381845, 35.728635355314239 ], [ 128.508185788672506, 35.726494066479425 ], [ 128.512610194221025, 35.725881428531864 ], [ 128.519457785932701, 35.721504385628926 ], [ 128.525143672129843, 35.710031219532958 ], [ 128.528499608426699, 35.710131316852632 ], [ 128.532964940784638, 35.702254193412941 ], [ 128.530975689527054, 35.695463665596399 ], [ 128.53425933904802, 35.693016135878302 ], [ 128.530134229240559, 35.686875579704925 ], [ 128.53052003568618, 35.682359591752032 ], [ 128.527025923793957, 35.682695106022813 ], [ 128.517115539039821, 35.679150325682087 ], [ 128.51372582427075, 35.675186616506551 ], [ 128.507138501844935, 35.674195507109218 ], [ 128.505917694833158, 35.672482453469783 ], [ 128.507427089619767, 35.667245261947095 ], [ 128.504933737937421, 35.666405831959842 ], [ 128.507340256266559, 35.666750749543105 ], [ 128.507378866804487, 35.664954680810411 ], [ 128.505114421489509, 35.654918348146083 ], [ 128.503675210692421, 35.654457114168771 ], [ 128.50538668130821, 35.651935969423882 ], [ 128.504854954628797, 35.649384724831087 ], [ 128.508549697188585, 35.644869077490512 ], [ 128.503018499411468, 35.638703764317434 ], [ 128.493659338476078, 35.63866378347263 ], [ 128.487104686775126, 35.635535817645611 ], [ 128.479388080686135, 35.634598873751223 ], [ 128.475593498921, 35.640186823194995 ], [ 128.467999130404735, 35.6364978337837 ], [ 128.4605943464002, 35.638622258174415 ], [ 128.456475506542091, 35.644933687299094 ], [ 128.451984183130833, 35.647306033522305 ], [ 128.452682791057384, 35.648362602602347 ], [ 128.45007749708185, 35.65174706882587 ], [ 128.450488237431898, 35.657833546252142 ], [ 128.445313971077383, 35.668210818816277 ], [ 128.44709873758444, 35.674308612248957 ], [ 128.444793927383756, 35.679097495587719 ] ] ] ] } },
{ "type": "Feature", "properties": { "emd_cd": "27710262", "emd_nm": "옥포읍" }, "geometry": { "type": "MultiPolygon", "coordinates": [ [ [ [ 128.53644829871854, 35.753565055345241 ], [ 128.535462255040954, 35.749964352911718 ], [ 128.539344703502138, 35.735616189526908 ], [ 128.536175306658265, 35.736389494931899 ], [ 128.531877021622961, 35.734957100391249 ], [ 128.530347171591472, 35.730272748078349 ], [ 128.527270763644225, 35.727854644519411 ], [ 128.527043090037637, 35.725120911225865 ], [ 128.519457785932701, 35.721504385628926 ], [ 128.512610194221025, 35.725881428531864 ], [ 128.508185788672506, 35.726494066479425 ], [ 128.506409534381845, 35.728635355314239 ], [ 128.492192956605635, 35.725543098682024 ], [ 128.486009133079108, 35.736216029078335 ], [ 128.480381722265832, 35.740237357763938 ], [ 128.482274540107824, 35.743345579732768 ], [ 128.480045149445488, 35.749981277194372 ], [ 128.4726360931881, 35.750175035568887 ], [ 128.470457300941462, 35.756066223215555 ], [ 128.464056416852287, 35.759162305704102 ], [ 128.461870366169904, 35.762655126420434 ], [ 128.453492313304508, 35.767973511386565 ], [ 128.449503871872196, 35.767780540764726 ], [ 128.448545857566756, 35.769751338018018 ], [ 128.440948353277889, 35.768979104143696 ], [ 128.430121628312747, 35.781043920479988 ], [ 128.420422528778516, 35.785554846805631 ], [ 128.420369382896268, 35.788059088912725 ], [ 128.422556811198916, 35.789181208441853 ], [ 128.417109691618748, 35.795293492762745 ], [ 128.410729154707241, 35.799548098996993 ], [ 128.410735742716213, 35.801089554732691 ], [ 128.412440296609049, 35.802824437657513 ], [ 128.415771732990777, 35.802814900591024 ], [ 128.415785944870635, 35.806092006142748 ], [ 128.420815815841991, 35.8063040870259 ], [ 128.420829238357584, 35.809354623887302 ], [ 128.440945337670286, 35.809294205209184 ], [ 128.441028662634778, 35.806016689263529 ], [ 128.46646744474171, 35.805935430357117 ], [ 128.466095642375734, 35.809215712743622 ], [ 128.472526432837299, 35.812039775421752 ], [ 128.478830602644678, 35.788003484755926 ], [ 128.481158410491304, 35.785214832101623 ], [ 128.482655207144859, 35.7862612228584 ], [ 128.484563675263985, 35.781863602891612 ], [ 128.490660050501788, 35.777672728276258 ], [ 128.499134950911753, 35.775781909674294 ], [ 128.506271669438092, 35.768678257557106 ], [ 128.508918052081896, 35.768994449743552 ], [ 128.523809554710567, 35.76356393495724 ], [ 128.525619148068614, 35.758377294219002 ], [ 128.530757742183511, 35.75432653070385 ], [ 128.53644829871854, 35.753565055345241 ] ] ] ] } },
{ "type": "Feature", "properties": { "emd_cd": "27710265", "emd_nm": "현풍읍" }, "geometry": { "type": "MultiPolygon", "coordinates": [ [ [ [ 128.446912933290406, 35.673241543359012 ], [ 128.443847556477124, 35.671010439905835 ], [ 128.445153584591168, 35.669673326194186 ], [ 128.443093883911416, 35.668763691476684 ], [ 128.443750670399908, 35.662490379248659 ], [ 128.44036417845146, 35.660507249335922 ], [ 128.440249132199085, 35.655889383379048 ], [ 128.436388262494773, 35.656462732822597 ], [ 128.434231354860913, 35.658542827423219 ], [ 128.432091141793052, 35.657667044773333 ], [ 128.429749813484023, 35.659876563050801 ], [ 128.427820122876653, 35.659207706119041 ], [ 128.426969455916009, 35.660929402634345 ], [ 128.421180872116622, 35.66018853388416 ], [ 128.421430612729949, 35.66148472805969 ], [ 128.418760602468467, 35.661537928683515 ], [ 128.418773218787834, 35.663455735865476 ], [ 128.41747382323652, 35.663494703272946 ], [ 128.414220802395675, 35.673698667566221 ], [ 128.412012133588632, 35.676021730133414 ], [ 128.398281280591362, 35.679307060797036 ], [ 128.393556930781443, 35.682058047069674 ], [ 128.386380511245221, 35.680693999124188 ], [ 128.381724623723841, 35.688504940098255 ], [ 128.373703095333298, 35.693214540699671 ], [ 128.375345897288582, 35.699901337033488 ], [ 128.390303824970204, 35.700137046029916 ], [ 128.395313853608741, 35.699314520000705 ], [ 128.396041854906088, 35.697047140263358 ], [ 128.405312949706882, 35.696304564964329 ], [ 128.406155554450493, 35.693929772176787 ], [ 128.42000109923373, 35.693525227181624 ], [ 128.426099352247604, 35.697871146295824 ], [ 128.425018212795891, 35.699012042341231 ], [ 128.432707513660972, 35.70650380469295 ], [ 128.435609049376495, 35.706605866255479 ], [ 128.435592680916898, 35.717268957074907 ], [ 128.445653087383675, 35.719870559814872 ], [ 128.44798047077262, 35.715810395994531 ], [ 128.452392111778664, 35.712785765306784 ], [ 128.454201982131991, 35.714781219793082 ], [ 128.456903338682537, 35.710961428890741 ], [ 128.457660037821029, 35.705741511349061 ], [ 128.462617179493833, 35.703934030140061 ], [ 128.459548982048688, 35.700801859453776 ], [ 128.462167291345537, 35.69846399496199 ], [ 128.456375755677783, 35.69993070401032 ], [ 128.456314418097463, 35.689224027225798 ], [ 128.447910329754933, 35.685269281445677 ], [ 128.445145711270555, 35.681867035034358 ], [ 128.446912933290406, 35.673241543359012 ] ] ] ] } },
{ "type": "Feature", "properties": { "emd_cd": "27710310", "emd_nm": "가창면" }, "geometry": { "type": "MultiPolygon", "coordinates": [ [ [ [ 128.51945778593381, 35.721504385628897 ], [ 128.527043090038745, 35.725120911225801 ], [ 128.527270763645333, 35.727854644519311 ], [ 128.530347171592581, 35.730272748078242 ], [ 128.531877021624013, 35.73495710039122 ], [ 128.536175306659487, 35.736389494931899 ], [ 128.539344703503218, 35.735616189526894 ], [ 128.535462255042091, 35.74996435291159 ], [ 128.536846208907434, 35.754179618115614 ], [ 128.55189764200864, 35.761416356287249 ], [ 128.549825623730015, 35.766060576307524 ], [ 128.553573189786789, 35.773292185408941 ], [ 128.563723925417662, 35.773530040787691 ], [ 128.570262992433044, 35.779617541838405 ], [ 128.569465324683932, 35.789361448637251 ], [ 128.567177413146879, 35.794742872353147 ], [ 128.569610601083269, 35.797115328632266 ], [ 128.576556959276161, 35.795646756517364 ], [ 128.585373510074106, 35.798585556954365 ], [ 128.588195927621939, 35.807211490742155 ], [ 128.591559559751659, 35.808897158663122 ], [ 128.598397973909073, 35.805265681575335 ], [ 128.602425408984033, 35.805865181033028 ], [ 128.616876324856804, 35.802222460019301 ], [ 128.620520006087133, 35.805472797513055 ], [ 128.626336977516672, 35.804467319402995 ], [ 128.629070198030661, 35.80199906709143 ], [ 128.634499751069228, 35.803109448430199 ], [ 128.644398335913849, 35.801477846550789 ], [ 128.649147927063865, 35.802837220634615 ], [ 128.651276064187812, 35.802331967644186 ], [ 128.653455156456658, 35.798807337459117 ], [ 128.666545857619752, 35.796901174418807 ], [ 128.669101588881261, 35.794741100332175 ], [ 128.674808747723347, 35.794651040209637 ], [ 128.680207264821405, 35.791973291768379 ], [ 128.682382159262971, 35.789235435052667 ], [ 128.681813858755589, 35.782653385013916 ], [ 128.687037517919549, 35.775480573492885 ], [ 128.686007141042069, 35.768687127039982 ], [ 128.689240045750296, 35.76711791695115 ], [ 128.691286610392609, 35.763919675392707 ], [ 128.690845066505744, 35.760155892129099 ], [ 128.695669342434428, 35.755626456104032 ], [ 128.692252948330065, 35.746629024847657 ], [ 128.694083735240184, 35.742977635264026 ], [ 128.688569929397659, 35.737208829219362 ], [ 128.691446553272641, 35.732233139813239 ], [ 128.690002409695012, 35.729448999688437 ], [ 128.682899215477846, 35.724980282746465 ], [ 128.682757114138184, 35.720814210905822 ], [ 128.672944082046797, 35.720237394553223 ], [ 128.670279391781463, 35.718147815430534 ], [ 128.660558043340671, 35.719491317331304 ], [ 128.656310103405502, 35.717489972322724 ], [ 128.653133881363914, 35.713444582878026 ], [ 128.646489754506291, 35.710709808937573 ], [ 128.645801340457666, 35.707763329265383 ], [ 128.637375383420107, 35.705139893418902 ], [ 128.630352945113117, 35.7064783424537 ], [ 128.623516858928213, 35.702014476057357 ], [ 128.619297862741774, 35.702514724752348 ], [ 128.619345368892368, 35.704181146567748 ], [ 128.613266529897231, 35.709866421709222 ], [ 128.613454859480555, 35.713809541840561 ], [ 128.61650808989782, 35.717150186394157 ], [ 128.609503893161332, 35.725028021914746 ], [ 128.61464389142543, 35.730021832655758 ], [ 128.613457141654152, 35.732104146104327 ], [ 128.614609489849784, 35.736425099247484 ], [ 128.613134322757247, 35.738049476805188 ], [ 128.606852463213386, 35.73870663451742 ], [ 128.598809315641574, 35.735380687784563 ], [ 128.593015680996842, 35.736123691245204 ], [ 128.590949487150226, 35.731785333993471 ], [ 128.588351833886122, 35.730635411169402 ], [ 128.581196910987842, 35.73754936152703 ], [ 128.570631932069546, 35.733708697471307 ], [ 128.563645488288216, 35.735863385343698 ], [ 128.560066735087617, 35.728943944640648 ], [ 128.551526048332363, 35.725750421962914 ], [ 128.545181606731347, 35.721746304522142 ], [ 128.543152290364446, 35.718558285479645 ], [ 128.532384933020836, 35.7156111253204 ], [ 128.525143672130952, 35.710031219532958 ], [ 128.51945778593381, 35.721504385628897 ] ] ] ] } },
{ "type": "Feature", "properties": { "emd_cd": "27710330", "emd_nm": "하빈면" }, "geometry": { "type": "MultiPolygon", "coordinates": [ [ [ [ 128.387376169086451, 35.861203043809908 ], [ 128.389321260368718, 35.868431634127894 ], [ 128.39589111998805, 35.872629738104159 ], [ 128.395985180904262, 35.883171891755815 ], [ 128.398834423208967, 35.885020304002232 ], [ 128.401853994258346, 35.892861286680613 ], [ 128.405598253809387, 35.896248975416228 ], [ 128.406556260331769, 35.900912984869166 ], [ 128.408358409839934, 35.901194808213205 ], [ 128.410841236560657, 35.907085572270404 ], [ 128.417528308454138, 35.913529496090746 ], [ 128.418905336334205, 35.921543912118381 ], [ 128.424578923478862, 35.923331993924769 ], [ 128.425708213923713, 35.928243819868321 ], [ 128.428537456167419, 35.927562798136201 ], [ 128.43287429949055, 35.931726896076491 ], [ 128.439727264021911, 35.931799224821411 ], [ 128.442492306975964, 35.93564938378389 ], [ 128.45116537642096, 35.935355324200707 ], [ 128.453622229435581, 35.936869705183469 ], [ 128.455096864194502, 35.943376579534004 ], [ 128.461789533659413, 35.941099368580566 ], [ 128.463616094670471, 35.938774745489688 ], [ 128.470187542900305, 35.938772627133034 ], [ 128.476785543252078, 35.935256024430146 ], [ 128.476885143803401, 35.928137029346033 ], [ 128.473878447110877, 35.923088831415512 ], [ 128.474194545985625, 35.916244524474692 ], [ 128.466083003521248, 35.909008180660805 ], [ 128.467992792113733, 35.906731259748966 ], [ 128.469440804428729, 35.899057502910047 ], [ 128.467109321892195, 35.897624865039276 ], [ 128.461843323201521, 35.899797359201976 ], [ 128.456382389422373, 35.894213238576675 ], [ 128.453007116753412, 35.894568351405532 ], [ 128.445716316013687, 35.887920880459291 ], [ 128.437427955528875, 35.887406801660347 ], [ 128.434268466600741, 35.883754715147461 ], [ 128.431264189788664, 35.882205720950147 ], [ 128.428903463317738, 35.882897380713956 ], [ 128.42610851515181, 35.880469301605281 ], [ 128.423690921026861, 35.873254921972595 ], [ 128.418021485120647, 35.872160309240833 ], [ 128.420126619598676, 35.863963439514301 ], [ 128.417924113077561, 35.86009501072445 ], [ 128.419454505157034, 35.851962160200571 ], [ 128.393927879672276, 35.85253316153436 ], [ 128.390074096634777, 35.855321031967861 ], [ 128.387376169086451, 35.861203043809908 ] ] ] ] } },
{ "type": "Feature", "properties": { "emd_cd": "27710380", "emd_nm": "구지면" }, "geometry": { "type": "MultiPolygon", "coordinates": [ [ [ [ 128.446912933290406, 35.673241543359012 ], [ 128.445313971077383, 35.668210818816277 ], [ 128.450175218308743, 35.659165591632203 ], [ 128.449860265377879, 35.652327833263556 ], [ 128.452682791057384, 35.648362602602347 ], [ 128.451984183130833, 35.647306033522305 ], [ 128.456475506542091, 35.644933687299094 ], [ 128.458684371388188, 35.640570441191876 ], [ 128.451147359549282, 35.636929031289391 ], [ 128.444295016955408, 35.638508489363012 ], [ 128.443541994458343, 35.635013838143941 ], [ 128.439716481599078, 35.634789796106162 ], [ 128.438235075933704, 35.630743469606408 ], [ 128.435181284929939, 35.630978012949711 ], [ 128.428564115806438, 35.621888890786508 ], [ 128.422899161897163, 35.625547602586167 ], [ 128.42054542507725, 35.625503416547481 ], [ 128.416584635668414, 35.620063087655637 ], [ 128.416147581026109, 35.621842299090318 ], [ 128.414215804557585, 35.622353824354683 ], [ 128.412191919294656, 35.618535121166275 ], [ 128.407621748777416, 35.615542988834292 ], [ 128.403788557383308, 35.614739444795916 ], [ 128.400569894787452, 35.617796119557894 ], [ 128.400398892667823, 35.615700570716648 ], [ 128.396780261695994, 35.616487299939877 ], [ 128.385126120507067, 35.610708533014936 ], [ 128.38174681395293, 35.610523457158429 ], [ 128.379734352520387, 35.607225906216918 ], [ 128.377526966261655, 35.60992718533705 ], [ 128.374433018112001, 35.607727754749213 ], [ 128.367813244319336, 35.611174164475287 ], [ 128.38403462686486, 35.617229264153856 ], [ 128.396887542012138, 35.63146217677005 ], [ 128.396572871034351, 35.63319576265598 ], [ 128.39933085827866, 35.633269882812506 ], [ 128.397805441900118, 35.633387921664578 ], [ 128.396568557753909, 35.644601756529987 ], [ 128.389579715151228, 35.652188598364837 ], [ 128.369710147361985, 35.666235057616255 ], [ 128.358035953529651, 35.677760183153957 ], [ 128.351273839719909, 35.690936064963068 ], [ 128.350181144040505, 35.70407493070833 ], [ 128.353838971554723, 35.707298336817246 ], [ 128.363486341149297, 35.707203926266843 ], [ 128.373214497273977, 35.703496148153185 ], [ 128.376561464411026, 35.700627117370864 ], [ 128.373703095333298, 35.693214540699671 ], [ 128.381724623723841, 35.688504940098255 ], [ 128.386380511245221, 35.680693999124188 ], [ 128.393556930781443, 35.682058047069674 ], [ 128.398281280591362, 35.679307060797036 ], [ 128.412012133588632, 35.676021730133414 ], [ 128.414220802395675, 35.673698667566221 ], [ 128.41747382323652, 35.663494703272946 ], [ 128.418773218787834, 35.663455735865476 ], [ 128.418760602468467, 35.661537928683515 ], [ 128.421430612729949, 35.66148472805969 ], [ 128.421180872116622, 35.66018853388416 ], [ 128.426969455916009, 35.660929402634345 ], [ 128.427820122876653, 35.659207706119041 ], [ 128.429749813484023, 35.659876563050801 ], [ 128.432091141793052, 35.657667044773333 ], [ 128.434231354860913, 35.658542827423219 ], [ 128.436388262494773, 35.656462732822597 ], [ 128.440249132199085, 35.655889383379048 ], [ 128.44036417845146, 35.660507249335922 ], [ 128.443750670399908, 35.662490379248659 ], [ 128.443093883911416, 35.668763691476684 ], [ 128.445153584591168, 35.669673326194186 ], [ 128.443847556477124, 35.671010439905835 ], [ 128.446912933290406, 35.673241543359012 ] ] ] ] } }
]
}
