{
"type": "FeatureCollection",
"name": "26230",
"crs": { "type": "name", "properties": { "name": "urn:ogc:def:crs:OGC:1.3:CRS84" } },
"features": [
{ "type": "Feature", "properties": { "emd_cd": "26230101", "emd_nm": "양정동" }, "geometry": { "type": "MultiPolygon", "coordinates": [ [ [ [ 129.057679763924341, 35.176268530173097 ], [ 129.060389685755894, 35.179970203951029 ], [ 129.0663712293385, 35.175148128695469 ], [ 129.067233953617034, 35.176575450647725 ], [ 129.070263131763312, 35.175796792762007 ], [ 129.071975375671059, 35.179563982892603 ], [ 129.074875999874024, 35.179128357387597 ], [ 129.07567787373776, 35.176484941848472 ], [ 129.081791875129625, 35.171976386673172 ], [ 129.081547054520229, 35.168277187673915 ], [ 129.078103887957781, 35.164379761979347 ], [ 129.075062229754025, 35.164337779519578 ], [ 129.068295543948551, 35.167663660446117 ], [ 129.067965780235653, 35.169562173742108 ], [ 129.066195271356321, 35.167800292711156 ], [ 129.057679763924341, 35.176268530173097 ] ] ] ] } },
{ "type": "Feature", "properties": { "emd_cd": "26230102", "emd_nm": "전포동" }, "geometry": { "type": "MultiPolygon", "coordinates": [ [ [ [ 129.063273621822617, 35.148801035993593 ], [ 129.062307230133513, 35.161746100592985 ], [ 129.067238224420691, 35.16957193613014 ], [ 129.072814705276727, 35.165400396749042 ], [ 129.078103887952693, 35.164379761979561 ], [ 129.082844841165013, 35.15817647648516 ], [ 129.078664607164427, 35.150555096020824 ], [ 129.075052523773024, 35.150565870923167 ], [ 129.07069644206311, 35.14813035974089 ], [ 129.063273621822617, 35.148801035993593 ] ] ] ] } },
{ "type": "Feature", "properties": { "emd_cd": "26230103", "emd_nm": "부전동" }, "geometry": { "type": "MultiPolygon", "coordinates": [ [ [ [ 129.063273621822617, 35.148801035993593 ], [ 129.061536134055103, 35.1504397018508 ], [ 129.056544289512431, 35.150486944156427 ], [ 129.051708849343044, 35.155250270475079 ], [ 129.050394467458915, 35.155010930832674 ], [ 129.050157600444152, 35.155169097046965 ], [ 129.049907005791312, 35.15585062240585 ], [ 129.055335096280629, 35.162384370795245 ], [ 129.061192737612629, 35.165604794537032 ], [ 129.064270375587824, 35.164222867788986 ], [ 129.062307230133513, 35.161746100592985 ], [ 129.063273621822617, 35.148801035993593 ] ] ] ] } },
{ "type": "Feature", "properties": { "emd_cd": "26230104", "emd_nm": "범천동" }, "geometry": { "type": "MultiPolygon", "coordinates": [ [ [ [ 129.045792119001845, 35.156542844108202 ], [ 129.050777596698879, 35.157160932070013 ], [ 129.050157600444152, 35.155169097046965 ], [ 129.056544289512431, 35.150486944156427 ], [ 129.062433294456213, 35.149812774856592 ], [ 129.064538960878679, 35.14141544759584 ], [ 129.051976285053144, 35.142124982170564 ], [ 129.04640927181751, 35.145661443170916 ], [ 129.041201283955985, 35.146134177858102 ], [ 129.037712755701875, 35.139733488248282 ], [ 129.0410548545903, 35.151104423887446 ], [ 129.045902579504485, 35.153063723604163 ], [ 129.045792119001845, 35.156542844108202 ] ] ] ] } },
{ "type": "Feature", "properties": { "emd_cd": "26230105", "emd_nm": "범전동" }, "geometry": { "type": "MultiPolygon", "coordinates": [ [ [ [ 129.052895904502947, 35.167129925622646 ], [ 129.055697009679733, 35.168783706244014 ], [ 129.056971840396216, 35.16713806790046 ], [ 129.058677383993086, 35.170106900882438 ], [ 129.060473939195617, 35.170789706288481 ], [ 129.060642052186864, 35.1697272440923 ], [ 129.062485343489953, 35.171509873184078 ], [ 129.067132020640031, 35.167808955176113 ], [ 129.064270375592741, 35.164222867788872 ], [ 129.060582596069793, 35.165490423645409 ], [ 129.05533509628529, 35.162384370795074 ], [ 129.052895904502947, 35.167129925622646 ] ] ] ] } },
{ "type": "Feature", "properties": { "emd_cd": "26230106", "emd_nm": "연지동" }, "geometry": { "type": "MultiPolygon", "coordinates": [ [ [ [ 129.062572685146904, 35.171504430036705 ], [ 129.060642052186864, 35.1697272440923 ], [ 129.060473939195617, 35.170789706288481 ], [ 129.058677383993086, 35.170106900882438 ], [ 129.056971840396216, 35.16713806790046 ], [ 129.055697009679733, 35.168783706244014 ], [ 129.052895904502947, 35.167129925622646 ], [ 129.051572003461104, 35.169707901567747 ], [ 129.047698289938523, 35.168246951226593 ], [ 129.044333766091455, 35.171240754960159 ], [ 129.048262575595544, 35.174397974839785 ], [ 129.050145376846018, 35.172481469900148 ], [ 129.049624433282617, 35.17698023971306 ], [ 129.057679763924341, 35.176268530173097 ], [ 129.062572685146904, 35.171504430036705 ] ] ] ] } },
{ "type": "Feature", "properties": { "emd_cd": "26230107", "emd_nm": "초읍동" }, "geometry": { "type": "MultiPolygon", "coordinates": [ [ [ [ 129.057679763924341, 35.176268530173097 ], [ 129.049624433282617, 35.17698023971306 ], [ 129.050145376846018, 35.172481469900148 ], [ 129.048262575595544, 35.174397974839785 ], [ 129.044821651733088, 35.171787008627909 ], [ 129.037109171757407, 35.176810312725387 ], [ 129.033886874693906, 35.180983929459678 ], [ 129.027900201898319, 35.183216068339711 ], [ 129.023978170786506, 35.18210386352164 ], [ 129.020793840530871, 35.18323108566252 ], [ 129.020719321685618, 35.186693791830585 ], [ 129.025572329895851, 35.1917406211303 ], [ 129.025553913746421, 35.19407259780106 ], [ 129.032446158760308, 35.195907124100209 ], [ 129.036364597286251, 35.199146525819927 ], [ 129.044126297340483, 35.199441538173389 ], [ 129.048256490304112, 35.194552453774349 ], [ 129.047599839828138, 35.190465650948603 ], [ 129.051304750888562, 35.184888435231535 ], [ 129.061774797863279, 35.183157575831274 ], [ 129.061560013264426, 35.179778803554647 ], [ 129.057679763924341, 35.176268530173097 ] ] ] ] } },
{ "type": "Feature", "properties": { "emd_cd": "26230108", "emd_nm": "부암동" }, "geometry": { "type": "MultiPolygon", "coordinates": [ [ [ [ 129.01927086215187, 35.180467116870169 ], [ 129.020793840530871, 35.18323108566252 ], [ 129.023978170786506, 35.18210386352164 ], [ 129.027900201898319, 35.183216068339711 ], [ 129.033886874693906, 35.180983929459678 ], [ 129.037109171757407, 35.176810312725387 ], [ 129.044727151752511, 35.171938091201206 ], [ 129.046291890790314, 35.168748506519798 ], [ 129.051934619102667, 35.169533834815219 ], [ 129.055454634988934, 35.161901597094648 ], [ 129.052811183583827, 35.157889490743358 ], [ 129.050501731081226, 35.157871158859329 ], [ 129.050121378119513, 35.161406985507732 ], [ 129.045522377194857, 35.162110063093799 ], [ 129.042532103109835, 35.166047653232873 ], [ 129.03667848737075, 35.168112660306797 ], [ 129.031105048763948, 35.173650184636664 ], [ 129.029601494188455, 35.172795700240904 ], [ 129.025731641907129, 35.177141554229927 ], [ 129.01927086215187, 35.180467116870169 ] ] ] ] } },
{ "type": "Feature", "properties": { "emd_cd": "26230109", "emd_nm": "당감동" }, "geometry": { "type": "MultiPolygon", "coordinates": [ [ [ [ 129.050218694299701, 35.158085957930346 ], [ 129.040773939950014, 35.155800471921033 ], [ 129.037691189496883, 35.156948155977517 ], [ 129.029029677447426, 35.155717806914993 ], [ 129.033798515199692, 35.15752874847113 ], [ 129.0284871790723, 35.165833808476677 ], [ 129.026566598871426, 35.164239266574732 ], [ 129.012902417799239, 35.166522828636694 ], [ 129.010572632334856, 35.173577966000352 ], [ 129.01927086215187, 35.180467116870169 ], [ 129.025731641907129, 35.177141554229927 ], [ 129.029601494188455, 35.172795700240904 ], [ 129.031105048763948, 35.173650184636664 ], [ 129.03667848737075, 35.168112660306797 ], [ 129.042532103109835, 35.166047653232873 ], [ 129.045522377194857, 35.162110063093799 ], [ 129.050121378119513, 35.161406985507732 ], [ 129.050218694299701, 35.158085957930346 ] ] ] ] } },
{ "type": "Feature", "properties": { "emd_cd": "26230110", "emd_nm": "가야동" }, "geometry": { "type": "MultiPolygon", "coordinates": [ [ [ [ 129.045807859123073, 35.156586355789372 ], [ 129.045902579504485, 35.153063723604163 ], [ 129.041168600598638, 35.151208132762271 ], [ 129.038861869509759, 35.146959646502616 ], [ 129.037279695857848, 35.139054560931889 ], [ 129.025708084230189, 35.135675164051996 ], [ 129.02154149041047, 35.136803120743224 ], [ 129.023161008251975, 35.14857916006445 ], [ 129.029029677442935, 35.155717806915185 ], [ 129.045807859123073, 35.156586355789372 ] ] ] ] } },
{ "type": "Feature", "properties": { "emd_cd": "26230111", "emd_nm": "개금동" }, "geometry": { "type": "MultiPolygon", "coordinates": [ [ [ [ 129.012902417795004, 35.166522828636857 ], [ 129.026566598866907, 35.164239266574903 ], [ 129.028487179067866, 35.165833808476798 ], [ 129.033798515195201, 35.157528748471258 ], [ 129.029026407732715, 35.15575289743613 ], [ 129.023398005284292, 35.149026686035853 ], [ 129.02154149041047, 35.136803120743224 ], [ 129.016486073126771, 35.13550932252182 ], [ 129.0121600917291, 35.137456103997927 ], [ 129.016251861657679, 35.143352384053948 ], [ 129.014038130471221, 35.145816278456053 ], [ 129.016300129858337, 35.147315411657416 ], [ 129.016875989773837, 35.151794631421502 ], [ 129.015457221980284, 35.156291605599641 ], [ 129.010596864836145, 35.15873768201817 ], [ 129.012902417795004, 35.166522828636857 ] ] ] ] } }
]
}
