{
"type": "FeatureCollection",
"name": "26290",
"crs": { "type": "name", "properties": { "name": "urn:ogc:def:crs:OGC:1.3:CRS84" } },
"features": [
{ "type": "Feature", "properties": { "emd_cd": "26290106", "emd_nm": "대연동" }, "geometry": { "type": "MultiPolygon", "coordinates": [ [ [ [ 129.099802120709967, 35.124976413505699 ], [ 129.099688421568146, 35.124970592794199 ], [ 129.099548865970974, 35.124975672320147 ], [ 129.099802120709967, 35.124976413505699 ] ] ], [ [ [ 129.076253599445693, 35.130048348499315 ], [ 129.080169746877999, 35.134200979715906 ], [ 129.077731250985977, 35.137507009326129 ], [ 129.076022996540701, 35.137291449178527 ], [ 129.077504048081295, 35.138317626320536 ], [ 129.076421893247243, 35.140448660092765 ], [ 129.083840105718025, 35.145016339184302 ], [ 129.083440103329366, 35.148942649997032 ], [ 129.078678372759896, 35.150535771183385 ], [ 129.079978648282179, 35.154334691494761 ], [ 129.08357199507941, 35.158535869792878 ], [ 129.095435297979179, 35.161323159706647 ], [ 129.102380489854141, 35.148708692796575 ], [ 129.10340392789837, 35.143948041875248 ], [ 129.102227887974038, 35.142605823263352 ], [ 129.111232614860597, 35.135747681752292 ], [ 129.105244757579555, 35.127367075876649 ], [ 129.100120522635763, 35.125014841082411 ], [ 129.094711654390437, 35.125147567501578 ], [ 129.092703271154193, 35.124429180037907 ], [ 129.091360490540183, 35.119589247232412 ], [ 129.085624447543125, 35.125318987816712 ], [ 129.085540954083342, 35.128516979917201 ], [ 129.081118894435463, 35.130863501736229 ], [ 129.076253599445693, 35.130048348499315 ] ] ] ] } },
{ "type": "Feature", "properties": { "emd_cd": "26290107", "emd_nm": "용호동" }, "geometry": { "type": "MultiPolygon", "coordinates": [ [ [ [ 129.127102280627298, 35.090976764209678 ], [ 129.126382844074641, 35.091094342486997 ], [ 129.127385111703916, 35.091445207462947 ], [ 129.127102280627298, 35.090976764209678 ] ] ], [ [ [ 129.12746180720228, 35.092404990902338 ], [ 129.126236726558432, 35.091691295497178 ], [ 129.126233525357407, 35.092181496900039 ], [ 129.12746180720228, 35.092404990902338 ] ] ], [ [ [ 129.102277000782266, 35.094488437129627 ], [ 129.105861770845507, 35.091324677895628 ], [ 129.104987980160757, 35.092032097199507 ], [ 129.09968472568039, 35.09126070495504 ], [ 129.099188121253491, 35.091591907196459 ], [ 129.104950952424559, 35.092063135760405 ], [ 129.102277000782266, 35.094488437129627 ] ] ], [ [ [ 129.127307730175403, 35.093128297585402 ], [ 129.126597357015612, 35.092758788406236 ], [ 129.126470544912848, 35.092942500117999 ], [ 129.127307730175403, 35.093128297585402 ] ] ], [ [ [ 129.126746020656469, 35.093791003539458 ], [ 129.125986066071789, 35.093401450636541 ], [ 129.126541092222311, 35.094478379170162 ], [ 129.126746020656469, 35.093791003539458 ] ] ], [ [ [ 129.114346870943933, 35.09794399494951 ], [ 129.109339626943921, 35.091372289936622 ], [ 129.113812057625779, 35.0983903964189 ], [ 129.114346870943933, 35.09794399494951 ] ] ], [ [ [ 129.11833428779164, 35.097534846176472 ], [ 129.119259772170551, 35.097206079357619 ], [ 129.118358073396905, 35.097018377807601 ], [ 129.11833428779164, 35.097534846176472 ] ] ], [ [ [ 129.124246944984861, 35.097187078724403 ], [ 129.123793766104484, 35.097714699452467 ], [ 129.124087052386329, 35.097852780514636 ], [ 129.12430424411528, 35.098002772896493 ], [ 129.124246944984861, 35.097187078724403 ] ] ], [ [ [ 129.12372335336363, 35.098278582485335 ], [ 129.124285388487266, 35.098052123635043 ], [ 129.123739929798376, 35.097811677405772 ], [ 129.12372335336363, 35.098278582485335 ] ] ], [ [ [ 129.098497430026555, 35.099496579712628 ], [ 129.099338353404931, 35.098824351618298 ], [ 129.102837379234217, 35.102605823689693 ], [ 129.106872797061584, 35.109603193427915 ], [ 129.106163360378105, 35.113589846671111 ], [ 129.102534251764894, 35.11679585165632 ], [ 129.10529109489201, 35.120145123352238 ], [ 129.103644117699702, 35.126721476249479 ], [ 129.112535866004094, 35.13506317450112 ], [ 129.117796952127719, 35.132109984602522 ], [ 129.113095841077381, 35.126263143545017 ], [ 129.11268286460205, 35.125253892281279 ], [ 129.113071001554232, 35.125289535762761 ], [ 129.117193231313962, 35.128433441882819 ], [ 129.12151313217538, 35.135346752439204 ], [ 129.120608613033966, 35.133673597547208 ], [ 129.122431663708994, 35.132062523980494 ], [ 129.122280561675325, 35.1265533791222 ], [ 129.128730081795908, 35.117648443542436 ], [ 129.127040611244951, 35.113377231668466 ], [ 129.128018977216811, 35.110776489143426 ], [ 129.12346847446787, 35.101946342624608 ], [ 129.124646602687875, 35.100431627183305 ], [ 129.118894882876759, 35.099471118649802 ], [ 129.112981303078442, 35.103152723746824 ], [ 129.110419790615083, 35.101090246340469 ], [ 129.110261815820138, 35.100961889861004 ], [ 129.11041981247854, 35.101090192239006 ], [ 129.113340361091389, 35.098398854779902 ], [ 129.109871723111127, 35.100645040538112 ], [ 129.102159867545055, 35.094393620801945 ], [ 129.098788759021232, 35.095407073918061 ], [ 129.098497430026555, 35.099496579712628 ] ], [ [ 129.102980750374684, 35.117266800184346 ], [ 129.102981914002925, 35.117267457203297 ], [ 129.102980411850154, 35.117268044346126 ], [ 129.102980750374684, 35.117266800184346 ] ], [ [ 129.113407010515886, 35.103059968701864 ], [ 129.113332189708643, 35.10315855675239 ], [ 129.113408400878285, 35.103058083569188 ], [ 129.113407010515886, 35.103059968701864 ] ], [ [ 129.113019448713715, 35.103288668274708 ], [ 129.113105171103768, 35.103253580417956 ], [ 129.113092839073403, 35.103258738557543 ], [ 129.113019448713715, 35.103288668274708 ] ] ] ] } },
{ "type": "Feature", "properties": { "emd_cd": "26290108", "emd_nm": "용당동" }, "geometry": { "type": "MultiPolygon", "coordinates": [ [ [ [ 129.103633293728791, 35.126760297919475 ], [ 129.105224320961128, 35.12016432543718 ], [ 129.102637888743999, 35.116737465151445 ], [ 129.106159040483561, 35.113600035787975 ], [ 129.106919802783324, 35.109878689923804 ], [ 129.102851651963874, 35.102626281711494 ], [ 129.099348762359455, 35.098825046277589 ], [ 129.098374649378457, 35.099516066264307 ], [ 129.099193000458598, 35.091545212561456 ], [ 129.095691011577571, 35.093590477590368 ], [ 129.093850032650494, 35.108471874088735 ], [ 129.088994582248603, 35.108453123941821 ], [ 129.088366305400797, 35.118485461468737 ], [ 129.091360490534896, 35.119589247232582 ], [ 129.09270327114902, 35.124429180038206 ], [ 129.103633293728791, 35.126760297919475 ] ], [ [ 129.09980212070468, 35.124976413505905 ], [ 129.099548865965716, 35.124975672320403 ], [ 129.09968842156286, 35.124970592794391 ], [ 129.09980212070468, 35.124976413505905 ] ] ] ] } },
{ "type": "Feature", "properties": { "emd_cd": "26290109", "emd_nm": "문현동" }, "geometry": { "type": "MultiPolygon", "coordinates": [ [ [ [ 129.063004228372421, 35.14871418322943 ], [ 129.070731111601958, 35.148159111225752 ], [ 129.076883243623854, 35.150628128353887 ], [ 129.083440103329366, 35.148942649997032 ], [ 129.083840105718025, 35.145016339184302 ], [ 129.076421893247243, 35.140448660092765 ], [ 129.077504048081295, 35.138317626320536 ], [ 129.076022996540701, 35.137291449178527 ], [ 129.077731250985977, 35.137507009326129 ], [ 129.080169746877999, 35.134200979715906 ], [ 129.076159664763537, 35.129909236562426 ], [ 129.074697706525683, 35.129554903250536 ], [ 129.072881380299464, 35.13196450941544 ], [ 129.069754352173334, 35.130347110574341 ], [ 129.068232357546748, 35.12725449285071 ], [ 129.06635889720971, 35.128146910423091 ], [ 129.066192507118728, 35.138350553412288 ], [ 129.063273932765355, 35.143379265378506 ], [ 129.063004228372421, 35.14871418322943 ] ] ] ] } },
{ "type": "Feature", "properties": { "emd_cd": "26290110", "emd_nm": "우암동" }, "geometry": { "type": "MultiPolygon", "coordinates": [ [ [ [ 129.085624447543125, 35.125318987816712 ], [ 129.07703631267654, 35.120425483981485 ], [ 129.069975205446724, 35.123135476135857 ], [ 129.068661256573336, 35.121684570806856 ], [ 129.06562847966012, 35.122976782680396 ], [ 129.066460184744614, 35.128104987976016 ], [ 129.068232357546748, 35.12725449285071 ], [ 129.069754352173334, 35.130347110574341 ], [ 129.072881380299464, 35.13196450941544 ], [ 129.074697706525683, 35.129554903250536 ], [ 129.0820333874928, 35.130637557325961 ], [ 129.082936951551631, 35.128807554289139 ], [ 129.085752507658015, 35.128327457318754 ], [ 129.085624447543125, 35.125318987816712 ] ] ] ] } },
{ "type": "Feature", "properties": { "emd_cd": "26290111", "emd_nm": "감만동" }, "geometry": { "type": "MultiPolygon", "coordinates": [ [ [ [ 129.087308439883543, 35.124949474840378 ], [ 129.090621231642189, 35.120116539542643 ], [ 129.088366246089009, 35.118481261169165 ], [ 129.088085955552117, 35.113420200721286 ], [ 129.088995745707052, 35.108453844191587 ], [ 129.090352664651334, 35.108763376026623 ], [ 129.090351777886838, 35.103613602642135 ], [ 129.074993009437634, 35.103618727846595 ], [ 129.06533188422739, 35.109131846763333 ], [ 129.065230743826447, 35.109685156309965 ], [ 129.066448787726046, 35.11127352091507 ], [ 129.066864725151248, 35.111395521878435 ], [ 129.065311495793793, 35.109571091445062 ], [ 129.067383443729909, 35.108166146066608 ], [ 129.069884669281748, 35.111283518802573 ], [ 129.06846102503215, 35.111988845855606 ], [ 129.069533410027475, 35.11398008684796 ], [ 129.073787853035896, 35.116611238734848 ], [ 129.072244244580133, 35.118783069541799 ], [ 129.071025361262883, 35.117413228680547 ], [ 129.069561178691572, 35.11829583490394 ], [ 129.073038450106196, 35.122168754085735 ], [ 129.07704291554262, 35.12042409176815 ], [ 129.087308439883543, 35.124949474840378 ] ] ] ] } }
]
}
