{
"type": "FeatureCollection",
"name": "26320",
"crs": { "type": "name", "properties": { "name": "urn:ogc:def:crs:OGC:1.3:CRS84" } },
"features": [
{ "type": "Feature", "properties": { "emd_cd": "26320101", "emd_nm": "금곡동" }, "geometry": { "type": "MultiPolygon", "coordinates": [ [ [ [ 129.016505089595029, 35.245045644273937 ], [ 129.012720779844472, 35.246599978962472 ], [ 129.013953422163979, 35.23998941147093 ], [ 129.00514919344684, 35.242564425721554 ], [ 129.005816404972222, 35.244312386070582 ], [ 129.001767720200718, 35.24432966223906 ], [ 129.014821973048186, 35.270529718209531 ], [ 129.013334048173135, 35.274135226382754 ], [ 129.030215624018467, 35.276893187223436 ], [ 129.047548670442154, 35.274207696479621 ], [ 129.042964443212071, 35.268670903129035 ], [ 129.041811652803517, 35.263318600843363 ], [ 129.037866834204323, 35.262343701712226 ], [ 129.035020029763416, 35.258114112898937 ], [ 129.025328937988718, 35.252887709088256 ], [ 129.016505089595029, 35.245045644273937 ] ] ] ] } },
{ "type": "Feature", "properties": { "emd_cd": "26320102", "emd_nm": "화명동" }, "geometry": { "type": "MultiPolygon", "coordinates": [ [ [ [ 128.996761407265922, 35.236076695061243 ], [ 129.001767720200718, 35.24432966223906 ], [ 129.005816404972222, 35.244312386070582 ], [ 129.00514919344684, 35.242564425721554 ], [ 129.013953422163979, 35.23998941147093 ], [ 129.012720779844472, 35.246599978962472 ], [ 129.016505089595029, 35.245045644273937 ], [ 129.03674292702641, 35.260533603655972 ], [ 129.048544261802647, 35.255252328639173 ], [ 129.04535703762582, 35.251544734322238 ], [ 129.04558251103424, 35.247306859710669 ], [ 129.049578033458857, 35.2451688856506 ], [ 129.050372359113339, 35.241253676212075 ], [ 129.044046005116655, 35.232763249750064 ], [ 129.044987026411889, 35.230308013701467 ], [ 129.04160394811754, 35.226834769823441 ], [ 129.025506170222513, 35.226490011887414 ], [ 129.023978572658336, 35.224346303011991 ], [ 129.019511173355482, 35.223922356212462 ], [ 129.015091553333065, 35.219272134913389 ], [ 129.012280289889162, 35.220519602744403 ], [ 129.011223061349284, 35.217927718596073 ], [ 129.00911090097992, 35.217153848553998 ], [ 129.008547200886028, 35.222184259549763 ], [ 129.007147801658306, 35.220148986398733 ], [ 129.005658747912861, 35.220445409978666 ], [ 129.004361449401529, 35.217342022995382 ], [ 129.005792013368847, 35.225366896612485 ], [ 129.001137025385873, 35.225617944912408 ], [ 128.996761407265922, 35.236076695061243 ] ] ] ] } },
{ "type": "Feature", "properties": { "emd_cd": "26320103", "emd_nm": "만덕동" }, "geometry": { "type": "MultiPolygon", "coordinates": [ [ [ [ 129.044987026411889, 35.230308013701467 ], [ 129.052163657336308, 35.228082954547403 ], [ 129.060453401802164, 35.229807615997387 ], [ 129.061777891315671, 35.22582815705109 ], [ 129.058891497370894, 35.224752273416833 ], [ 129.055816659483924, 35.217701474087342 ], [ 129.051223146861361, 35.212989677183508 ], [ 129.050414636948091, 35.207209485399133 ], [ 129.046558535765598, 35.201877164768142 ], [ 129.044204180267968, 35.20173650725058 ], [ 129.043974580260539, 35.199244448478893 ], [ 129.036323561617962, 35.19914675397019 ], [ 129.032435626118115, 35.195900970578236 ], [ 129.025540756954484, 35.194064326027409 ], [ 129.020753278332194, 35.203435520589224 ], [ 129.023910583591601, 35.205704715341028 ], [ 129.022290176568617, 35.20847215248898 ], [ 129.024282232069368, 35.212142945456861 ], [ 129.023340671046611, 35.214294761032335 ], [ 129.025579498473434, 35.215156861264056 ], [ 129.023348379416461, 35.218908464238787 ], [ 129.025757098130669, 35.224485478143862 ], [ 129.024833808290623, 35.225441275350043 ], [ 129.033577777808233, 35.227268667186557 ], [ 129.04160394811754, 35.226834769823441 ], [ 129.044987026411889, 35.230308013701467 ] ] ] ] } },
{ "type": "Feature", "properties": { "emd_cd": "26320104", "emd_nm": "덕천동" }, "geometry": { "type": "MultiPolygon", "coordinates": [ [ [ [ 128.991189984113674, 35.204415752192929 ], [ 128.995359581223028, 35.212694471092107 ], [ 128.998224394241731, 35.232914152439143 ], [ 129.001137025385873, 35.225617944912408 ], [ 129.005792013368847, 35.225366896612485 ], [ 129.004361449401529, 35.217342022995382 ], [ 129.005658747912861, 35.220445409978666 ], [ 129.007147801658306, 35.220148986398733 ], [ 129.008547200886028, 35.222184259549763 ], [ 129.00911090097992, 35.217153848553998 ], [ 129.011223061349284, 35.217927718596073 ], [ 129.012280289889162, 35.220519602744403 ], [ 129.015091553333065, 35.219272134913389 ], [ 129.019511173355482, 35.223922356212462 ], [ 129.024833808290623, 35.225441275350043 ], [ 129.025757098130669, 35.224485478143862 ], [ 129.023348379416461, 35.218908464238787 ], [ 129.025579498473434, 35.215156861264056 ], [ 129.023317577987484, 35.214228308898896 ], [ 129.024282232069368, 35.212142945456861 ], [ 129.022290176568617, 35.20847215248898 ], [ 129.023910583591601, 35.205704715341028 ], [ 129.022774775281022, 35.204350951398858 ], [ 129.017319144359703, 35.203124107852489 ], [ 129.011394788919631, 35.204886560438709 ], [ 129.007294241914622, 35.209347626307434 ], [ 129.000323484345699, 35.21170962645288 ], [ 128.995143071147822, 35.206242253066719 ], [ 128.991189984113674, 35.204415752192929 ] ] ] ] } },
{ "type": "Feature", "properties": { "emd_cd": "26320105", "emd_nm": "구포동" }, "geometry": { "type": "MultiPolygon", "coordinates": [ [ [ [ 128.98773679657063, 35.201460907036271 ], [ 129.000323484345756, 35.21170962645288 ], [ 129.007294241914707, 35.209347626307476 ], [ 129.011394788919631, 35.204886560438709 ], [ 129.020753278332137, 35.203435520589224 ], [ 129.024983143387288, 35.195955909228445 ], [ 129.02556148065031, 35.191737035917335 ], [ 129.021085141267037, 35.187475898404344 ], [ 129.01719936382608, 35.188821732389847 ], [ 129.007905230978679, 35.188127553368233 ], [ 129.004071276420603, 35.19033537551357 ], [ 129.000436870371601, 35.190200828260437 ], [ 129.000307066974585, 35.191851650392721 ], [ 128.993815281938197, 35.195332880062239 ], [ 128.990450085437487, 35.193894517690786 ], [ 128.990829337051537, 35.195626044565188 ], [ 128.987890259952763, 35.195904268417749 ], [ 128.98912130632749, 35.200119560158505 ], [ 128.98773679657063, 35.201460907036271 ] ] ] ] } }
]
}
