{
"type": "FeatureCollection",
"name": "26350",
"crs": { "type": "name", "properties": { "name": "urn:ogc:def:crs:OGC:1.3:CRS84" } },
"features": [
{ "type": "Feature", "properties": { "emd_cd": "26350101", "emd_nm": "반송동" }, "geometry": { "type": "MultiPolygon", "coordinates": [ [ [ [ 129.135667594907943, 35.236359301557442 ], [ 129.14132098617975, 35.242070115172325 ], [ 129.144617418973411, 35.250997650562631 ], [ 129.148662061661071, 35.246069404301998 ], [ 129.156390225537308, 35.244254641572269 ], [ 129.155378662895089, 35.23588706198143 ], [ 129.160902005709431, 35.235874504099002 ], [ 129.16248067225311, 35.232926645881214 ], [ 129.168807471958701, 35.228134725713133 ], [ 129.168583221059862, 35.224627906574234 ], [ 129.165181560282207, 35.219692826343511 ], [ 129.16489446990056, 35.215101851635467 ], [ 129.160395603830011, 35.211900041260549 ], [ 129.158999697006863, 35.204900024255679 ], [ 129.155989850319742, 35.204387430921251 ], [ 129.150366007778103, 35.206350761735756 ], [ 129.143582191569067, 35.210905668701415 ], [ 129.141200356963736, 35.21875456776089 ], [ 129.146231688454975, 35.223072407523638 ], [ 129.146056465665396, 35.225218961595289 ], [ 129.141699353997893, 35.229871174346563 ], [ 129.139318124345181, 35.229937815022652 ], [ 129.141007700224463, 35.233828420651946 ], [ 129.135667594907943, 35.236359301557442 ] ] ] ] } },
{ "type": "Feature", "properties": { "emd_cd": "26350102", "emd_nm": "석대동" }, "geometry": { "type": "MultiPolygon", "coordinates": [ [ [ [ 129.141200356963736, 35.21875456776089 ], [ 129.136667363636946, 35.217980772537807 ], [ 129.128111058830768, 35.219486980958727 ], [ 129.119176908323311, 35.214442241830199 ], [ 129.116816717894693, 35.222320382531436 ], [ 129.120702904964901, 35.225944890271165 ], [ 129.127014259787444, 35.227136755762729 ], [ 129.130484023768702, 35.231317055541403 ], [ 129.131024525582234, 35.235341066255565 ], [ 129.134778349962659, 35.236803023893366 ], [ 129.141007700224463, 35.233828420651946 ], [ 129.139318124345181, 35.229937815022652 ], [ 129.141699353997893, 35.229871174346563 ], [ 129.146056465665396, 35.225218961595289 ], [ 129.146231688454975, 35.223072407523638 ], [ 129.141200356963736, 35.21875456776089 ] ] ] ] } },
{ "type": "Feature", "properties": { "emd_cd": "26350103", "emd_nm": "반여동" }, "geometry": { "type": "MultiPolygon", "coordinates": [ [ [ [ 129.110240142012486, 35.210148203462737 ], [ 129.112205801704874, 35.212513718681045 ], [ 129.116697448008239, 35.21464744828338 ], [ 129.118912294087124, 35.21350365646834 ], [ 129.128111058830768, 35.219486980958727 ], [ 129.136667363636946, 35.217980772537807 ], [ 129.141200356963736, 35.21875456776089 ], [ 129.144560883683624, 35.209614508627368 ], [ 129.155989850319742, 35.204387430921251 ], [ 129.149454111534595, 35.19493216124544 ], [ 129.145511316850332, 35.192213759698518 ], [ 129.12642281638, 35.194580543067552 ], [ 129.119665047835014, 35.192149508591889 ], [ 129.114760502836077, 35.19423279264695 ], [ 129.114735753191809, 35.191456334629372 ], [ 129.114731441500908, 35.197683851212538 ], [ 129.116379604598421, 35.200926008435111 ], [ 129.110845012782818, 35.203976763225498 ], [ 129.110240142012486, 35.210148203462737 ] ] ] ] } },
{ "type": "Feature", "properties": { "emd_cd": "26350104", "emd_nm": "재송동" }, "geometry": { "type": "MultiPolygon", "coordinates": [ [ [ [ 129.11449459717619, 35.189923093385936 ], [ 129.114760502836077, 35.19423279264695 ], [ 129.119665047835014, 35.192149508591889 ], [ 129.12642281638, 35.194580543067552 ], [ 129.145511316850332, 35.192213759698518 ], [ 129.137271882426006, 35.180902050731895 ], [ 129.132011923614613, 35.176359200360992 ], [ 129.12393024997067, 35.173628576681224 ], [ 129.120824004666616, 35.173968116389283 ], [ 129.11449459717619, 35.189923093385936 ] ] ] ] } },
{ "type": "Feature", "properties": { "emd_cd": "26350105", "emd_nm": "우동" }, "geometry": { "type": "MultiPolygon", "coordinates": [ [ [ [ 129.138988032173842, 35.158604252345462 ], [ 129.138948600051634, 35.158521102087811 ], [ 129.138075746587788, 35.158536240785665 ], [ 129.138988032173842, 35.158604252345462 ] ] ], [ [ [ 129.132011923614613, 35.176359200360992 ], [ 129.152817680809363, 35.199348036506947 ], [ 129.159804102584701, 35.196750970958711 ], [ 129.161251581473635, 35.194852722364281 ], [ 129.161442116463718, 35.188536807335055 ], [ 129.16328438038596, 35.18765797741122 ], [ 129.161045273696999, 35.183965683779945 ], [ 129.166029746979319, 35.178822126011418 ], [ 129.16031903914859, 35.158918240687605 ], [ 129.155387378168342, 35.157211402871027 ], [ 129.152820824534274, 35.151887809635852 ], [ 129.150308749261058, 35.152071012618499 ], [ 129.14992154346001, 35.15435462015045 ], [ 129.152644770731911, 35.157689780024292 ], [ 129.14817600681684, 35.156384073713959 ], [ 129.146765723396726, 35.153498192865975 ], [ 129.142323053767399, 35.154664655313098 ], [ 129.13935152422701, 35.157489314314226 ], [ 129.14204660335281, 35.158560901792328 ], [ 129.13887668346203, 35.161310965174508 ], [ 129.137053647872165, 35.160283853219084 ], [ 129.138207276617862, 35.159283855997153 ], [ 129.13815675853283, 35.159003231262069 ], [ 129.134881176144063, 35.161529683325654 ], [ 129.135866012321912, 35.162713154030918 ], [ 129.134784810663632, 35.161934857912264 ], [ 129.126664260225596, 35.165722538793453 ], [ 129.120824004666616, 35.173968116389283 ], [ 129.132011923614613, 35.176359200360992 ] ] ] ] } },
{ "type": "Feature", "properties": { "emd_cd": "26350106", "emd_nm": "중동" }, "geometry": { "type": "MultiPolygon", "coordinates": [ [ [ [ 129.160014405530262, 35.159564459932703 ], [ 129.16309355969878, 35.166750757592354 ], [ 129.166461425120872, 35.166713858548015 ], [ 129.171282055246138, 35.170752196009381 ], [ 129.171179081503396, 35.173389245485041 ], [ 129.173262032076849, 35.17249171743822 ], [ 129.174022378703171, 35.167790445443835 ], [ 129.17702979526959, 35.166522607965497 ], [ 129.175393238625389, 35.164996995447481 ], [ 129.178068194920087, 35.163942327984422 ], [ 129.176798049651012, 35.16246811698251 ], [ 129.180792687988003, 35.16463507135461 ], [ 129.187177077388753, 35.164892703251368 ], [ 129.186005211945229, 35.167501205802495 ], [ 129.191302409977453, 35.165032418036198 ], [ 129.196644659316348, 35.165061514919522 ], [ 129.193766782888588, 35.160821826726092 ], [ 129.191537036801151, 35.159242352632937 ], [ 129.191879012683756, 35.160396025759169 ], [ 129.190128650580391, 35.159972937850341 ], [ 129.191221375788899, 35.158626204428209 ], [ 129.187844757382351, 35.159836979556459 ], [ 129.180934105437558, 35.154861033628528 ], [ 129.170975167924325, 35.157580674602819 ], [ 129.171924587906517, 35.157932565118941 ], [ 129.169645226031093, 35.159241515286958 ], [ 129.160014405530262, 35.159564459932703 ] ] ] ] } },
{ "type": "Feature", "properties": { "emd_cd": "26350107", "emd_nm": "좌동" }, "geometry": { "type": "MultiPolygon", "coordinates": [ [ [ [ 129.174312567872448, 35.168583131779187 ], [ 129.173262032076849, 35.17249171743822 ], [ 129.171179081503396, 35.173389245485041 ], [ 129.171282055246138, 35.170752196009381 ], [ 129.166461425120872, 35.166713858548015 ], [ 129.162908171265173, 35.166864755542697 ], [ 129.163734927391516, 35.174046978134612 ], [ 129.166029746979319, 35.178822126011418 ], [ 129.160952885617348, 35.184274337689708 ], [ 129.163265320169558, 35.186350865338071 ], [ 129.160465761046453, 35.192000807123229 ], [ 129.161251581473635, 35.194852722364281 ], [ 129.152817680809363, 35.199348036506947 ], [ 129.154726119924817, 35.204231030937336 ], [ 129.160033867183728, 35.206267910678392 ], [ 129.163079686683773, 35.20571090703482 ], [ 129.168194473012505, 35.201525145589237 ], [ 129.174885230387389, 35.201885120037709 ], [ 129.179147966543098, 35.197910846902893 ], [ 129.183345712468707, 35.197625827698282 ], [ 129.185446982024075, 35.195434450665026 ], [ 129.183182009984961, 35.190041406071224 ], [ 129.188180683098324, 35.189202758523415 ], [ 129.188874500214581, 35.18619785006122 ], [ 129.187573319164102, 35.183965680965507 ], [ 129.190124924966682, 35.182257730986919 ], [ 129.189132920402727, 35.179737744617839 ], [ 129.191810876409448, 35.174753512105973 ], [ 129.190558743041066, 35.167584048185219 ], [ 129.189417373455569, 35.166098683080442 ], [ 129.186005211945229, 35.167501205802495 ], [ 129.187177077388753, 35.164892703251368 ], [ 129.180792687988003, 35.16463507135461 ], [ 129.176798049651012, 35.16246811698251 ], [ 129.178068194920087, 35.163942327984422 ], [ 129.175393238625389, 35.164996995447481 ], [ 129.17702979526959, 35.166522607965497 ], [ 129.174312567872448, 35.168583131779187 ] ] ] ] } },
{ "type": "Feature", "properties": { "emd_cd": "26350108", "emd_nm": "송정동" }, "geometry": { "type": "MultiPolygon", "coordinates": [ [ [ [ 129.217473748435651, 35.169186417833494 ], [ 129.217482544048607, 35.169258158747155 ], [ 129.217521835665252, 35.169218672569762 ], [ 129.217473748435651, 35.169186417833494 ] ] ], [ [ [ 129.188737939558962, 35.189699893441279 ], [ 129.193861699868307, 35.194915356917328 ], [ 129.194838753424506, 35.198538661249295 ], [ 129.199349599005103, 35.200089713306191 ], [ 129.206936487955375, 35.196854039178369 ], [ 129.206490125727328, 35.187894402044371 ], [ 129.20778661456086, 35.187302627884748 ], [ 129.206923461817667, 35.185138153091685 ], [ 129.208416589091485, 35.181985880797257 ], [ 129.20638272102866, 35.181542323506541 ], [ 129.205907035122863, 35.180447698667798 ], [ 129.207549376665696, 35.180484863190919 ], [ 129.206537715669327, 35.179042076480691 ], [ 129.20262690734657, 35.180540639917737 ], [ 129.198219196271594, 35.177265522430517 ], [ 129.196644659316348, 35.165061514919522 ], [ 129.189417373455569, 35.166098683080442 ], [ 129.191810876409448, 35.174753512105973 ], [ 129.189132920402727, 35.179737744617839 ], [ 129.190124924966682, 35.182257730986919 ], [ 129.187573319164102, 35.183965680965507 ], [ 129.188737939558962, 35.189699893441279 ] ] ] ] } }
]
}
