{
"type": "FeatureCollection",
"name": "26440",
"crs": { "type": "name", "properties": { "name": "urn:ogc:def:crs:OGC:1.3:CRS84" } },
"features": [
{ "type": "Feature", "properties": { "emd_cd": "26440101", "emd_nm": "대저1동" }, "geometry": { "type": "MultiPolygon", "coordinates": [ [ [ [ 128.99675833077012, 35.236084356363214 ], [ 128.998224471118107, 35.232914711274553 ], [ 128.995359581223028, 35.212694471092107 ], [ 128.993173626145989, 35.206747718773478 ], [ 128.987736796570687, 35.201460907036228 ], [ 128.975875486049432, 35.198420247774386 ], [ 128.9700830518847, 35.194813488356608 ], [ 128.965602988362122, 35.196744108165419 ], [ 128.963580048108298, 35.19481162999444 ], [ 128.963474824448582, 35.203140063122746 ], [ 128.962121305344425, 35.202793152824917 ], [ 128.952387780343344, 35.198455014616535 ], [ 128.957315124879756, 35.192730816303751 ], [ 128.949999216666157, 35.187671444304215 ], [ 128.944495792603504, 35.192398457559733 ], [ 128.940880716773421, 35.187678585356061 ], [ 128.938220678790685, 35.18818216278855 ], [ 128.938202556567859, 35.190599304839374 ], [ 128.930932368648257, 35.190892015176459 ], [ 128.929017465298841, 35.189679470523622 ], [ 128.926326893833107, 35.191117378241316 ], [ 128.929940693878478, 35.193623245297395 ], [ 128.935128926688861, 35.202562713175823 ], [ 128.945637165843095, 35.214072903066217 ], [ 128.943997477589591, 35.225516345216455 ], [ 128.956696019072012, 35.22525202217561 ], [ 128.97631215598733, 35.227770452950516 ], [ 128.989700956333166, 35.231676305478267 ], [ 128.99675833077012, 35.236084356363214 ] ] ] ] } },
{ "type": "Feature", "properties": { "emd_cd": "26440102", "emd_nm": "대저2동" }, "geometry": { "type": "MultiPolygon", "coordinates": [ [ [ [ 128.916576076113529, 35.17215200195561 ], [ 128.922060707411163, 35.187580732992338 ], [ 128.926326893833107, 35.191117378241316 ], [ 128.929017465298841, 35.189679470523622 ], [ 128.930932368648257, 35.190892015176459 ], [ 128.938202556567859, 35.190599304839374 ], [ 128.938220678790685, 35.18818216278855 ], [ 128.940880716773421, 35.187678585356061 ], [ 128.944495792603504, 35.192398457559733 ], [ 128.949999216666157, 35.187671444304215 ], [ 128.957315124879756, 35.192730816303751 ], [ 128.952387780343344, 35.198455014616535 ], [ 128.962121305344425, 35.202793152824917 ], [ 128.963474824448582, 35.203140063122746 ], [ 128.963580048108298, 35.19481162999444 ], [ 128.965602988362122, 35.196744108165419 ], [ 128.9700830518847, 35.194813488356608 ], [ 128.975875486049432, 35.198420247774386 ], [ 128.98773570958295, 35.201459978523928 ], [ 128.977069602828635, 35.193328328138129 ], [ 128.966320336740836, 35.187899531537717 ], [ 128.96361802658825, 35.184509899233518 ], [ 128.959640574347702, 35.136646476249886 ], [ 128.953084539763069, 35.131279077934408 ], [ 128.947781893088006, 35.122697252610457 ], [ 128.934858456567554, 35.111898754985575 ], [ 128.93229396983682, 35.119032677406324 ], [ 128.91839078261583, 35.133543503949724 ], [ 128.925313377639327, 35.144317834719899 ], [ 128.925842921178202, 35.149939747719166 ], [ 128.920919954810245, 35.15873669144294 ], [ 128.916576076113529, 35.17215200195561 ] ], [ [ 128.917467258693421, 35.16954545916402 ], [ 128.917449023089148, 35.169526914699404 ], [ 128.917467258739777, 35.169545414096412 ], [ 128.917467258693421, 35.16954545916402 ] ], [ [ 128.917462510954607, 35.169497612040715 ], [ 128.917459642714931, 35.169468748720107 ], [ 128.917459653691822, 35.169468748727709 ], [ 128.917462510954607, 35.169497612040715 ] ] ] ] } },
{ "type": "Feature", "properties": { "emd_cd": "26440103", "emd_nm": "강동동" }, "geometry": { "type": "MultiPolygon", "coordinates": [ [ [ [ 128.907293018144088, 35.201942621452311 ], [ 128.918585745253921, 35.210928298000297 ], [ 128.920128033646478, 35.216422600881486 ], [ 128.929239515774299, 35.220031598162542 ], [ 128.940165234571538, 35.22738322457495 ], [ 128.943997694812225, 35.228325476700469 ], [ 128.948142453885424, 35.225378532541249 ], [ 128.943997477589591, 35.225516345216455 ], [ 128.945637165843095, 35.214072903066217 ], [ 128.935128926688861, 35.202562713175823 ], [ 128.929940693878478, 35.193623245297395 ], [ 128.922060707411163, 35.187580732992338 ], [ 128.916994312678526, 35.175017333819632 ], [ 128.919278942274133, 35.163386399104795 ], [ 128.925842921178202, 35.149939747719166 ], [ 128.925313377639327, 35.144317834719899 ], [ 128.918552601805573, 35.134429019293727 ], [ 128.911028949279256, 35.134220834910053 ], [ 128.905010800747419, 35.131243966011638 ], [ 128.902130805048046, 35.13170043222344 ], [ 128.901884728997317, 35.133484560005265 ], [ 128.901810392297079, 35.155593972266288 ], [ 128.906104841801096, 35.185022188251686 ], [ 128.90583623329664, 35.198385209268167 ], [ 128.907293018144088, 35.201942621452311 ] ] ] ] } },
{ "type": "Feature", "properties": { "emd_cd": "26440104", "emd_nm": "명지동" }, "geometry": { "type": "MultiPolygon", "coordinates": [ [ [ [ 128.886131550725565, 35.062028506830728 ], [ 128.888270613454353, 35.064803122860312 ], [ 128.888973076207662, 35.062722254045013 ], [ 128.892743192153176, 35.060521302052209 ], [ 128.897418033549741, 35.061077759645471 ], [ 128.917289695483248, 35.054084063181215 ], [ 128.917651564206579, 35.052616215118555 ], [ 128.922143681658468, 35.053220989241368 ], [ 128.916832348301654, 35.051842540840802 ], [ 128.891655951246975, 35.05904420432261 ], [ 128.886131550725565, 35.062028506830728 ] ] ], [ [ [ 128.905635895377571, 35.060422651997555 ], [ 128.910404791472217, 35.062339841376236 ], [ 128.919749551117746, 35.059994640346353 ], [ 128.91667454282944, 35.056582287771263 ], [ 128.908406018909204, 35.058636129898709 ], [ 128.905635895377571, 35.060422651997555 ] ] ], [ [ [ 128.902860227258088, 35.070916236093801 ], [ 128.911961716504862, 35.076086325004844 ], [ 128.923862580971786, 35.077623509588413 ], [ 128.921571517522608, 35.074690776117663 ], [ 128.916547612051716, 35.075838905990047 ], [ 128.909324800763272, 35.073378337938607 ], [ 128.904003687243545, 35.069580341026139 ], [ 128.902860227258088, 35.070916236093801 ] ] ], [ [ [ 128.927090399977146, 35.093278381954768 ], [ 128.927344625349036, 35.093744903677781 ], [ 128.927449000354954, 35.093655371753023 ], [ 128.927090399977146, 35.093278381954768 ] ] ], [ [ [ 128.928682034013519, 35.093734716821089 ], [ 128.929238729463208, 35.093834830624338 ], [ 128.929229697341384, 35.093755054468247 ], [ 128.928682034013519, 35.093734716821089 ] ] ], [ [ [ 128.928122481016942, 35.094623305636752 ], [ 128.929494232679247, 35.09448558749925 ], [ 128.929432304634361, 35.094071644093326 ], [ 128.928122481016942, 35.094623305636752 ] ] ], [ [ [ 128.929464907275388, 35.094785093554059 ], [ 128.92942445098646, 35.094896568332423 ], [ 128.929502120950843, 35.0948692129504 ], [ 128.929464907275388, 35.094785093554059 ] ] ], [ [ [ 128.929177128605403, 35.09528977668468 ], [ 128.92929214075545, 35.095201150899264 ], [ 128.929139417163867, 35.095148510387361 ], [ 128.929177128605403, 35.09528977668468 ] ] ], [ [ [ 128.89781193539244, 35.093401547732768 ], [ 128.899356734191457, 35.092510894629598 ], [ 128.89890302491122, 35.094428372171635 ], [ 128.897851553290309, 35.093795712216881 ], [ 128.900491834448871, 35.104123024097319 ], [ 128.900587241209649, 35.111260090991571 ], [ 128.905632053730073, 35.118101639749121 ], [ 128.900582777712515, 35.119512049515144 ], [ 128.902130805048046, 35.13170043222344 ], [ 128.905010800747419, 35.131243966011638 ], [ 128.911028949279256, 35.134220834910053 ], [ 128.918552601805573, 35.134429019293727 ], [ 128.93229396983682, 35.119032677406324 ], [ 128.934819499530988, 35.112053587583276 ], [ 128.935290645813012, 35.109859929980914 ], [ 128.932744426441843, 35.110511280608279 ], [ 128.932429033003388, 35.106256940616483 ], [ 128.929744535759767, 35.106193143849254 ], [ 128.930664057136909, 35.096024093899572 ], [ 128.928543330597108, 35.096539499632094 ], [ 128.925077473108644, 35.09290901373577 ], [ 128.92897580288701, 35.092530308772247 ], [ 128.930247517672314, 35.095025318507147 ], [ 128.930190628191468, 35.092722298236438 ], [ 128.928983336479973, 35.09244405265094 ], [ 128.92462065531322, 35.09238377032181 ], [ 128.913154411653323, 35.087602244744083 ], [ 128.911112325612947, 35.079050561951419 ], [ 128.895378268306047, 35.079037282993376 ], [ 128.895368212946039, 35.086382957166961 ], [ 128.89781193539244, 35.093401547732768 ] ] ] ] } },
{ "type": "Feature", "properties": { "emd_cd": "26440105", "emd_nm": "죽림동" }, "geometry": { "type": "MultiPolygon", "coordinates": [ [ [ [ 128.89357322639799, 35.209715017738894 ], [ 128.907222505654659, 35.20661263079289 ], [ 128.904059904810339, 35.203871743990554 ], [ 128.905671098169051, 35.204639084567162 ], [ 128.907293018144088, 35.201942621452311 ], [ 128.905475664188799, 35.195082020441539 ], [ 128.906213861429421, 35.189447634717233 ], [ 128.901548184603712, 35.190654065233048 ], [ 128.900651144979378, 35.19397202863766 ], [ 128.895987902769406, 35.194704649827351 ], [ 128.894270486954497, 35.197073825660084 ], [ 128.891704488866765, 35.20479423524614 ], [ 128.89357322639799, 35.209715017738894 ] ] ] ] } },
{ "type": "Feature", "properties": { "emd_cd": "26440106", "emd_nm": "식만동" }, "geometry": { "type": "MultiPolygon", "coordinates": [ [ [ [ 128.920128033646478, 35.216422600881486 ], [ 128.918585745253921, 35.210928298000297 ], [ 128.907293018144088, 35.201942621452311 ], [ 128.905671098169051, 35.204639084567162 ], [ 128.904059904810339, 35.203871743990554 ], [ 128.907222505654659, 35.20661263079289 ], [ 128.893572403626564, 35.209764158446248 ], [ 128.894459981975871, 35.212288176243014 ], [ 128.896611932384701, 35.213142461918459 ], [ 128.909693921308332, 35.215460978834514 ], [ 128.905018001901766, 35.220073047830141 ], [ 128.909482055649306, 35.223057991097335 ], [ 128.912503070025053, 35.222515204593591 ], [ 128.916652700246829, 35.216960844502673 ], [ 128.918257973107586, 35.217872047175263 ], [ 128.920128033646478, 35.216422600881486 ] ] ] ] } },
{ "type": "Feature", "properties": { "emd_cd": "26440107", "emd_nm": "죽동동" }, "geometry": { "type": "MultiPolygon", "coordinates": [ [ [ [ 128.889084324044973, 35.214799235642317 ], [ 128.896611932384701, 35.213142461918459 ], [ 128.894386012942562, 35.212163094083941 ], [ 128.891704488866765, 35.20479423524614 ], [ 128.895263538041917, 35.195635408154608 ], [ 128.892469016762078, 35.19626460040454 ], [ 128.890350589716604, 35.197430427373853 ], [ 128.887964470321521, 35.196603120336832 ], [ 128.885318418879393, 35.191952903791361 ], [ 128.88906382365775, 35.18679513529014 ], [ 128.886956613980658, 35.1839472374701 ], [ 128.881668788366994, 35.181671801489749 ], [ 128.876059444041744, 35.188094395209021 ], [ 128.876193393801287, 35.192630549355798 ], [ 128.870354618367145, 35.201558727859478 ], [ 128.878987463174411, 35.209994579476309 ], [ 128.889084324044973, 35.214799235642317 ] ], [ [ 128.895000614415835, 35.196146296398382 ], [ 128.894816887120129, 35.196441290549082 ], [ 128.894823948667607, 35.196406874245845 ], [ 128.894862340939653, 35.196336377474786 ], [ 128.894927749767362, 35.196237205499813 ], [ 128.894998923087428, 35.196146547289629 ], [ 128.895026050140132, 35.196058392146519 ], [ 128.895077229852063, 35.19593238343262 ], [ 128.895222059442347, 35.19564799968483 ], [ 128.895000614415835, 35.196146296398382 ] ] ] ] } },
{ "type": "Feature", "properties": { "emd_cd": "26440108", "emd_nm": "봉림동" }, "geometry": { "type": "MultiPolygon", "coordinates": [ [ [ [ 128.890413898661905, 35.197418524530768 ], [ 128.894926289802925, 35.195496547609963 ], [ 128.895263538041917, 35.195635408154608 ], [ 128.895048343751853, 35.196485497962541 ], [ 128.896318685402719, 35.194568184672136 ], [ 128.900280915876465, 35.194209216533004 ], [ 128.901426790648003, 35.190735861709584 ], [ 128.906213861429421, 35.189447634717233 ], [ 128.901810392297079, 35.155593972266288 ], [ 128.901884728997317, 35.133484560005265 ], [ 128.893013859964526, 35.137644738958159 ], [ 128.888299506589135, 35.14422906310616 ], [ 128.88708411884059, 35.15567566542321 ], [ 128.891785030914804, 35.162319244717771 ], [ 128.880190275453543, 35.173853267937417 ], [ 128.880675369871881, 35.180907190441872 ], [ 128.886956613980658, 35.1839472374701 ], [ 128.88906382365775, 35.18679513529014 ], [ 128.885322385346882, 35.19202046374739 ], [ 128.887964470321521, 35.196603120336832 ], [ 128.890413898661905, 35.197418524530768 ] ] ], [ [ [ 128.894825639295362, 35.19640716416589 ], [ 128.895000614415835, 35.196146296398382 ], [ 128.895078844288889, 35.195932150499694 ], [ 128.895149249250352, 35.195824086469599 ], [ 128.895222059442347, 35.19564799968483 ], [ 128.894825639295362, 35.19640716416589 ] ] ] ] } },
{ "type": "Feature", "properties": { "emd_cd": "26440109", "emd_nm": "송정동" }, "geometry": { "type": "MultiPolygon", "coordinates": [ [ [ [ 128.823725766157992, 35.095714702039494 ], [ 128.823542191467425, 35.095784243441528 ], [ 128.823615268520399, 35.095868447809416 ], [ 128.823725766157992, 35.095714702039494 ] ] ], [ [ [ 128.82101363797463, 35.096497496799586 ], [ 128.82088814235243, 35.096914812322431 ], [ 128.821045393971019, 35.096883129100355 ], [ 128.82101363797463, 35.096497496799586 ] ] ], [ [ [ 128.848994263666043, 35.12234463072101 ], [ 128.847862662283319, 35.11609225250956 ], [ 128.849610046306225, 35.114460872560684 ], [ 128.853590561370964, 35.114403481241048 ], [ 128.854656339918137, 35.117113554348926 ], [ 128.856396843785092, 35.115270861529311 ], [ 128.859243366449135, 35.115223586246756 ], [ 128.853990219279638, 35.101184351999372 ], [ 128.8658330118528, 35.09927097948713 ], [ 128.870810913154514, 35.08877149619785 ], [ 128.870681270122333, 35.085144263023309 ], [ 128.868215945693265, 35.083342724714043 ], [ 128.837607623944677, 35.08339068946421 ], [ 128.835323697243155, 35.088773237416774 ], [ 128.83211094335266, 35.088408248366449 ], [ 128.821780689967056, 35.097812813810023 ], [ 128.821827018966928, 35.097391315035999 ], [ 128.820894643682408, 35.097313855363474 ], [ 128.820452622536891, 35.096389389544697 ], [ 128.820348481099018, 35.09641807768044 ], [ 128.823566406898692, 35.101945129040971 ], [ 128.824862953836629, 35.102335781631268 ], [ 128.831587728575471, 35.102647074278615 ], [ 128.834801160665677, 35.101803900991932 ], [ 128.841700900703273, 35.105989567840858 ], [ 128.843169722701106, 35.109162646804101 ], [ 128.842784765770148, 35.113506650263695 ], [ 128.838491615721892, 35.115205699314529 ], [ 128.835984849503774, 35.118876049834299 ], [ 128.837536594481833, 35.120822228592026 ], [ 128.838411555175327, 35.123716006068157 ], [ 128.832975339473649, 35.129940999423901 ], [ 128.836802655762767, 35.129359131670803 ], [ 128.841532574316687, 35.125790540170733 ], [ 128.845319380201346, 35.126291332148703 ], [ 128.846196475585174, 35.123309257232606 ], [ 128.848994263666043, 35.12234463072101 ] ], [ [ 128.821857665624748, 35.097919649191518 ], [ 128.82186113780773, 35.09793669009084 ], [ 128.821851092758465, 35.097916214278406 ], [ 128.821857665624748, 35.097919649191518 ] ], [ [ 128.825442137137941, 35.102345871679006 ], [ 128.825342902975507, 35.102339093573562 ], [ 128.825562558221975, 35.102354104589246 ], [ 128.825442137137941, 35.102345871679006 ] ] ] ] } },
{ "type": "Feature", "properties": { "emd_cd": "26440110", "emd_nm": "화전동" }, "geometry": { "type": "MultiPolygon", "coordinates": [ [ [ [ 128.883206418332293, 35.112336783065814 ], [ 128.883244089294806, 35.111149879785991 ], [ 128.886195995347123, 35.11115970721557 ], [ 128.885759408122595, 35.112188258850431 ], [ 128.887961649421726, 35.109284502890006 ], [ 128.889620358718361, 35.109414632347409 ], [ 128.888300639368452, 35.095203094530738 ], [ 128.87188007289194, 35.100290994109621 ], [ 128.865931381018555, 35.099064587129043 ], [ 128.853989890230935, 35.10118436061294 ], [ 128.856633598864306, 35.107241997924625 ], [ 128.859755112179982, 35.10637560106948 ], [ 128.861627702676856, 35.107950200929544 ], [ 128.867183865670569, 35.107963871883413 ], [ 128.868370406186074, 35.106443410307861 ], [ 128.87180738561446, 35.106508786913899 ], [ 128.872221279519749, 35.104668241090167 ], [ 128.873240653835836, 35.112186736265649 ], [ 128.880284609193751, 35.111040462585819 ], [ 128.880286404237552, 35.11231051891194 ], [ 128.883206418332293, 35.112336783065814 ] ] ] ] } },
{ "type": "Feature", "properties": { "emd_cd": "26440111", "emd_nm": "녹산동" }, "geometry": { "type": "MultiPolygon", "coordinates": [ [ [ [ 128.901884728997317, 35.133484560005265 ], [ 128.902408708155093, 35.126274116499438 ], [ 128.900582777712515, 35.119512049515144 ], [ 128.896770656850066, 35.119569749963951 ], [ 128.889471452122478, 35.107837543816196 ], [ 128.889620358718361, 35.109414632347409 ], [ 128.887961649421726, 35.109284502890006 ], [ 128.885759408122595, 35.112188258850431 ], [ 128.886195995347123, 35.11115970721557 ], [ 128.880286404237552, 35.11231051891194 ], [ 128.880284609193751, 35.111040462585819 ], [ 128.878354378042559, 35.111039852337782 ], [ 128.878358772813158, 35.112304575240103 ], [ 128.873455857805936, 35.112279064746879 ], [ 128.872221279519749, 35.104668241090167 ], [ 128.87180738561446, 35.106508786913899 ], [ 128.868370406186074, 35.106443410307861 ], [ 128.867183865670569, 35.107963871883413 ], [ 128.861627702676856, 35.107950200929544 ], [ 128.859755112179982, 35.10637560106948 ], [ 128.856633598864306, 35.107241997924625 ], [ 128.861622732430988, 35.11811745884782 ], [ 128.877920266106429, 35.123061904807649 ], [ 128.884065840335609, 35.121836392833764 ], [ 128.88779575588481, 35.126152232639839 ], [ 128.890900566683769, 35.12478458641602 ], [ 128.895881444592447, 35.126855933961806 ], [ 128.901884728997317, 35.133484560005265 ] ] ] ] } },
{ "type": "Feature", "properties": { "emd_cd": "26440112", "emd_nm": "생곡동" }, "geometry": { "type": "MultiPolygon", "coordinates": [ [ [ [ 128.875390892804575, 35.142692057784735 ], [ 128.896405353397, 35.137084106495713 ], [ 128.901884728997317, 35.133484560005236 ], [ 128.892692726135039, 35.125155043851386 ], [ 128.887795755884781, 35.126152232639797 ], [ 128.884065840335609, 35.121836392833714 ], [ 128.877920266106486, 35.123061904807635 ], [ 128.870613089610032, 35.12102004973034 ], [ 128.869091637916824, 35.122285530030418 ], [ 128.868949022968394, 35.126823268749391 ], [ 128.859964082866128, 35.130465700201135 ], [ 128.861693905769243, 35.132127414224279 ], [ 128.861684785857932, 35.137272417733548 ], [ 128.863097695549953, 35.139179850790207 ], [ 128.875390892804575, 35.142692057784735 ] ] ] ] } },
{ "type": "Feature", "properties": { "emd_cd": "26440113", "emd_nm": "구랑동" }, "geometry": { "type": "MultiPolygon", "coordinates": [ [ [ [ 128.849790390067938, 35.114452607466276 ], [ 128.847554705458521, 35.117791431049902 ], [ 128.848998587592433, 35.122349710813026 ], [ 128.846196124522493, 35.123309256782946 ], [ 128.845319029125847, 35.126291331696478 ], [ 128.841532223243519, 35.125790539707644 ], [ 128.836802304674222, 35.129359131194015 ], [ 128.838569601100005, 35.132869559486181 ], [ 128.841107014669831, 35.134788039363201 ], [ 128.843055176729393, 35.133546240454443 ], [ 128.846063200776115, 35.134783146252367 ], [ 128.848917762280763, 35.140829687492896 ], [ 128.863127464486695, 35.139270948889845 ], [ 128.861683954698123, 35.13727080334516 ], [ 128.861693236206179, 35.132127575696821 ], [ 128.859963698514576, 35.130465898051426 ], [ 128.868949011968027, 35.126823286764612 ], [ 128.870404101888283, 35.119835364650712 ], [ 128.863501895600393, 35.119161980747187 ], [ 128.859243015420901, 35.115223585834975 ], [ 128.856252600446879, 35.115346916947324 ], [ 128.854655988881802, 35.117113553923822 ], [ 128.853623415136724, 35.114458161796726 ], [ 128.849790390067938, 35.114452607466276 ] ] ] ] } },
{ "type": "Feature", "properties": { "emd_cd": "26440114", "emd_nm": "지사동" }, "geometry": { "type": "MultiPolygon", "coordinates": [ [ [ [ 128.794791678839232, 35.153271493427773 ], [ 128.794519561068626, 35.15853790868222 ], [ 128.800594862040441, 35.158067710100447 ], [ 128.805871317231038, 35.160437616786773 ], [ 128.808706584973464, 35.158939153343113 ], [ 128.815965317076632, 35.160162081482142 ], [ 128.825880226138338, 35.155651696304098 ], [ 128.833863584760792, 35.157266869881049 ], [ 128.836005137110448, 35.159137959070904 ], [ 128.840595469051209, 35.158787834392463 ], [ 128.844166640630078, 35.15760868389377 ], [ 128.847119281692557, 35.149732205273878 ], [ 128.851303035478708, 35.147625404419628 ], [ 128.853831857651045, 35.143877544525573 ], [ 128.851147572472939, 35.140404662198527 ], [ 128.847518503964807, 35.139659606695105 ], [ 128.848683638774787, 35.138833355668552 ], [ 128.846063211799731, 35.13478311922578 ], [ 128.843055143778287, 35.1335462584385 ], [ 128.840513254201852, 35.134540532845229 ], [ 128.836883241519729, 35.129337437243315 ], [ 128.832975032213341, 35.129941026037628 ], [ 128.827293550116934, 35.128107475540652 ], [ 128.824283743638802, 35.130958075662633 ], [ 128.815348543700054, 35.132606880323415 ], [ 128.807391611188734, 35.139428490161009 ], [ 128.80678290500191, 35.142441558674719 ], [ 128.802176793976486, 35.141840169401718 ], [ 128.801784323443712, 35.146586782685482 ], [ 128.794791678839232, 35.153271493427773 ] ] ] ] } },
{ "type": "Feature", "properties": { "emd_cd": "26440115", "emd_nm": "미음동" }, "geometry": { "type": "MultiPolygon", "coordinates": [ [ [ [ 128.874960585340176, 35.142662946312406 ], [ 128.863097695549953, 35.139179850790207 ], [ 128.851010863435675, 35.140253389115109 ], [ 128.853831857651102, 35.143877544525573 ], [ 128.851303035478708, 35.147625404419628 ], [ 128.847119281692557, 35.149732205273907 ], [ 128.846185540829708, 35.154091498179859 ], [ 128.842944321798171, 35.157991113124503 ], [ 128.844459909416827, 35.162803746653353 ], [ 128.852119771839398, 35.166338711902135 ], [ 128.863343690483191, 35.167835562319077 ], [ 128.86173384393993, 35.16308002439289 ], [ 128.867352400328087, 35.163560755219578 ], [ 128.86916813670868, 35.161250526108532 ], [ 128.868297156936706, 35.159009589814517 ], [ 128.86566166567593, 35.159566225865255 ], [ 128.862951114183375, 35.157276584277128 ], [ 128.871071589673988, 35.15037140619399 ], [ 128.878617061334751, 35.148955498227267 ], [ 128.874960585340176, 35.142662946312406 ] ] ] ] } },
{ "type": "Feature", "properties": { "emd_cd": "26440116", "emd_nm": "범방동" }, "geometry": { "type": "MultiPolygon", "coordinates": [ [ [ [ 128.871071589673988, 35.15037140619399 ], [ 128.862951114183375, 35.157276584277128 ], [ 128.865503246070659, 35.159063417040656 ], [ 128.871662477005856, 35.150464889101087 ], [ 128.876656389549481, 35.151279227401048 ], [ 128.874694105876159, 35.153600831001945 ], [ 128.874169348420054, 35.158588766351535 ], [ 128.881141902786624, 35.159126075338662 ], [ 128.881931218382078, 35.161716501428479 ], [ 128.879784229986541, 35.161785733911351 ], [ 128.876037644321173, 35.165543010907264 ], [ 128.8781230910906, 35.168491504093829 ], [ 128.876943730530002, 35.170149057666087 ], [ 128.872353488923778, 35.172274257891665 ], [ 128.873478532259185, 35.174137762462472 ], [ 128.885097564195775, 35.169665258114655 ], [ 128.891785030914804, 35.162319244717771 ], [ 128.88750185405209, 35.157312036213341 ], [ 128.88689370933713, 35.154181931023189 ], [ 128.888159496757652, 35.144592188105449 ], [ 128.893013859964526, 35.137644738958201 ], [ 128.874930374048404, 35.142664041474916 ], [ 128.878617061334751, 35.148955498227267 ], [ 128.871071589673988, 35.15037140619399 ] ], [ [ 128.863853842329576, 35.156677436716556 ], [ 128.863856984058003, 35.15667576376427 ], [ 128.863849371342695, 35.156679856283674 ], [ 128.863853842329576, 35.156677436716556 ] ], [ [ 128.86387712034437, 35.156664645883303 ], [ 128.863874615633165, 35.156666049152861 ], [ 128.86387584602312, 35.156665356506714 ], [ 128.86387712034437, 35.156664645883303 ] ] ], [ [ [ 128.86173384393993, 35.16308002439289 ], [ 128.863462316433271, 35.16798469112144 ], [ 128.867385976347634, 35.167714913614297 ], [ 128.87149992688984, 35.165062404654073 ], [ 128.872733254710482, 35.1617781695522 ], [ 128.867925636973808, 35.158605455360501 ], [ 128.867024519938298, 35.159558109956095 ], [ 128.868715073996896, 35.159616677801019 ], [ 128.868701570528373, 35.163010576327807 ], [ 128.86173384393993, 35.16308002439289 ] ] ] ] } },
{ "type": "Feature", "properties": { "emd_cd": "26440117", "emd_nm": "신호동" }, "geometry": { "type": "MultiPolygon", "coordinates": [ [ [ [ 128.858929592943014, 35.070488308391717 ], [ 128.883806651184358, 35.067353543857358 ], [ 128.885059992399817, 35.068650920215774 ], [ 128.885671121180849, 35.065680595024197 ], [ 128.879984284968373, 35.063709077560709 ], [ 128.87411689565468, 35.0638350577835 ], [ 128.86000219583633, 35.068788160284413 ], [ 128.858929592943014, 35.070488308391717 ] ] ], [ [ [ 128.865954105465249, 35.099184043158296 ], [ 128.87188007289194, 35.100290994109621 ], [ 128.888300639368452, 35.095203094530738 ], [ 128.887585291415093, 35.088949117904569 ], [ 128.883217170278613, 35.082321794606827 ], [ 128.884183362379133, 35.079378870393967 ], [ 128.868997647482416, 35.081577805214735 ], [ 128.870703654608633, 35.084021636387654 ], [ 128.872398025572977, 35.082847168754114 ], [ 128.872396250273766, 35.084740575590317 ], [ 128.865954105465249, 35.099184043158296 ] ] ] ] } },
{ "type": "Feature", "properties": { "emd_cd": "26440118", "emd_nm": "동선동" }, "geometry": { "type": "MultiPolygon", "coordinates": [ [ [ [ 128.817834822526066, 35.048134309670232 ], [ 128.822225258720664, 35.050378975814269 ], [ 128.831435739240078, 35.050496609319772 ], [ 128.831039298532602, 35.054551586140299 ], [ 128.832936521221001, 35.056344247299656 ], [ 128.837705650558831, 35.053459562531046 ], [ 128.842002344046108, 35.053998264872604 ], [ 128.846092758100298, 35.056642060218955 ], [ 128.845542839689216, 35.060112761617589 ], [ 128.845866734492489, 35.060556001875057 ], [ 128.846704156616084, 35.061178638736536 ], [ 128.845893850223121, 35.058032537021759 ], [ 128.850591835768768, 35.050311557813686 ], [ 128.850899588917287, 35.042083053693744 ], [ 128.8490099534975, 35.037267548732402 ], [ 128.84350154828681, 35.032011000605713 ], [ 128.840302351371918, 35.03567880711433 ], [ 128.82535001513682, 35.040468202670539 ], [ 128.817834822526066, 35.048134309670232 ] ] ] ] } },
{ "type": "Feature", "properties": { "emd_cd": "26440119", "emd_nm": "성북동" }, "geometry": { "type": "MultiPolygon", "coordinates": [ [ [ [ 128.791056709006398, 35.053476605550593 ], [ 128.791034672519629, 35.061598075779145 ], [ 128.794316352423806, 35.062396566093369 ], [ 128.795039391656161, 35.059585711034828 ], [ 128.805214307881414, 35.06127084733545 ], [ 128.805650565375942, 35.059545432223793 ], [ 128.805131711480243, 35.061199866183728 ], [ 128.795032721692905, 35.059535403349507 ], [ 128.79425323928595, 35.062297398019147 ], [ 128.791171969556331, 35.06157974565329 ], [ 128.791374108014679, 35.05353601490124 ], [ 128.795998910824949, 35.05354618760304 ], [ 128.796505429658851, 35.054382703353966 ], [ 128.797118828157579, 35.054693628523964 ], [ 128.801934028111702, 35.055634649058248 ], [ 128.805764969958886, 35.055863264931254 ], [ 128.806060065209891, 35.059749531222494 ], [ 128.807511220484287, 35.058553941071054 ], [ 128.811012253015605, 35.060323555007827 ], [ 128.822556577975888, 35.061241269123599 ], [ 128.824047862447998, 35.065381882879166 ], [ 128.806291383828466, 35.061447630380954 ], [ 128.804987420743799, 35.066747910642036 ], [ 128.832389432443364, 35.071303420247119 ], [ 128.832381559030182, 35.074908876062949 ], [ 128.834958699375733, 35.074912440672151 ], [ 128.835137521126882, 35.077617235469667 ], [ 128.811514896437302, 35.077580382455537 ], [ 128.811502911206333, 35.082988825683792 ], [ 128.81852749262103, 35.08300142607213 ], [ 128.818446919885048, 35.08436633150184 ], [ 128.821544940933137, 35.084446320496504 ], [ 128.821537700291373, 35.085846399566577 ], [ 128.826432229206034, 35.086214017059554 ], [ 128.828655810543637, 35.089932809715471 ], [ 128.835201445002099, 35.086212293100033 ], [ 128.835139679251711, 35.067202665619867 ], [ 128.833436466455112, 35.066324847333178 ], [ 128.835123263904109, 35.065836800597921 ], [ 128.835205313021788, 35.063056102525579 ], [ 128.832629279378295, 35.060352406030681 ], [ 128.833936034260432, 35.056302834379217 ], [ 128.83103929853263, 35.054551586140256 ], [ 128.831476246422682, 35.050520011554319 ], [ 128.822225258720692, 35.050378975814333 ], [ 128.817256004827954, 35.047736829528439 ], [ 128.806139123898419, 35.04726218014342 ], [ 128.799766216435216, 35.048334480596687 ], [ 128.797436293777992, 35.051776431143658 ], [ 128.798040878206677, 35.054088736843596 ], [ 128.800599530576164, 35.054972825565692 ], [ 128.805027985485282, 35.055440584974804 ], [ 128.805516304045398, 35.055688746202556 ], [ 128.797134072198702, 35.054646602742558 ], [ 128.796317376269172, 35.053487506497262 ], [ 128.791056709006398, 35.053476605550593 ] ] ] ] } },
{ "type": "Feature", "properties": { "emd_cd": "26440120", "emd_nm": "눌차동" }, "geometry": { "type": "MultiPolygon", "coordinates": [ [ [ [ 128.836389621922052, 35.06689578952308 ], [ 128.837835628974176, 35.074847941537818 ], [ 128.840891086621383, 35.073651665322316 ], [ 128.842321180916997, 35.069497147859288 ], [ 128.855012190392586, 35.069215905424073 ], [ 128.857789054457612, 35.064567788151493 ], [ 128.846827501707054, 35.061076112074225 ], [ 128.848004970127732, 35.062425784071635 ], [ 128.846246546982371, 35.063695783763279 ], [ 128.841029602405058, 35.064547496686103 ], [ 128.839602081690231, 35.066975931913611 ], [ 128.836389621922052, 35.06689578952308 ] ] ] ] } },
{ "type": "Feature", "properties": { "emd_cd": "26440121", "emd_nm": "천성동" }, "geometry": { "type": "MultiPolygon", "coordinates": [ [ [ [ 128.776248953608388, 35.011495317817882 ], [ 128.776132884371691, 35.01107316886231 ], [ 128.775944361522562, 35.011423363503354 ], [ 128.776248953608388, 35.011495317817882 ] ] ], [ [ [ 128.772030224853182, 35.014081664549934 ], [ 128.774274087300427, 35.014499435060287 ], [ 128.775584967502311, 35.011001302607312 ], [ 128.772448897421896, 35.011040496044942 ], [ 128.772030224853182, 35.014081664549934 ] ] ], [ [ [ 128.766521884772374, 35.012104510681397 ], [ 128.767731197111516, 35.015761647332354 ], [ 128.772101300712762, 35.015505176990416 ], [ 128.766521884772374, 35.012104510681397 ] ] ], [ [ [ 128.761970736943425, 35.017810779788562 ], [ 128.762796875506467, 35.016373994664171 ], [ 128.761754292992862, 35.016664075682755 ], [ 128.761970736943425, 35.017810779788562 ] ] ], [ [ [ 128.808569550579875, 35.026989531839767 ], [ 128.809601369711913, 35.03001694103336 ], [ 128.809750567069955, 35.029941497520966 ], [ 128.808569550579875, 35.026989531839767 ] ] ], [ [ [ 128.806283036878796, 35.02439587056957 ], [ 128.813373182902154, 35.023664953914803 ], [ 128.815422939982454, 35.027965996667518 ], [ 128.81430190729904, 35.028071230231525 ], [ 128.815256208626636, 35.02953445459304 ], [ 128.810150204336253, 35.029508207209595 ], [ 128.810394699621895, 35.030334033464399 ], [ 128.807510325848199, 35.031706530628966 ], [ 128.807552017679285, 35.033448949955876 ], [ 128.811533960797533, 35.034117845120299 ], [ 128.812705381458329, 35.038726584088764 ], [ 128.811304322154456, 35.041710730046916 ], [ 128.807479287642479, 35.043869678838114 ], [ 128.806315111947441, 35.047508807728704 ], [ 128.817834822528567, 35.048134309670189 ], [ 128.82535001513935, 35.040468202670404 ], [ 128.840302351374646, 35.035678807114195 ], [ 128.843501548289538, 35.032011000605671 ], [ 128.841704967992115, 35.029440366625522 ], [ 128.843386888249086, 35.025538178339666 ], [ 128.841705210415682, 35.023118581437913 ], [ 128.830899632025904, 35.024280803888992 ], [ 128.825505148322151, 35.022082404722326 ], [ 128.823378859168287, 35.016846464083365 ], [ 128.811375599972536, 35.019727173344968 ], [ 128.810799404121468, 35.022232152886986 ], [ 128.806075387212047, 35.021587937596763 ], [ 128.806283036878796, 35.02439587056957 ] ] ] ] } },
{ "type": "Feature", "properties": { "emd_cd": "26440122", "emd_nm": "대항동" }, "geometry": { "type": "MultiPolygon", "coordinates": [ [ [ [ 128.818507433387765, 35.00407736095999 ], [ 128.82365742864252, 35.005088063911622 ], [ 128.82397583825329, 35.006821065745839 ], [ 128.820227342856555, 35.009042648669393 ], [ 128.827016723993154, 35.010921056011284 ], [ 128.827050574689281, 35.012228252810687 ], [ 128.825095118329187, 35.011766970150809 ], [ 128.82727857072237, 35.013642550034064 ], [ 128.823378859165786, 35.016846464083493 ], [ 128.825505148319507, 35.022082404722454 ], [ 128.834912996660648, 35.02483846828251 ], [ 128.841705210412954, 35.023118581438027 ], [ 128.834518219157843, 35.015336896199656 ], [ 128.834437404534754, 35.010949609225705 ], [ 128.839740471878088, 35.008411392355207 ], [ 128.840609310761494, 35.005236725842309 ], [ 128.837392345108611, 35.000044454162719 ], [ 128.83874368936597, 34.997595426011728 ], [ 128.834196230502215, 34.995355181359564 ], [ 128.834430507696482, 34.992992720269804 ], [ 128.828242193759138, 34.989204929655152 ], [ 128.829598993258287, 34.995511280470957 ], [ 128.822478280001064, 34.994890400176686 ], [ 128.822563462972937, 35.001048918922784 ], [ 128.818507433387765, 35.00407736095999 ] ] ] ] } }
]
}
