{
"type": "FeatureCollection",
"name": "26500",
"crs": { "type": "name", "properties": { "name": "urn:ogc:def:crs:OGC:1.3:CRS84" } },
"features": [
{ "type": "Feature", "properties": { "emd_cd": "26500101", "emd_nm": "망미동" }, "geometry": { "type": "MultiPolygon", "coordinates": [ [ [ [ 129.115377808862291, 35.186749062244019 ], [ 129.121182549763091, 35.172460764323731 ], [ 129.111089695097547, 35.17431581205512 ], [ 129.109464974704139, 35.171216979197766 ], [ 129.107261701045843, 35.171775509151615 ], [ 129.106729393824651, 35.169460397129896 ], [ 129.104466823079292, 35.169370224053445 ], [ 129.102333236414751, 35.163414252245772 ], [ 129.093606380871023, 35.161994000681332 ], [ 129.091559594344631, 35.165482699297755 ], [ 129.097141163041158, 35.171629434763993 ], [ 129.097453310631352, 35.179434898984844 ], [ 129.10624677161664, 35.180436312652247 ], [ 129.107928662391487, 35.177235497784814 ], [ 129.111378750712333, 35.175876872480053 ], [ 129.115381765511131, 35.183337923700037 ], [ 129.115377808862291, 35.186749062244019 ] ] ] ] } },
{ "type": "Feature", "properties": { "emd_cd": "26500102", "emd_nm": "수영동" }, "geometry": { "type": "MultiPolygon", "coordinates": [ [ [ [ 129.111089695097547, 35.17431581205512 ], [ 129.121155619984847, 35.173357880035852 ], [ 129.126663711951693, 35.165722899901709 ], [ 129.120720007140875, 35.168377974934401 ], [ 129.114828728470201, 35.167720776719271 ], [ 129.109464974704139, 35.171216979197766 ], [ 129.111089695097547, 35.17431581205512 ] ] ] ] } },
{ "type": "Feature", "properties": { "emd_cd": "26500103", "emd_nm": "민락동" }, "geometry": { "type": "MultiPolygon", "coordinates": [ [ [ [ 129.131276713475586, 35.15370412632091 ], [ 129.127216594802746, 35.153457777824492 ], [ 129.130177608014264, 35.152352851336694 ], [ 129.124462498084768, 35.152891849962487 ], [ 129.123507890552133, 35.155666105233145 ], [ 129.118100533812679, 35.154944489022981 ], [ 129.120949484382294, 35.158665299926191 ], [ 129.117891795979546, 35.167425472219634 ], [ 129.120720007140875, 35.168377974934401 ], [ 129.128462416039696, 35.164237579700846 ], [ 129.134997365967877, 35.156398595238542 ], [ 129.131276713475586, 35.15370412632091 ] ] ] ] } },
{ "type": "Feature", "properties": { "emd_cd": "26500104", "emd_nm": "광안동" }, "geometry": { "type": "MultiPolygon", "coordinates": [ [ [ [ 129.094909762427278, 35.162176247547933 ], [ 129.102333236414751, 35.163414252245772 ], [ 129.104466823079292, 35.169370224053445 ], [ 129.106729393824651, 35.169460397129896 ], [ 129.107261701045843, 35.171775509151615 ], [ 129.114828728470201, 35.167720776719271 ], [ 129.120278637658572, 35.168307562318226 ], [ 129.117891795979546, 35.167425472219634 ], [ 129.120949484382294, 35.158665299926191 ], [ 129.118100533812679, 35.154944489022981 ], [ 129.119633322454803, 35.154200647415955 ], [ 129.114758797905154, 35.147689042010263 ], [ 129.110345099867601, 35.150775005884718 ], [ 129.106287595951272, 35.150061005971821 ], [ 129.101222898824716, 35.151842720196512 ], [ 129.094909762427278, 35.162176247547933 ] ] ] ] } },
{ "type": "Feature", "properties": { "emd_cd": "26500105", "emd_nm": "남천동" }, "geometry": { "type": "MultiPolygon", "coordinates": [ [ [ [ 129.101222898824716, 35.151842720196512 ], [ 129.106287595951216, 35.150061005971807 ], [ 129.110345099867658, 35.150775005884711 ], [ 129.114709678013867, 35.148116601231209 ], [ 129.114792400890167, 35.146106462989835 ], [ 129.117723387127029, 35.146040176414026 ], [ 129.117586562067459, 35.139950018535146 ], [ 129.111228896217852, 35.135756608566929 ], [ 129.106212297030481, 35.139087961278214 ], [ 129.10215205682394, 35.142690523747952 ], [ 129.103417471612232, 35.144777008468743 ], [ 129.101222898824716, 35.151842720196512 ] ] ] ] } }
]
}
