{
"type": "FeatureCollection",
"name": "26530",
"crs": { "type": "name", "properties": { "name": "urn:ogc:def:crs:OGC:1.3:CRS84" } },
"features": [
{ "type": "Feature", "properties": { "emd_cd": "26530101", "emd_nm": "삼락동" }, "geometry": { "type": "MultiPolygon", "coordinates": [ [ [ [ 128.960637968540482, 35.153817463296278 ], [ 128.962885350401109, 35.164384388683906 ], [ 128.963618026592002, 35.184509899233369 ], [ 128.966320336744701, 35.187899531537546 ], [ 128.977069602832586, 35.193328328138001 ], [ 128.987735599789715, 35.201459888376462 ], [ 128.98911998871219, 35.20011883894513 ], [ 128.987501145467235, 35.193774064207048 ], [ 128.983484195387859, 35.190545439544493 ], [ 128.979317367199343, 35.173534530351262 ], [ 128.981587662530018, 35.173369615539841 ], [ 128.980386644419809, 35.16858052218479 ], [ 128.976648928438436, 35.169582354604728 ], [ 128.974912700996072, 35.160696211285227 ], [ 128.968149720217383, 35.148270514443674 ], [ 128.966761551380841, 35.147960608238826 ], [ 128.960637968540482, 35.153817463296278 ] ] ] ] } },
{ "type": "Feature", "properties": { "emd_cd": "26530102", "emd_nm": "모라동" }, "geometry": { "type": "MultiPolygon", "coordinates": [ [ [ [ 128.981423398381423, 35.182046817787629 ], [ 128.983484195387859, 35.190545439544493 ], [ 128.987501145467235, 35.193774064207048 ], [ 128.987888613091229, 35.195903006343769 ], [ 128.9908302156216, 35.195625053157293 ], [ 128.990449865970447, 35.19389352618574 ], [ 128.993815281942261, 35.195332880062097 ], [ 129.000282691285719, 35.19186508028104 ], [ 129.000436870375779, 35.190200828260259 ], [ 129.00407248427021, 35.190337628863368 ], [ 129.007904900971198, 35.188119621498331 ], [ 129.01719969620973, 35.188837235579079 ], [ 129.02106845122529, 35.187470042328819 ], [ 129.021066262817271, 35.182020382337043 ], [ 129.010572379063262, 35.173570908425276 ], [ 128.99893056901044, 35.175648484394351 ], [ 128.996949439358815, 35.179099164887262 ], [ 128.991828191424901, 35.181501366447229 ], [ 128.981423398381423, 35.182046817787629 ] ] ] ] } },
{ "type": "Feature", "properties": { "emd_cd": "26530103", "emd_nm": "덕포동" }, "geometry": { "type": "MultiPolygon", "coordinates": [ [ [ [ 128.99893056901044, 35.175648484394351 ], [ 128.992122954069345, 35.16765296789228 ], [ 128.980386644419809, 35.16858052218479 ], [ 128.981587662530018, 35.173369615539841 ], [ 128.9793114465337, 35.173508029491373 ], [ 128.981423398381423, 35.182046817787629 ], [ 128.991828191424901, 35.181501366447229 ], [ 128.996949439358815, 35.179099164887262 ], [ 128.99893056901044, 35.175648484394351 ] ] ] ] } },
{ "type": "Feature", "properties": { "emd_cd": "26530104", "emd_nm": "괘법동" }, "geometry": { "type": "MultiPolygon", "coordinates": [ [ [ [ 128.973243479890925, 35.158705182648134 ], [ 128.976648928438436, 35.169582354604728 ], [ 128.983211030775436, 35.167378033248745 ], [ 128.989719556223292, 35.167228401774508 ], [ 128.993577729066999, 35.168454464754078 ], [ 128.99893056901044, 35.175648484394351 ], [ 129.010572379063262, 35.173570908425276 ], [ 129.011035745812507, 35.170823457817711 ], [ 129.008500014837068, 35.169388046311013 ], [ 129.005116607409292, 35.162368810366011 ], [ 128.993785524116248, 35.162788358139068 ], [ 128.991184604026643, 35.159398692923816 ], [ 128.986200053551528, 35.158728055969775 ], [ 128.985755528825024, 35.157100241592843 ], [ 128.974853868835339, 35.160500099610353 ], [ 128.973243479890925, 35.158705182648134 ] ] ] ] } },
{ "type": "Feature", "properties": { "emd_cd": "26530105", "emd_nm": "감전동" }, "geometry": { "type": "MultiPolygon", "coordinates": [ [ [ [ 128.966761551380841, 35.147960608238826 ], [ 128.968757408723519, 35.148962290866379 ], [ 128.974853868835339, 35.160500099610353 ], [ 128.985755528825024, 35.157100241592843 ], [ 128.986200053551528, 35.158728055969775 ], [ 128.991184604026643, 35.159398692923816 ], [ 128.993785524116248, 35.162788358139068 ], [ 128.999312734086459, 35.161906362329333 ], [ 128.998220622470143, 35.159008058280641 ], [ 128.992908741588877, 35.154318471347779 ], [ 128.991715997670354, 35.149626461612307 ], [ 128.976186406820915, 35.151742588229695 ], [ 128.975268181227165, 35.142778939469764 ], [ 128.970499390491938, 35.130272998479718 ], [ 128.96716058537973, 35.134752666288392 ], [ 128.967321137495674, 35.140209985889761 ], [ 128.965668045442754, 35.142659318559097 ], [ 128.966761551380841, 35.147960608238826 ] ] ] ] } },
{ "type": "Feature", "properties": { "emd_cd": "26530106", "emd_nm": "주례동" }, "geometry": { "type": "MultiPolygon", "coordinates": [ [ [ [ 128.999312734082338, 35.161906362329454 ], [ 129.005116607405114, 35.162368810366097 ], [ 129.008500014832862, 35.169388046311134 ], [ 129.011035745808186, 35.170823457817825 ], [ 129.01253947556296, 35.169008363830457 ], [ 129.013225302818995, 35.165905838785193 ], [ 129.010595417362026, 35.158749219474799 ], [ 129.015434426116684, 35.156289138520151 ], [ 129.016882189043201, 35.151787410767774 ], [ 129.016310027330803, 35.147309641758724 ], [ 129.014039985203539, 35.145817350878225 ], [ 129.016235688069457, 35.143359353523607 ], [ 129.012171671392792, 35.137482927400313 ], [ 129.008706019300888, 35.139392441879906 ], [ 128.995506938380288, 35.140759964796224 ], [ 128.993715863068331, 35.145907877448181 ], [ 128.997347103972317, 35.147773142471266 ], [ 128.997579866631355, 35.150024739216548 ], [ 128.99171599766629, 35.149626461612421 ], [ 128.992908741584841, 35.154318471347906 ], [ 128.998220622466022, 35.159008058280783 ], [ 128.999312734082338, 35.161906362329454 ] ] ] ] } },
{ "type": "Feature", "properties": { "emd_cd": "26530107", "emd_nm": "학장동" }, "geometry": { "type": "MultiPolygon", "coordinates": [ [ [ [ 128.971909147851903, 35.132080846018432 ], [ 128.975268181227165, 35.142778939469764 ], [ 128.976186406820915, 35.151742588229695 ], [ 128.989389362585626, 35.149475185206306 ], [ 128.997579866635476, 35.150024739216434 ], [ 128.997347103976409, 35.147773142471124 ], [ 128.993715863072453, 35.145907877448074 ], [ 128.994677217995843, 35.142630419057724 ], [ 128.998438803925353, 35.138716333495708 ], [ 129.00147432407573, 35.138735930115821 ], [ 129.004327065532493, 35.136414537229427 ], [ 129.002492867910433, 35.133842900271048 ], [ 129.005130511258756, 35.13240860605422 ], [ 129.002537840657624, 35.132865826649798 ], [ 129.002883150659557, 35.127791349233526 ], [ 129.004036028263272, 35.128042268607217 ], [ 128.99974971634785, 35.123265075511419 ], [ 128.987803827738674, 35.124308005712372 ], [ 128.98676890520764, 35.129420489046694 ], [ 128.984163264721843, 35.132548674004006 ], [ 128.981178640878738, 35.13264258414295 ], [ 128.975986349321488, 35.136168802493088 ], [ 128.973545760534506, 35.135180646679224 ], [ 128.971909147851903, 35.132080846018432 ] ] ] ] } },
{ "type": "Feature", "properties": { "emd_cd": "26530108", "emd_nm": "엄궁동" }, "geometry": { "type": "MultiPolygon", "coordinates": [ [ [ [ 128.962230729060508, 35.136831164906773 ], [ 128.959640574351425, 35.136646476249744 ], [ 128.960637968540482, 35.153817463296278 ], [ 128.966761551380841, 35.147960608238826 ], [ 128.965668045442754, 35.142659318559097 ], [ 128.967321137495674, 35.140209985889761 ], [ 128.96815084139908, 35.132038589838842 ], [ 128.970499390491938, 35.130272998479718 ], [ 128.974928410946518, 35.136455838676795 ], [ 128.976807631042988, 35.135867557863179 ], [ 128.981178640878738, 35.13264258414295 ], [ 128.984163264721843, 35.132548674004006 ], [ 128.98676890520764, 35.129420489046694 ], [ 128.987803827738674, 35.124308005712372 ], [ 128.98006695627663, 35.117106997687308 ], [ 128.975883374794989, 35.117054179403922 ], [ 128.963692457798061, 35.121928892206924 ], [ 128.959452081469351, 35.117718051670245 ], [ 128.957468780760308, 35.124315670192324 ], [ 128.962230729060508, 35.136831164906773 ] ] ] ] } }
]
}
